{"type":"FeatureCollection","features":[{"type":"Feature","properties":{"name":"Alexander Hamilton U.S. Custom House","tel":"(212) 514-3700","url":"http://www.oldnycustomhouse.gov/","address":"1 Bowling Grn","city":"New York","zip":"10004","boro":"Manhattan","cd":"101","cb":"MNCB1","approx":false},"geometry":{"type":"Point","coordinates":[-74.013756,40.703816]}},{"type":"Feature","properties":{"name":"Alice Austen House Museum","tel":"(718) 816-4506","url":"http://www.aliceausten.org/","address":"2 Hylan Blvd","city":"Staten Island","zip":"10305","boro":"Staten Island","cd":"501","cb":"SICB1","approx":false},"geometry":{"type":"Point","coordinates":[-74.063032,40.615121]}},{"type":"Feature","properties":{"name":"American Academy of Arts and Letters","tel":"(212) 368-5900","url":"http://www.artsandletters.org/","address":"633 W. 155th St.","city":"New York","zip":"10032","boro":"Manhattan","cd":"112","cb":"MNCB12","approx":false},"geometry":{"type":"Point","coordinates":[-73.947298,40.833854]}},{"type":"Feature","properties":{"name":"American Folk Art Museum","tel":"(212) 265-1040","url":"http://www.folkartmuseum.org/","address":"45 West 53rd Street","city":"New York","zip":"10019","boro":"Manhattan","cd":"105","cb":"MNCB5","approx":false},"geometry":{"type":"Point","coordinates":[-73.978103,40.761625]}},{"type":"Feature","properties":{"name":"American Immigration History Center","tel":"(212) 363-3200","url":"http://www.ellisisland.org/","address":"Ellis Island","city":"New York","zip":"","boro":"Manhattan","cd":"101","cb":"MNCB1","approx":false},"geometry":{"type":"Point","coordinates":[-74.039685,40.699056]}},{"type":"Feature","properties":{"name":"American Museum of Natural History","tel":"(212) 769-5100","url":"http://www.amnh.org/","address":"Central Park West at 79th Street","city":"New York","zip":"10024","boro":"Manhattan","cd":"107","cb":"MNCB7","approx":false},"geometry":{"type":"Point","coordinates":[-73.973648,40.780826]}},{"type":"Feature","properties":{"name":"American Numismatic Society","tel":"(212) 571-4470","url":"http://www.numismatics.org/","address":"75 Varick St, 11th Floor","city":"New York","zip":"10013","boro":"Manhattan","cd":"102","cb":"MNCB2","approx":false},"geometry":{"type":"Point","coordinates":[-74.007012,40.723527]}},{"type":"Feature","properties":{"name":"Americas Society","tel":"(212) 249-8950","url":"http://as.americas-society.org/","address":"680 Park Ave.","city":"New York","zip":"10021","boro":"Manhattan","cd":"108","cb":"MNCB8","approx":false},"geometry":{"type":"Point","coordinates":[-73.96597,40.768824]}},{"type":"Feature","properties":{"name":"Anne Frank Center USA","tel":"(212) 431-7993","url":"http://www.annefrank.com/","address":"38 Crosby Street, 5th Floor","city":"New York","zip":"10012","boro":"Manhattan","cd":"102","cb":"MNCB2","approx":false},"geometry":{"type":"Point","coordinates":[-73.99963,40.721127]}},{"type":"Feature","properties":{"name":"Asia Society","tel":"(212) 288-6400","url":"http://www.asiasociety.org/","address":"725 Park Avenue","city":"New York","zip":"10021","boro":"Manhattan","cd":"108","cb":"MNCB8","approx":false},"geometry":{"type":"Point","coordinates":[-73.964284,40.769834]}},{"type":"Feature","properties":{"name":"Audubon Terrace","tel":"","url":"http://www.washington-heights.us/history/archives/audubon_terrace_museum_group_102.html","address":"Broadway at 155 Street","city":"New York","zip":"10032","boro":"Manhattan","cd":"112","cb":"MNCB12","approx":false},"geometry":{"type":"Point","coordinates":[-73.946546,40.833582]}},{"type":"Feature","properties":{"name":"Bartow-Pell Mansion","tel":"(718) 885-1461","url":"http://bartowpellmansionmuseum.org/index.php","address":"895 Shore Road, Pelham Bay Park","city":"Bronx","zip":"10464","boro":"Bronx","cd":"228","cb":"BXCB28","approx":false},"geometry":{"type":"Point","coordinates":[-73.805579,40.871778]}},{"type":"Feature","properties":{"name":"Bowne House","tel":"(718) 359-0528","url":"http://www.bownehouse.org/","address":"37-01 Bowne Street","city":"Queens","zip":"11354","boro":"Queens","cd":"407","cb":"QNSCB7","approx":false},"geometry":{"type":"Point","coordinates":[-73.82489,40.762886]}},{"type":"Feature","properties":{"name":"Bronx Historical Society & Musem","tel":"(718) 881-8900","url":"http://www.bronxhistoricalsociety.org/","address":"3309 Bainbridge Ave","city":"Bronx","zip":"10467","boro":"Bronx","cd":"207","cb":"BXCB7","approx":false},"geometry":{"type":"Point","coordinates":[-73.879749,40.878236]}},{"type":"Feature","properties":{"name":"Bronx Museum of the Arts (BXMA)","tel":"(718) 681-6000","url":"http://www.bronxmuseum.org/","address":"1040 Grand Concourse","city":"Bronx","zip":"10456","boro":"Bronx","cd":"204","cb":"BXCB4","approx":false},"geometry":{"type":"Point","coordinates":[-73.91975,40.83103]}},{"type":"Feature","properties":{"name":"Brooklyn Children's Museum","tel":"(718) 735-4400","url":"http://www.brooklynkids.org/","address":"145 Brooklyn Avenue","city":"Brooklyn","zip":"11213","boro":"Brooklyn","cd":"308","cb":"BKCB8","approx":false},"geometry":{"type":"Point","coordinates":[-73.944016,40.674507]}},{"type":"Feature","properties":{"name":"Brooklyn Historical Society","tel":"(718) 222-4111","url":"http://www.brooklynhistory.org/default/index.html","address":"128 Pierrepont Street","city":"Brooklyn","zip":"11201","boro":"Brooklyn","cd":"302","cb":"BKCB2","approx":false},"geometry":{"type":"Point","coordinates":[-73.992405,40.694803]}},{"type":"Feature","properties":{"name":"Brooklyn Museum","tel":"(718) 638-5000","url":"http://www.brooklynmuseum.org/","address":"200 Eastern Parkway","city":"Brooklyn","zip":"11238","boro":"Brooklyn","cd":"355","cb":"BKCB55","approx":false},"geometry":{"type":"Point","coordinates":[-73.963585,40.671083]}},{"type":"Feature","properties":{"name":"Chelsea Art Museum","tel":"(212) 255-0719","url":"http://www.chelseaartmuseum.org/","address":"556 West 22nd Street","city":"New York","zip":"10011","boro":"Manhattan","cd":"104","cb":"MNCB4","approx":false},"geometry":{"type":"Point","coordinates":[-74.007316,40.747898]}},{"type":"Feature","properties":{"name":"Children's Museum of Manhattan","tel":"(212) 721-1234","url":"http://www.cmom.org/","address":"212 West 83rd Street","city":"New York","zip":"10024","boro":"Manhattan","cd":"107","cb":"MNCB7","approx":false},"geometry":{"type":"Point","coordinates":[-73.977274,40.785871]}},{"type":"Feature","properties":{"name":"Children's Museum of the Arts","tel":"(212) 274-0986","url":"http://cmany.org/intro.php?pn=home","address":"182 Lafayette Street","city":"New York","zip":"10012","boro":"Manhattan","cd":"102","cb":"MNCB2","approx":false},"geometry":{"type":"Point","coordinates":[-73.998838,40.720749]}},{"type":"Feature","properties":{"name":"Cloisters","tel":"(212) 923-3700","url":"http://www.metmuseum.org/cloisters/","address":"99 Margaret Corbin Drive","city":"New York","zip":"10040","boro":"Manhattan","cd":"112","cb":"MNCB12","approx":false},"geometry":{"type":"Point","coordinates":[-73.931734,40.864924]}},{"type":"Feature","properties":{"name":"Coney Island Museum","tel":"(718) 372-5159","url":"http://www.coneyisland.com/","address":"1208 Surf Ave","city":"Brooklyn","zip":"11224","boro":"Brooklyn","cd":"313","cb":"BKCB13","approx":false},"geometry":{"type":"Point","coordinates":[-73.979856,40.575263]}},{"type":"Feature","properties":{"name":"Cooper-Hewitt, National Design Museum","tel":"(212) 849-8400","url":"http://www.cooperhewitt.org/","address":"2 East 91st Street","city":"New York","zip":"10128","boro":"Manhattan","cd":"108","cb":"MNCB8","approx":false},"geometry":{"type":"Point","coordinates":[-73.957782,40.784326]}},{"type":"Feature","properties":{"name":"Dahesh Museum","tel":"(212) 759-0606","url":"http://www.daheshmuseum.org","address":"580 Madison Avenue","city":"New York","zip":"10022","boro":"Manhattan","cd":"105","cb":"MNCB5","approx":false},"geometry":{"type":"Point","coordinates":[-73.973042,40.762107]}},{"type":"Feature","properties":{"name":"Dia at the Hispanic Society","tel":"(845) 440-0100","url":"http://www.diabeacon.org/","address":"613 West 155th Street","city":"New York","zip":"10032","boro":"Manhattan","cd":"112","cb":"MNCB12","approx":false},"geometry":{"type":"Point","coordinates":[-73.946493,40.833302]}},{"type":"Feature","properties":{"name":"Dia Art Foundation","tel":"(212) 989 5566","url":"http://www.diacenter.org/","address":"535 W 22nd Street","city":"New York","zip":"10011","boro":"Manhattan","cd":"104","cb":"MNCB4","approx":false},"geometry":{"type":"Point","coordinates":[-74.006135,40.747895]}},{"type":"Feature","properties":{"name":"Discovery Times Square Exposition","tel":"(866) 987-9692","url":"http://www.discoverytsx.com/nyc/","address":"226 W 44th St","city":"New York","zip":"1036","boro":"Manhattan","cd":"105","cb":"MNCB5","approx":false},"geometry":{"type":"Point","coordinates":[-73.987319,40.757501]}},{"type":"Feature","properties":{"name":"Drawing Center","tel":"(212) 219-2166","url":"http://www.drawingcenter.org/about_visit.cfm","address":"35 Wooster St.","city":"New York","zip":"10013","boro":"Manhattan","cd":"102","cb":"MNCB2","approx":false},"geometry":{"type":"Point","coordinates":[-74.002904,40.722451]}},{"type":"Feature","properties":{"name":"Dyckman Farmhouse","tel":"(212) 304-9422","url":"http://www.dyckmanfarmhouse.org/","address":"4881 Broadway","city":"New York","zip":"10034","boro":"Manhattan","cd":"112","cb":"MNCB12","approx":false},"geometry":{"type":"Point","coordinates":[-73.923839,40.867131]}},{"type":"Feature","properties":{"name":"East Village History Project","tel":"(212) 614-8702","url":"http://leshp.org/","address":"308 Bowery","city":"New York","zip":"10012","boro":"Manhattan","cd":"102","cb":"MNCB2","approx":false},"geometry":{"type":"Point","coordinates":[-73.992723,40.72496]}},{"type":"Feature","properties":{"name":"El Museo del Barrio","tel":"(212) 831-7272","url":"http://www.elmuseo.org/","address":"1230 Fifth Ave","city":"New York","zip":"10029","boro":"Manhattan","cd":"111","cb":"MNCB11","approx":false},"geometry":{"type":"Point","coordinates":[-73.951368,40.793099]}},{"type":"Feature","properties":{"name":"Ellis Island Museum","tel":"(212) 363-3200","url":"http://www.ellisisland.org/","address":"Ellis Island","city":"New York","zip":"","boro":"Manhattan","cd":"101","cb":"MNCB1","approx":true},"geometry":{"type":"Point","coordinates":[-74.041322,40.698208]}},{"type":"Feature","properties":{"name":"Fraunces Tavern Museum","tel":"(212) 425-1778","url":"http://www.frauncestavernmuseum.org/","address":"54 Pearl Street","city":"New York","zip":"10004","boro":"Manhattan","cd":"101","cb":"MNCB1","approx":false},"geometry":{"type":"Point","coordinates":[-74.011339,40.703399]}},{"type":"Feature","properties":{"name":"Frick Collection","tel":"(212) 288-0700","url":"http://www.frick.org/","address":"1 E. 70th Street","city":"New York","zip":"10021","boro":"Manhattan","cd":"108","cb":"MNCB8","approx":false},"geometry":{"type":"Point","coordinates":[-73.96708,40.771055]}},{"type":"Feature","properties":{"name":"Garibaldi-Meucci Museum","tel":"(718) 442-1608","url":"http://statenislandusa.com/pages/garibaldi.html","address":"420 Tompkins Avenue","city":"Staten Island","zip":"10305","boro":"Staten Island","cd":"501","cb":"SICB1","approx":false},"geometry":{"type":"Point","coordinates":[-74.073878,40.615165]}},{"type":"Feature","properties":{"name":"Goethe-Institut New York","tel":"(212) 439-8700","url":"http://www.goethe.de/ins/us/ney/deindex.htm","address":"1014 Fifth Avenue","city":"New York","zip":"10028","boro":"Manhattan","cd":"108","cb":"MNCB8","approx":false},"geometry":{"type":"Point","coordinates":[-73.961742,40.779166]}},{"type":"Feature","properties":{"name":"Gracie Mansion","tel":"(212)-570-4751","url":"http://www.nyc.gov/html/om/html/gracie.html","address":"89th Street at East End Avenue, Carl Schurz Park","city":"New York","zip":"10128","boro":"Manhattan","cd":"108","cb":"MNCB8","approx":false},"geometry":{"type":"Point","coordinates":[-73.943068,40.776113]}},{"type":"Feature","properties":{"name":"Hall Of Fame For Great Americans","tel":"(718) 289-5161","url":"http://www.bcc.cuny.edu/hallofFame/","address":"Hall of Fame Terrace & Sedgwick Avenue","city":"Bronx","zip":"10453","boro":"Bronx","cd":"205","cb":"BXCB5","approx":false},"geometry":{"type":"Point","coordinates":[-73.91398,40.858747]}},{"type":"Feature","properties":{"name":"Harbor Defense Museum of Fort Hamilton","tel":"(718) 630-4349","url":"http://www.harbordefensemuseum.com/","address":"230 Sheridan Loop","city":"Brooklyn","zip":"11252","boro":"Brooklyn","cd":"310","cb":"BKCB10","approx":false},"geometry":{"type":"Point","coordinates":[-74.032311,40.609009]}},{"type":"Feature","properties":{"name":"Hispanic Society of America Museum","tel":"(212) 926-2234","url":"http://www.hispanicsociety.org/","address":"613 West 155th Street","city":"New York","zip":"10032","boro":"Manhattan","cd":"112","cb":"MNCB12","approx":false},"geometry":{"type":"Point","coordinates":[-73.946823,40.833452]}},{"type":"Feature","properties":{"name":"Holocaust Museum & Studies Center","tel":"(718) 817-7700","url":"http://www.holocauststudies.org/","address":"75 W 205th St","city":"Bronx","zip":"10468","boro":"Bronx","cd":"207","cb":"BXCB7","approx":false},"geometry":{"type":"Point","coordinates":[-73.890988,40.878358]}},{"type":"Feature","properties":{"name":"Hudson Waterfront Museum and Showboat Barge","tel":"(718) 624-4719","url":"http://www.waterfrontmuseum.org/","address":"290 Conover St.","city":"Brooklyn","zip":"11231","boro":"Brooklyn","cd":"306","cb":"BKCB6","approx":false},"geometry":{"type":"Point","coordinates":[-74.018087,40.675572]}},{"type":"Feature","properties":{"name":"International Center of Photography","tel":"(212) 857-0000","url":"http://www.icp.org/","address":"1133 Avenue Of The Americas","city":"New York","zip":"10036","boro":"Manhattan","cd":"105","cb":"MNCB5","approx":false},"geometry":{"type":"Point","coordinates":[-73.983837,40.756021]}},{"type":"Feature","properties":{"name":"Intrepid Sea-Air-Space Museum","tel":"(212) 245-0072","url":"http://www.intrepidmuseum.org/","address":"Pier 86 12th Ave. & 46th Street","city":"New York","zip":"10036","boro":"Manhattan","cd":"104","cb":"MNCB4","approx":true},"geometry":{"type":"Point","coordinates":[-74.000892,40.764783]}},{"type":"Feature","properties":{"name":"Isamu Noguchi Garden Museum","tel":"(718) 204-7088","url":"http://www.noguchi.org/","address":"32-37 Vernon Boulevard","city":"Long Island City","zip":"11106","boro":"Queens","cd":"401","cb":"QNSCB1","approx":false},"geometry":{"type":"Point","coordinates":[-73.937655,40.766957]}},{"type":"Feature","properties":{"name":"Italian American Museum","tel":"(212) 965-9000","url":"http://www.italianamericanmuseum.org/","address":"155 Mulberry St.","city":"New York","zip":"10013","boro":"Manhattan","cd":"102","cb":"MNCB2","approx":false},"geometry":{"type":"Point","coordinates":[-73.997494,40.719195]}},{"type":"Feature","properties":{"name":"Jackie Robinson Museum","tel":"(212) 290-8600","url":"http://www.jackierobinson.org/","address":"1 Hudson Square, 75 Varick Street 2nd Floor","city":"New York","zip":"10013","boro":"Manhattan","cd":"102","cb":"MNCB2","approx":false},"geometry":{"type":"Point","coordinates":[-74.006642,40.723351]}},{"type":"Feature","properties":{"name":"Jacques Marchais Center Museum of Tibetan Art","tel":"(718) 987-3500","url":"http://www.tibetanmuseum.org/","address":"338 Lighthouse Avenue","city":"Staten Island","zip":"10306","boro":"Staten Island","cd":"502","cb":"SICB2","approx":false},"geometry":{"type":"Point","coordinates":[-74.138123,40.576313]}},{"type":"Feature","properties":{"name":"Jeffrey's Hook lighthouse (Little Red Lighthouse)","tel":"(212) 304-2365","url":"http://www.nycgovparks.org/sub_about/parks_divisions/historic_houses/hh_little_red_light.html","address":"178th Street at the Hudson River","city":"New York","zip":"10033","boro":"Manhattan","cd":"112","cb":"MNCB12","approx":false},"geometry":{"type":"Point","coordinates":[-73.946945,40.85022]}},{"type":"Feature","properties":{"name":"Jewish Museum","tel":"(212) 423-3200","url":"http://www.thejewishmuseum.org/index.php","address":"1109 Fifth Ave","city":"New York","zip":"10128","boro":"Manhattan","cd":"108","cb":"MNCB8","approx":false},"geometry":{"type":"Point","coordinates":[-73.957187,40.785402]}},{"type":"Feature","properties":{"name":"John J. Harvey Fireboat","tel":"","url":"http://www.fireboat.org/","address":"Pier 66 at West 26th Street","city":"New York","zip":"10001","boro":"Manhattan","cd":"104","cb":"MNCB4","approx":true},"geometry":{"type":"Point","coordinates":[-74.009655,40.75233]}},{"type":"Feature","properties":{"name":"King Manor Museum","tel":"(718) 206-0545","url":"http://www.kingmanor.org/","address":"152-01 Jamaica Avenue","city":"Queens","zip":"11432","boro":"Queens","cd":"412","cb":"QNSCB12","approx":false},"geometry":{"type":"Point","coordinates":[-73.803761,40.703042]}},{"type":"Feature","properties":{"name":"Kingsland Homestead","tel":"(718) 206-0545","url":"http://www.queenshistoricalsociety.org/kingsland.html","address":"143-35 37th Avenue","city":"Queens","zip":"11354","boro":"Queens","cd":"407","cb":"QNSCB7","approx":false},"geometry":{"type":"Point","coordinates":[-73.824156,40.763596]}},{"type":"Feature","properties":{"name":"LaGuardia and Wagner Archives","tel":"(718) 482-5065","url":"http://www.laguardiawagnerarchive.lagcc.cuny.edu/defaultc.htm","address":"31-10 Thomson Ave., Fiorello H. LaGuardia Community College/CUNY Room E-238","city":"Queens","zip":"11101","boro":"Queens","cd":"402","cb":"QNSCB2","approx":false},"geometry":{"type":"Point","coordinates":[-73.935146,40.74396]}},{"type":"Feature","properties":{"name":"Lee Young Hee Museum of Korean Culture","tel":"(212) 560-0722","url":"http://www.lyhkm.org/","address":"2 West 32nd Street, Suite 301","city":"New York","zip":"10001","boro":"Manhattan","cd":"105","cb":"MNCB5","approx":false},"geometry":{"type":"Point","coordinates":[-73.986188,40.747197]}},{"type":"Feature","properties":{"name":"Lefferts Historic House","tel":"(718) 789-2822","url":"http://www.prospectpark.org/visit/places/lefferts","address":"Prospect Park Willink Entrance, Flatbush and Ocean Avenues and Empire Boulevard","city":"Brooklyn","zip":"11215","boro":"Brooklyn","cd":"355","cb":"BKCB55","approx":false},"geometry":{"type":"Point","coordinates":[-73.963814,40.66438]}},{"type":"Feature","properties":{"name":"Madame Tussauds Wax Museum","tel":"(800) 246-8872","url":"http://www.madametussauds.com/NewYork/","address":"234 W. 42nd Street","city":"New York","zip":"10036","boro":"Manhattan","cd":"105","cb":"MNCB5","approx":false},"geometry":{"type":"Point","coordinates":[-73.988702,40.756318]}},{"type":"Feature","properties":{"name":"Merchant's House Museum","tel":"(212) 777-1089","url":"http://www.merchantshouse.com/","address":"29 East Fourth Street","city":"New York","zip":"10003","boro":"Manhattan","cd":"102","cb":"MNCB2","approx":false},"geometry":{"type":"Point","coordinates":[-73.992346,40.727657]}},{"type":"Feature","properties":{"name":"Metropolitan Museum of Art (MET)","tel":"(212) 535-7710","url":"http://www.metmuseum.org/","address":"1000 Fifth Avenue","city":"New York","zip":"10028","boro":"Manhattan","cd":"108","cb":"MNCB8","approx":true},"geometry":{"type":"Point","coordinates":[-73.963451,40.779424]}},{"type":"Feature","properties":{"name":"Mexican Cultural Institute of New York","tel":"(212) 217-6422","url":"http://www.lavitrina.com/","address":"27 E. 39th St.","city":"New York","zip":"10016","boro":"Manhattan","cd":"106","cb":"MNCB6","approx":false},"geometry":{"type":"Point","coordinates":[-73.979881,40.750784]}},{"type":"Feature","properties":{"name":"Morgan Library and Museum","tel":"(212) 685-0008","url":"http://www.themorgan.org/home.asp","address":"225 Madison Avenue","city":"New York","zip":"10016","boro":"Manhattan","cd":"106","cb":"MNCB6","approx":false},"geometry":{"type":"Point","coordinates":[-73.981321,40.749295]}},{"type":"Feature","properties":{"name":"Morris-Jumel Mansion","tel":"(212) 923-8008","url":"http://www.morrisjumel.org/","address":"65 Jumel Terrace","city":"New York","zip":"10032","boro":"Manhattan","cd":"112","cb":"MNCB12","approx":false},"geometry":{"type":"Point","coordinates":[-73.938574,40.834448]}},{"type":"Feature","properties":{"name":"Mount Vernon Hotel Museum & Garden","tel":"(212) 838-6878","url":"http://www.mvhm.org/","address":"421 East 61 Street","city":"New York","zip":"10021","boro":"Manhattan","cd":"108","cb":"MNCB8","approx":false},"geometry":{"type":"Point","coordinates":[-73.959711,40.760526]}},{"type":"Feature","properties":{"name":"Municipal Art Society","tel":"(212) 935-3960","url":"http://mas.org/","address":"457 Madison Avenue","city":"New York","zip":"10022","boro":"Manhattan","cd":"105","cb":"MNCB5","approx":false},"geometry":{"type":"Point","coordinates":[-73.975,40.758248]}},{"type":"Feature","properties":{"name":"Museum for African Art","tel":"(718) 784-7700","url":"http://www.africanart.org/","address":"36-01 43rd Avenue, 3rd Floor","city":"Queens","zip":"11101","boro":"Queens","cd":"402","cb":"QNSCB2","approx":false},"geometry":{"type":"Point","coordinates":[-73.928224,40.746342]}},{"type":"Feature","properties":{"name":"Museum of American Finance","tel":"(212) 908-4110","url":"http://www.moaf.org/index","address":"48 Wall Street","city":"New York","zip":"10005","boro":"Manhattan","cd":"101","cb":"MNCB1","approx":false},"geometry":{"type":"Point","coordinates":[-74.009122,40.706485]}},{"type":"Feature","properties":{"name":"Museum of American Illustration","tel":"(212) 838-2560","url":"http://societyillustrators.org/museum/index.cms","address":"128 E. 63d St.","city":"New York","zip":"10021","boro":"Manhattan","cd":"108","cb":"MNCB8","approx":false},"geometry":{"type":"Point","coordinates":[-73.9669,40.764716]}},{"type":"Feature","properties":{"name":"Museum of Arts & Design (MAD)","tel":"(212) 299-7777","url":"http://www.madmuseum.org/","address":"2 Columbus Circle","city":"New York","zip":"10019","boro":"Manhattan","cd":"105","cb":"MNCB5","approx":false},"geometry":{"type":"Point","coordinates":[-73.982007,40.767406]}},{"type":"Feature","properties":{"name":"Museum of Biblical Art","tel":"(212) 408-1200","url":"http://www.mobia.org/","address":"1865 Broadway","city":"New York","zip":"10023","boro":"Manhattan","cd":"107","cb":"MNCB7","approx":false},"geometry":{"type":"Point","coordinates":[-73.982726,40.770252]}},{"type":"Feature","properties":{"name":"Museum Of Chinese In America","tel":"(212) 619-4785","url":"http://www.mocanyc.org/","address":"215 Centre Street","city":"New York","zip":"10013","boro":"Manhattan","cd":"102","cb":"MNCB2","approx":false},"geometry":{"type":"Point","coordinates":[-73.999192,40.719454]}},{"type":"Feature","properties":{"name":"Museum of Comic and Cartoon Art (MoCCA)","tel":"(212) 254 3511","url":"http://www.moccany.org/","address":"594 Broadway, Suite 401","city":"New York","zip":"10012","boro":"Manhattan","cd":"102","cb":"MNCB2","approx":false},"geometry":{"type":"Point","coordinates":[-73.996702,40.724798]}},{"type":"Feature","properties":{"name":"Museum of Contemporary African Diasporan Arts (MoCADA)","tel":"(718) 230-0492","url":"http://www.mocada.org/","address":"80 Hanson Place","city":"Brooklyn","zip":"11217","boro":"Brooklyn","cd":"302","cb":"BKCB2","approx":false},"geometry":{"type":"Point","coordinates":[-73.974425,40.685245]}},{"type":"Feature","properties":{"name":"Museum of Jewish Heritage","tel":"(646) 437-4200","url":"http://www.mjhnyc.org/index.htm","address":"36 Battery Place","city":"New York","zip":"10280","boro":"Manhattan","cd":"101","cb":"MNCB1","approx":false},"geometry":{"type":"Point","coordinates":[-74.018586,40.705987]}},{"type":"Feature","properties":{"name":"Museum of Modern Art (MoMA)","tel":"(212) 708-9400","url":"http://www.moma.org/","address":"11 West 53rd Street","city":"New York","zip":"10019","boro":"Manhattan","cd":"105","cb":"MNCB5","approx":false},"geometry":{"type":"Point","coordinates":[-73.977004,40.761187]}},{"type":"Feature","properties":{"name":"Museum of the City of New York","tel":"(212) 534-1672","url":"http://www.mcny.org","address":"1220 Fifth Avenue","city":"New York","zip":"10029","boro":"Manhattan","cd":"111","cb":"MNCB11","approx":false},"geometry":{"type":"Point","coordinates":[-73.951917,40.792509]}},{"type":"Feature","properties":{"name":"Museum of the Moving Image","tel":"(718) 784-4520","url":"http://www.movingimage.us/site/site.php","address":"35 Avenue at 36 Street","city":"Queens","zip":"11106","boro":"Queens","cd":"401","cb":"QNSCB1","approx":false},"geometry":{"type":"Point","coordinates":[-73.92451,40.756944]}},{"type":"Feature","properties":{"name":"National Academy Museum","tel":"(212) 369-4880","url":"https://nationalacademy.org/index.asp","address":"1083 5th Avenue","city":"New York","zip":"10128","boro":"Manhattan","cd":"108","cb":"MNCB8","approx":false},"geometry":{"type":"Point","coordinates":[-73.958492,40.783613]}},{"type":"Feature","properties":{"name":"National Lighthouse Museum","tel":"(718) 556-1681","url":"http://statenislandusa.com/pages/lighthouse.html","address":"1 Lighthouse Plaza","city":"Staten Island","zip":"10301","boro":"Staten Island","cd":"501","cb":"SICB1","approx":false},"geometry":{"type":"Point","coordinates":[-74.073737,40.640949]}},{"type":"Feature","properties":{"name":"National Museum of the American Indian","tel":"(212) 514-3700","url":"http://www.nmai.si.edu/","address":"1 Bowling Green","city":"New York","zip":"10004","boro":"Manhattan","cd":"101","cb":"MNCB1","approx":false},"geometry":{"type":"Point","coordinates":[-74.013727,40.704321]}},{"type":"Feature","properties":{"name":"National September 11 Memorial & Museum at the World Trade Center","tel":"(212) 227-7722","url":"http://www.911memorial.org/","address":"1 Liberty Plaza, 20th Floor","city":"New York","zip":"10006","boro":"Manhattan","cd":"101","cb":"MNCB1","approx":false},"geometry":{"type":"Point","coordinates":[-74.010916,40.709654]}},{"type":"Feature","properties":{"name":"Neue Galerie New York","tel":"(212) 628-6200","url":"http://www.neuegalerie.org/","address":"1048 Fifth Avenue","city":"New York","zip":"10028","boro":"Manhattan","cd":"108","cb":"MNCB8","approx":false},"geometry":{"type":"Point","coordinates":[-73.960248,40.781242]}},{"type":"Feature","properties":{"name":"New Museum of Contemporary Art","tel":"(212) 219-1222","url":"http://www.newmuseum.org/","address":"235 Bowery","city":"New York","zip":"10002","boro":"Manhattan","cd":"103","cb":"MNCB3","approx":false},"geometry":{"type":"Point","coordinates":[-73.992839,40.722347]}},{"type":"Feature","properties":{"name":"New York City Fire Museum","tel":"(212) 691-1303","url":"http://www.nycfiremuseum.org/","address":"278 Spring Street","city":"New York","zip":"10012","boro":"Manhattan","cd":"102","cb":"MNCB2","approx":false},"geometry":{"type":"Point","coordinates":[-74.006934,40.725572]}},{"type":"Feature","properties":{"name":"New York City Police Museum","tel":"(212) 480-3100","url":"http://www.nycpolicemuseum.org/","address":"100 Old Slip","city":"New York","zip":"10038","boro":"Manhattan","cd":"101","cb":"MNCB1","approx":false},"geometry":{"type":"Point","coordinates":[-74.008118,40.703478]}},{"type":"Feature","properties":{"name":"New York Hall of Science","tel":"(718) 699-0005","url":"http://www.nysci.org/","address":"47-01 111th Street","city":"Queens","zip":"11368","boro":"Queens","cd":"404","cb":"QNSCB4","approx":true},"geometry":{"type":"Point","coordinates":[-73.851687,40.747148]}},{"type":"Feature","properties":{"name":"New York Historical Society","tel":"(212) 873-3400","url":"https://www.nyhistory.org/web/","address":"2 West 77th Street","city":"New York","zip":"10024","boro":"Manhattan","cd":"107","cb":"MNCB7","approx":false},"geometry":{"type":"Point","coordinates":[-73.974258,40.779273]}},{"type":"Feature","properties":{"name":"New York Tolerance Center","tel":"(212) 697-1180","url":"http://www.kintera.org/site/pp.asp?c=fwLYKnN8LzH&b=242506","address":"50 E 42nd St","city":"New York","zip":"10017","boro":"Manhattan","cd":"105","cb":"MNCB5","approx":false},"geometry":{"type":"Point","coordinates":[-73.979124,40.752423]}},{"type":"Feature","properties":{"name":"New York Transit Museum","tel":"(718) 694-4915","url":"http://www.mta.info/mta/museum/","address":"Boerum Pl. & Schermenhorn Street","city":"Brooklyn","zip":"","boro":"Brooklyn","cd":"302","cb":"BKCB2","approx":false},"geometry":{"type":"Point","coordinates":[-73.990026,40.690524]}},{"type":"Feature","properties":{"name":"Nicholas Roerich Museum","tel":"(212) 864-7752","url":"http://www.roerich.org/","address":"319 West 107 Street","city":"New York","zip":"10025","boro":"Manhattan","cd":"107","cb":"MNCB7","approx":false},"geometry":{"type":"Point","coordinates":[-73.969022,40.802914]}},{"type":"Feature","properties":{"name":"Noble Maritime Collection","tel":"(718) 447-6490","url":"http://www.noblemaritime.org/","address":"1000 Richmond Terrace","city":"Staten Island","zip":"10301","boro":"Staten Island","cd":"501","cb":"SICB1","approx":false},"geometry":{"type":"Point","coordinates":[-74.101772,40.644312]}},{"type":"Feature","properties":{"name":"Old Stone House","tel":"(718) 768-3195","url":"http://www.theoldstonehouse.org/","address":"326 5th Avenue","city":"Brooklyn","zip":"11215","boro":"Brooklyn","cd":"306","cb":"BKCB6","approx":false},"geometry":{"type":"Point","coordinates":[-73.984619,40.672993]}},{"type":"Feature","properties":{"name":"P.S. 1 Contemporary Art Center","tel":"(718) 784-2084","url":"http://www.ps1.org/","address":"22-25 Jackson Ave.","city":"Queens","zip":"11101","boro":"Queens","cd":"402","cb":"QNSCB2","approx":false},"geometry":{"type":"Point","coordinates":[-73.946212,40.745839]}},{"type":"Feature","properties":{"name":"Paley Center For Media (formerly Museum Of Television & Radio)","tel":"(212) 621-6800","url":"http://www.paleycenter.org/","address":"25 West 52 Street","city":"New York","zip":"10019","boro":"Manhattan","cd":"105","cb":"MNCB5","approx":false},"geometry":{"type":"Point","coordinates":[-73.977602,40.760574]}},{"type":"Feature","properties":{"name":"Queens Art Museum - Bulova Corporate Center","tel":"(516) 624-1910","url":"http://www.bdg.net/properties/1/","address":"75-20 Astoria Blvd.","city":"Jackson Heights","zip":"11386","boro":"Queens","cd":"403","cb":"QNSCB3","approx":false},"geometry":{"type":"Point","coordinates":[-73.893148,40.764607]}},{"type":"Feature","properties":{"name":"Queens County Farm Museum","tel":"(718) 347-3276","url":"http://www.queensfarm.org/","address":"73-50 Little Neck Parkway","city":"Queens","zip":"11004","boro":"Queens","cd":"413","cb":"QNSCB13","approx":false},"geometry":{"type":"Point","coordinates":[-73.725737,40.74557]}},{"type":"Feature","properties":{"name":"Queens Museum of Art","tel":"(718) 592-9700","url":"http://www.queensmuseum.org/","address":"Queens Museum of Art, Flushing Meadows Corona Park","city":"Queens","zip":"11368","boro":"Queens","cd":"404","cb":"QNSCB4","approx":true},"geometry":{"type":"Point","coordinates":[-73.846763,40.745843]}},{"type":"Feature","properties":{"name":"Rose Center for Earth and Space (Hayden Planetarium)","tel":"(212) 769-5100","url":"http://www.haydenplanetarium.org/index.php","address":"15 West 81st Street","city":"New York","zip":"10024","boro":"Manhattan","cd":"107","cb":"MNCB7","approx":false},"geometry":{"type":"Point","coordinates":[-73.972575,40.78286]}},{"type":"Feature","properties":{"name":"Rose Museum at Carnegie Hall","tel":"(212) 903-9629","url":"http://www.carnegiehall.org/textSite/the_basics/art_museum_archives.html","address":"154 West 57th Street","city":"New York","zip":"","boro":"Manhattan","cd":"105","cb":"MNCB5","approx":false},"geometry":{"type":"Point","coordinates":[-73.979911,40.765012]}},{"type":"Feature","properties":{"name":"Rubin Museum of Art","tel":"(212) 620-5000","url":"http://www.rmanyc.org/","address":"150 West 17th Street","city":"New York","zip":"10011","boro":"Manhattan","cd":"104","cb":"MNCB4","approx":false},"geometry":{"type":"Point","coordinates":[-73.997792,40.74002]}},{"type":"Feature","properties":{"name":"Sandy Ground Historical Society","tel":"(718) 317-5796","url":"http://statenislandusa.com/pages/sandy_ground.html","address":"1538 Woodrow Road","city":"Staten Island","zip":"","boro":"Staten Island","cd":"503","cb":"SICB3","approx":false},"geometry":{"type":"Point","coordinates":[-74.216503,40.540978]}},{"type":"Feature","properties":{"name":"Scandinavia House: The Nordic Center in America","tel":"(212) 879-9779","url":"http://www.scandinaviahouse.org/","address":"58 Park Ave.","city":"New York","zip":"10016","boro":"Manhattan","cd":"106","cb":"MNCB6","approx":false},"geometry":{"type":"Point","coordinates":[-73.980088,40.749447]}},{"type":"Feature","properties":{"name":"Schomburg Center for Research in Black Culture","tel":"(212) 491-2200","url":"http://www.nypl.org/research/sc/sc.html","address":"515 Malcolm X Boulevard","city":"New York","zip":"10037","boro":"Manhattan","cd":"110","cb":"MNCB10","approx":false},"geometry":{"type":"Point","coordinates":[-73.940991,40.814613]}},{"type":"Feature","properties":{"name":"School of Visual Arts Museum","tel":"(212) 592-2145","url":"http://www.schoolofvisualarts.edu/sa/index.jsp?sid0=201&page_id=482&event_id=865","address":"209 E. 23rd St.","city":"New York","zip":"10010","boro":"Manhattan","cd":"106","cb":"MNCB6","approx":false},"geometry":{"type":"Point","coordinates":[-73.982242,40.738759]}},{"type":"Feature","properties":{"name":"Seguine Mansion","tel":"(718) 667-6042","url":"http://www.historichousetrust.org/item.php?i_id=38","address":"440 Seguine Avenue","city":"Staten Island","zip":"10307","boro":"Staten Island","cd":"503","cb":"SICB3","approx":false},"geometry":{"type":"Point","coordinates":[-74.197589,40.515214]}},{"type":"Feature","properties":{"name":"Skyscraper Museum","tel":"(212) 968-1961","url":"http://www.skyscraper.org/home.htm","address":"39 Battery Place","city":"New York","zip":"10280","boro":"Manhattan","cd":"101","cb":"MNCB1","approx":false},"geometry":{"type":"Point","coordinates":[-74.017568,40.705658]}},{"type":"Feature","properties":{"name":"Solomon R. Guggenheim Museum","tel":"(212) 423-3500","url":"http://www.guggenheim.org/","address":"1071 Fifth Avenue","city":"New York","zip":"10128","boro":"Manhattan","cd":"108","cb":"MNCB8","approx":false},"geometry":{"type":"Point","coordinates":[-73.958911,40.783009]}},{"type":"Feature","properties":{"name":"Sony Wonder Technology Lab","tel":"(212) 833-8100","url":"http://wondertechlab.sony.com/","address":"550 Madison Ave, Sony Plaza","city":"New York","zip":"10022","boro":"Manhattan","cd":"105","cb":"MNCB5","approx":false},"geometry":{"type":"Point","coordinates":[-73.973508,40.76147]}},{"type":"Feature","properties":{"name":"South Street Seaport Museum","tel":"(212) 748-8600","url":"http://www.southstreetseaportmuseum.org/","address":"12 Fulton Street","city":"New York","zip":"10038","boro":"Manhattan","cd":"101","cb":"MNCB1","approx":false},"geometry":{"type":"Point","coordinates":[-74.003721,40.706603]}},{"type":"Feature","properties":{"name":"Staten Island Children's Museum","tel":"(718) 273-2060","url":"http://www.statenislandkids.org/","address":"1000 Richmond Terr.","city":"Staten Island","zip":"10301","boro":"Staten Island","cd":"501","cb":"SICB1","approx":false},"geometry":{"type":"Point","coordinates":[-74.101892,40.642709]}},{"type":"Feature","properties":{"name":"Staten Island Museum / Staten Island Institute of Arts & Sciences","tel":"(718) 727-1135","url":"http://www.statenislandmuseum.org/","address":"75 Stuyvesant Pl.","city":"Staten Island","zip":"10301","boro":"Staten Island","cd":"501","cb":"SICB1","approx":false},"geometry":{"type":"Point","coordinates":[-74.077665,40.644369]}},{"type":"Feature","properties":{"name":"Studio Museum in Harlem","tel":"(212) 864-4500","url":"http://www.studiomuseum.org","address":"144 West 125th Street","city":"New York","zip":"10027","boro":"Manhattan","cd":"110","cb":"MNCB10","approx":false},"geometry":{"type":"Point","coordinates":[-73.947726,40.808245]}},{"type":"Feature","properties":{"name":"Tenement Museum","tel":"(212) 431-0233","url":"http://www.tenement.org/","address":"108 Orchard Street","city":"New York","zip":"10002","boro":"Manhattan","cd":"103","cb":"MNCB3","approx":false},"geometry":{"type":"Point","coordinates":[-73.989679,40.718688]}},{"type":"Feature","properties":{"name":"The Freakatorium, El Museo Loco","tel":"(212) 375-0475","url":"http://www.freakatorium.com/","address":"57 Clinton St.","city":"New York","zip":"10002","boro":"Manhattan","cd":"103","cb":"MNCB3","approx":false},"geometry":{"type":"Point","coordinates":[-73.985014,40.719617]}},{"type":"Feature","properties":{"name":"The Jazz Museum in Harlem","tel":"(212) 348-8300","url":"http://www.jazzmuseuminharlem.org/","address":"104 E. 126th Street, Suite 2D","city":"New York","zip":"10035","boro":"Manhattan","cd":"111","cb":"MNCB11","approx":false},"geometry":{"type":"Point","coordinates":[-73.938059,40.805276]}},{"type":"Feature","properties":{"name":"The Jewish Children's Museum","tel":"(718) 467-0600","url":"http://www.jcmonline.org/","address":"792 Eastern Pkwy","city":"Brooklyn","zip":"11213","boro":"Brooklyn","cd":"309","cb":"BKCB9","approx":false},"geometry":{"type":"Point","coordinates":[-73.941962,40.668912]}},{"type":"Feature","properties":{"name":"The Museum at FIT","tel":"(212) 217-5800","url":"http://www.fitnyc.edu/306.asp","address":"7th Avenue at West 27th Street","city":"New York","zip":"10001","boro":"Manhattan","cd":"105","cb":"MNCB5","approx":false},"geometry":{"type":"Point","coordinates":[-73.99393,40.747008]}},{"type":"Feature","properties":{"name":"Theodore Roosevelt Birthplace","tel":"(212) 260-1616","url":"http://www.nps.gov/thrb/index.htm","address":"28 East 20th Street","city":"New York","zip":"10003","boro":"Manhattan","cd":"105","cb":"MNCB5","approx":false},"geometry":{"type":"Point","coordinates":[-73.989041,40.738642]}},{"type":"Feature","properties":{"name":"Ukrainian Museum","tel":"(212) 228-0110","url":"http://www.ukrainianmuseum.org/","address":"222 East 6th Street","city":"New York","zip":"10003","boro":"Manhattan","cd":"103","cb":"MNCB3","approx":false},"geometry":{"type":"Point","coordinates":[-73.989757,40.727677]}},{"type":"Feature","properties":{"name":"Valentine-Varian House","tel":"(718) 881-8900","url":"http://www.museumregister.com/US/NewYork/Bronx/ValentineVarianHouse/Info.html","address":"3266 Bainbridge Ave.","city":"Bronx","zip":"10467","boro":"Bronx","cd":"207","cb":"BXCB7","approx":false},"geometry":{"type":"Point","coordinates":[-73.879425,40.87738]}},{"type":"Feature","properties":{"name":"Van Cortlandt House Museum","tel":"(718) 543-3344","url":"http://www.vancortlandthouse.org/","address":"VAN CRTLANDT MANSION, Broadway at West 246th Street","city":"Bronx","zip":"10471","boro":"Bronx","cd":"226","cb":"BXCB26","approx":false},"geometry":{"type":"Point","coordinates":[-73.894823,40.891111]}},{"type":"Feature","properties":{"name":"Wave Hill","tel":"(718) 549-3200","url":"http://wavehill.org/visit/","address":"West 249th Street & Independence Avenue","city":"Bronx","zip":"10471","boro":"Bronx","cd":"208","cb":"BXCB8","approx":false},"geometry":{"type":"Point","coordinates":[-73.911654,40.897885]}},{"type":"Feature","properties":{"name":"Whitney Museum of American Art","tel":"1 (800) WHITNEY","url":"http://www.whitney.org/","address":"945 Madison Ave.","city":"New York","zip":"10021","boro":"Manhattan","cd":"108","cb":"MNCB8","approx":false},"geometry":{"type":"Point","coordinates":[-73.963834,40.773407]}},{"type":"Feature","properties":{"name":"Wyckoff Farmhouse Museum","tel":"(718) 629-5400","url":"http://www.wyckoffassociation.org/","address":"5816 Clarendon Ave","city":"Brooklyn","zip":"11203","boro":"Brooklyn","cd":"317","cb":"BKCB17","approx":false},"geometry":{"type":"Point","coordinates":[-73.920796,40.644341]}},{"type":"Feature","properties":{"name":"Leo Baeck Institute","tel":"(212) 744-6400","url":"http://www.lbi.org/","address":"15 W. 16th St.","city":"New York","zip":"10011","boro":"Manhattan","cd":"105","cb":"MNCB5","approx":false},"geometry":{"type":"Point","coordinates":[-73.993764,40.738028]}},{"type":"Feature","properties":{"name":"American Sephardi Federation / Sephardic House","tel":"(212) 294-8350","url":"http://www.americansephardifederation.org/","address":"15 W. 16th St.","city":"New York","zip":"10011","boro":"Manhattan","cd":"105","cb":"MNCB5","approx":false},"geometry":{"type":"Point","coordinates":[-73.993886,40.738077]}},{"type":"Feature","properties":{"name":"YIVO Institute for Jewish Research","tel":"(212) 246-6860","url":"http://www.yivoinstitute.org/","address":"15 W. 16th St.","city":"New York","zip":"10011","boro":"Manhattan","cd":"105","cb":"MNCB5","approx":false},"geometry":{"type":"Point","coordinates":[-73.993794,40.73796]}},{"type":"Feature","properties":{"name":"American Jewish Historical Society","tel":"(212) 294-6160","url":"http://www.ajhs.org/","address":"15 W. 16th St.","city":"New York","zip":"10011","boro":"Manhattan","cd":"105","cb":"MNCB5","approx":false},"geometry":{"type":"Point","coordinates":[-73.993929,40.738015]}},{"type":"Feature","properties":{"name":"Yeshiva University Museum","tel":"(212) 294-8330","url":"http://www.yumuseum.org/","address":"15 W. 16th St.","city":"New York","zip":"10011","boro":"Manhattan","cd":"105","cb":"MNCB5","approx":false},"geometry":{"type":"Point","coordinates":[-73.993817,40.738046]}},{"type":"Feature","properties":{"name":"Center For Jewish History","tel":"(212) 294-8301","url":"http://www.cjh.org","address":"15 W. 16th St.","city":"New York","zip":"10011","boro":"Manhattan","cd":"105","cb":"MNCB5","approx":false},"geometry":{"type":"Point","coordinates":[-73.993869,40.737987]}}]}