{"type":"FeatureCollection","features":[{"type":"Feature","properties":{"district":"66"},"geometry":{"type":"MultiPolygon","coordinates":[[[[-73.99222484880735,40.73791698491016],[-73.98901559286024,40.736560154819585],[-73.98986198872072,40.735326099687384],[-73.99075396816642,40.73483915457386],[-73.98255629297803,40.731350134554766],[-73.98863862848776,40.7229337197613],[-73.9949082738899,40.72495122972215],[-73.99626815919453,40.72195194602141],[-73.99712269657495,40.722300755720816],[-73.99765481724125,40.72083590938902],[-73.99903165078965,40.72142134180433],[-74.00062226949892,40.71955245317973],[-74.0014245100964,40.71993719816609],[-74.00402602553362,40.71687101768477],[-74.00255805979363,40.71618077386534],[-74.00302949461839,40.715585065939756],[-74.00360280397281,40.71364543042658],[-74.00485768021683,40.71245254111714],[-74.00327395900375,40.71128436974876],[-74.0042529988588,40.710166240708936],[-74.00606917522401,40.71200842841112],[-74.00860085403332,40.71139223970916],[-74.0090626472496,40.710886703620126],[-74.01046533908554,40.711534547246615],[-74.01012167469975,40.71208469638972],[-74.01372415114957,40.71367830965932],[-74.01229165951248,40.71903894819864],[-74.01303068126435,40.71913145581929],[-74.01290892764018,40.71973485170661],[-74.01345505633182,40.719801707426384],[-74.01341376512872,40.72001948201438],[-74.01637848291482,40.72037660883105],[-74.01630573342837,40.7207270200383],[-74.01299980679079,40.720333090750216],[-74.0128973027087,40.72086804597598],[-74.01569471973286,40.72120642487545],[-74.01562245781948,40.7215434536739],[-74.01316066673286,40.721253963194776],[-74.01311663311996,40.72147373453092],[-74.01361558335005,40.72158618255959],[-74.01253875807262,40.72150317657655],[-74.01165326569942,40.725871761851536],[-74.01516324118423,40.726319711936995],[-74.01512356549473,40.7267939430673],[-74.01154201897596,40.72644734642468],[-74.01138323604756,40.728229272367344],[-74.01439069932388,40.728463047520314],[-74.01408693559918,40.73066317304047],[-74.01116195696476,40.730450676349214],[-74.01099350879153,40.73232041794078],[-74.01094118226749,40.73300776326952],[-74.01400220214607,40.73306800179563],[-74.01399957240966,40.73333227751791],[-74.01090389883285,40.73329761713975],[-74.01072972404017,40.733463402434396],[-74.01083284563212,40.73400709401116],[-74.01201792010474,40.7340637444565],[-74.01200124222393,40.73433840116636],[-74.01081359479109,40.73428344364777],[-74.0104765981442,40.73806394059523],[-74.0110870663595,40.73809275008146],[-74.01113915602562,40.73838986281323],[-74.01045432864602,40.738364505725755],[-74.01039303134563,40.739174296561934],[-74.01158045502316,40.73926453611219],[-74.0114607395534,40.74058421475269],[-74.0126592820849,40.7407476384976],[-74.00949685520361,40.740727011785665],[-74.00941140266131,40.74115409331305],[-74.00961923440443,40.741363610514966],[-74.01020818993538,40.74160753792842],[-74.010383580722,40.74139785352676],[-74.01139609242074,40.741822813235274],[-74.01083987411933,40.742596734022634],[-74.01029100591903,40.742358524639805],[-74.01012563710833,40.742575831777195],[-74.00932113973238,40.74224424271675],[-74.00915345169425,40.74249618755625],[-74.0086990229636,40.742361723963505],[-74.00825890831676,40.74467384339015],[-74.00681150036226,40.744061323613096],[-74.00723319008765,40.74346942765073],[-74.00699029090696,40.74336665121599],[-73.99265431029013,40.737330468340694],[-73.99222484880735,40.73791698491016]],[[-74.00956912252538,40.741422703061644],[-74.00936174828294,40.74142362374203],[-74.0092377993956,40.74207162715807],[-74.0100880336451,40.74248815567386],[-74.01019827672162,40.74233375374003],[-74.0098223415751,40.74216605205829],[-74.01016559689417,40.74167234807372],[-74.00956912252538,40.741422703061644]]]]}}]}