{"type":"FeatureCollection","features":[{"type":"Feature","properties":{"district":"85"},"geometry":{"type":"MultiPolygon","coordinates":[[[[-73.89680883223774,40.795808445159985],[-73.89693872998792,40.79563587285375],[-73.89796839783742,40.79564483916218],[-73.89919434249981,40.796502456018395],[-73.89788253240107,40.797116532649795],[-73.89713149795642,40.79679807772849],[-73.89678526341234,40.79632916648729],[-73.89680883223774,40.795808445159985]]],[[[-73.88885148496334,40.798706328958936],[-73.88821348851279,40.79866530463874],[-73.88839250519779,40.79856629676754],[-73.88823353313649,40.7982428842861],[-73.88755967580653,40.798368732437254],[-73.8866510852459,40.798038196700084],[-73.8837574159016,40.79570856541997],[-73.88362347511053,40.79567272631012],[-73.8836551675666,40.7959672300653],[-73.88320394303746,40.79554499746243],[-73.88209633687468,40.79515986104319],[-73.87980493377017,40.79489225117053],[-73.8783743781276,40.79452080676742],[-73.8758307548566,40.79315011728742],[-73.8744931852396,40.79205745058938],[-73.87288457445666,40.79145210820734],[-73.87175020506083,40.790658509529855],[-73.87121154143503,40.79003612173732],[-73.87080888633555,40.78789669168397],[-73.87163065373362,40.78679790584326],[-73.87308761688934,40.785854952783566],[-73.87653227348018,40.78582736374731],[-73.8783068005765,40.78535662050863],[-73.88537442211033,40.78666912679868],[-73.88770126306409,40.78687227457278],[-73.88905212443196,40.78737256025825],[-73.88961097042936,40.788199991008405],[-73.89030135565059,40.78987672733551],[-73.89079999909833,40.790207576198696],[-73.89160587115369,40.79016070095335],[-73.89218182918813,40.790394269608534],[-73.89282283610936,40.792817081951625],[-73.89179289686578,40.79677524575884],[-73.89073139028332,40.79766089980671],[-73.89087421678997,40.797829748226526],[-73.89062148266541,40.79774892344873],[-73.89079505127066,40.79802183735321],[-73.89060785824256,40.79776750713793],[-73.89016916368631,40.79796465843273],[-73.889212838981,40.797801204104275],[-73.8883524809828,40.79813935919854],[-73.88856204587569,40.798353403824635],[-73.88839282545207,40.798375280868],[-73.88851285371605,40.798590541019834],[-73.88899654222841,40.798680754488004],[-73.88885148496334,40.798706328958936]]],[[[-73.90838080233769,40.799487044751814],[-73.90796076542279,40.7992834492686],[-73.90838080233769,40.799487044751814]]],[[[-73.90765852928533,40.7994200982142],[-73.90810209968173,40.79953964635996],[-73.90765852928533,40.7994200982142]]],[[[-73.90638976821414,40.801090791686],[-73.90658587833883,40.80110747844613],[-73.90638976821414,40.801090791686]]],[[[-73.8852616650514,40.80229683395154],[-73.88514576907198,40.802259589486816],[-73.88539676408837,40.80230215307025],[-73.8852616650514,40.80229683395154]]],[[[-73.8983303627048,40.80241282144278],[-73.89646668834571,40.800790470891506],[-73.89864038714919,40.7991011651241],[-73.9002100499307,40.79926415639873],[-73.89978738800922,40.799509553872134],[-73.89971563817444,40.80079880850296],[-73.90003735815742,40.80090874205037],[-73.89948919423671,40.80090111592974],[-73.8993874857105,40.80193566507047],[-73.8983303627048,40.80241282144278]]],[[[-73.90401680971797,40.80347097616903],[-73.90414898900939,40.803455652587495],[-73.90401680971797,40.80347097616903]]],[[[-73.90385084302854,40.80357428277809],[-73.90385084302854,40.80357428277809]]],[[[-73.90366539253372,40.80370246203212],[-73.90366539253372,40.80370246203212]]],[[[-73.90331727421179,40.80377528245532],[-73.90331727421179,40.80377528245532]]],[[[-73.9029731194502,40.80393677187117],[-73.90308609846478,40.803997087897],[-73.9029731194502,40.80393677187117]]],[[[-73.90270973102545,40.804163663467385],[-73.90290469388515,40.8041390539353],[-73.90270973102545,40.804163663467385]]],[[[-73.88997434034975,40.80491313038325],[-73.89014756243863,40.804960609786804],[-73.88937439187553,40.80592527311482],[-73.88922416091154,40.805845351192175],[-73.88997434034975,40.80491313038325]]],[[[-73.89787127990657,40.805534981759784],[-73.898161107527,40.806138070100076],[-73.8980134089616,40.80616660436199],[-73.89787127990657,40.805534981759784]]],[[[-73.8977282725107,40.805967494137455],[-73.89787360901198,40.806179539493144],[-73.8977282725107,40.805967494137455]]],[[[-73.89741472698572,40.80580005947825],[-73.8976381867501,40.8062013208384],[-73.8974968195382,40.80621440070525],[-73.89741472698572,40.80580005947825]]],[[[-73.8947297052668,40.805741101461834],[-73.8949690952872,40.806231130494105],[-73.8947297052668,40.805741101461834]]],[[[-73.89457393913416,40.80604577300738],[-73.89477679721044,40.806213633742814],[-73.89457393913416,40.80604577300738]]],[[[-73.89270681132574,40.80634394859628],[-73.89253177139425,40.80565655156851],[-73.89227315843533,40.805702433124985],[-73.89216364547643,40.80530259256561],[-73.89128402413922,40.80497628189934],[-73.89186610809391,40.80509048742681],[-73.89219739671562,40.80528468791955],[-73.89230020327578,40.80566060567035],[-73.89256667738412,40.805620710004824],[-73.89270681132574,40.80634394859628]]],[[[-73.8914410427721,40.805661899067516],[-73.89178618135604,40.805622892086355],[-73.89197929600415,40.806384708977006],[-73.89171223861756,40.80639290788171],[-73.8914410427721,40.805661899067516]]],[[[-73.89579066958083,40.80583055920926],[-73.89610824584024,40.80649615095199],[-73.89597794753891,40.806517615840356],[-73.89579066958083,40.80583055920926]]],[[[-73.89567025138759,40.80629013045711],[-73.89583838139242,40.80654060757268],[-73.89567025138759,40.80629013045711]]],[[[-73.89531181635864,40.805869456157446],[-73.89559109157966,40.806581343348256],[-73.89531181635864,40.805869456157446]]],[[[-73.87232977097997,40.813921823341474],[-73.87250110952121,40.81388812823498],[-73.87232977097997,40.813921823341474]]],[[[-73.88070351373322,40.837470161366774],[-73.87746908405829,40.83665345285371],[-73.86999285864538,40.83591367879253],[-73.86993971469327,40.83476923393754],[-73.86822341610207,40.827425455594806],[-73.86067324116597,40.82841898583497],[-73.85878844397243,40.82420863704407],[-73.85826426693697,40.82201268163168],[-73.86298008547061,40.821384081213104],[-73.86246402703922,40.81924715411655],[-73.86061224112805,40.819497411345836],[-73.86012269307689,40.817389059608196],[-73.85919745777309,40.81751117643659],[-73.85870345983696,40.81540481171891],[-73.84388056233954,40.81739167905604],[-73.84466000697458,40.81628015806262],[-73.84524482742206,40.81500589205591],[-73.84400686585725,40.81470612263175],[-73.84417920646719,40.81418667055824],[-73.84520736885109,40.8118870220097],[-73.84576561702227,40.81158227884215],[-73.84617302872054,40.8106766644306],[-73.84719684509648,40.810580487614345],[-73.84821486515708,40.81246290899589],[-73.84938556147976,40.81323686534521],[-73.85041066820003,40.813584024391226],[-73.85060246203962,40.813930199539655],[-73.85159325007994,40.81430438675043],[-73.85243707672895,40.81430267449521],[-73.85225832249284,40.81449313256411],[-73.85301328287127,40.814584423623714],[-73.85265496045065,40.8143380795577],[-73.85261815190952,40.81405869212329],[-73.85297962704787,40.81387348449555],[-73.852913985456,40.81368940370177],[-73.8533685786882,40.813593903136464],[-73.85434655584972,40.81386385791429],[-73.85514695315328,40.81436899479914],[-73.85538030243687,40.814288882082884],[-73.85443075596599,40.81371791906994],[-73.85346774058634,40.81347771110623],[-73.85255739434929,40.81373533465535],[-73.85119997725185,40.81355314437632],[-73.84921243813571,40.812384199501274],[-73.84904536052218,40.811986324291404],[-73.84938420255824,40.81128707476776],[-73.84917358424852,40.810924340784176],[-73.84979804522021,40.810032877885234],[-73.8499089230631,40.80966012208959],[-73.84976011634078,40.80964521322063],[-73.84991938701836,40.80962666592703],[-73.85002012324544,40.80925403953022],[-73.84984662518079,40.80925232875319],[-73.85004241612907,40.80921540848781],[-73.8499673290538,40.8088755124546],[-73.84972865358641,40.80887511163899],[-73.8499511693801,40.808714720172375],[-73.84955076934942,40.80872086751106],[-73.84996696802705,40.808578019346385],[-73.84961166420388,40.808124185051376],[-73.84876007745984,40.80833745779323],[-73.84952218256849,40.80805527721782],[-73.8484164096165,40.807368775795496],[-73.84837953721414,40.80636018633473],[-73.84753621975597,40.80592640279534],[-73.8474882264191,40.805448909149334],[-73.84766805165862,40.805166449227485],[-73.84864784606214,40.80469937148052],[-73.84874317212855,40.804896259686295],[-73.84894604005996,40.8047621689949],[-73.84933382307936,40.80505121826194],[-73.84931788941785,40.804661465703305],[-73.8494285272771,40.805059828140756],[-73.84997722709183,40.80505959498203],[-73.85014867564311,40.80453421881311],[-73.85064954616101,40.804477517135524],[-73.85605162931236,40.80458742958434],[-73.8566181343632,40.80486557116394],[-73.856397852059,40.80494683571352],[-73.85569047098377,40.80467656557571],[-73.85560497039725,40.80506215703507],[-73.85612542563311,40.80528168125097],[-73.85724491988569,40.80530723811626],[-73.85667579658389,40.804995370320974],[-73.85683421024453,40.80490927071551],[-73.85889037502379,40.80588949067536],[-73.85850560039155,40.80581954279294],[-73.8583148770697,40.805998591514935],[-73.85861191901094,40.80669751353793],[-73.85908475852669,40.80648021816366],[-73.85887709403082,40.80598850860351],[-73.85919545024477,40.806269877829884],[-73.85940191920201,40.80752959133741],[-73.85925775276075,40.80754267300794],[-73.8591586814882,40.806878974649344],[-73.85866505169193,40.806832751495776],[-73.85838996228814,40.80825880914896],[-73.85895141221778,40.8102714175867],[-73.85907662566417,40.80997555810229],[-73.86012695235584,40.80960549989145],[-73.85932919264883,40.80899654046333],[-73.85938982010826,40.808163768732584],[-73.85982230438606,40.809113247449886],[-73.860659658153,40.80963190304205],[-73.86440333379524,40.81027598643777],[-73.86765646284466,40.810583761937345],[-73.86976955850037,40.81342369975734],[-73.87077804885936,40.814486895487974],[-73.8717160645012,40.814922335490365],[-73.8765199603363,40.81613106342433],[-73.87673185572967,40.81538649648746],[-73.87841754858812,40.81594717884908],[-73.87939581427374,40.81643021631015],[-73.8812729181854,40.818002395653515],[-73.88175451391076,40.817617314291105],[-73.88799643548518,40.81666338586268],[-73.89513979098011,40.81612581549541],[-73.8968507309871,40.8144601684915],[-73.89920727813598,40.815866001765215],[-73.89778573426362,40.817246209314874],[-73.90166319343292,40.819550426854505],[-73.89979919974103,40.8240579415117],[-73.89887454083637,40.823850452066864],[-73.89584771904998,40.82389229712343],[-73.89582330302001,40.825994969270575],[-73.89622185956763,40.82716977266674],[-73.89336041819165,40.83015253008588],[-73.88991106473179,40.83012419229134],[-73.88794800252592,40.83344670474781],[-73.88624251127833,40.83285453623337],[-73.88424920957185,40.83617844877561],[-73.88510718273889,40.83647522737828],[-73.88351820405951,40.839022366326496],[-73.88070351373322,40.837470161366774]]]]}}]}