{"type":"FeatureCollection","features":[{"type":"Feature","properties":{"district":"36"},"geometry":{"type":"MultiPolygon","coordinates":[[[[-73.91650534553833,40.75389159079408],[-73.91892348120153,40.75363612441178],[-73.92441748465806,40.7524043022827],[-73.92463369470161,40.751643345661634],[-73.93151912066561,40.75115245567117],[-73.93393939351068,40.75026964577637],[-73.93686355668945,40.748421263647685],[-73.93739653782103,40.748916440466076],[-73.94061201179734,40.747745173164304],[-73.93931718439539,40.74562717034903],[-73.94281944610755,40.746372237866055],[-73.94322533238429,40.746793338399215],[-73.9448928382191,40.74611700311051],[-73.95247958895706,40.74757053251823],[-73.95271231199227,40.74687601293131],[-73.95504110043483,40.747332466805815],[-73.95485394268036,40.748040794641135],[-73.95318382492859,40.747734811961124],[-73.95305375571401,40.74808748722947],[-73.95478387869808,40.748427687773386],[-73.95632162509666,40.74908155393246],[-73.95601160302711,40.749373994226886],[-73.95622199020691,40.749517303030586],[-73.95600065094617,40.74938370320937],[-73.95576039140938,40.749596659530376],[-73.95612066411361,40.749759885369805],[-73.95546436936405,40.749674213082805],[-73.95534928514448,40.75001385690411],[-73.95513239152478,40.749926424332486],[-73.95520275040874,40.74967653740964],[-73.9550665256017,40.74963273037559],[-73.95451584573388,40.75058669897693],[-73.95465000413118,40.75083104095966],[-73.95449858097594,40.75122583574058],[-73.95131438087441,40.75457955013957],[-73.94570525640735,40.761488157056796],[-73.94350281966635,40.764499040743665],[-73.94131174941451,40.766918004769806],[-73.93983559349122,40.767988005939486],[-73.93936587223844,40.768159701879746],[-73.93895502453307,40.76795818671982],[-73.93819730754757,40.76869974435682],[-73.937887684264,40.7685575534323],[-73.93777816678481,40.76861905182275],[-73.93795822895135,40.768784934017994],[-73.93747109116867,40.76895155858922],[-73.93681460654729,40.76890394747858],[-73.9364038180227,40.76947488451742],[-73.93574021432624,40.76936722986672],[-73.93489533894557,40.7700418628897],[-73.93469499067032,40.770425338022726],[-73.935147154026,40.77054195605858],[-73.93500813872225,40.77116239486673],[-73.9345273010944,40.77117677510354],[-73.93443525743177,40.771462362333594],[-73.93482622761698,40.77157695807344],[-73.93480681344163,40.77173413889007],[-73.93746638603186,40.772531495125726],[-73.93781335903401,40.77356289464773],[-73.93765483024703,40.77508568538347],[-73.936380228837,40.776921456060606],[-73.93508232558261,40.77794423372832],[-73.93381132859464,40.7781004537336],[-73.93178834239094,40.77787060660205],[-73.93104964232884,40.777441896809236],[-73.93062856554165,40.77659090274975],[-73.9298805856625,40.77622163139984],[-73.9286051502335,40.77659267510116],[-73.92631833403904,40.77824177518511],[-73.9248734448181,40.77862560400664],[-73.92295652690196,40.78044100761981],[-73.9220996549944,40.78085187463709],[-73.91909034740662,40.78336764600462],[-73.91818863005308,40.78393296611433],[-73.91717118646432,40.7841934843716],[-73.91718200679684,40.78455206317955],[-73.91683276950303,40.78519139248706],[-73.91575172894562,40.786107578578275],[-73.91534351270901,40.78611634808699],[-73.91073147978038,40.7828551852977],[-73.91290076360609,40.781089745201825],[-73.9122109481198,40.78060567002046],[-73.91660672777714,40.777005926027904],[-73.915920199549,40.776519596435136],[-73.91845500418226,40.774449055396765],[-73.91167318067039,40.769644606451934],[-73.91024079314877,40.769427323629415],[-73.910941749616,40.76885247317323],[-73.9099800633221,40.76869723475905],[-73.9162939528562,40.76094527590963],[-73.91469591689061,40.76018781461304],[-73.91378541691691,40.7586029493859],[-73.91500715841333,40.7570981770248],[-73.91421213695176,40.75672079824569],[-73.91650534553833,40.75389159079408]]]]}}]}