{"type":"FeatureCollection","features":[{"type":"Feature","properties":{"district":"39"},"geometry":{"type":"MultiPolygon","coordinates":[[[[-73.86309725326615,40.75067209133357],[-73.86224120150352,40.750920294035275],[-73.86251374085141,40.75144750690348],[-73.85666160766651,40.75319137301706],[-73.85120929088374,40.74284402122094],[-73.85367834057794,40.742109884745034],[-73.85393204927382,40.742343554823776],[-73.85730937910384,40.73968102331424],[-73.85876605726436,40.740797135693775],[-73.86072916425367,40.73963603405959],[-73.86185485974269,40.74158914218112],[-73.86352364635755,40.74068771505321],[-73.86441066789408,40.74047231581922],[-73.86714669750363,40.739837224401654],[-73.86731779390998,40.74026134519145],[-73.86898531309386,40.73988380782646],[-73.86819096105758,40.737829444140985],[-73.86857204324308,40.737745448288116],[-73.8682284303331,40.736848536058766],[-73.86783435588846,40.73691320993649],[-73.86631269847098,40.733774782978145],[-73.86462193356209,40.73428168961235],[-73.86342394358977,40.731950626379444],[-73.86387105575638,40.731813737814065],[-73.86447907608283,40.73108930141609],[-73.86839753563369,40.72485398969049],[-73.87455396992071,40.72200668557543],[-73.87544879463553,40.721750777628785],[-73.88130734341104,40.72141634800685],[-73.88092035215946,40.721603038451896],[-73.88243481632672,40.723508696818826],[-73.88564075882489,40.722021554798395],[-73.88705695890363,40.72380232436519],[-73.88720496615386,40.727694364023094],[-73.88557561938056,40.72820863212659],[-73.8841398518159,40.728382174257824],[-73.88435168040974,40.72850294733125],[-73.88005274403253,40.728990686254456],[-73.87617867593255,40.7304533267785],[-73.87124125662952,40.73190371093213],[-73.87047975005005,40.73329353172728],[-73.87185806006322,40.73369298106769],[-73.8720140192912,40.733909789437526],[-73.87479557589724,40.74128809256805],[-73.87562264925141,40.741985288896],[-73.87695966381409,40.74102916885436],[-73.87835025463284,40.742100981396234],[-73.87917530047774,40.74162485182131],[-73.88033721245878,40.742534127629554],[-73.88100387984115,40.7418406619902],[-73.88283144565052,40.74288837616369],[-73.88836765788741,40.7455059949886],[-73.89139145532337,40.74664100433004],[-73.89175154857074,40.74896464188567],[-73.8927082658752,40.74886306775721],[-73.89339757946344,40.75285233036415],[-73.88224640143613,40.75402415170701],[-73.88109890189688,40.74780632481576],[-73.87936270534512,40.74703374825712],[-73.87889200995943,40.747638872187316],[-73.8771587248542,40.74686503192124],[-73.87678880587856,40.747510625053785],[-73.87489575538011,40.74666962642406],[-73.87397770540014,40.74786468896828],[-73.87196437474539,40.74698438405785],[-73.87191898842296,40.74678778849137],[-73.87037517732146,40.7469890083601],[-73.86852925170723,40.74758830224446],[-73.86843751028879,40.747031197316005],[-73.86315501426608,40.74859108792287],[-73.86272633846227,40.7498679384315],[-73.86309725326615,40.75067209133357]]]]}}]}