{"type":"FeatureCollection","features":[{"type":"Feature","properties":{"district":"54"},"geometry":{"type":"MultiPolygon","coordinates":[[[[-73.86334943527028,40.67935164088912],[-73.86328297030332,40.6790793711762],[-73.86234580535127,40.679164785644474],[-73.86171238717559,40.6766105959753],[-73.86453747433461,40.676448783801156],[-73.87191497686275,40.67540264798418],[-73.8713025807271,40.67285838588756],[-73.88519577189905,40.670858462724624],[-73.88551701652919,40.67211299444503],[-73.89554341895499,40.670625787961974],[-73.89724169605458,40.67720616717052],[-73.9000225492494,40.67679972795488],[-73.92364379769539,40.690398837581455],[-73.91927079183588,40.69473110426822],[-73.91625677767455,40.69302171204576],[-73.9118058047585,40.697554461137806],[-73.91104844581487,40.69712663035427],[-73.91027255670052,40.69792971774242],[-73.90951343262999,40.697499208629466],[-73.90877366036932,40.69825522669406],[-73.9042601841169,40.69570037144337],[-73.9057959707524,40.6941271555143],[-73.9013984066204,40.69158999203796],[-73.90188776254891,40.691077720073444],[-73.90042465047067,40.68818389887643],[-73.90116154994368,40.687877935355196],[-73.89646625129005,40.6823364219735],[-73.89577945503007,40.68349718335825],[-73.8941746326718,40.68528324817077],[-73.89258303102321,40.68349191088735],[-73.8901541873892,40.68500398980529],[-73.8896278757877,40.6842364542531],[-73.88808341842545,40.68529363217126],[-73.88452250957424,40.686684749095754],[-73.88377698649278,40.68786341118511],[-73.87950641154873,40.69114676884267],[-73.87402053306702,40.694191295218346],[-73.8689176269075,40.69514656151423],[-73.86840519015212,40.69473118624479],[-73.86868454370578,40.6940346919058],[-73.8665984834927,40.685269559070086],[-73.86601993220731,40.681919587028176],[-73.86410096679134,40.68237285029281],[-73.86334943527028,40.67935164088912]]]]}}]}