{"type":"FeatureCollection","features":[{"type":"Feature","properties":{"district":"56"},"geometry":{"type":"MultiPolygon","coordinates":[[[[-73.92364379769539,40.690398837581455],[-73.92121369884177,40.68901947711515],[-73.9208863703903,40.687382019443234],[-73.92354238901639,40.68707598253421],[-73.92213242865931,40.679744977700686],[-73.92197376275982,40.67907748928789],[-73.92164748131954,40.67887054703281],[-73.92204843320636,40.67457439719823],[-73.93052948257333,40.67503879683608],[-73.93069772708431,40.67325677893108],[-73.93346772452611,40.67340766518808],[-73.93626369792247,40.673560607139834],[-73.93616912348551,40.67446114577762],[-73.94169393104794,40.67474789852125],[-73.94160932453443,40.67564318379702],[-73.94991530388124,40.676096158828685],[-73.94955688645115,40.6803904029232],[-73.95337000670555,40.69940454065282],[-73.9419307888223,40.70072523469599],[-73.92364379769539,40.690398837581455]]]]}}]}