{"type":"FeatureCollection","features":[{"type":"Feature","properties":{"district":"49"},"geometry":{"type":"MultiPolygon","coordinates":[[[[-73.99622742149047,40.63933119311342],[-74.00410651594468,40.63406012139351],[-74.00398960740756,40.63398956901812],[-74.00575961898387,40.63225355510885],[-73.99507814869848,40.6258067378373],[-73.99464972974168,40.62569717972431],[-73.99489280561376,40.62546179419188],[-73.99432497413301,40.625342908797606],[-73.9812863830633,40.617470905421165],[-73.9913576689595,40.60779429361692],[-73.99355659531538,40.609122851227156],[-73.99588192163932,40.60688666632861],[-74.00002128092747,40.609385524784926],[-73.99945464617434,40.609950447281605],[-74.00435896788083,40.612916629416354],[-74.00494120786526,40.61235630168523],[-74.01374808840544,40.61767659532045],[-74.01025743799511,40.621032234181676],[-74.01726142532779,40.62526924225215],[-74.01885791481199,40.624274062030224],[-74.02007423343322,40.62424643447751],[-74.01896027313902,40.626295640432986],[-74.01641801492049,40.63300602751296],[-74.01647404786738,40.634554002959405],[-74.01697745673572,40.6352350816626],[-74.00811636364485,40.64377628755334],[-74.00591235211326,40.64244496956129],[-74.00416437893013,40.6441271508523],[-73.99622742149047,40.63933119311342]]]]}}]}