{"type":"FeatureCollection","features":[{"type":"Feature","properties":{"district":"44"},"geometry":{"type":"MultiPolygon","coordinates":[[[[-73.96095595453626,40.66328505483443],[-73.96224973835139,40.66319867819516],[-73.96293049790583,40.66256904313256],[-73.96308145444448,40.662196726707045],[-73.96188086439798,40.654881192052414],[-73.97170570708818,40.651109906422995],[-73.9717486485597,40.6508577395817],[-73.97208846173392,40.65065690875413],[-73.97121039098944,40.64762015448435],[-73.97252698341302,40.647112314917635],[-73.97174398166794,40.64600111018038],[-73.9708411379564,40.64637857157526],[-73.97076976149238,40.64611090734343],[-73.96546735693964,40.64670615892037],[-73.9640563765601,40.63926317764418],[-73.96492547832645,40.638850568084024],[-73.96381448515801,40.6330100875342],[-73.96243810576622,40.63316539142814],[-73.96182099849075,40.63000487740199],[-73.97136622157025,40.62892916271605],[-73.97156802753176,40.629988015246475],[-73.97182772517044,40.62986338509969],[-73.9725572159544,40.63371337992711],[-73.97865137446766,40.63304465096845],[-73.97831134771293,40.63127486039664],[-73.98259781071984,40.633836278301644],[-73.9796809503624,40.63663932247287],[-73.99049634082614,40.64316444118859],[-73.9883498673701,40.64456224388752],[-73.98036334722282,40.647693744604375],[-73.98179568718419,40.65524609715838],[-73.98622761223847,40.657920482763316],[-73.98563745141432,40.65848305320036],[-73.98784059430345,40.659816863538],[-73.986681707948,40.66092986463731],[-73.98774027414869,40.66160286556072],[-73.987220814871,40.662130629022116],[-73.98756808978689,40.66233915385416],[-73.98665515492705,40.663437393487804],[-73.98745316210237,40.6638232278872],[-73.98695101815666,40.66442521280717],[-73.99173365211004,40.66673659544225],[-73.98721100462434,40.67216061675383],[-73.98478987017732,40.67098919318245],[-73.98278109087106,40.67339876010546],[-73.97332284319033,40.66882492376371],[-73.97040734527697,40.6726472194285],[-73.96966394014588,40.672642367364716],[-73.96894206417251,40.67288749177312],[-73.96871733072396,40.673926683599184],[-73.96693584973556,40.674433410656036],[-73.96597449992127,40.67705999563747],[-73.9735088335374,40.67863912147215],[-73.9774572209719,40.68405228711085],[-73.97595023269956,40.68351323204958],[-73.96134655885788,40.6804635243011],[-73.9622284124052,40.67816620822234],[-73.95912340007949,40.67751364308942],[-73.96194833504326,40.66963673431333],[-73.96219447116025,40.669641029792565],[-73.96095595453626,40.66328505483443]]]]}}]}