{"type":"FeatureCollection","features":[{"type":"Feature","properties":{"district":"23"},"geometry":{"type":"MultiPolygon","coordinates":[[[[-73.82644661516991,40.59052744193847],[-73.82643165499539,40.590316005294724],[-73.82690355436803,40.58992883848128],[-73.82737385766713,40.58976440102506],[-73.82734320867813,40.589943381348895],[-73.82761912370023,40.58999525933869],[-73.82768905925707,40.59056854051901],[-73.82705426208373,40.59097841696064],[-73.82728545195897,40.5914787635647],[-73.82598356406453,40.59197061863448],[-73.82548333523305,40.59197338571119],[-73.82561798585449,40.591711613874374],[-73.8263277408655,40.591461408450904],[-73.82644661516991,40.59052744193847]]],[[[-73.80973138393709,40.5924041860535],[-73.8098074971652,40.592710409504946],[-73.80973138393709,40.5924041860535]]],[[[-73.81107287021051,40.59302233057227],[-73.8113733128964,40.592703054284385],[-73.81074974913332,40.59279211355274],[-73.81137347255543,40.592684499633314],[-73.81135829315778,40.59246258404517],[-73.81093965894601,40.59254684780684],[-73.81079225824638,40.592087032494184],[-73.8109501895272,40.592503059144754],[-73.81138593152033,40.59244231845475],[-73.81140751227157,40.5928712572389],[-73.81107287021051,40.59302233057227]]],[[[-73.80973138393709,40.5924041860535],[-73.80985755423166,40.59203268511917],[-73.8100392058452,40.5930779100418],[-73.80990340300143,40.59308077605193],[-73.80973138393709,40.5924041860535]]],[[[-73.83193277255799,40.59344779692433],[-73.83116882644683,40.591488144309416],[-73.83357376062695,40.58903517184931],[-73.83458673782742,40.58912216496806],[-73.83519078392412,40.58938174674038],[-73.83687949969914,40.589520256508145],[-73.83806756112828,40.590301872106636],[-73.8381470057435,40.59073375985538],[-73.83880085144699,40.591197765370424],[-73.83839527303603,40.590391752547504],[-73.84062613669406,40.59153455504988],[-73.84050451464873,40.591206651752316],[-73.84179835294992,40.592007596152584],[-73.84237933115936,40.5924783180692],[-73.8427900062687,40.59332737914619],[-73.84336470419548,40.59347014386899],[-73.84350065697967,40.59508410975606],[-73.84056972163728,40.597300702794335],[-73.83745833480236,40.59686286784318],[-73.83569788024873,40.59480894117082],[-73.83492802779556,40.59431189738088],[-73.83476026614483,40.59394429450175],[-73.83400002030305,40.59361971265105],[-73.83193277255799,40.59344779692433]]],[[[-73.80997059406056,40.600067537380404],[-73.81014417523036,40.600054855642384],[-73.80997465317668,40.59983670280516],[-73.81029493857315,40.59968938965025],[-73.81029011586071,40.598991670072536],[-73.8104880810805,40.5987793117397],[-73.81131560607227,40.5985498320885],[-73.81157550345522,40.59814119925974],[-73.81222073287758,40.598553908477975],[-73.81359530121023,40.60036184835613],[-73.81460712559036,40.601299029252694],[-73.81501471568563,40.60205629106121],[-73.81480117749582,40.60408034333366],[-73.81444222997993,40.604165201869485],[-73.81428693632637,40.60445566622072],[-73.81320862394746,40.60435543908565],[-73.81266625784592,40.6038889197751],[-73.81170299767513,40.603613945269686],[-73.81016958819596,40.60279976304262],[-73.80986333857173,40.60189579000804],[-73.810034259376,40.60161090846066],[-73.80985064502396,40.60036561675879],[-73.80997059406056,40.600067537380404]]],[[[-73.82953035855815,40.60724067334978],[-73.82953035855815,40.60724067334978]]],[[[-73.82730192542975,40.60948538975413],[-73.82635029826196,40.609289152068975],[-73.82581355251645,40.608917723174855],[-73.82576470455194,40.60864133950795],[-73.82604712343331,40.60829175026923],[-73.82576814632817,40.60785387461305],[-73.82604799274529,40.60781993570851],[-73.82625433623483,40.608017969621265],[-73.82679109718774,40.607909690360486],[-73.82566738192993,40.60778622441825],[-73.82540715279029,40.60669973580819],[-73.82453724237169,40.60507835259407],[-73.82460558197688,40.60473563330289],[-73.82770657743166,40.605237813032026],[-73.82908602632693,40.605820966856754],[-73.82940290644842,40.606581531209926],[-73.82903972670069,40.60735521367345],[-73.82776984301383,40.60776506853883],[-73.82747154564672,40.608225317265365],[-73.82707969381761,40.60833308436152],[-73.82760231973977,40.60929775823639],[-73.82730192542975,40.60948538975413]]],[[[-73.83212876903654,40.60951664237244],[-73.83122317315295,40.6088295866013],[-73.83130655041923,40.60841153207101],[-73.8308267330766,40.60847424004027],[-73.83005617447249,40.607924796435675],[-73.8297788496926,40.60711557188134],[-73.82987726436338,40.606322837407134],[-73.83092271504947,40.60536498222089],[-73.83177507584244,40.605094363641506],[-73.83195008173199,40.60527288631295],[-73.83438032359884,40.60515221948964],[-73.83552006079785,40.60545762109728],[-73.83574042804331,40.605785277354606],[-73.83446265686183,40.60719253294356],[-73.83422631360679,40.60805134296898],[-73.83247030669611,40.60946154039569],[-73.83212876903654,40.60951664237244]]],[[[-73.76669139771167,40.61425465545022],[-73.76516400829198,40.61375420268684],[-73.76501580220096,40.613475187493414],[-73.76515429478951,40.61308589571629],[-73.76505961745121,40.61203523061202],[-73.76229944090417,40.61135920604614],[-73.76172413788875,40.611847242757875],[-73.76023635822919,40.61082086495184],[-73.76178243026546,40.609151670056036],[-73.76155051905889,40.60903136580099],[-73.7599844704079,40.610879377848335],[-73.7594911983337,40.61081579591108],[-73.7609702249641,40.606458908984266],[-73.76038842061486,40.602332123429484],[-73.76057106341855,40.60184306982828],[-73.76256653181011,40.60133503313847],[-73.76444582522093,40.600435240638],[-73.76528430754117,40.60167142321312],[-73.76780326434657,40.60046951185693],[-73.76678028464652,40.5997362524164],[-73.76495711915597,40.597333233113226],[-73.76392632153728,40.59744968002875],[-73.76333449722014,40.59782287372218],[-73.76319972918985,40.59714459064488],[-73.76235719717106,40.59722931943187],[-73.76215645390909,40.59608501194109],[-73.76040863232868,40.59610310191616],[-73.75934720820226,40.59582787104998],[-73.75840736687087,40.59637622884756],[-73.75876807770106,40.596788563002846],[-73.75713747065616,40.59718703106649],[-73.75621150899293,40.59774428016158],[-73.75426212406744,40.59731628745993],[-73.75423676403733,40.598881518011915],[-73.7528497285457,40.60425989690444],[-73.74869062731358,40.607873924730384],[-73.74996149891253,40.60876932391881],[-73.75062929716026,40.60809162566121],[-73.75120179726598,40.60841643399714],[-73.75005311686738,40.609568793152974],[-73.74899252915968,40.610304751284275],[-73.74562112512275,40.6117424929571],[-73.74310894573772,40.60771599650397],[-73.74339731588074,40.60747217106825],[-73.74029138976128,40.604598232281184],[-73.73920739803127,40.604040143301404],[-73.73840394453619,40.60312113578491],[-73.73822597793962,40.60256602771418],[-73.73835617702457,40.59760047780477],[-73.73865280277474,40.59731935956338],[-73.73848900400793,40.597358894240394],[-73.73871968076894,40.5969488173266],[-73.73858466737627,40.59725319461581],[-73.73878797503635,40.596975355521614],[-73.73938023660168,40.597239072946756],[-73.73992747214845,40.597054949532605],[-73.7401177357879,40.596727747475484],[-73.739798757236,40.596428603789406],[-73.74009714262667,40.59620864729195],[-73.74039153834975,40.59618219567334],[-73.7403601274953,40.59677499554029],[-73.7406438431081,40.597001198658475],[-73.7410831534284,40.59682306656986],[-73.7415738033103,40.59690394589248],[-73.74183083523945,40.59669555145028],[-73.74151239169112,40.59652861251467],[-73.74052059818192,40.59657185645663],[-73.74054701362383,40.596119685718136],[-73.73992792985005,40.59606158731352],[-73.73957904997492,40.596376337848874],[-73.73946370303052,40.59687842009228],[-73.73949660873659,40.597020371261834],[-73.73988306007304,40.596770974189724],[-73.73974724022848,40.59654260483528],[-73.73990994690173,40.59677274452052],[-73.73979634028939,40.596882675628144],[-73.73939810824884,40.59704632565642],[-73.73892850726293,40.59687548946671],[-73.7393979636384,40.597029543018124],[-73.73943957124725,40.59689740230765],[-73.73894690694097,40.59676316642711],[-73.73838360401174,40.59711740856396],[-73.73841231100067,40.59592350494851],[-73.73798981846903,40.59455604324521],[-73.73848743971975,40.59435226298848],[-73.73877153079917,40.594525207530666],[-73.73877753514914,40.594355008215466],[-73.73900196778291,40.594586232244616],[-73.73929430628122,40.594453005560894],[-73.7395646533139,40.59456157857763],[-73.73958763297756,40.5944265251087],[-73.73961965222443,40.594580041879055],[-73.74013580364564,40.59451157273911],[-73.74062832064128,40.59472165227226],[-73.74090170596185,40.59448824925338],[-73.7413182062532,40.594792592881326],[-73.74169766300271,40.59464174405298],[-73.74222603097068,40.594905883324444],[-73.74242926334381,40.59486851780672],[-73.7423874258487,40.59472925606035],[-73.74334951603205,40.59479514827647],[-73.74348442282232,40.59459051648823],[-73.74462499793172,40.59466177479809],[-73.7466551146474,40.5942956949023],[-73.74912524757535,40.593216367270564],[-73.75169369495661,40.59131225132602],[-73.75344780177821,40.590964129913274],[-73.7559546362305,40.590874198050024],[-73.75789189861872,40.591356988277916],[-73.76134311678325,40.59172663385063],[-73.76295275572143,40.591611177431275],[-73.76796973006493,40.590729482964555],[-73.76872708525137,40.59087006895576],[-73.7759304282186,40.59018140832818],[-73.7758368859526,40.59032459875788],[-73.77918495356101,40.5895931088955],[-73.78043036101892,40.58959662142923],[-73.7845331104848,40.58847805521806],[-73.78768370715751,40.58792293771222],[-73.78878406873122,40.58745028886744],[-73.78941470793565,40.58762814730426],[-73.79200762464424,40.58721746494202],[-73.80182907323011,40.58535182671263],[-73.8032577124328,40.584893212907076],[-73.80372119405995,40.58501793745038],[-73.80584287341304,40.58445751724962],[-73.80679193346701,40.58441989920581],[-73.80799182895132,40.5840044095041],[-73.81352448727559,40.58347314904693],[-73.81928812030544,40.581766974354316],[-73.82222751243998,40.58111503216214],[-73.82717378884985,40.579444512955426],[-73.8338692317217,40.57764989760918],[-73.8377849130498,40.575923683475594],[-73.85720330672287,40.56910050048786],[-73.86255286029154,40.566810012301005],[-73.86286892277302,40.56683057154652],[-73.86269356691207,40.566502192177616],[-73.86300482943778,40.566875957731035],[-73.86355862677969,40.567027194390874],[-73.86557608357201,40.56656001470033],[-73.86661089295575,40.56609386518899],[-73.8663094123243,40.565546064125094],[-73.86663005715053,40.56609011165428],[-73.86686111965143,40.566086471070165],[-73.8684869484588,40.56552701030174],[-73.8682511755017,40.56506948945982],[-73.86852753205115,40.56554546343397],[-73.86924996432208,40.565384760453604],[-73.87062214815238,40.56481330949432],[-73.87027588464693,40.56417465359758],[-73.87064094150604,40.56480994521753],[-73.87091316206484,40.56476458551091],[-73.87263971280453,40.56408418402695],[-73.87237878047381,40.563575116059155],[-73.87274649784132,40.56410544733245],[-73.87320628037062,40.564060271744545],[-73.87624642690393,40.56310099654799],[-73.88026644423209,40.561532741337615],[-73.88029022254679,40.56137455089703],[-73.88128249221315,40.5613721338798],[-73.88241586728287,40.56091089700176],[-73.88237441679736,40.560760430809985],[-73.88324741562145,40.56085592198791],[-73.88488436886665,40.56018236804138],[-73.88485949479872,40.56004280745817],[-73.88511277798887,40.56015096173744],[-73.88611109684473,40.55992191902938],[-73.88696170683072,40.559558154144696],[-73.88697510801153,40.55940048299869],[-73.88707182997231,40.559542104885985],[-73.88789256106375,40.559510651379725],[-73.88963947542888,40.55866435179425],[-73.89021653553587,40.55881154912181],[-73.89079589630367,40.55861937890735],[-73.89192354828386,40.55816042152527],[-73.89213864396184,40.55787154149421],[-73.89252745099303,40.55811929404536],[-73.89347065050556,40.557945578638794],[-73.8949514249942,40.55729392540959],[-73.89491817266388,40.55707879579587],[-73.89518458696945,40.557385037151036],[-73.89551188771085,40.55741427014987],[-73.89699522942651,40.55689179163894],[-73.89707956116685,40.556657433587425],[-73.89735688619311,40.556998423041996],[-73.89799514796813,40.55710213718046],[-73.89911718426394,40.55680035379436],[-73.89912995192725,40.556641173386005],[-73.90027595919047,40.556603894783414],[-73.90058581786725,40.55642220952705],[-73.90070115515823,40.556633568543404],[-73.90124001641075,40.55675974374632],[-73.9027942267971,40.55673299509444],[-73.90691391033216,40.55560357223029],[-73.91948122277842,40.55062481534722],[-73.9264190939681,40.54815578032013],[-73.9305463182744,40.54642592080485],[-73.93611852939222,40.54451641432323],[-73.93889756292738,40.54323973570249],[-73.94047161197716,40.542863121313246],[-73.94055777426162,40.54186051024058],[-73.94073545513237,40.54183396045327],[-73.94012970302184,40.54800529233841],[-73.94008471877979,40.5505459430505],[-73.9402735647651,40.55240827293562],[-73.9399086569573,40.55383641311394],[-73.93925409758839,40.55498011004952],[-73.93865563831585,40.55567659226412],[-73.93647315964121,40.55693267217087],[-73.93509412137415,40.557269533479925],[-73.93330389401719,40.557334163002736],[-73.93222204160377,40.55767634196037],[-73.92586523769828,40.561651740320805],[-73.92329484208311,40.5620905804518],[-73.92107822881373,40.56207985288503],[-73.92036810280446,40.56221883246779],[-73.92025963172999,40.562612293058734],[-73.92009840148403,40.562571180610185],[-73.92033120142663,40.562226054886715],[-73.91766081900091,40.562826149686664],[-73.91455336961286,40.56435343243398],[-73.9131318012801,40.564638243946234],[-73.91220200769317,40.56505456985016],[-73.91188319662992,40.56499040523887],[-73.91195464366191,40.565811322673],[-73.91216181893262,40.56583625156831],[-73.91197024752503,40.56586941753265],[-73.9117361534006,40.56587265348591],[-73.91192551909776,40.56581386237741],[-73.91185809029383,40.564995438003514],[-73.91079817683057,40.56511099583168],[-73.9101009990952,40.56495600090465],[-73.91003762905775,40.5647937106021],[-73.90971684925964,40.565287425461364],[-73.91002307642118,40.56478020953865],[-73.90976258436969,40.56428483692834],[-73.90872545136813,40.56393129153775],[-73.90791915969069,40.564148439869946],[-73.90809155650997,40.56372163135072],[-73.90798575997265,40.5634424416282],[-73.90664724115204,40.5627859141763],[-73.90469455455373,40.562827185602046],[-73.90287143330069,40.56351486420628],[-73.90244774461503,40.5628995090335],[-73.90161118167623,40.562751450374535],[-73.9000039209185,40.563215692415135],[-73.89613262445299,40.56535842756706],[-73.8953372502706,40.56633210037106],[-73.89567174387955,40.56703164344951],[-73.8951870492531,40.566913600827796],[-73.89413028093446,40.56782014965302],[-73.89261013445609,40.568587247286864],[-73.88911103072223,40.56791623669109],[-73.88836803030881,40.568144925928046],[-73.88786222508217,40.5680380449867],[-73.88654683936431,40.56847097810963],[-73.88489678220193,40.56849958487709],[-73.88430973105274,40.568696119538856],[-73.8848870712472,40.568470205668945],[-73.88475594832832,40.56828913918762],[-73.88467738972615,40.56844134239836],[-73.8842987608294,40.56843680205324],[-73.88473689799127,40.568268513240795],[-73.88445975335584,40.56789283675905],[-73.88416646626057,40.56800195156418],[-73.8842560545,40.56815713340258],[-73.88414806727037,40.56800897730134],[-73.8839890745021,40.56806016069439],[-73.88407171935152,40.56819501413367],[-73.8837910370301,40.56812391182736],[-73.88402340092395,40.568503115611016],[-73.88378086756106,40.568127185960066],[-73.88357670672721,40.568209769754425],[-73.8836919497781,40.568395359722864],[-73.88347850081561,40.56847311410515],[-73.88390427884407,40.56890620425947],[-73.88336927316188,40.56833185975111],[-73.88262970640685,40.56836892982529],[-73.88192258910135,40.56873144152582],[-73.87867467361689,40.56863993983815],[-73.87780808995733,40.56880063006328],[-73.87598454034418,40.56951979017176],[-73.86554317468638,40.57464212861272],[-73.85305549585115,40.5812552678552],[-73.8504438514919,40.58213024358158],[-73.84861053538305,40.58218814214382],[-73.84520566344791,40.581579857050656],[-73.83935385899039,40.58185726280565],[-73.83895663981416,40.58257425854722],[-73.83855306451234,40.582791713796865],[-73.83584080097415,40.582878939362296],[-73.8285247126134,40.584854219879965],[-73.82803653640441,40.58605288672693],[-73.82476427875102,40.58703921577244],[-73.82481333907114,40.58715132203617],[-73.82293688631506,40.58749164972767],[-73.82145971991768,40.58676992492142],[-73.81741586147426,40.58891701410987],[-73.81763800450648,40.58928579898281],[-73.81674197582348,40.58931916984608],[-73.81524832375074,40.58998905629307],[-73.81470067461719,40.59061058988834],[-73.81363221410827,40.59079363189797],[-73.81325671566422,40.591046302491165],[-73.813554050361,40.59170889619428],[-73.81323474432726,40.59107073951525],[-73.81312991669729,40.59124662634191],[-73.8122433822537,40.59132582310244],[-73.81170344902276,40.59159374663924],[-73.81160983453687,40.590474537394115],[-73.81105427603057,40.590450662756155],[-73.81092997565113,40.589297064794934],[-73.81436855026364,40.58775329940004],[-73.81319742974419,40.5862377271136],[-73.80978920504461,40.58698929725647],[-73.80986542337952,40.58774216365281],[-73.80355434536537,40.58847735684354],[-73.80093282985185,40.58912555033],[-73.79688115085331,40.59048394361629],[-73.79145821979557,40.59188170707556],[-73.79101903909111,40.58819141152964],[-73.79013829551982,40.58841299268285],[-73.78597340343234,40.5897085509105],[-73.78624736450361,40.5920885376385],[-73.78508112439374,40.59219688253013],[-73.78337478975124,40.59272174871644],[-73.78361248561232,40.59514523071838],[-73.77903633015072,40.595443502931076],[-73.77880136341581,40.59338707036942],[-73.77454211219306,40.59374993512183],[-73.77280827018168,40.59407391603096],[-73.77271340746334,40.59332111353376],[-73.77123981773728,40.5936940507652],[-73.76760118234942,40.59578605831927],[-73.76809925805182,40.59784597010989],[-73.76794453414253,40.59815366358633],[-73.77033634816473,40.59898422333293],[-73.77090026970177,40.598842975782986],[-73.77115807337863,40.59939324240778],[-73.77111103445863,40.60054602854758],[-73.77073733384827,40.60153550225501],[-73.77083917594608,40.60181091609778],[-73.77061758880676,40.601868730983135],[-73.77018588340029,40.602748823326614],[-73.7704203681374,40.602941983419],[-73.77016122222508,40.60308652353239],[-73.77056521407658,40.604840409753685],[-73.77000408171224,40.60535479133903],[-73.76983622740686,40.6062780087497],[-73.77001920539442,40.6071868929891],[-73.76977758306315,40.60753527206735],[-73.76982675235162,40.60784205998519],[-73.76923701875926,40.608422175951745],[-73.76893512448515,40.60918202128843],[-73.76915128441115,40.60967474644562],[-73.76971531021152,40.61003699686018],[-73.7712912175345,40.610417525963186],[-73.77184662279294,40.610824244209795],[-73.77221438055132,40.61149766458426],[-73.77340389078988,40.61109044877929],[-73.77296268686362,40.61015276344851],[-73.7737676775312,40.611256222475696],[-73.77393827753912,40.61212015175388],[-73.77417171308002,40.61183059746218],[-73.77338597971364,40.61367506630641],[-73.77296761841748,40.61355936099701],[-73.77174156726038,40.61396105006158],[-73.76933085131219,40.61397452507607],[-73.76835465017773,40.6142271484737],[-73.76669139771167,40.61425465545022]]],[[[-73.83190996134934,40.62417572208819],[-73.83227940196075,40.623735169593665],[-73.83241551492004,40.622924796385576],[-73.83275070786428,40.62282811330856],[-73.83309705335392,40.622414745835975],[-73.83311492954182,40.62198383443096],[-73.83324923690202,40.622016740711636],[-73.83305164268688,40.62191405380073],[-73.83310822090128,40.621680888575426],[-73.83368214952584,40.6213813056866],[-73.83362242002201,40.62260263933226],[-73.83308424999186,40.62276139830832],[-73.83303086384613,40.623067360007525],[-73.83322850123331,40.62335651084696],[-73.83267620048598,40.623908275227016],[-73.8327713438081,40.62403071789868],[-73.83306310884076,40.623691260532674],[-73.83325934713386,40.62383125984254],[-73.83340903770527,40.62354801788834],[-73.83357550708041,40.6235979172804],[-73.8335592394641,40.62393603450107],[-73.83269995491797,40.62422803677827],[-73.83215639047248,40.62469217942128],[-73.83179316908026,40.62447358608458],[-73.83190996134934,40.62417572208819]]],[[[-73.83597646795205,40.63221669553862],[-73.83506421195499,40.631725749520704],[-73.83570839895008,40.6313166974463],[-73.83593708948864,40.631349653596665],[-73.83618912093954,40.63164536587245],[-73.83619745652483,40.63203014836595],[-73.83597646795205,40.63221669553862]]],[[[-73.82337592129343,40.6389876558978],[-73.82277105438676,40.63557691408522],[-73.8219820134843,40.63362622386876],[-73.8218460425281,40.632040188437514],[-73.8206721594249,40.62891486142964],[-73.82010003490798,40.627817036143554],[-73.81825637269189,40.626996023254684],[-73.81823704984647,40.626387104219326],[-73.81788868097152,40.62590845014476],[-73.81623096120961,40.624689826351066],[-73.81617548983075,40.62441264003516],[-73.81675264777529,40.62394849782691],[-73.81795284720685,40.62409328011756],[-73.81864345115447,40.62337490435807],[-73.81866204286725,40.62288315619305],[-73.81754878054136,40.62208740125605],[-73.81757890289364,40.621756160877716],[-73.81672238365348,40.62156829339567],[-73.81662369893353,40.62196723448258],[-73.81620712114656,40.62208787775467],[-73.81538719158678,40.62149777964196],[-73.81543174704281,40.62011653124242],[-73.81718053944414,40.61926727449445],[-73.81744426177082,40.61891175541041],[-73.81744645204918,40.618110896495004],[-73.81777429834501,40.61750112169583],[-73.81711893688153,40.61528219234668],[-73.81652681244348,40.61494700965879],[-73.81643150379566,40.61428233493024],[-73.81471812627856,40.614496088552116],[-73.81444032345223,40.61474903867091],[-73.81408062432926,40.61455840923651],[-73.81416449897701,40.61429106964102],[-73.8146826267648,40.61397515785526],[-73.81486725972125,40.614010649752984],[-73.814857222891,40.61429922621505],[-73.81549526637566,40.61403981513337],[-73.81479563255313,40.61319402998148],[-73.81503638494628,40.612976213749604],[-73.81523956494529,40.61298357925743],[-73.81546948317039,40.61334292951119],[-73.81615626632505,40.61294211551001],[-73.81540366189823,40.610384802015666],[-73.81450261566708,40.61105847350561],[-73.81449876827786,40.610735453659466],[-73.8152072079898,40.60981673359354],[-73.81476257639542,40.608463880054146],[-73.8150612987872,40.60731703028013],[-73.81574174063815,40.60646524523569],[-73.81546066483212,40.6064281375102],[-73.81552816722274,40.60616306994531],[-73.81552536723665,40.60640738028222],[-73.81595962002545,40.60626248335362],[-73.81588829778464,40.605929034359384],[-73.81642529923076,40.60522412357405],[-73.81739192106656,40.60515812378444],[-73.81725370593384,40.60394032469204],[-73.81772032638688,40.60222499974124],[-73.81831121054302,40.60133971221262],[-73.8184906612075,40.59938955947936],[-73.81928142201772,40.597529610374195],[-73.82033688571455,40.596648998119115],[-73.82067265991827,40.59519570617121],[-73.82120035429043,40.59471229444084],[-73.82413506905908,40.59463305674822],[-73.82547793498115,40.59508065758445],[-73.83321744106286,40.59421758738759],[-73.83425247335776,40.59465991963079],[-73.83472137081068,40.59505550964593],[-73.83484699931749,40.595542999938765],[-73.83420099977327,40.596656999982834],[-73.83348999898381,40.59691600036536],[-73.83336099929949,40.59723600025936],[-73.83250811841818,40.5975733114887],[-73.83239364453681,40.59780335338253],[-73.83154105940143,40.59795102605527],[-73.83062852179019,40.59743342572443],[-73.83038922482262,40.59773401958448],[-73.82948341823246,40.59813394190277],[-73.82909777422338,40.59776345522084],[-73.82806159675417,40.597680402649004],[-73.82784691505302,40.597999838263725],[-73.82722092998502,40.598331194570825],[-73.82710314493119,40.59868868550891],[-73.82597985976518,40.59947206719302],[-73.8255679068459,40.598548148082806],[-73.82465420597276,40.59814924670191],[-73.82431733671001,40.598313105032126],[-73.82395871058286,40.59887689667741],[-73.82452271276402,40.59895126399077],[-73.82477088992478,40.59839184387438],[-73.82452624858544,40.59912902722351],[-73.82439004315057,40.59909811302662],[-73.8245173365546,40.59896580873323],[-73.82407791355006,40.59890920383319],[-73.82416569888665,40.59929937966726],[-73.82376612281246,40.6000400708211],[-73.8231174097477,40.600079492525545],[-73.82303195166874,40.599930516884534],[-73.82292757811202,40.60006142816328],[-73.8230043648484,40.59992561939652],[-73.82194441759793,40.59980115597868],[-73.82146929833688,40.5999937227705],[-73.82234362281869,40.60022566140793],[-73.8244364376235,40.60034498385241],[-73.82445218008932,40.60079696268867],[-73.82398900124126,40.601001987127255],[-73.82353972095224,40.60155944884736],[-73.82361588815041,40.602286492616464],[-73.82306721637882,40.60234199290526],[-73.82294484740481,40.60258290946803],[-73.82276563477782,40.60420260506932],[-73.82290283003623,40.60468726854162],[-73.82246746702465,40.605524982822864],[-73.82290463377643,40.60585127692718],[-73.82236000876237,40.6064692606603],[-73.82126470342858,40.607002850410694],[-73.82003243563568,40.6089236562611],[-73.8196179536215,40.61047904106448],[-73.82057595436513,40.61223314088143],[-73.82087841790126,40.61225734582031],[-73.8212842105288,40.61109692878374],[-73.82054872610354,40.610430824209075],[-73.82055813673692,40.60995210896398],[-73.82085878505866,40.60923105827144],[-73.82161460089128,40.60848031922795],[-73.82182531339917,40.60896399718613],[-73.82166797839004,40.6092323166076],[-73.82186205241341,40.60986921256868],[-73.82233079781186,40.61028770325489],[-73.82289233348577,40.61033702219424],[-73.8231948971962,40.61093783561613],[-73.8240041278941,40.611631768409914],[-73.82410327024171,40.61232609748477],[-73.82467451637949,40.612419914122775],[-73.82468584347531,40.61307641875681],[-73.82520683961239,40.613494977196105],[-73.82555758997881,40.61413210471092],[-73.82593603373292,40.614162518209454],[-73.82725636632989,40.61337871412473],[-73.82787525471795,40.6136976285986],[-73.82724153726997,40.61406502057209],[-73.82750222609539,40.61420466672039],[-73.82845503182496,40.61421603915189],[-73.83091996001424,40.61500548703367],[-73.83401888200429,40.61438116642084],[-73.8337015227212,40.62097860184707],[-73.83305141576972,40.621258402302324],[-73.83254808933157,40.62175118579051],[-73.83158798714337,40.62203280792532],[-73.83267659706027,40.62186372945782],[-73.83288847088824,40.62222670758022],[-73.83258868618613,40.62268138655907],[-73.83226185529757,40.62275486652901],[-73.83140373147658,40.622403625633076],[-73.8310157246783,40.62277620382532],[-73.83038723126813,40.62239084765799],[-73.83007365663765,40.62304352530052],[-73.83020445003761,40.62339933649976],[-73.82995644707326,40.62370529413609],[-73.82986943301313,40.62339708014447],[-73.82918809223509,40.62420061235312],[-73.82966176956205,40.62419251317588],[-73.83011324801448,40.623828760152406],[-73.83052465124355,40.6228663820485],[-73.8303329445102,40.62284145156669],[-73.83041434354294,40.62263207389433],[-73.83087816625292,40.62286162045542],[-73.83060452993696,40.62325556691438],[-73.83070726903051,40.62374161247121],[-73.8304615157621,40.62407222103477],[-73.83076749837994,40.62368008429893],[-73.83065303587401,40.62326091989706],[-73.83109518037863,40.622928837873296],[-73.83153198708683,40.622878424490416],[-73.83192859030004,40.62319589289803],[-73.8317422448339,40.622876972518945],[-73.83213427171916,40.62317682822493],[-73.83154862281849,40.62409694559084],[-73.83096500894293,40.624576128513986],[-73.83092041000836,40.62483003727265],[-73.83134486557041,40.625006488972424],[-73.83076902736457,40.62530427213957],[-73.83095160908779,40.62552781454566],[-73.83062761781095,40.62617762415609],[-73.83082381413473,40.62681145290815],[-73.83166916554818,40.62713365027187],[-73.83230301496197,40.627078758414],[-73.83219237956543,40.62737443423205],[-73.83247393097037,40.62757579181237],[-73.83228937353509,40.6281337074823],[-73.83177644033681,40.62817203073235],[-73.831566868123,40.628478725917205],[-73.83161746228417,40.62875231114935],[-73.83187722233448,40.628881074079985],[-73.83163269210466,40.628523477340465],[-73.83188632030816,40.62817777385255],[-73.83262605056804,40.62826537176936],[-73.83301154481349,40.627919857691154],[-73.83304100907748,40.62826127106071],[-73.83286528731682,40.62840835026277],[-73.83289548956779,40.628903478733164],[-73.83236036671221,40.62914225774749],[-73.83196080768133,40.629652729879474],[-73.83189666398192,40.63057239405233],[-73.83114653243689,40.632843912759505],[-73.83133112864137,40.63361769142781],[-73.83193878472683,40.63423622542862],[-73.83195787786688,40.634978880565974],[-73.83249094435719,40.63557855183574],[-73.83340607979225,40.638501355899244],[-73.83289974361197,40.638862685067],[-73.83221658819181,40.638928490220955],[-73.82866782109734,40.63661471844817],[-73.82808567353285,40.63587972683679],[-73.82591657934665,40.6357474128444],[-73.82443032497171,40.636216520538326],[-73.8241357769007,40.63878799670474],[-73.8245737989033,40.63935387323939],[-73.82419331921291,40.639954072163256],[-73.82337592129343,40.6389876558978]]],[[[-73.8572233098436,40.6502786705416],[-73.86098917353907,40.65520976710535],[-73.86045463170862,40.65506710736632],[-73.85979242750741,40.65447615737723],[-73.8589800291315,40.652675457834874],[-73.85731941515513,40.651237099008036],[-73.85695870357802,40.65058737397536],[-73.8572233098436,40.6502786705416]]],[[[-73.83032725337058,40.65513280580348],[-73.83026601851492,40.65542864678493],[-73.82988919856007,40.65552282258423],[-73.83032725337058,40.65513280580348]]],[[[-73.83564988234524,40.67927269771792],[-73.82994712068526,40.67790407309879],[-73.82467313253287,40.67703086954946],[-73.82807933027769,40.666086474761485],[-73.83100711560158,40.66619293970455],[-73.83334819269342,40.66677318701559],[-73.82859942404691,40.657196973016184],[-73.82639242910476,40.648324348616825],[-73.82701502572833,40.648759712732414],[-73.82846041105715,40.649118677724985],[-73.82959697362591,40.64982765808605],[-73.83001039818403,40.650328374657725],[-73.82986948766529,40.650429630141986],[-73.8300076744927,40.65090347505768],[-73.83093651353481,40.651626129256],[-73.83132175015783,40.65272653287063],[-73.83128774471702,40.65347883792681],[-73.83156039342543,40.653603277647996],[-73.83158322059658,40.653813786333885],[-73.82901417557974,40.656107884452666],[-73.82966677652134,40.65559904001654],[-73.83044328071922,40.65551947244465],[-73.83060245974772,40.654806889777745],[-73.8317081441153,40.65393117429707],[-73.83205445130537,40.65404641806782],[-73.83200052870741,40.65444081896525],[-73.83221698518575,40.65446038629321],[-73.83149330103005,40.654979820539964],[-73.83116100809754,40.655919233234805],[-73.83003301456556,40.656567168336274],[-73.82937603410595,40.6565063357187],[-73.82930974695338,40.656932457535355],[-73.82896778740296,40.65720524792025],[-73.82917919734568,40.657799778544465],[-73.83013028740517,40.65840264321881],[-73.82959986903147,40.65865680641295],[-73.83014950104759,40.6598086849575],[-73.82969520083391,40.65865592869167],[-73.83024427039375,40.658349969348365],[-73.82922393902857,40.6577065123841],[-73.82909434825203,40.6573342186635],[-73.8294982617395,40.65690590795557],[-73.82950265119837,40.6566474319835],[-73.83009172569676,40.65673635744886],[-73.83127112564203,40.65600327162474],[-73.8318523847929,40.654885038267196],[-73.83218186067892,40.65489475245753],[-73.83290309524585,40.65748377162328],[-73.83278194361473,40.657548460383694],[-73.8320849710086,40.6561310285115],[-73.83194394578256,40.65617142725365],[-73.83260036370599,40.65782659162752],[-73.83112664421819,40.65831878644126],[-73.83338439472544,40.658051859208165],[-73.83156681412632,40.65116771441598],[-73.83118719179551,40.65075171117112],[-73.83079877895905,40.64897655920662],[-73.83148723517212,40.647887278516464],[-73.83453497304737,40.64802513078843],[-73.83560800454444,40.648469073611984],[-73.83597223496483,40.64934876341625],[-73.8384530672249,40.65936161970112],[-73.83880690398891,40.66094183497778],[-73.838627242939,40.66108164278521],[-73.83892925173797,40.66127003385264],[-73.83807555639738,40.66158795982317],[-73.83814081447278,40.66206950759352],[-73.83872354363098,40.662407160984245],[-73.8396959651554,40.6622383041053],[-73.83962395791993,40.66199612919542],[-73.8399794997561,40.66190427386242],[-73.83592320073284,40.64549979067514],[-73.83633074787276,40.645321149280676],[-73.8386089610291,40.645347908312914],[-73.8403918535899,40.644887914529384],[-73.84126005446507,40.64488479363774],[-73.84579484060215,40.64410150925752],[-73.84950699084165,40.64413376567895],[-73.85207628474045,40.64617614809119],[-73.85243199632467,40.64715929523087],[-73.85172587398122,40.64891215456999],[-73.85137202165077,40.64917990359895],[-73.85090552461405,40.649168196000545],[-73.85078185995906,40.64980609272553],[-73.85058099294763,40.64986220594798],[-73.85058665633537,40.65033798099515],[-73.85037708349644,40.6502744998758],[-73.85042261012721,40.65047699482566],[-73.84925726840814,40.6510315325511],[-73.84939766406322,40.65143487895059],[-73.84992253316281,40.651657963603895],[-73.8507849972619,40.651532851904506],[-73.85149116369915,40.651197973180075],[-73.85178606559374,40.65081563938237],[-73.85250949611572,40.650551403671265],[-73.85403329488044,40.65066031157172],[-73.85495939543756,40.650968436249734],[-73.85525081124429,40.65127037487834],[-73.85591932942557,40.6513092616907],[-73.85627612708775,40.65165453372637],[-73.85632763939533,40.65212833457159],[-73.85671288977,40.65280166451753],[-73.8570538834579,40.65296670001533],[-73.85772331773967,40.6527262290719],[-73.85828132383823,40.65299487215201],[-73.85875807991698,40.65416162683264],[-73.85915498446028,40.654402468871275],[-73.85932735900943,40.65494057039523],[-73.86136381950391,40.6564147541655],[-73.86136038361256,40.65659420520724],[-73.86061669329688,40.65646465720714],[-73.86020839500942,40.65701037494929],[-73.86006777819523,40.65677986104971],[-73.86005569574436,40.656972255155544],[-73.85983363521477,40.65697706322063],[-73.86007499798218,40.657048611080214],[-73.85981027609678,40.657322411493915],[-73.85993897279535,40.65772017715059],[-73.85957204813262,40.65803535005447],[-73.8596355866937,40.65845777205664],[-73.86025847890078,40.65862971173924],[-73.86023236327544,40.65889713056022],[-73.86045182990564,40.658796719321884],[-73.86051208600027,40.65849767194647],[-73.86098077532202,40.65838130338856],[-73.86049000486238,40.658994143594285],[-73.86061207311211,40.65932653460533],[-73.86124943397024,40.658720910074244],[-73.86127280308048,40.65826516768453],[-73.86095892097161,40.65806094299701],[-73.85976839588899,40.658281936345944],[-73.86057551669609,40.657836052160064],[-73.8604071420188,40.657761341568374],[-73.86034164704868,40.65724790569819],[-73.86087597606709,40.65690816204554],[-73.86161371163614,40.656996510253],[-73.86170301259713,40.65802488956634],[-73.86269778299527,40.657618309012584],[-73.86317083340501,40.658276512446456],[-73.8603049463005,40.659634655304934],[-73.85761537251572,40.66011893315486],[-73.85842950857293,40.66345336093203],[-73.8556846122103,40.66386749287573],[-73.85763323174355,40.671656194039016],[-73.86038519920734,40.67125171099072],[-73.86234580535132,40.67916478564451],[-73.86328297030332,40.679079371176236],[-73.86334943527032,40.67935164088912],[-73.83905987038875,40.68624007056395],[-73.83564988234524,40.67927269771792]]]]}}]}