{"type":"FeatureCollection","features":[{"type":"Feature","properties":{"district":"87"},"geometry":{"type":"MultiPolygon","coordinates":[[[[-73.85333524942047,40.84247015515494],[-73.85052278148929,40.84278948980259],[-73.84458129174455,40.838535507629636],[-73.8430625277515,40.839797206294854],[-73.84197673998756,40.83890977134379],[-73.84000276482352,40.83566166691186],[-73.8399553560245,40.83490146483641],[-73.84420518617141,40.83133873647291],[-73.84457641043429,40.83130217329366],[-73.8444133761404,40.830598451098425],[-73.84270324854316,40.83074502667007],[-73.8430940865235,40.830020970022886],[-73.84303394542385,40.82893498494027],[-73.84175457615963,40.82575542039687],[-73.84044970316309,40.82334556649682],[-73.83982926241693,40.821571501496216],[-73.84010069135861,40.82032276172785],[-73.83999860407302,40.81993494731582],[-73.84036528525614,40.819577750024415],[-73.84198684834045,40.81877437390833],[-73.84237534420502,40.817489847080786],[-73.84306379033737,40.816558645026895],[-73.84316992763719,40.81605105501356],[-73.84400686585725,40.81470612263175],[-73.84524482742206,40.81500589205591],[-73.84466000697458,40.81628015806262],[-73.84388056233954,40.81739167905604],[-73.85870345983696,40.81540481171891],[-73.85919745777309,40.81751117643659],[-73.86012269307689,40.817389059608196],[-73.86061224112805,40.819497411345836],[-73.86246402703922,40.81924715411655],[-73.86298008547061,40.821384081213104],[-73.85826426693697,40.82201268163168],[-73.85878844397243,40.82420863704407],[-73.86067324116597,40.82841898583497],[-73.86822341610207,40.827425455594806],[-73.86993971469327,40.83476923393754],[-73.86999285864538,40.83591367879253],[-73.87746908405829,40.83665345285371],[-73.88058371936782,40.83742744443072],[-73.88610173953857,40.84052535823225],[-73.88520286296607,40.84498274010251],[-73.88351722342257,40.84716825834954],[-73.8831198257,40.84822109187754],[-73.88284445508542,40.84781722695372],[-73.8773390723824,40.843991755058106],[-73.87716053587239,40.84408519980368],[-73.87662268976251,40.84496094155029],[-73.87629764681398,40.84629478454794],[-73.8753187866269,40.84831008043214],[-73.87505155055315,40.850040441144685],[-73.87528876824254,40.85086266839549],[-73.8752112782105,40.85119332910307],[-73.87443358107917,40.85252150694987],[-73.87388764861255,40.85309407848281],[-73.87182051709651,40.854036218791016],[-73.87125668820887,40.850868865071504],[-73.8712339843976,40.846791849922155],[-73.8722992108916,40.84157999573916],[-73.87129999724903,40.841215077077386],[-73.86955862089135,40.83959565346207],[-73.86347232379067,40.841305932707414],[-73.85333524942047,40.84247015515494]]]]}}]}