{"type":"FeatureCollection","features":[{"type":"Feature","properties":{"district":"50"},"geometry":{"type":"MultiPolygon","coordinates":[[[[-73.92780287168226,40.72501026718179],[-73.93710635538207,40.72260128721374],[-73.93588508908609,40.71986535717921],[-73.94049201266148,40.71867825916901],[-73.94183620925382,40.71692291586546],[-73.94216076925149,40.7150630480034],[-73.9406880306833,40.71196204813404],[-73.95164287873175,40.71090631432583],[-73.95979763140055,40.71388713373452],[-73.96016300712056,40.71334537954785],[-73.96167992316826,40.71390084294435],[-73.96294143343545,40.711904788067244],[-73.96142121523177,40.71134919495042],[-73.96196183121437,40.71048757700006],[-73.9574882104497,40.70908040494687],[-73.95790430804604,40.70842717347048],[-73.95191055699286,40.70636007892398],[-73.94879160538007,40.70448323802018],[-73.9502257906645,40.70355624131573],[-73.95024750146038,40.70294030998472],[-73.95001307889943,40.70272579604056],[-73.951920189279,40.701487549160966],[-73.9500909471545,40.699790593237914],[-73.95701993189441,40.698973914350006],[-73.96248295842662,40.69809538475474],[-73.96121495632025,40.7014459595105],[-73.9623924540252,40.702505721172784],[-73.96429615715577,40.703010181892815],[-73.96646672368018,40.704988375232944],[-73.96702061585643,40.70628391327005],[-73.9679513912622,40.705731217061505],[-73.96838331470957,40.70682937339366],[-73.9692929641454,40.707093331095905],[-73.96984864823537,40.70800304168785],[-73.96994196698674,40.70930205335414],[-73.96960541330354,40.71027084387491],[-73.9700678091068,40.71046662488791],[-73.9696618647883,40.710499724137215],[-73.969768775765,40.71078832169614],[-73.9693742995458,40.7110206665656],[-73.96990773093626,40.711268121839005],[-73.96931038510043,40.711107852881604],[-73.96923492997324,40.711240541941166],[-73.96881612079872,40.71225194770672],[-73.96887248523551,40.712578743939126],[-73.96844231934433,40.71293843489032],[-73.96884924904168,40.71321254596066],[-73.96724034462171,40.7165878860588],[-73.96710504006269,40.716908393254585],[-73.96725113740355,40.71698666660929],[-73.96631330191009,40.71831654141009],[-73.96511950416198,40.71922689450015],[-73.96539429891975,40.71958151821506],[-73.96527752089152,40.720118263924995],[-73.96503278328099,40.72037706947511],[-73.96447946289155,40.72003618825597],[-73.96439735661652,40.7204418344267],[-73.9627566542267,40.722399015126264],[-73.96165984301348,40.72486045446323],[-73.96211461566836,40.72514806339908],[-73.9619023964313,40.72532050081128],[-73.96153679358694,40.725108918852264],[-73.96116366368389,40.72526460633369],[-73.9583307822691,40.72441170076634],[-73.95803916741664,40.72442744087881],[-73.95794183489497,40.72464920270007],[-73.95795096213239,40.725036439168576],[-73.95842611843923,40.72540053583232],[-73.96012497133243,40.725319636637074],[-73.96028544944211,40.725948122413136],[-73.96161518835936,40.72586556307423],[-73.96161717029824,40.72666142199142],[-73.9610168813666,40.72870444010192],[-73.96142843631867,40.73094639261016],[-73.96226340423296,40.73291555162369],[-73.96232850324637,40.73375434133018],[-73.96190964676353,40.734750806246815],[-73.95982931147842,40.73706090063335],[-73.95693002865116,40.7388870730717],[-73.9546632150002,40.739127953134535],[-73.95292355724182,40.738934942395375],[-73.9504645828052,40.738309580795224],[-73.94652352854786,40.73692685395834],[-73.94644229140863,40.736780626263325],[-73.94719983367159,40.73535517761173],[-73.94706532915387,40.734401992819414],[-73.94659806707352,40.734442224347475],[-73.94673908072966,40.735282693841185],[-73.9462474829692,40.736166165227154],[-73.9458731056289,40.73610183125833],[-73.94557048457217,40.73661230391059],[-73.94499908889487,40.73643669371279],[-73.94525492279563,40.73589278900394],[-73.94518507181319,40.735479152678],[-73.94503299031923,40.73542861568352],[-73.944515421174,40.73628439089296],[-73.94239443542429,40.7354257499477],[-73.94173819589855,40.734950717917755],[-73.94114746701952,40.73415292753774],[-73.94099746599917,40.733790485555964],[-73.94115615809413,40.73374890961004],[-73.94056868930251,40.73305849425783],[-73.94068491601338,40.733017077124714],[-73.94036658952952,40.73221258691498],[-73.93981322625451,40.73115268891224],[-73.93810334960666,40.729728519521515],[-73.9369312479987,40.729108091265736],[-73.93492926391922,40.728543915250576],[-73.9295802069088,40.72761282070885],[-73.92787172405026,40.72585405119786],[-73.92780287168226,40.72501026718179]]]]}}]}