{"type":"FeatureCollection","features":[{"type":"Feature","properties":{"district":"65"},"geometry":{"type":"MultiPolygon","coordinates":[[[[-73.99628992163414,40.70142517603728],[-73.99669768997464,40.70087697691724],[-73.99813879965494,40.70151878774599],[-73.99619227228733,40.70337714086432],[-73.99513826840686,40.70297411472301],[-73.99628992163414,40.70142517603728]]],[[[-73.99502134649177,40.70314786924691],[-73.99544564312069,40.703275305471955],[-73.99529346700933,40.70355406589816],[-73.99480038274864,40.70329195864475],[-73.99502134649177,40.70314786924691]]],[[[-73.99476934191567,40.70395289495375],[-73.99502925916447,40.70380820086819],[-73.99476934191567,40.70395289495375]]],[[[-73.98237340572007,40.70554335043782],[-73.98242287179878,40.70582205545215],[-73.9810239061828,40.70589891389373],[-73.98230205183879,40.70573697939983],[-73.98237340572007,40.70554335043782]]],[[[-73.98875683194557,40.72297036611125],[-73.98797056927481,40.72391488525141],[-73.98575223983556,40.72300938620957],[-73.98440308945068,40.724862936171874],[-73.98208242445301,40.7238820436766],[-73.98252449543857,40.72327797725215],[-73.98016849210961,40.72227741231611],[-73.97972660621016,40.7228905971709],[-73.97734585310319,40.72188577937135],[-73.9768923033927,40.72249723846352],[-73.97476299191688,40.721595656928706],[-73.975041160663,40.719406312199915],[-73.97748065325999,40.72034598842507],[-73.97803122662661,40.71963834764665],[-73.97875234984308,40.71993370660983],[-73.98066373138417,40.716315365239616],[-73.97512899464205,40.714621156699295],[-73.9761236883879,40.71246032539851],[-73.97681883540048,40.71141956752392],[-73.97799674790384,40.71056101739179],[-73.98128647552558,40.71021834788182],[-73.98124579569945,40.70982621460142],[-73.98839064023267,40.70912694916282],[-73.9886365807185,40.70991206151646],[-73.98879717785803,40.70996660747239],[-73.99808351186999,40.70850961536731],[-74.0011868526283,40.706859825771936],[-74.00098276691733,40.70641671299312],[-74.00140666691954,40.70617938802082],[-74.0005924020935,40.70541007891111],[-74.00145437418847,40.70487330343224],[-74.00206142563808,40.70541700513835],[-74.00256965059467,40.70552357952368],[-74.00268512768794,40.705449248118846],[-74.00197070397947,40.704737867984804],[-74.002171849419,40.70460659646387],[-74.00248839829258,40.7047267723514],[-74.00238670740679,40.70479566367467],[-74.00332307270787,40.705628595220254],[-74.00383327532258,40.70530324302658],[-74.00262896407828,40.70422295278161],[-74.002866897815,40.704075225511744],[-74.00405666439265,40.70514736343912],[-74.00434050782808,40.70496272980931],[-74.00474876285124,40.705231221988946],[-74.00629274599441,40.70423376790587],[-74.00794861212013,40.70554618831642],[-74.01154980974597,40.70495073547184],[-74.01332610865545,40.70503078835881],[-74.01325396369612,40.70587051400885],[-74.00860085403332,40.71139223970916],[-74.00606917522401,40.71200842841112],[-74.0042529988588,40.710166240708936],[-74.00397461166963,40.71039317605524],[-74.00327395900375,40.71128436974876],[-74.00485768021683,40.71245254111714],[-74.00360280397281,40.71364543042658],[-74.00302949461839,40.715585065939756],[-74.00255805979363,40.71618077386534],[-74.00402602553362,40.71687101768477],[-74.0014245100964,40.71993719816609],[-74.00062226949892,40.71955245317973],[-73.99903165078965,40.72142134180433],[-73.99765481724125,40.72083590938902],[-73.99712269657495,40.722300755720816],[-73.99626815919453,40.72195194602141],[-73.9949082738899,40.72495122972215],[-73.98875683194557,40.72297036611125]]]]}}]}