{"type":"FeatureCollection","features":[{"type":"Feature","properties":{"district":"43"},"geometry":{"type":"MultiPolygon","coordinates":[[[[-73.94991530388124,40.676096158828685],[-73.94160932453443,40.67564318379702],[-73.94169393104794,40.67474789852125],[-73.93616912348551,40.67446114577762],[-73.93626369792247,40.673560607139834],[-73.93069772708431,40.67325677893108],[-73.9316074340103,40.66355672329897],[-73.93090354932272,40.65661035598434],[-73.93478437377932,40.65636039559005],[-73.9346455522874,40.65509584685442],[-73.94039520084755,40.65474046480649],[-73.94023039821535,40.653206996874516],[-73.94400175944757,40.652973183838846],[-73.94379996118424,40.651106366890254],[-73.94957113083304,40.65080789987139],[-73.94966851174581,40.651697519581035],[-73.9589252726127,40.65121155009793],[-73.95932926470192,40.6529281792145],[-73.96140739646273,40.652169858094595],[-73.96308285618551,40.662131168014206],[-73.96300708403692,40.66245171073649],[-73.96224973835139,40.66319867819516],[-73.95384851077019,40.66372780885395],[-73.95268708542687,40.67624508815797],[-73.94991530388124,40.676096158828685]]]]}}]}