{"type":"FeatureCollection","features":[{"type":"Feature","properties":{"district":"37"},"geometry":{"type":"MultiPolygon","coordinates":[[[[-73.91023124734656,40.75297652347353],[-73.9103411180095,40.75267681551927],[-73.90944330814987,40.75075513236504],[-73.91015141522325,40.748233546051615],[-73.90991866800246,40.74776435511738],[-73.90812206086306,40.74617890494168],[-73.9086384301273,40.74510506955395],[-73.90958711299965,40.744940529345314],[-73.91019157628583,40.7419721020058],[-73.90755490341081,40.74166456390533],[-73.9085550154221,40.7379304245821],[-73.91108635468657,40.73262235309917],[-73.91173061792209,40.72996412358034],[-73.9101251695579,40.72932347512909],[-73.90632229514719,40.7270483239129],[-73.90439517407738,40.72635687785675],[-73.89497358695068,40.725407205166256],[-73.89337263657409,40.72538628219113],[-73.89165820523846,40.72567423191519],[-73.89030923215886,40.726177149895975],[-73.88720482610206,40.72786882893811],[-73.88705695890363,40.72380232436519],[-73.88564075882489,40.722021554798395],[-73.89750226433192,40.71638386771307],[-73.89553825122506,40.71380363370879],[-73.8950646952866,40.712479562728895],[-73.90059587784116,40.712697385240574],[-73.8997087722667,40.71098131294491],[-73.89863209889468,40.71122538181427],[-73.89645940150847,40.710298082718985],[-73.89616280605101,40.709621683889154],[-73.89845309892874,40.709040169155614],[-73.89756304853304,40.70775921277905],[-73.89633102974048,40.70527392207782],[-73.8944861947226,40.705733649137834],[-73.89313149476546,40.70256713532087],[-73.89343612866125,40.702187598996495],[-73.89363337428884,40.70228614460469],[-73.89852057539687,40.700869900040935],[-73.89885412216503,40.70153775301276],[-73.90169318115335,40.70071608096469],[-73.91195186402894,40.706784480883755],[-73.9140309753655,40.70474911303572],[-73.92189184698694,40.70939609671099],[-73.92074853115804,40.710533648958915],[-73.92154601629636,40.711043283534565],[-73.92223466477621,40.71285595436308],[-73.92404011334023,40.71400831262909],[-73.92368352152525,40.714082841408384],[-73.92412241575497,40.71513804844535],[-73.92352547251085,40.71561660836801],[-73.92232970167701,40.7160765451726],[-73.92064258940539,40.71577319253156],[-73.9205690553611,40.716003708340814],[-73.9222376112434,40.71638244049427],[-73.92279414745396,40.71753457614416],[-73.92346602654162,40.71813033432244],[-73.92393867329353,40.71904275678717],[-73.92383575405651,40.72014816407836],[-73.92422716247574,40.720887344592064],[-73.92424364921064,40.721429498256164],[-73.92491241131319,40.721960138811625],[-73.92519985799312,40.72243959771094],[-73.92442298754928,40.72358997548378],[-73.92214330961285,40.723707557018905],[-73.92073356094131,40.72330981277065],[-73.9203706423573,40.72368111331865],[-73.92228620280889,40.72418128643502],[-73.92419217991154,40.724275741693575],[-73.92490316165183,40.72450657567162],[-73.92655663912397,40.725669065287406],[-73.9285567608544,40.727844828185745],[-73.92923485876166,40.72826016576123],[-73.93129800153325,40.72872544111279],[-73.9345317637569,40.72910480653514],[-73.93644563967128,40.72967214559876],[-73.93804478507167,40.73050996784624],[-73.93911054574816,40.73137980652573],[-73.93991049829695,40.73327632836195],[-73.94016538640956,40.73348637434488],[-73.94001807012909,40.73354044127544],[-73.94006709327039,40.73376215298028],[-73.94086498592704,40.735070409091236],[-73.94162472636474,40.73584144233838],[-73.94594215413971,40.737507121439776],[-73.94257885812198,40.738816020268715],[-73.94280384267618,40.73886154695899],[-73.94255612805293,40.739020865746824],[-73.94146173463167,40.739248583627315],[-73.94050888805725,40.740113941753286],[-73.94036159285046,40.74033534565838],[-73.94056144969083,40.74041832293436],[-73.93910874138092,40.74261703567943],[-73.93866991753195,40.7425340820251],[-73.93858786976786,40.74293088268765],[-73.94001922975666,40.743208272210886],[-73.94014858521224,40.74283244146021],[-73.93965301521378,40.742731087095805],[-73.94118816696206,40.74029021779213],[-73.94183504992716,40.739692620714244],[-73.94259666844879,40.73939514780302],[-73.94270608992112,40.73911506297883],[-73.94548236590117,40.73820703129393],[-73.94715087181176,40.73790012334491],[-73.95138071451841,40.73933647729522],[-73.95379878808681,40.73981986577472],[-73.95741470766,40.739556582011744],[-73.96072580373679,40.73808017017932],[-73.96216505619311,40.73827253825914],[-73.96213146112954,40.73845107065091],[-73.96260819750833,40.73879553905675],[-73.96220916491781,40.74000617549825],[-73.96179048263062,40.740013130919586],[-73.96124698011518,40.74042359711552],[-73.96193750086432,40.74079487881608],[-73.96180397423018,40.74109767347216],[-73.96121862852013,40.741107860130334],[-73.96107392567998,40.741694504752296],[-73.9613648658307,40.74183719790203],[-73.96110814501434,40.74182802540549],[-73.96155253168956,40.741993261407345],[-73.96119029789023,40.74264485525986],[-73.96054252040626,40.74346639397166],[-73.95977470797814,40.74350468370064],[-73.95970598360812,40.74385865006135],[-73.96012375375955,40.74393920790268],[-73.96005765843071,40.74380367501256],[-73.96064863700721,40.74413031761422],[-73.95963225023962,40.74393463191431],[-73.9593910660958,40.74428332424144],[-73.96012600962386,40.744443936991644],[-73.95923368945685,40.744310043026665],[-73.9587753700448,40.744555599863595],[-73.95944240940852,40.74460422061233],[-73.95887919943334,40.74462433145484],[-73.95875854834802,40.74494500525302],[-73.95966590587591,40.74517030058272],[-73.95849389303119,40.74498786491641],[-73.9584525226965,40.74511901182233],[-73.95925084238479,40.74531552963254],[-73.95933786844708,40.745507606896076],[-73.95905935607946,40.74575336834654],[-73.95850227459322,40.74576497421799],[-73.95914371692935,40.746000603678645],[-73.95704097276808,40.74892035137655],[-73.95485394268036,40.748040794641135],[-73.95504110043483,40.747332466805815],[-73.95271231199227,40.74687601293131],[-73.95247958895706,40.74757053251823],[-73.9448928382191,40.74611700311051],[-73.94322533238429,40.746793338399215],[-73.94281944610755,40.746372237866055],[-73.93931718439539,40.74562717034903],[-73.94061201179734,40.747745173164304],[-73.93739653782103,40.748916440466076],[-73.93686355668945,40.748421263647685],[-73.93393939351068,40.75026964577637],[-73.93151912066561,40.75115245567117],[-73.92463369470161,40.751643345661634],[-73.92441748465806,40.7524043022827],[-73.91763192835727,40.75385784827683],[-73.91446450844816,40.75367641156923],[-73.91023124734656,40.75297652347353]]]]}}]}