{"type":"FeatureCollection","features":[{"type":"Feature","properties":{"district":"53"},"geometry":{"type":"MultiPolygon","coordinates":[[[[-73.92405909736993,40.71411156014769],[-73.92223466477621,40.71285595436308],[-73.92154601629636,40.711043283534565],[-73.92074853115804,40.710533648958915],[-73.92189184698694,40.70939609671099],[-73.91180710003394,40.703434952026285],[-73.91290404121959,40.70236189129684],[-73.91067882737353,40.70104596956685],[-73.91180682191074,40.699946882523946],[-73.90877366036932,40.69825522669406],[-73.90951343262999,40.697499208629466],[-73.91027255670052,40.69792971774242],[-73.91104844581487,40.69712663035427],[-73.9118058047585,40.697554461137806],[-73.91625677767455,40.69302171204576],[-73.91927079183588,40.69473110426822],[-73.92364379769539,40.690398837581455],[-73.9419307888223,40.70072523469599],[-73.9500909471545,40.699790593237914],[-73.951920189279,40.701487549160966],[-73.95001307889943,40.70272579604056],[-73.95024750146038,40.70294030998472],[-73.9502257906645,40.70355624131573],[-73.94879160538007,40.70448323802018],[-73.95191055699286,40.70636007892398],[-73.95790430804604,40.70842717347048],[-73.9574882104497,40.70908040494687],[-73.96196183121437,40.71048757700006],[-73.96142121523177,40.71134919495042],[-73.96294143343545,40.711904788067244],[-73.96167992316826,40.71390084294435],[-73.96016300712056,40.71334537954785],[-73.95979763140055,40.71388713373452],[-73.95164287873175,40.71090631432583],[-73.9406880306833,40.71196204813404],[-73.94216076925149,40.7150630480034],[-73.94183620925382,40.71692291586546],[-73.94049201266148,40.71867825916901],[-73.93588508908609,40.71986535717921],[-73.93710635538207,40.72260128721374],[-73.92780287168226,40.72501026718179],[-73.92561470516623,40.72006166221263],[-73.92481798943699,40.72026513747549],[-73.92451999415132,40.71961273042439],[-73.92470227807114,40.7186883041008],[-73.92499204426606,40.71838478776139],[-73.92837930101501,40.71757836729027],[-73.92887965180016,40.71772031862372],[-73.92970539915328,40.71704927938933],[-73.92931999766083,40.71611200883279],[-73.92947356921461,40.715721452621324],[-73.93219753146334,40.714972107490546],[-73.9321499860121,40.714687464730396],[-73.9317535718227,40.71474167550589],[-73.93142604100935,40.71438234308075],[-73.9312406705949,40.71372481088489],[-73.93164527391666,40.71334279375831],[-73.93264621458808,40.71303927229817],[-73.9320326298051,40.71159022307447],[-73.93338484615303,40.71123372774584],[-73.93328349320298,40.71097870695552],[-73.9319010192086,40.711338471428384],[-73.93093227547737,40.70916531125431],[-73.9303609456584,40.70871773803283],[-73.93025038849032,40.70892791342272],[-73.93154613746866,40.71185535175125],[-73.93077894737053,40.712160427955666],[-73.93161032734892,40.71203802268057],[-73.93184249493432,40.71262723799079],[-73.93042294313071,40.71317255867123],[-73.93105231901666,40.7146102244261],[-73.9308519013403,40.71490298559298],[-73.92843881814593,40.71553094957593],[-73.92890601265017,40.71661895731226],[-73.92821135004569,40.717113239793335],[-73.92472906134894,40.717944050687954],[-73.92410280094344,40.71766713720255],[-73.92341861434724,40.717069015738886],[-73.92305500014334,40.71634266479355],[-73.92431329961575,40.715847056576926],[-73.924885535076,40.71526718765272],[-73.92433589757124,40.71412259346656],[-73.92405909736993,40.71411156014769]]]]}}]}