{"type":"FeatureCollection","features":[{"type":"Feature","properties":{"district":"42"},"geometry":{"type":"MultiPolygon","coordinates":[[[[-73.94379996118424,40.651106366890254],[-73.94310769075202,40.64463636445092],[-73.94213671635059,40.644683256190774],[-73.942029617086,40.64366389648395],[-73.94396498588735,40.643542772158455],[-73.94372044513288,40.641242845575505],[-73.94562758162503,40.64112560732375],[-73.94512335128123,40.6364482799815],[-73.9441549218099,40.63650692382654],[-73.94391310630215,40.634236705704915],[-73.9448804281905,40.6341769544952],[-73.94453642924181,40.63089479573046],[-73.9455109552195,40.63079148290151],[-73.94415535255825,40.62950828520816],[-73.94540053213083,40.62937781235579],[-73.94359123636549,40.61981609815795],[-73.95503698247002,40.61855780404303],[-73.95684697346559,40.62811987905445],[-73.96091777307718,40.627674514977336],[-73.96136921593188,40.6300583882626],[-73.96182099849075,40.63000487740199],[-73.96243810576622,40.63316539142814],[-73.96381448515801,40.6330100875342],[-73.96492547832645,40.638850568084024],[-73.9640563765601,40.63926317764418],[-73.96546735693964,40.64670615892037],[-73.97076976149238,40.64611090734343],[-73.9708411379564,40.64637857157526],[-73.97174398166794,40.64600111018038],[-73.97252698341302,40.647112314917635],[-73.97121039098944,40.64762015448435],[-73.97208846173392,40.65065690875413],[-73.9717486485597,40.6508577395817],[-73.97170570708818,40.651109906422995],[-73.96188086439798,40.654881192052414],[-73.96140739646273,40.652169858094595],[-73.95932926470192,40.6529281792145],[-73.9589252726127,40.65121155009793],[-73.94966851174581,40.651697519581035],[-73.94957113083304,40.65080789987139],[-73.94379996118424,40.651106366890254]]]]}}]}