{"type":"FeatureCollection","features":[{"type":"Feature","properties":{"district":"86"},"geometry":{"type":"MultiPolygon","coordinates":[[[[-73.905714252963,40.873138322101426],[-73.90446901386888,40.872415520678274],[-73.90442003209795,40.870361276001304],[-73.90570081060591,40.87006155720749],[-73.90722211277739,40.86885175028944],[-73.90762569085445,40.869097502599736],[-73.90830866936315,40.86726780277045],[-73.90848814078589,40.865345444804774],[-73.90902251528948,40.86408899967766],[-73.90908952364609,40.86276562337609],[-73.90107966951527,40.86275638342258],[-73.89797842639585,40.866727707705],[-73.89599893311149,40.86583405033818],[-73.89841038406634,40.86229696667976],[-73.89693899685213,40.86244292924865],[-73.89754858962539,40.861300019015296],[-73.89463163018661,40.860552560385585],[-73.89192126390677,40.85924485497475],[-73.89443155078882,40.85578618672733],[-73.89180093471968,40.85461101177868],[-73.89431774068807,40.85189131147088],[-73.89279638244655,40.85109799706036],[-73.89048342465928,40.85228819260845],[-73.88895256316077,40.85144078077317],[-73.89133401730534,40.84746957984192],[-73.89242068939595,40.84800282566968],[-73.89337309855703,40.84640119377854],[-73.89290102347081,40.846268329820084],[-73.89479022112339,40.843720321972334],[-73.90483250080672,40.84484207145952],[-73.9050151489175,40.84240469831921],[-73.90596061823445,40.842628704119946],[-73.91175110498183,40.84286058924092],[-73.91198635358123,40.843057098087925],[-73.9115807349439,40.844252522894706],[-73.9106232671231,40.84553115428957],[-73.91144519661282,40.845866028223206],[-73.91023501405009,40.84755622878204],[-73.90883862489974,40.84726269829949],[-73.90764756862833,40.850859586326905],[-73.90698472353698,40.85038248672001],[-73.90604960924095,40.8514005910498],[-73.90682109088502,40.85180740997099],[-73.90560178222525,40.85314973695677],[-73.90733289656043,40.85381641506678],[-73.90921545544902,40.85180094506637],[-73.91000910278153,40.85198853616531],[-73.91142673303708,40.851728672267164],[-73.91195410640165,40.851327175402346],[-73.91240592918386,40.85045054822521],[-73.91287421490624,40.850125060221615],[-73.91415552049118,40.84996747068987],[-73.91542656689167,40.850478565716706],[-73.91605359841247,40.850053820546684],[-73.91614187626521,40.84887809349893],[-73.91764395190071,40.8477294632335],[-73.9184337094364,40.84831289567251],[-73.92060500604099,40.84687775657635],[-73.92231048299267,40.84737980698338],[-73.9196385831956,40.850651247234495],[-73.91832575552333,40.851543226586884],[-73.91819882010137,40.85181870504964],[-73.91883794632193,40.85277077778305],[-73.91819736078648,40.85308403725289],[-73.91799170068656,40.85287246996914],[-73.91781854059917,40.853660169670405],[-73.91678982858579,40.854872875964595],[-73.91650573944517,40.85538457254809],[-73.9158536355655,40.85802115212512],[-73.91693848019936,40.85821433571808],[-73.91732704229197,40.85738867974768],[-73.9177678852122,40.85735285097971],[-73.91788477339952,40.85700636787643],[-73.91902369125216,40.857396538413894],[-73.91776041251106,40.85870809795846],[-73.91720664646986,40.85892892323731],[-73.91341462193655,40.86336749370088],[-73.91276271995461,40.86302917415775],[-73.91227278976977,40.86363214899687],[-73.91279762128941,40.86389887543301],[-73.91252604516806,40.86379522383795],[-73.91267634020384,40.8640211116026],[-73.91044282741956,40.866527868348236],[-73.90949664312318,40.86883115664054],[-73.90893714929898,40.87101984030901],[-73.90864943111376,40.871385783802936],[-73.9089323517538,40.87215734797027],[-73.90846367846262,40.872620792206774],[-73.90774270784561,40.87284595211176],[-73.90746489794311,40.87354735423658],[-73.905714252963,40.873138322101426]]]]}}]}