{"type":"FeatureCollection","features":[{"type":"Feature","properties":{"district":"41"},"geometry":{"type":"MultiPolygon","coordinates":[[[[-73.92283431631846,40.63556053344991],[-73.92570568467727,40.63536689909364],[-73.92491871701561,40.62798386491906],[-73.9321951234809,40.62326916455711],[-73.9317317921372,40.617926921394634],[-73.9411616000202,40.61181964069756],[-73.93934703447131,40.610187141369266],[-73.94154757693073,40.60876773629744],[-73.9287901015483,40.59732329546749],[-73.92956858309246,40.596820265422586],[-73.92973779184956,40.59697845579379],[-73.93305330533265,40.59487228435563],[-73.93101807335586,40.58409750938217],[-73.93109263390393,40.582743233958816],[-73.93171422041365,40.58281177934514],[-73.93194431270395,40.58310892942509],[-73.93192811186756,40.582869768935446],[-73.93237695742826,40.5829185099783],[-73.93201379961101,40.58292598224766],[-73.93201839411536,40.58311112461873],[-73.93259877057645,40.582919267412116],[-73.93420971486967,40.58297979889361],[-73.93437970143313,40.58313903367386],[-73.93455992902898,40.58316541362909],[-73.93456057101983,40.583020173832445],[-73.93569071639767,40.583275093189314],[-73.93567353145987,40.58301942441272],[-73.93582439275778,40.58302111555223],[-73.93576657211088,40.58327750984988],[-73.93613233590128,40.5833144745387],[-73.93628723189404,40.583000903558506],[-73.9360966869136,40.582948745833065],[-73.93656607029148,40.582957648786625],[-73.93630031206764,40.58300295567567],[-73.93631716129535,40.5831790512013],[-73.93657592440783,40.583240505590155],[-73.93697427463762,40.58323032641149],[-73.93698767831037,40.58301627267399],[-73.93663307422459,40.582972212406844],[-73.93763269743296,40.58309626828426],[-73.93700558408266,40.58301601947157],[-73.9371245979845,40.5833467301644],[-73.93811917695093,40.583340478995325],[-73.9380942062777,40.58311681071716],[-73.93855276236508,40.58333798499146],[-73.93862755765117,40.583067021797646],[-73.93929640384748,40.58316726873515],[-73.93930153084891,40.58333321505465],[-73.9398253885057,40.583331446250675],[-73.93982883984624,40.58317053569237],[-73.93985851576804,40.583331334095625],[-73.94057745828908,40.583328225573666],[-73.94056608947726,40.583087368810865],[-73.94010903682926,40.58307506918445],[-73.94067657802275,40.583065805567514],[-73.94070019514754,40.58332762473228],[-73.94091645490738,40.583302406531494],[-73.9407384060463,40.58307561281773],[-73.94102517918685,40.58307036190638],[-73.94093422085356,40.58330230643689],[-73.94115699675488,40.58329922746826],[-73.94120155728886,40.583090465205174],[-73.94157408083575,40.58360755593956],[-73.94355392252005,40.583654248192296],[-73.94386629112068,40.58529836206252],[-73.94669113240309,40.58507307296953],[-73.94696083889755,40.58647662738621],[-73.9489216867733,40.58626072373353],[-73.9493455179803,40.5885138952175],[-73.95149337537185,40.58827838985023],[-73.957632052433,40.62071394305237],[-73.95549070038507,40.62095009671479],[-73.95503698247002,40.61855780404303],[-73.94359123636549,40.61981609815795],[-73.94540053213083,40.62937781235579],[-73.94415535255825,40.62950828520816],[-73.9455109552195,40.63079148290151],[-73.94453642924181,40.63089479573046],[-73.94462885425988,40.63183773463231],[-73.93317489425381,40.63254810126837],[-73.93342687552459,40.63488405100498],[-73.93249995700802,40.634947068938374],[-73.93298420763749,40.63955446223757],[-73.93201328427791,40.63961612712506],[-73.93226407245832,40.64194998699147],[-73.92356525947066,40.64249929828678],[-73.92283431631846,40.63556053344991]]]]}}]}