{"type":"FeatureCollection","features":[{"type":"Feature","properties":{"district":"25"},"geometry":{"type":"MultiPolygon","coordinates":[[[[-73.74863143999062,40.744978907215376],[-73.75397816564697,40.74351777553592],[-73.75495056414285,40.74561763167267],[-73.75992654625614,40.74428817970658],[-73.75975537777904,40.74391292260606],[-73.76158678573154,40.74341137119549],[-73.76075332685554,40.741653755679614],[-73.76431495493789,40.74067262683733],[-73.76246348310228,40.736547501088296],[-73.76273303467916,40.7352621626724],[-73.76511018346312,40.734557738043726],[-73.76369979236233,40.73286411684935],[-73.77491335315085,40.73091285976853],[-73.78116055033684,40.72921275860039],[-73.79174472669789,40.72578885039587],[-73.79045149323433,40.723554531823495],[-73.79035703945503,40.72300529967857],[-73.79037191586268,40.72013206965055],[-73.79089960601578,40.718875807790944],[-73.79201457179857,40.718896086708774],[-73.80000120613366,40.71659288085112],[-73.8031016389739,40.716082664629056],[-73.80682274235289,40.715744414788446],[-73.81523719239091,40.715651983821644],[-73.81520634132661,40.7142335368826],[-73.8163205594186,40.714228467998794],[-73.81524489071609,40.712050756881226],[-73.81451052057699,40.71166430924753],[-73.81419834142108,40.711037427165415],[-73.81542515569566,40.71078840101376],[-73.81641638993534,40.70986539372521],[-73.81880914412548,40.70881564755927],[-73.81910589190444,40.70848256384163],[-73.819086639523,40.70777585600979],[-73.82001844715373,40.7093770548664],[-73.82092346471192,40.7104659492969],[-73.82372319350715,40.7130217377508],[-73.82342471233419,40.71322893843977],[-73.82304015409895,40.71264680561803],[-73.82215800569132,40.71251355710226],[-73.82231782468813,40.71292395178447],[-73.82049368350195,40.7134416268429],[-73.82162385641634,40.71625378476071],[-73.82195075912226,40.71628924703386],[-73.82045250461921,40.7163945709585],[-73.81879542831938,40.71734025085358],[-73.8090403273618,40.71991160454254],[-73.80452680226848,40.72146254631816],[-73.80522247808402,40.728484066513964],[-73.80466496335214,40.738346978142815],[-73.81407629302318,40.73873896072381],[-73.81594565953138,40.73908989340088],[-73.8262222759227,40.74239502141706],[-73.83592530469411,40.74350057072068],[-73.83759831048324,40.74337839146266],[-73.83710785927036,40.74462595783282],[-73.83506931492651,40.747071062948955],[-73.83461883150079,40.74866069301551],[-73.8346744135713,40.749294828836824],[-73.83510817884616,40.75036789250337],[-73.83768167121137,40.754135362351036],[-73.83722884316246,40.75385171868131],[-73.83599840095596,40.75200573658549],[-73.83348554387914,40.75241311411722],[-73.8323910030694,40.75231730699985],[-73.8326008634781,40.75300744512144],[-73.83013807669592,40.75391522523001],[-73.8298670979931,40.75349455771558],[-73.82714389529077,40.754509581363614],[-73.82544395972354,40.75294212131435],[-73.82333379549057,40.754325227935],[-73.82280332230987,40.75387947405451],[-73.81893695381234,40.75640957797513],[-73.81585170347743,40.75366758681058],[-73.81423934080203,40.754718258733654],[-73.81336935811669,40.754205715963046],[-73.81047577489839,40.7542120319999],[-73.81076769711484,40.75207872240833],[-73.80378561604299,40.75154662807286],[-73.80444516704046,40.75372948175733],[-73.79755768034005,40.753892156191675],[-73.7945772699,40.75356301133927],[-73.79237517998384,40.75307044825971],[-73.79241910725733,40.75339516043962],[-73.78431521838534,40.75398613276612],[-73.78446762718231,40.75545961321071],[-73.77741732047056,40.75736153270221],[-73.77766748173475,40.75814833990519],[-73.77027509275024,40.76008338991743],[-73.76477141068325,40.76094790976417],[-73.76342031951155,40.756197213911676],[-73.76276145403486,40.75193165357312],[-73.76143469334428,40.75184519273571],[-73.76056471727004,40.74999990147265],[-73.75782746217166,40.75075826957934],[-73.75737034770664,40.750243856764726],[-73.75139187984158,40.7515718036731],[-73.75108971802695,40.750818657978435],[-73.75041127001197,40.75093069061001],[-73.75029070742703,40.750524749672614],[-73.75115737659814,40.75031873392183],[-73.74863143999062,40.744978907215376]]]]}}]}