{"type":"FeatureCollection","features":[{"type":"Feature","properties":{"district":"61"},"geometry":{"type":"MultiPolygon","coordinates":[[[[-74.06591003230032,40.619315800404074],[-74.06649335296383,40.61889760159536],[-74.06591003230032,40.619315800404074]]],[[[-74.0367248437491,40.63914119070946],[-74.03680662048852,40.638984221545684],[-74.03876297920756,40.63958825898071],[-74.03868804690734,40.639738256029766],[-74.0367248437491,40.63914119070946]]],[[[-74.15945602438066,40.641448332821646],[-74.15997875699615,40.64144648083656],[-74.16111242522173,40.64183545373741],[-74.16153403176914,40.64415628242218],[-74.15809750008869,40.6437575671229],[-74.15755778855947,40.64323986598113],[-74.15800633457705,40.64302367586042],[-74.15819904046337,40.642595077663586],[-74.1585874256811,40.642460384083655],[-74.15881093745415,40.6417586352431],[-74.15945602438066,40.641448332821646]]],[[[-74.02819053049342,40.64441433070903],[-74.02850116250606,40.64417756470283],[-74.02819053049342,40.64441433070903]]],[[[-74.02896958211079,40.644497461017],[-74.0291541899453,40.64458144541973],[-74.0288624112706,40.644866024225784],[-74.02909142239673,40.64460058802823],[-74.02896958211079,40.644497461017]]],[[[-74.08221272914936,40.64828016229026],[-74.08142228203741,40.648504725447005],[-74.08072838762372,40.648274873846454],[-74.07980996428704,40.64838331298811],[-74.07899546333257,40.64814255442262],[-74.07650657152858,40.64696881818354],[-74.07445282563641,40.64506748822084],[-74.07395839976465,40.645193205445715],[-74.07359107919277,40.64499892804317],[-74.0734985136762,40.64508337347528],[-74.07385653684726,40.6454248160998],[-74.07333813856984,40.64578311616245],[-74.07324539464851,40.64570492526971],[-74.07369011806499,40.64530572455757],[-74.0732385381076,40.64496386391],[-74.07302520507201,40.645131238320324],[-74.07320225954697,40.644943941243696],[-74.0730555988172,40.6448079178411],[-74.07342590747587,40.645000568012804],[-74.07312184183509,40.644714799469135],[-74.07279850341496,40.64491012376894],[-74.0725877555387,40.644790863173824],[-74.07270308267603,40.64464559562772],[-74.07256468232953,40.644719748858336],[-74.0725322202573,40.64455679217041],[-74.07272467145079,40.64462088376627],[-74.07269828799026,40.64444127346753],[-74.07165829759784,40.645033746435196],[-74.07230919046792,40.64457775355492],[-74.07201843213238,40.644411932941026],[-74.07229190281822,40.6442660478206],[-74.07218488601615,40.64411046489273],[-74.07186080870875,40.64420176177033],[-74.07175648087781,40.64401184549878],[-74.07205817506036,40.6439004276988],[-74.07200080155476,40.64378113296976],[-74.0716496940852,40.6437868857248],[-74.07159679201159,40.64346015748881],[-74.07135612176633,40.64349730455621],[-74.07141659716515,40.643193109595934],[-74.07113105720936,40.64320526367847],[-74.07150263147456,40.64312930469566],[-74.07147777322615,40.64280829377516],[-74.07164892198995,40.642679931679815],[-74.0721843496904,40.64271409328926],[-74.07210952444632,40.64246321679294],[-74.07037430990596,40.642691403053334],[-74.0703292371539,40.64252612813249],[-74.07323829183596,40.64218473608254],[-74.07314400585976,40.64185297397773],[-74.07024658698661,40.642206974297046],[-74.07019399559272,40.64200750330808],[-74.07308689819385,40.64163681496981],[-74.0728900560963,40.64092267287623],[-74.0700184914874,40.64127813223767],[-74.06998354653898,40.64106894261439],[-74.07285041194937,40.64080368844521],[-74.0727769001111,40.640528963147524],[-74.07307725837745,40.640513311796504],[-74.07309035578784,40.638618999686045],[-74.07292933384748,40.63859264983843],[-74.07301444562208,40.638409384119],[-74.07237941129381,40.63816272607427],[-74.0726063279755,40.6381363083472],[-74.07257275212609,40.63787190987609],[-74.07348353801726,40.637787357935785],[-74.07337342888036,40.6366107256396],[-74.07209483807509,40.636647277624746],[-74.07335822045596,40.636536094165336],[-74.07290753967621,40.633634367681196],[-74.07332821316406,40.63205844299052],[-74.07298474612325,40.63030897898163],[-74.06802173543952,40.62878758518564],[-74.06813019247991,40.62853904609168],[-74.0729117793656,40.62999637940668],[-74.07229520282672,40.62713842700826],[-74.07319206053835,40.62707053042593],[-74.07351582307864,40.62686426150375],[-74.07813637011682,40.626507020153035],[-74.07997022704832,40.624483307966244],[-74.0795976266715,40.624601362567084],[-74.07825631435878,40.621980426913964],[-74.08189136429809,40.620828218744556],[-74.08148275601975,40.61975672792679],[-74.08197891312157,40.61877832848284],[-74.0811033252463,40.61778874553602],[-74.07725958997125,40.61476264032164],[-74.0772610824378,40.61430695133892],[-74.08015884286579,40.60919071620905],[-74.08083621907014,40.60945113195666],[-74.08296225836273,40.60736841145065],[-74.08794592987387,40.61031870592433],[-74.08885856157617,40.60941429531213],[-74.08958811607526,40.609848086449695],[-74.0889969411967,40.610664391251056],[-74.08951295446597,40.61087938616628],[-74.0888558065391,40.61185347728836],[-74.08976378279645,40.612226183108554],[-74.088687287673,40.61370661020598],[-74.0904882089684,40.61428986141633],[-74.0901688752221,40.61475945468107],[-74.0920434232971,40.615407524698135],[-74.09257488451144,40.61539485506622],[-74.09268171304245,40.61598816096297],[-74.09430228018812,40.61665559907243],[-74.0940733428341,40.61803286467363],[-74.09371588245375,40.61859519825057],[-74.09322592877997,40.618772134081766],[-74.09192208657743,40.61857506152297],[-74.09066772022706,40.61870885687135],[-74.0898592609838,40.61990106425092],[-74.08871695638787,40.62092718213717],[-74.08848548551065,40.6236930394264],[-74.08892377870461,40.62770863107391],[-74.08851848052123,40.62891990101879],[-74.0868223473287,40.630317859612845],[-74.08807764880218,40.63108071673748],[-74.08761781639008,40.631647512526534],[-74.09003705407396,40.63277076138559],[-74.09114201643742,40.63269959586008],[-74.09213477423579,40.6333517739929],[-74.09319068009034,40.63312414455046],[-74.09442300215922,40.63334479262684],[-74.0957646588542,40.633166148882694],[-74.09726705781388,40.633998098252064],[-74.09903558388388,40.6340410309666],[-74.10252681728582,40.634662138457486],[-74.11507273357255,40.63475846415796],[-74.11719947073985,40.63456809813073],[-74.11614321176967,40.62870226452713],[-74.11326249557811,40.623054425040934],[-74.1170137582189,40.62452357781765],[-74.11840620824532,40.62376140148513],[-74.11828119363128,40.62313702602748],[-74.11842396095068,40.62260314235937],[-74.11926246748564,40.6218936565548],[-74.12466997734279,40.62080403275335],[-74.12648824895138,40.62057487188512],[-74.12706446907454,40.62073946371547],[-74.13370303060685,40.620295668534986],[-74.13772285556679,40.6209993002382],[-74.14024388190987,40.61149172955269],[-74.14998477050442,40.60953841783097],[-74.15383151177517,40.61246290579141],[-74.1528745087405,40.616118645565024],[-74.15219010759331,40.617538659268206],[-74.15260569756504,40.61755450739596],[-74.14858177665273,40.621705412096205],[-74.1500062812923,40.6224349474086],[-74.15154219170282,40.621201448183584],[-74.15725511924904,40.62160345977458],[-74.15683015387137,40.62202943103033],[-74.16121888420217,40.622688670097396],[-74.16044585002187,40.62485408803954],[-74.16024419368385,40.626497425332],[-74.1605026861884,40.6265296273599],[-74.16022466453221,40.638339061840476],[-74.16002615418724,40.638733673476615],[-74.15973010466988,40.63857844467692],[-74.15957712397915,40.63799258321208],[-74.15922711622946,40.63779611975722],[-74.15900957887429,40.63882257790998],[-74.15893299160665,40.638264017819175],[-74.15789262953881,40.6379650512313],[-74.15773352572349,40.63887903516548],[-74.1577736593691,40.637957159746236],[-74.15610276490888,40.6379395908863],[-74.15611488264739,40.6375307471646],[-74.15569862053152,40.63751793890434],[-74.15568515769912,40.6377874824073],[-74.15482932461856,40.63772385541897],[-74.15469263864526,40.6391939681144],[-74.15477829011988,40.63772154555106],[-74.15459670163327,40.63734334406921],[-74.15425270073519,40.63717231088846],[-74.1534140659779,40.637272719079455],[-74.15279703511403,40.637132754852736],[-74.15269700449667,40.63764184172482],[-74.15221806884477,40.63769258171702],[-74.15229786175502,40.63827428826375],[-74.15213675899915,40.638290747955836],[-74.15204639233266,40.63766721531566],[-74.15119545007178,40.63773078853634],[-74.1513951761365,40.63939651305763],[-74.15124827966572,40.639409342886104],[-74.1511296509037,40.638500679571514],[-74.15055638842084,40.63855933066745],[-74.14996782090546,40.63815007524942],[-74.14967889830886,40.63751767426077],[-74.14944732900051,40.63740539948566],[-74.14931235597334,40.63752595814057],[-74.1494188170834,40.63829164054715],[-74.14919418155688,40.638668331372095],[-74.1488817554377,40.638705207973416],[-74.14855815092318,40.63743783803],[-74.14877792005885,40.63887625112789],[-74.14602173101719,40.6390945497009],[-74.14605733618387,40.639229257690054],[-74.14519279481542,40.63937849765491],[-74.14386163595745,40.63888796251427],[-74.14381734530271,40.639207478924156],[-74.14357308593789,40.63922678525729],[-74.14336103010835,40.63970984518127],[-74.1425776933605,40.639534137502004],[-74.14238795149326,40.639641210830085],[-74.14229766980965,40.64030580709384],[-74.14155622972353,40.640366768817195],[-74.1414804740345,40.64009219429565],[-74.14076253645278,40.64058939691139],[-74.13757574838482,40.6410011523713],[-74.13737001749979,40.641295463489136],[-74.13435269573631,40.64188679740535],[-74.13299172393485,40.6414169366648],[-74.13240283577125,40.641704388984685],[-74.13125581180257,40.641596830764016],[-74.13146199764817,40.64131010407523],[-74.13032503548034,40.64077847230712],[-74.13012324901676,40.64101654989436],[-74.1301837001321,40.64072382608324],[-74.12967785166228,40.64138531255307],[-74.12949057637367,40.64135483519601],[-74.12997740262725,40.640729872855786],[-74.12930713186852,40.640337411211156],[-74.12922977261063,40.640484372352574],[-74.12893301209901,40.640413929488034],[-74.12890729033452,40.641194827586325],[-74.1288120184713,40.64022697750409],[-74.1275267724088,40.64015530471665],[-74.12702736021,40.63931907848706],[-74.12705362205264,40.640241737639165],[-74.12644823919024,40.640377994199206],[-74.12606982862293,40.64025447319018],[-74.12619996291652,40.64126431430311],[-74.12636808688981,40.6413323804871],[-74.12564026870602,40.64141849208245],[-74.12613276551232,40.64126438802843],[-74.12599542422451,40.64023124262892],[-74.1241557844501,40.640134716640205],[-74.12285630555246,40.64082050834647],[-74.12260363601618,40.64059707390291],[-74.1229072489857,40.641019266617285],[-74.12282565410405,40.6412938760178],[-74.1218414699557,40.64140589477437],[-74.12199083807539,40.64155463949961],[-74.12180661082068,40.64141215907573],[-74.12177911197513,40.64159254711715],[-74.1215534360538,40.64161162832493],[-74.12176052602737,40.64157431456],[-74.1217237531887,40.64142866444405],[-74.12132617111651,40.64160656922905],[-74.1213119482967,40.641452531325214],[-74.12117246275062,40.641669145070054],[-74.12128074794364,40.64143249598728],[-74.12107727405116,40.641607420086295],[-74.12118039507698,40.64138344537973],[-74.12071317588692,40.64104578219102],[-74.11993480088911,40.641197604384026],[-74.11997111213586,40.64131481456246],[-74.11960716747868,40.641380309354346],[-74.11995699875766,40.64220945342925],[-74.11952986105756,40.64146991432207],[-74.11909720493722,40.641473466523564],[-74.11940029532455,40.64237937853291],[-74.11900348200398,40.64146461501284],[-74.11861635236274,40.64153036502918],[-74.11896077402352,40.642504515993394],[-74.11883624616942,40.64254186406052],[-74.1184018508355,40.64152980054306],[-74.11791728683136,40.6418258769523],[-74.11769850319418,40.641543133286085],[-74.11712100630398,40.64166785704609],[-74.11722408282961,40.64184409308031],[-74.11672187663888,40.642031756096756],[-74.11722470082543,40.64302735996277],[-74.11666607646228,40.6421067663341],[-74.11630000082745,40.64220266510244],[-74.11667041382688,40.64318982489303],[-74.1161420863572,40.642216454150535],[-74.11535082182931,40.64247054015837],[-74.1137966608601,40.64360951580808],[-74.11395094068483,40.64413659167542],[-74.11288806510967,40.644532444637726],[-74.11385709322158,40.64407601166737],[-74.11365370966897,40.64368755592379],[-74.11333023192543,40.64372349708392],[-74.11116129469256,40.64509642318145],[-74.11176646650023,40.64470616034511],[-74.10973932564484,40.645463728184914],[-74.10472221599763,40.64556365739964],[-74.10412356301745,40.64574043220029],[-74.10013219187306,40.645064050450685],[-74.09880066885808,40.64504703431097],[-74.09849981625507,40.64537036195395],[-74.09604555281581,40.64537274744287],[-74.09298828187646,40.645972780752665],[-74.0893975253534,40.64731035953143],[-74.087674426815,40.64823529361497],[-74.08570754378212,40.64888055337064],[-74.08484403215716,40.648891147339626],[-74.08221272914936,40.64828016229026]]],[[[-74.02135959921641,40.650997278611065],[-74.02112707783844,40.65094321261822],[-74.02124652439399,40.65083497256438],[-74.02135959921641,40.650997278611065]]],[[[-74.02552971543656,40.65147855069301],[-74.02491122849018,40.6511062852909],[-74.0251025719024,40.65089330557706],[-74.02484436363463,40.650599638559754],[-74.02520581187575,40.65081846789953],[-74.02541553929463,40.6506186970827],[-74.02605133196799,40.6509943007433],[-74.02552971543656,40.65147855069301]]],[[[-74.02417752973396,40.651191773212354],[-74.02550139045745,40.651839851034374],[-74.02541604028593,40.65193380685525],[-74.02417752973396,40.651191773212354]]],[[[-74.02098261225878,40.65115682316047],[-74.02233734666834,40.65191060538179],[-74.02098261225878,40.65115682316047]]],[[[-74.022723727958,40.65129732327153],[-74.02285141795983,40.65116919516191],[-74.02536890150519,40.652721436927436],[-74.02522662972662,40.65282985695983],[-74.022723727958,40.65129732327153]]],[[[-74.01775247162378,40.674047722892546],[-74.0180107732054,40.67391318105255],[-74.01775247162378,40.674047722892546]]],[[[-74.01841235821729,40.67536544943174],[-74.0181707090551,40.675290905663445],[-74.01838692796325,40.67509684652105],[-74.01841235821729,40.67536544943174]]],[[[-74.01092841268031,40.68449147254313],[-74.01193259977079,40.683887749155076],[-74.01217596614636,40.68409518562867],[-74.00835446532174,40.68640020025087],[-74.0081641459391,40.686174717161656],[-74.01092841268031,40.68449147254313]]],[[[-74.00500373315074,40.687605985401035],[-74.005629863304,40.686784206043804],[-74.00783293766683,40.6873850551629],[-74.00742012154097,40.6882062904361],[-74.00500373315074,40.687605985401035]]],[[[-74.00382038919733,40.68892964469948],[-74.00459270521772,40.68821522298678],[-74.0067843843981,40.688826879958455],[-74.00636461225267,40.68966966863715],[-74.00382038919733,40.68892964469948]]],[[[-74.00297565436566,40.69042657592089],[-74.0034092162452,40.68961326116028],[-74.00575900670344,40.69023640001637],[-74.00534209624915,40.69109160297804],[-74.00297565436566,40.69042657592089]]],[[[-74.04387761639944,40.69018767587399],[-74.04350596078567,40.68968735963629],[-74.04270428426766,40.6901552046445],[-74.04255372037339,40.68996275979236],[-74.04346752310298,40.689636990606225],[-74.04364078627445,40.688766560072914],[-74.04438521777247,40.688516177900276],[-74.04627539003633,40.68932742539434],[-74.04680284898575,40.689953256266215],[-74.0474765152837,40.68961136999821],[-74.047729627631,40.68991531896879],[-74.0474312612351,40.68980389047109],[-74.04689205500591,40.690059098322806],[-74.04720029366216,40.69042481512135],[-74.0471702948939,40.690991328742676],[-74.04614707208665,40.691122646033364],[-74.04387761639944,40.69018767587399]]],[[[-74.00199317712729,40.692328683412136],[-74.00179839826068,40.69227001601038],[-74.00216095506005,40.69223814086755],[-74.0020632979122,40.692444000334866],[-74.00199317712729,40.692328683412136]]],[[[-74.00132562399813,40.69146310033224],[-74.00069905841879,40.69061185841923],[-74.00479415294552,40.69176162037459],[-74.00440941259976,40.692528800389496],[-74.0019693859211,40.69184320882024],[-74.00132562399813,40.69146310033224]]],[[[-74.0167475609607,40.69334336821777],[-74.01540359141647,40.6930664973093],[-74.01538919768244,40.693298134665696],[-74.01517482202624,40.69325668033564],[-74.01525951035647,40.69303681423205],[-74.01512878294328,40.69324379583458],[-74.01494315033483,40.69314102193099],[-74.01515612159503,40.693015515394414],[-74.01422123084896,40.69282290584166],[-74.01343563361452,40.69211544203167],[-74.01250258675178,40.692303580463125],[-74.01229731492555,40.69256825483527],[-74.01181185647236,40.69247933506453],[-74.01190309722561,40.69209058350803],[-74.01246140165135,40.692212624918625],[-74.01333264149608,40.69201997010252],[-74.01260856859395,40.691364104127345],[-74.01203417616576,40.691503076685855],[-74.01259753152567,40.69133433554468],[-74.01252783209975,40.691146337338125],[-74.01182575354973,40.691064816216326],[-74.01219500090085,40.69102884756899],[-74.01221017410677,40.69079169680143],[-74.01197151318823,40.690770955509684],[-74.01198056761248,40.69060640727196],[-74.012231311469,40.69046133077529],[-74.01230688304491,40.68928018293776],[-74.01316926402752,40.68815477070077],[-74.01488097975022,40.68725457099129],[-74.01604730539535,40.687338006800495],[-74.01704986609217,40.68687598741661],[-74.01664664084757,40.686416347233504],[-74.01514391088018,40.686437034043095],[-74.01667351529993,40.68630516855369],[-74.0171209910106,40.686843337134135],[-74.02054367293081,40.68527206792613],[-74.02020686710516,40.684833832574654],[-74.01939842391928,40.68508740404737],[-74.02095255010296,40.68438443164738],[-74.02027819846491,40.68480913517466],[-74.02061267235811,40.68524039019821],[-74.02224078898519,40.68451840759948],[-74.02211854383413,40.68435195080165],[-74.02233552903563,40.68447639360439],[-74.02259359581042,40.68435969595013],[-74.02213250186865,40.68376767188283],[-74.02305574749595,40.68291694544531],[-74.02319462834663,40.683000498062334],[-74.0223682355767,40.68377991679415],[-74.0227589902996,40.68428444833244],[-74.02354160370125,40.68400298359273],[-74.02464809241233,40.683978566613234],[-74.02567183758212,40.684236456205234],[-74.02633404242411,40.684801697724346],[-74.02662819083865,40.685526804749834],[-74.02642577243203,40.68617533982978],[-74.02020527434277,40.6920339238544],[-74.01973308196347,40.693114107487055],[-74.0167475609607,40.69334336821777]]],[[[-74.00154172920259,40.69278596325291],[-74.0017436211104,40.69240674970565],[-74.00400795971098,40.69320819963255],[-74.00345348490625,40.694051630671524],[-74.00127014968672,40.69329606217649],[-74.00154172920259,40.69278596325291]]],[[[-74.00078295341706,40.69428651566478],[-74.0009586848302,40.69406908358239],[-74.00301393829082,40.69477784447932],[-74.00239802583795,40.695711654864674],[-74.00026872377788,40.6949658025781],[-74.00078295341706,40.69428651566478]]],[[[-73.99837760685772,40.698063296146266],[-73.99887117097656,40.697157577296025],[-74.00104903057523,40.69790823619499],[-74.00048768562517,40.6987577776347],[-73.99837760685772,40.698063296146266]]],[[[-74.04037134801165,40.70012264306107],[-74.03885397699936,40.69962589529322],[-74.03836269424626,40.698673137972996],[-74.03921649985952,40.698571475606236],[-74.03956713890962,40.69877410432477],[-74.03993272132986,40.69854442279383],[-74.04025555083275,40.698804823307505],[-74.03979339404114,40.698956229999375],[-74.04043303435445,40.699399877628046],[-74.04074713631029,40.700160926312165],[-74.04037134801165,40.70012264306107]]],[[[-73.99799957540132,40.69879768554447],[-74.0000184043362,40.69946604807382],[-73.99947463838926,40.7003227780185],[-73.9974989831,40.69963886932142],[-73.99799957540132,40.69879768554447]]],[[[-74.01232543741908,40.71887245341157],[-74.01372415114957,40.71367830965932],[-74.01012167469975,40.71208469638972],[-74.01046533908554,40.711534547246615],[-74.0090626472496,40.710886703620126],[-74.01325396369612,40.70587051400885],[-74.01332610865545,40.70503078835881],[-74.01154980974597,40.70495073547184],[-74.00794861212013,40.70554618831642],[-74.00629274599441,40.70423376790587],[-74.00474876285124,40.705231221988946],[-74.00434050782808,40.70496272980931],[-74.0065959191387,40.70368590194944],[-74.00530412596079,40.702559865633226],[-74.00549427805099,40.70243138145317],[-74.00553546138177,40.70264552110702],[-74.00567522249854,40.702584072197745],[-74.00678502191047,40.70356812740289],[-74.00929072600606,40.70193007131956],[-74.00869964313567,40.70113986754241],[-74.00775549150644,40.70154800217457],[-74.0075913620422,40.7013280810483],[-74.00853611510774,40.700919695745235],[-74.008349275591,40.700669348388395],[-74.00862036163869,40.700552163713446],[-74.00958483017605,40.70183738556342],[-74.01118088303541,40.70145139225388],[-74.01110775373041,40.70127576447384],[-74.01128983905525,40.70124998224445],[-74.01079959311006,40.700207213007154],[-74.01115033556839,40.700898400101124],[-74.01135836291354,40.700851958636505],[-74.0113340941042,40.70056835368245],[-74.01150291143712,40.70081505897438],[-74.01172926817476,40.70077011805986],[-74.01163147918649,40.70045821824831],[-74.01185378549589,40.70073892145034],[-74.01208668214693,40.700681308739355],[-74.01196196116918,40.70003754559562],[-74.01239160032284,40.70062052809419],[-74.01259392327508,40.70057083347261],[-74.01261382087365,40.70010826581126],[-74.01290881793956,40.70052361169369],[-74.01310747847371,40.70050745218082],[-74.01311303826304,40.69977416538285],[-74.01327349483086,40.700496870227944],[-74.01348560832739,40.7004782229086],[-74.01353285018102,40.70010816142342],[-74.01367479314794,40.70012582145101],[-74.01355826959487,40.700939870830716],[-74.01395152756511,40.70099098246014],[-74.01422063195494,40.700111491365895],[-74.0141523878731,40.70057786628629],[-74.01428920741134,40.70064414476523],[-74.01467119992007,40.70021040119729],[-74.01432384363027,40.700661304629875],[-74.01464323234912,40.700817304325284],[-74.01509832270126,40.700334265523615],[-74.01467365628488,40.70083460902858],[-74.0150211366168,40.70099250401358],[-74.01514231812101,40.70084289235444],[-74.01579351711152,40.701346905807675],[-74.01714508062659,40.70270534997635],[-74.01766881307273,40.70359131346783],[-74.01787839340639,40.70353850803738],[-74.01767132020267,40.703606427383974],[-74.01757035640019,40.70418388098674],[-74.01779454520292,40.70423489759895],[-74.01781758697946,40.70393792249673],[-74.01795473982637,40.70397578611135],[-74.01784441106724,40.70424203993809],[-74.01844704670988,40.70416235496205],[-74.01865886498044,40.70442877929025],[-74.01748090483301,40.70466726085802],[-74.01811302905885,40.704553602333924],[-74.01888747947997,40.704729142804425],[-74.01934254624474,40.706093672527274],[-74.01912275963412,40.7069758143376],[-74.01863058372714,40.707139715772044],[-74.01884889814508,40.70697031235039],[-74.0185351326967,40.70691832201425],[-74.01819029259647,40.7078216261101],[-74.01885500911968,40.70804753444759],[-74.01777014254505,40.71283457478931],[-74.01780037888393,40.71234512415872],[-74.01662424425291,40.712157318995494],[-74.01661840078305,40.71275615002984],[-74.01632006627581,40.713407982478444],[-74.01757952508993,40.71359549038381],[-74.01772496219296,40.71307018162288],[-74.01671018605823,40.718624176058164],[-74.01321322719193,40.71831571989594],[-74.01303068126435,40.71913145581929],[-74.01229165951248,40.71903894819864],[-74.01232543741908,40.71887245341157]]]]}}]}