{"type":"FeatureCollection","features":[{"type":"Feature","properties":{"district":"71"},"geometry":{"type":"MultiPolygon","coordinates":[[[[-73.92640556921116,40.87762147653752],[-73.92629548797387,40.8774884680906],[-73.92645784901016,40.877258188506374],[-73.92619292255573,40.87706441938846],[-73.9245703699118,40.877428912633476],[-73.92329476733984,40.8772644349574],[-73.92239768169317,40.87678022314138],[-73.92261383017286,40.87440727181001],[-73.92217677267492,40.87367506488467],[-73.9212554107687,40.87308244881917],[-73.92055602106612,40.87299877396328],[-73.91979301672416,40.873606512158005],[-73.92062699165687,40.87423481112893],[-73.92080255630357,40.874194058866856],[-73.92070010598985,40.8743919336096],[-73.92118186508976,40.875137840850826],[-73.92091322183161,40.875464660315345],[-73.91887525897245,40.87467899639279],[-73.91927438318044,40.8736518804022],[-73.91891853961114,40.87320626096117],[-73.91842924485921,40.87300977806413],[-73.91969887598339,40.87206353003431],[-73.91925481689898,40.87100784213337],[-73.92182462029267,40.86928517768872],[-73.92591873070076,40.867769201006645],[-73.92500420674214,40.866336544895375],[-73.9272691502576,40.86553455981874],[-73.92889072625469,40.86466299488133],[-73.92983381954775,40.86378419182656],[-73.93005271167837,40.863336947761375],[-73.92995454466816,40.862548786927704],[-73.9301105682625,40.861754497529354],[-73.93131375642105,40.85932734907314],[-73.93228380033857,40.85944779624024],[-73.93410753425185,40.856020659954346],[-73.93462691535909,40.854489376993605],[-73.93666142761289,40.85044732621032],[-73.9357539429627,40.85016820285041],[-73.93767236977699,40.848392728474614],[-73.9379750672236,40.847710660370566],[-73.93902463736192,40.843942110159674],[-73.93933455208136,40.84168046046563],[-73.94396782596722,40.835308912254426],[-73.93915487908114,40.83327799289765],[-73.94034071953674,40.831640370745966],[-73.94034643247527,40.83045784284966],[-73.9401413121009,40.8303719888809],[-73.93848743202057,40.832994503677426],[-73.9346739306833,40.83606490323929],[-73.93445239397371,40.83598096015007],[-73.9349153357865,40.83523082193897],[-73.93516725294636,40.83287499227608],[-73.93442396339051,40.82704289397231],[-73.93397241531086,40.819729574765795],[-73.93383000762066,40.81949109558824],[-73.9362269451619,40.82043825545376],[-73.93764373525447,40.818510591835555],[-73.94047707008409,40.81972059794962],[-73.9395659964696,40.820965429690084],[-73.94350594463334,40.82262775327956],[-73.94516004895775,40.82087904397907],[-73.94384275680827,40.8236478015426],[-73.94622236660508,40.82465161919311],[-73.94808289815631,40.82210802201373],[-73.95230483968676,40.823887235546096],[-73.95276230921822,40.823263254403564],[-73.95482962281444,40.824126208094796],[-73.95599170500644,40.822351123106095],[-73.95734093341201,40.82116329859649],[-73.95840710847524,40.821497466658606],[-73.9615754403509,40.81790997171836],[-73.9620310579599,40.81808633097936],[-73.95999892229345,40.82038294480247],[-73.95981462674555,40.82029787470156],[-73.95913061580629,40.82116895377493],[-73.95942624349648,40.821252381738134],[-73.95914685715192,40.82157132855115],[-73.95903294155774,40.82151374622867],[-73.95923467193995,40.82127782527061],[-73.9590896024009,40.821206247056104],[-73.95881892233997,40.82151852484693],[-73.9589417294171,40.821569364009754],[-73.958745236605,40.82180551197381],[-73.95900018289892,40.822409728374524],[-73.95922976213465,40.8222869101325],[-73.95990999444398,40.82257111982217],[-73.9596033246028,40.8229946867835],[-73.95892614718302,40.822711755441524],[-73.95904953331708,40.82254133536842],[-73.95852731524258,40.82184375665232],[-73.95793904909121,40.822774353547466],[-73.95955575493863,40.823693797768954],[-73.95725896977147,40.82711730987327],[-73.95694866420469,40.82700055393517],[-73.9563178451031,40.827944215388754],[-73.95503912978396,40.82741343191204],[-73.954697366195,40.82791838551438],[-73.95454188062128,40.8278614763657],[-73.95021218560015,40.83430311995851],[-73.94954600729373,40.836604371501984],[-73.94928285089011,40.836740786563446],[-73.94954210504484,40.83687963192584],[-73.94856054520527,40.83956488516188],[-73.94738322154262,40.84194082580206],[-73.94612416421772,40.843892496557295],[-73.94617174983877,40.8453928915808],[-73.94651730200619,40.845995183901344],[-73.94635078049936,40.846240331289444],[-73.94682445342686,40.847134261567405],[-73.94663550012669,40.84891242505988],[-73.94702782494721,40.85004183181262],[-73.94696441759594,40.85046552581838],[-73.9465022945865,40.85097566560892],[-73.94627501496706,40.85084097717317],[-73.94611744105192,40.851172582517314],[-73.94565283626454,40.851211097838814],[-73.94466721178145,40.85192122600692],[-73.94432518482476,40.851822576438785],[-73.94347978545667,40.8522818824447],[-73.94186996426673,40.85386773944298],[-73.9402934749712,40.85664177065778],[-73.93911094164396,40.858040911225906],[-73.93830957434292,40.859380523608294],[-73.9375294417256,40.8600966412822],[-73.93647561664848,40.86192659167348],[-73.93401664426698,40.86503554829179],[-73.93266332721463,40.86723706643717],[-73.93290171891769,40.86729304389986],[-73.93283958205063,40.86741527691158],[-73.93259794852806,40.86731134967057],[-73.93242538215391,40.867568247921255],[-73.93226769826255,40.86856231897257],[-73.93249214298633,40.86867751915986],[-73.93265083512807,40.86846503348205],[-73.93252354560038,40.8687220783591],[-73.93225427749157,40.86868339885568],[-73.93256795169879,40.86904439147401],[-73.93218903826079,40.86936697638926],[-73.93246883069908,40.86947609938716],[-73.93235370807277,40.86975525529677],[-73.93235934466003,40.869507363219554],[-73.9321333660305,40.869415975441186],[-73.9320534384771,40.869600750744546],[-73.93220600531866,40.87009644510462],[-73.9319137713681,40.871129493722904],[-73.92997686743148,40.874338962330555],[-73.9290134580979,40.8757386600903],[-73.9281462360357,40.87652252894412],[-73.92753082127489,40.87671053481318],[-73.92640556921116,40.87762147653752]]],[[[-73.92359742020388,40.878898712992836],[-73.92359742020388,40.878898712992836]]]]}}]}