{"type":"FeatureCollection","features":[{"type":"Feature","properties":{"district":"51"},"geometry":{"type":"MultiPolygon","coordinates":[[[[-73.9892168537606,40.66975347507666],[-73.99173365211004,40.66673659544225],[-73.98695101815666,40.66442521280717],[-73.98745316210237,40.6638232278872],[-73.98665515492705,40.663437393487804],[-73.98756808978689,40.66233915385416],[-73.987220814871,40.662130629022116],[-73.98774027414869,40.66160286556072],[-73.986681707948,40.66092986463731],[-73.98784059430345,40.659816863538],[-73.98563745141432,40.65848305320036],[-73.98622761223847,40.657920482763316],[-73.98179568718419,40.65524609715838],[-73.98036334722282,40.647693744604375],[-73.9883498673701,40.64456224388752],[-73.99622742149047,40.63933119311342],[-74.00416437893013,40.6441271508523],[-74.00591235211326,40.64244496956129],[-74.00811636364485,40.64377628755334],[-74.01750512326755,40.63474754258683],[-74.01824460047581,40.6330335689668],[-74.02574552356688,40.63646534460294],[-74.02566615271479,40.63666778168416],[-74.03089089051618,40.638278830731444],[-74.0303223446088,40.63964722123998],[-74.02916023056942,40.64077491687345],[-74.02885230062455,40.6408024424046],[-74.02889666775039,40.64121402181247],[-74.02905539842791,40.6417253425549],[-74.02983102898706,40.642319357022764],[-74.03254173861627,40.643825484351915],[-74.03226870865848,40.644074379795335],[-74.0318970856032,40.64388934936976],[-74.03051830863396,40.645274424706635],[-74.02820569610986,40.6440159828903],[-74.02604948466303,40.646261350326206],[-74.02974078277036,40.648486025707825],[-74.02938990486598,40.64880405461148],[-74.02571758804812,40.64661549229113],[-74.025381492653,40.6469123462267],[-74.02507111430086,40.64672561637863],[-74.0241456605057,40.64761510126002],[-74.0251291195524,40.64832318145743],[-74.02496792117137,40.64860596226769],[-74.02553864578064,40.649782159850815],[-74.02477160495674,40.65068770743557],[-74.02382347395064,40.65135378491331],[-74.0230599104703,40.65097430413495],[-74.0226216200214,40.65131155917606],[-74.0215413838523,40.65067162341387],[-74.0208986287085,40.651247275721055],[-74.02380703903127,40.65304472851167],[-74.02359434563564,40.65321636946438],[-74.02195900090598,40.65222278197094],[-74.02123165456227,40.652697024715934],[-74.0211867002789,40.65283983689552],[-74.02320464727141,40.654096116818046],[-74.02306219155223,40.65423323629199],[-74.02210195228459,40.65358795431028],[-74.02162946361489,40.65364516521611],[-74.02114963484493,40.65421075521175],[-74.021824797455,40.654656175785576],[-74.02164486415376,40.65487898288005],[-74.02047461886177,40.65421658922721],[-74.01919203025422,40.65402259849431],[-74.0186223837457,40.65349134952563],[-74.01811897876486,40.65388527160802],[-74.02025589052927,40.655118262881324],[-74.02005182454297,40.655335948874644],[-74.01787407223816,40.65406150233102],[-74.01715319581027,40.65477510436229],[-74.01980081651999,40.65648721058484],[-74.01970596410247,40.656581164253794],[-74.017267159366,40.65519418848926],[-74.01691617917076,40.65548327546042],[-74.01665048025755,40.655338796572266],[-74.01639437533777,40.65562064285095],[-74.01910843803122,40.657368884303644],[-74.01860569526993,40.65784587402293],[-74.0158537012281,40.65621324005291],[-74.01543632335643,40.65663239675976],[-74.01786573175674,40.65830844729862],[-74.01768549175469,40.6584529927614],[-74.01504738221857,40.656950386693595],[-74.01442130484553,40.65760802195157],[-74.01745803021922,40.659450197889576],[-74.01554165389007,40.6607583554763],[-74.01400428392415,40.65981196344029],[-74.01366273992603,40.66002878063704],[-74.01183862056553,40.658912837274904],[-74.01110750476306,40.659706274580735],[-74.01402247744022,40.66152974744018],[-74.01315554938815,40.661981597726125],[-74.01265358811494,40.66198165403776],[-74.00859957034285,40.65952092309837],[-74.00745858163896,40.66055847621009],[-74.01037201363219,40.66239887973006],[-74.01046331724494,40.66264211979023],[-74.00955074208035,40.6632676941305],[-74.00868371591301,40.663372012840405],[-74.00616141136321,40.66184506899067],[-74.00568594822894,40.66227474086325],[-74.00428358316125,40.66144489460403],[-74.00414624892214,40.66156163568148],[-74.00622698313924,40.66278782786111],[-74.00592360503035,40.66310825073926],[-74.00380815470885,40.66190794572834],[-74.0034880110065,40.66224055612868],[-74.00455498488712,40.66281637291291],[-74.00473298121777,40.66249650399685],[-74.00535812864251,40.6628691297319],[-74.00497157758612,40.66306821324226],[-74.00519233775087,40.66320155309677],[-74.00538014413925,40.66288392695557],[-74.00599748682693,40.66325861082871],[-74.0056134868175,40.66345839025494],[-74.00767434594506,40.66479110926594],[-74.00730516126835,40.66459759075276],[-74.0071253264674,40.664915218474476],[-74.00652469600118,40.664547227160554],[-74.00688215307306,40.66434037294312],[-74.0066293785957,40.66418793012463],[-74.00644979980794,40.664506206799246],[-74.00584157632485,40.664138020674756],[-74.00620306585375,40.66393016821067],[-74.0060460851898,40.66384000563571],[-74.00575781045487,40.6639227568018],[-74.00584924770611,40.66450329861985],[-74.0056414075448,40.6645314913934],[-74.00565025959585,40.66390033784394],[-74.00362862508567,40.66273484753474],[-74.00340348595628,40.66298572609586],[-74.00459238636753,40.663735199833035],[-74.00432294897378,40.66405231997546],[-74.00528132177341,40.664657003524155],[-74.00486193792659,40.665064821938365],[-74.0011351950966,40.6629017235527],[-74.00049413361153,40.66331422709351],[-73.99953152609916,40.664397485937094],[-74.00292463516388,40.666462312163574],[-74.00224030991377,40.66679383514536],[-74.00161950021092,40.66676627917465],[-74.00120611348311,40.66701810720299],[-74.0014647093271,40.66716956870775],[-74.00068774868765,40.66754595189897],[-73.99998149339123,40.66745027490884],[-73.9990260099839,40.66844297212715],[-73.99902633264173,40.66900788840088],[-73.99924049105036,40.66830628656016],[-73.99907935327975,40.669038271861766],[-73.99865580691613,40.6695147955481],[-73.99891160167891,40.66964857863971],[-73.99855824468392,40.67133550167012],[-73.99876941058922,40.67160204710525],[-74.00030337808883,40.66871689249724],[-74.00105664113185,40.668945681717425],[-74.00141527103162,40.66835941434718],[-74.00221506816546,40.668578637441385],[-74.00289483876949,40.66734846594956],[-74.00319075274841,40.667263199815075],[-74.00369462000529,40.66742761120855],[-74.00363026351536,40.66756752335669],[-74.00510227346268,40.66797564772838],[-74.00586366180684,40.66799376258587],[-74.00696415096522,40.66605165585569],[-74.00475388758336,40.67072135944776],[-74.00543926529352,40.67092146823863],[-74.00754821618388,40.66705174573373],[-74.00779653349625,40.667159770777396],[-74.00708724287807,40.66859135803333],[-74.00985411921633,40.66852362833552],[-74.01154017543331,40.665085919756834],[-74.01574872816659,40.66456833629189],[-74.01690267427082,40.66484660284154],[-74.01744446050996,40.66526799635196],[-74.01788719215392,40.66585046628545],[-74.01876336878675,40.671075874494576],[-74.01933946871792,40.67162494892539],[-74.01751037152701,40.671034530984215],[-74.01648665620498,40.6649305089539],[-74.01602551776023,40.664863049290865],[-74.0159369853455,40.66547079172164],[-74.012279678728,40.66573241466164],[-74.01087664028975,40.668601615763706],[-74.01035683667315,40.66864283538869],[-74.01033846013941,40.66907819544814],[-74.01091024340414,40.66919049236966],[-74.01087343978188,40.66971011555857],[-74.01154288097575,40.66978434275043],[-74.01162527521356,40.670581028276025],[-74.01424926997892,40.6697286052398],[-74.01175350575697,40.67065775707587],[-74.01207831733413,40.67093361514822],[-74.01261963416792,40.6708419094432],[-74.01427407257722,40.67137929867941],[-74.01508006537094,40.670685673798154],[-74.0151998057007,40.67075402766451],[-74.01387273763245,40.671880761760626],[-74.01423289452782,40.672130000513214],[-74.01568625497515,40.671038834929],[-74.01297587792189,40.673327918721135],[-74.01336378284164,40.67359153743707],[-74.01511918663974,40.67215699647189],[-74.0163209992232,40.67290827006647],[-74.01457946786967,40.6744140170717],[-74.01496392250597,40.67467763079688],[-74.01816839280801,40.67193924110386],[-74.0188009477692,40.67225076484888],[-74.01727138470127,40.673608645805714],[-74.01817468579968,40.67441915013174],[-74.01783447572701,40.67525822351704],[-74.01829802655348,40.67545917968412],[-74.01888511775628,40.67508776516809],[-74.01841031333086,40.6755190609859],[-74.01850392120197,40.67583738619145],[-74.01801753511867,40.67588437755774],[-74.01791968777765,40.67651476488723],[-74.01976925679249,40.67661322491733],[-74.01995197864692,40.677103010952756],[-74.01908257452344,40.67713956404763],[-74.01917743946899,40.677826949007155],[-74.0184304072762,40.67790832136237],[-74.01841103183176,40.67840712178119],[-74.01966312717533,40.67838820177325],[-74.01827026205383,40.67855421845964],[-74.0185788272277,40.67898307947266],[-74.019547877532,40.67897944615285],[-74.01899105471423,40.67990499370397],[-74.01684837002347,40.68098575898777],[-74.01282000398867,40.68362241649745],[-74.01213481688791,40.682905928025285],[-74.01410549647974,40.68171251937566],[-74.01360863270283,40.68122194672833],[-74.01387398777992,40.68100981331911],[-74.01301835422105,40.68041237401449],[-74.00967108558883,40.6832687277152],[-74.0107731233938,40.68435861554109],[-74.0117827220121,40.68375999549946],[-74.01193259977079,40.683887749155076],[-74.007981841317,40.686275822096015],[-74.00753083240606,40.68607448791715],[-74.00717109683386,40.68635701090201],[-74.00485241603606,40.68566813081088],[-74.00453840898038,40.68635359979874],[-74.0006473800346,40.685253946560415],[-74.00329805092159,40.67952023022344],[-74.00153194421691,40.67727039766703],[-74.00067409156922,40.6755557896843],[-73.99776979411823,40.674741488131446],[-73.99881832223089,40.67257410887287],[-73.99802614126338,40.67137076575219],[-73.99763529026886,40.67208748800233],[-73.99489522426877,40.67079057646959],[-73.99387827624052,40.67200500616095],[-73.9892168537606,40.66975347507666]]]]}}]}