{"type":"FeatureCollection","features":[{"type":"Feature","properties":{"district":"73"},"geometry":{"type":"MultiPolygon","coordinates":[[[[-73.94896177083349,40.781688877172016],[-73.9507922917517,40.779179704151],[-73.9530336795171,40.78012545503886],[-73.96340154149762,40.76591119153792],[-73.96114862936811,40.764987445976146],[-73.96388310434611,40.761233286093166],[-73.96348693266822,40.76107350388551],[-73.96319187988595,40.76147641636131],[-73.96175671586694,40.76074655138803],[-73.96188959450498,40.760565404980206],[-73.96142245637516,40.76036795127163],[-73.96106754453638,40.76085809312871],[-73.9580080529691,40.75958013014918],[-73.95871908226934,40.75864023261375],[-73.9584911954165,40.758545903830644],[-73.96065638180474,40.75592314955037],[-73.96162927534917,40.7551523842593],[-73.96470952841109,40.751719415095934],[-73.96499240463407,40.75153879606052],[-73.96505548620257,40.75181258113564],[-73.96710099871719,40.752488211868474],[-73.9670185500303,40.75260074268052],[-73.96722654996037,40.75268822334029],[-73.96769834673275,40.75204080272538],[-73.96988589832242,40.752998848670316],[-73.97676067900235,40.743472497816654],[-73.98549602269048,40.747152329948904],[-73.95716243324537,40.78597963825958],[-73.95396043418002,40.78461651447179],[-73.95350260843557,40.78524710513535],[-73.95188295711606,40.78456521105171],[-73.95234095728952,40.783937058118426],[-73.9507391380787,40.78326171077707],[-73.9511992733906,40.782633392458834],[-73.94896177083349,40.781688877172016]]]]}}]}