{"type":"FeatureCollection","features":[{"type":"Feature","properties":{"district":"47"},"geometry":{"type":"MultiPolygon","coordinates":[[[[-73.97399319461375,40.6140298942427],[-73.97258982407092,40.60667153337376],[-73.97362139747547,40.606557292116925],[-73.97319525302143,40.60429754069293],[-73.9730493418838,40.604281918324986],[-73.97408390555671,40.596882943568296],[-73.98221115904596,40.59598701081328],[-73.98131969800549,40.5914834642016],[-73.98420394163318,40.591166352171],[-73.98409378813308,40.59056653505219],[-73.98432755631576,40.59034194976077],[-73.98653065848514,40.59167068977726],[-73.98998818151126,40.58846193037724],[-73.99427029797788,40.59358685430682],[-73.99402108859955,40.59364476568327],[-73.99483984044971,40.59403116548088],[-73.9986558663795,40.597268562483066],[-74.00003975683616,40.59593699286636],[-74.00347629456243,40.596822299759964],[-74.00257227922886,40.597040810592944],[-74.00372956713744,40.59735820645538],[-74.01161032912438,40.60211138807557],[-74.01356337940108,40.60258487677974],[-74.01149994952105,40.60476006025182],[-74.01701910154738,40.60765441697132],[-74.00934164498163,40.61501509604001],[-74.00494120786526,40.61235630168523],[-74.00435896788083,40.612916629416354],[-73.99945464617434,40.609950447281605],[-74.00002128092747,40.609385524784926],[-73.99588192163932,40.60688666632861],[-73.99355659531538,40.609122851227156],[-73.9913576689595,40.60779429361692],[-73.9812863830633,40.617470905421165],[-73.97497264664409,40.61366811017199],[-73.97489295756635,40.61318636891679],[-73.97399319461375,40.6140298942427]]]]}}]}