{"type":"FeatureCollection","features":[{"type":"Feature","properties":{"district":"58"},"geometry":{"type":"MultiPolygon","coordinates":[[[[-73.90730723397648,40.65627306866559],[-73.9059895179668,40.65095039452418],[-73.9016506963539,40.65375166739885],[-73.89467912492367,40.64752933536064],[-73.89541805149197,40.64704870990691],[-73.89176213395467,40.64376474641946],[-73.89102105380462,40.64424540966742],[-73.88371830492846,40.63767975868291],[-73.88969542391847,40.63380239921026],[-73.9013803418702,40.64429669702838],[-73.90668690958894,40.64087327366017],[-73.90927970102089,40.64320402824529],[-73.91229029942428,40.6414097286086],[-73.91444048668644,40.643341512088334],[-73.91946141154885,40.64023929345102],[-73.9191718039419,40.63746984127264],[-73.92283431631846,40.63556053344991],[-73.92356525947066,40.64249929828678],[-73.93226407245832,40.64194998699147],[-73.93201328427791,40.63961612712506],[-73.93298420763749,40.63955446223757],[-73.93249995700802,40.634947068938374],[-73.93342687552459,40.63488405100498],[-73.93317489425381,40.63254810126837],[-73.94462885425988,40.63183773463231],[-73.9448804281905,40.6341769544952],[-73.94391310630215,40.634236705704915],[-73.9441549218099,40.63650692382654],[-73.94512335128123,40.6364482799815],[-73.94562758162503,40.64112560732375],[-73.94372044513288,40.641242845575505],[-73.94396498588735,40.643542772158455],[-73.942029617086,40.64366389648395],[-73.94213671635059,40.644683256190774],[-73.94310769075202,40.64463636445092],[-73.94400175944757,40.652973183838846],[-73.94023039821535,40.653206996874516],[-73.94039520084755,40.65474046480649],[-73.9346455522874,40.65509584685442],[-73.93478437377932,40.65636039559005],[-73.93090354932272,40.65661035598434],[-73.93160218672786,40.663230444400774],[-73.93145550047724,40.66523381808775],[-73.9286840449078,40.665086023274434],[-73.92872204594605,40.664495569685464],[-73.92546270195405,40.66591675199176],[-73.9164858999143,40.657859089379116],[-73.91556629612182,40.65839257171841],[-73.91441247690435,40.6573624197938],[-73.91377943741749,40.65678367971154],[-73.91465843169381,40.656214254345855],[-73.91253566891943,40.65430063485825],[-73.91070974643269,40.65417873430887],[-73.91074109779946,40.65434213957211],[-73.90977962087938,40.65446625508421],[-73.9101225569847,40.65585177155428],[-73.90730723397648,40.65627306866559]]]]}}]}