{"type":"FeatureCollection","features":[{"type":"Feature","properties":{"district":"30"},"geometry":{"type":"MultiPolygon","coordinates":[[[[-73.8915449574536,40.75304729023291],[-73.89339757946344,40.75285233036415],[-73.8927082658752,40.74886306775721],[-73.89175154857074,40.74896464188567],[-73.89139145532337,40.74664100433004],[-73.88836765788741,40.7455059949886],[-73.88283144565052,40.74288837616369],[-73.88100387984115,40.7418406619902],[-73.88033721245878,40.742534127629554],[-73.87917530047774,40.74162485182131],[-73.87835025463284,40.742100981396234],[-73.87695966381409,40.74102916885436],[-73.87562264925141,40.741985288896],[-73.87479557589724,40.74128809256805],[-73.8720140192912,40.733909789437526],[-73.87185806006322,40.73369298106769],[-73.87047975005005,40.73329353172728],[-73.87124125662952,40.73190371093213],[-73.87617867593255,40.7304533267785],[-73.88039010699674,40.72890521909213],[-73.88435168040974,40.72850294733125],[-73.8841398518159,40.728382174257824],[-73.88557561938056,40.72820863212659],[-73.88720496615386,40.727694364023094],[-73.88720482610206,40.72786882893811],[-73.89071198786326,40.72599965610972],[-73.89194786116472,40.725602094660736],[-73.89379305544871,40.72536179067904],[-73.90439517407738,40.72635687785675],[-73.90632229514719,40.7270483239129],[-73.9101251695579,40.72932347512909],[-73.91173061792209,40.72996412358034],[-73.91108635468657,40.73262235309917],[-73.9085550154221,40.7379304245821],[-73.90755490341081,40.74166456390533],[-73.91019157628583,40.7419721020058],[-73.90958711299965,40.744940529345314],[-73.9086384301273,40.74510506955395],[-73.90812206086306,40.74617890494168],[-73.90991866800246,40.74776435511738],[-73.91015141522325,40.748233546051615],[-73.90944330814987,40.75075513236504],[-73.9103411180095,40.75267681551927],[-73.90901259079544,40.75427981484081],[-73.90782817537729,40.756999264899],[-73.89626218681788,40.75815848400844],[-73.89597574529142,40.75660809601123],[-73.89226101273672,40.756990061782794],[-73.8915449574536,40.75304729023291]]]]}}]}