{"type":"FeatureCollection","features":[{"type":"Feature","properties":{"district":"45"},"geometry":{"type":"MultiPolygon","coordinates":[[[[-73.94255133565295,40.58351447617102],[-73.94202033352751,40.583110423782635],[-73.94270167762981,40.58350879761415],[-73.94304709646005,40.58349212946443],[-73.94256316190977,40.58312734751663],[-73.94319506158025,40.58348966263344],[-73.94354467530924,40.583471014361265],[-73.94309334781462,40.583134545214584],[-73.94369153004571,40.583467754266145],[-73.94406764167105,40.583472009110565],[-73.94363589795744,40.583145573909725],[-73.94461828666236,40.583496626087864],[-73.94417458523766,40.58315829121842],[-73.94432059818078,40.58315942487781],[-73.94477544081295,40.58350780441],[-73.94517477781615,40.583521378244384],[-73.94471270964229,40.583165044530475],[-73.94484512940873,40.5831642348437],[-73.94534992503475,40.58352905211058],[-73.94573014930431,40.58354487506151],[-73.9453760523788,40.58318193165069],[-73.94589911888089,40.5835526626104],[-73.94628634691914,40.583568685205535],[-73.94579941258891,40.58319464023046],[-73.9464342905935,40.5835631525926],[-73.94678945068779,40.58355046761432],[-73.94631603648713,40.583206940713445],[-73.94691796276105,40.583546033249895],[-73.94726832705268,40.58353318207207],[-73.94682202947196,40.583191191871244],[-73.94746867861319,40.58352819536258],[-73.9534932204868,40.58298819826116],[-73.95330135995677,40.582002749633666],[-73.94969672499398,40.58231940106685],[-73.94274062592515,40.58099558955944],[-73.93258006568037,40.58126474120362],[-73.93106288335703,40.57616310022092],[-73.93150256744059,40.57566050512696],[-73.9348609283043,40.57552779666835],[-73.9348935645524,40.575221645997814],[-73.93507861830436,40.57550946601038],[-73.93647107586591,40.575860496356555],[-73.9367075253733,40.57541842720058],[-73.93683116226046,40.57556001684304],[-73.94250907828427,40.57537355453194],[-73.94255712254062,40.5755643312738],[-73.94427911427945,40.575800511721766],[-73.94463319129606,40.575691196747286],[-73.94460054017095,40.57523546944982],[-73.94474441660772,40.5755137279401],[-73.94572352013327,40.575559439737845],[-73.94618237593534,40.57529883619631],[-73.94592390235839,40.57511543230958],[-73.95257775363744,40.574204123507165],[-73.95374257958349,40.574297232242095],[-73.95408333385906,40.574073272183455],[-73.95413360803454,40.57433326749534],[-73.95569484044358,40.574326996263366],[-73.95634506681625,40.57420722198968],[-73.95634533454574,40.57379757879462],[-73.9565675090591,40.57417077849314],[-73.9584347635904,40.574088815046466],[-73.9589663415274,40.57394726876866],[-73.9589871897258,40.57343065522953],[-73.95907248027572,40.57384554800048],[-73.95939182247403,40.57391210975257],[-73.95941778288545,40.57517798313939],[-73.9610334283566,40.57507632436183],[-73.96113608337794,40.57580267709368],[-73.9594744554649,40.57587405404421],[-73.95994330865145,40.58195926812556],[-73.96103189910589,40.58172558661337],[-73.96143022920447,40.58389984639822],[-73.96206978425876,40.58420304043457],[-73.96513172153828,40.583836804262944],[-73.96539304008782,40.583130539222225],[-73.96691975150385,40.58335247304222],[-73.96677678374068,40.58391499002196],[-73.96694484377407,40.58390793106017],[-73.9770340734659,40.58256303879121],[-73.9789920192188,40.58266697212527],[-73.98271031696414,40.58324273002693],[-73.98281157707858,40.583792388419084],[-73.98387593305021,40.58397574566237],[-73.98423080333441,40.58606834140231],[-73.98326960009861,40.586187590069684],[-73.98420394163318,40.591166352171],[-73.98131969800549,40.5914834642016],[-73.98221115904596,40.59598701081328],[-73.97408390555671,40.596882943568296],[-73.9730493418838,40.604281918324986],[-73.97319525302143,40.60429754069293],[-73.97362139747547,40.606557292116925],[-73.97258982407092,40.60667153337376],[-73.97399319461375,40.6140298942427],[-73.9623639738088,40.61531358235341],[-73.96266288170713,40.61691123892404],[-73.959505392173,40.61805945097746],[-73.95718402307048,40.61832565078793],[-73.95149337537185,40.58827838985023],[-73.9493455179803,40.5885138952175],[-73.9489216867733,40.58626072373353],[-73.94696083889755,40.58647662738621],[-73.94669113240309,40.58507307296953],[-73.94386629112068,40.58529836206252],[-73.94355392252005,40.583654248192296],[-73.94258436743702,40.583699389223604],[-73.94255133565295,40.58351447617102]]]]}}]}