{"type":"FeatureCollection","features":[{"type":"Feature","properties":{"district":"70"},"geometry":{"type":"MultiPolygon","coordinates":[[[[-73.93383000762066,40.81949109558824],[-73.93382900884609,40.815585360187654],[-73.93401476726979,40.814483752624966],[-73.93385652638817,40.81448147441938],[-73.93386510261902,40.8141531579558],[-73.93428227867543,40.810823050509185],[-73.93502277787087,40.81037953372571],[-73.9358078020123,40.80949763775525],[-73.93740733660461,40.8101756114014],[-73.94015793743944,40.80640908964372],[-73.94177140170031,40.80708900034986],[-73.94275367228194,40.805744012794804],[-73.94597765953337,40.80709814431991],[-73.94781298712924,40.80458662617322],[-73.94459915296271,40.80322504784043],[-73.94831125388248,40.79812921756669],[-73.95152925674135,40.79945872640004],[-73.9524609285142,40.79824249401083],[-73.96107793935992,40.80180035772036],[-73.95982680041287,40.8054348537387],[-73.95794862567745,40.80805339204865],[-73.95717184428122,40.80956390139208],[-73.95730156670282,40.81015956582004],[-73.95827292837129,40.810628046462476],[-73.95781053729647,40.811265030887036],[-73.95496657172467,40.81006455470393],[-73.95428809784502,40.81099223229152],[-73.95829447377174,40.81569079013819],[-73.95870179109849,40.815120949415984],[-73.95971879911325,40.815526333890055],[-73.96210561781693,40.812251558348144],[-73.96534706485554,40.81393965189669],[-73.96414082888299,40.81577165745409],[-73.9620310579599,40.81808633097936],[-73.9615754403509,40.81790997171836],[-73.95840710847524,40.821497466658606],[-73.95734093341201,40.82116329859649],[-73.95599170500644,40.822351123106095],[-73.95482962281444,40.824126208094796],[-73.95276230921822,40.823263254403564],[-73.95230483968676,40.823887235546096],[-73.94808289815631,40.82210802201373],[-73.94622236660508,40.82465161919311],[-73.94384275680827,40.8236478015426],[-73.94516004895775,40.82087904397907],[-73.94350594463334,40.82262775327956],[-73.9395659964696,40.820965429690084],[-73.94047707008409,40.81972059794962],[-73.93764373525447,40.818510591835555],[-73.9362269451619,40.82043825545376],[-73.93383000762066,40.81949109558824]]]]}}]}