{"type":"FeatureCollection","features":[{"type":"Feature","properties":{"district":"57"},"geometry":{"type":"MultiPolygon","coordinates":[[[[-73.96248295842662,40.69809538475474],[-73.95337000670555,40.69940454065282],[-73.94955688645115,40.6803904029232],[-73.94991530388124,40.676096158828685],[-73.95268708542687,40.67624508815797],[-73.95384851077019,40.66372780885395],[-73.96095595453626,40.66328505483443],[-73.96219447116025,40.669641029792565],[-73.96194833504326,40.66963673431333],[-73.95912340007949,40.67751364308942],[-73.9622284124052,40.67816620822234],[-73.96134655885788,40.6804635243011],[-73.97595023269956,40.68351323204958],[-73.9774572209719,40.68405228711085],[-73.98064972139817,40.68845947755358],[-73.98256680552835,40.69229517479212],[-73.98220436337714,40.69750337169741],[-73.98570736653907,40.700602342610246],[-73.98482786970347,40.70057697932677],[-73.98476085600258,40.70143935454482],[-73.98077779042113,40.70124745293637],[-73.98040482546301,40.7006990062352],[-73.98054419117841,40.69824651225224],[-73.98040961451122,40.69655934358252],[-73.96546721432578,40.695932161737],[-73.96455070532537,40.69610759162761],[-73.96380337188398,40.69649503770505],[-73.9631758357434,40.69718762191357],[-73.96283963716343,40.698038668340025],[-73.96248295842662,40.69809538475474]]]]}}]}