{"type":"FeatureCollection","features":[{"type":"Feature","properties":{"district":"78"},"geometry":{"type":"MultiPolygon","coordinates":[[[[-73.8896588466814,40.87697483725254],[-73.88808032200716,40.87627274630073],[-73.88773577644082,40.8770338817904],[-73.88550126979533,40.87739598856497],[-73.88319913312598,40.876497704377556],[-73.88143103047531,40.87143526415474],[-73.87989454424574,40.868371738330836],[-73.88505260396649,40.865502709232565],[-73.88394303012619,40.864948187018335],[-73.88379371102805,40.86417157173204],[-73.8820079413837,40.862046853362436],[-73.88095114772987,40.86133891783947],[-73.8805900628452,40.86087844873461],[-73.88051533645832,40.86034556824342],[-73.88100678959339,40.85826802265719],[-73.88080810075395,40.85719844836061],[-73.87794781918885,40.85560208169368],[-73.87681233475448,40.85549209014493],[-73.87701083126261,40.85708169399643],[-73.8762142987577,40.85906710513755],[-73.87652833865596,40.859876817057405],[-73.87386834065481,40.86320023191066],[-73.87396955801167,40.863765509237936],[-73.87527859914786,40.865725602609544],[-73.87499113494933,40.86635729587038],[-73.87437707418773,40.86687875852312],[-73.87276528775602,40.86638528299335],[-73.87109782987243,40.86545365884201],[-73.8704212756725,40.865361080432955],[-73.87057937656479,40.86140455392803],[-73.86748632609984,40.8613455457195],[-73.86761378409787,40.85662051622977],[-73.86927391244505,40.85668898256506],[-73.86988842220666,40.85597106765234],[-73.86981576253233,40.85548377485455],[-73.87055914126265,40.85469489054294],[-73.8735608155681,40.85331833041881],[-73.87443358107917,40.85252150694987],[-73.8752741706752,40.85104704135963],[-73.87504925254693,40.850115905857855],[-73.87535842903596,40.848182725149165],[-73.87629764681398,40.84629478454794],[-73.8766226897625,40.84496094155029],[-73.8773390723824,40.843991755058106],[-73.88284445508542,40.84781722695372],[-73.8831198257,40.84822109187754],[-73.88351722342257,40.84716825834954],[-73.88446532146699,40.84598572831939],[-73.89045917314411,40.848932530485136],[-73.88895256316077,40.85144078077317],[-73.88997028334323,40.852103229953144],[-73.89048342465928,40.85228819260845],[-73.89279638244655,40.85109799706036],[-73.89431774068807,40.85189131147088],[-73.89180093471968,40.85461101177868],[-73.89443155078882,40.85578618672733],[-73.89192126390677,40.85924485497475],[-73.89463163018661,40.860552560385585],[-73.89754858962539,40.861300019015296],[-73.89693899685213,40.86244292924865],[-73.89841038406634,40.86229696667976],[-73.89599893311149,40.86583405033818],[-73.89797842639585,40.866727707705],[-73.90107966951527,40.86275638342258],[-73.90908952364609,40.86276562337609],[-73.90902251528948,40.86408899967766],[-73.90848814078589,40.865345444804774],[-73.90830866936315,40.86726780277045],[-73.90762569085445,40.869097502599736],[-73.90722211277739,40.86885175028944],[-73.90570081060591,40.87006155720749],[-73.90442003209795,40.870361276001304],[-73.90446901386888,40.872415520678274],[-73.905714252963,40.873138322101426],[-73.9047085378666,40.87461670169993],[-73.90174774857755,40.87367518993948],[-73.90214590250221,40.87250237165914],[-73.89908527286846,40.87196884365026],[-73.89930353111754,40.87124367164893],[-73.89778962270478,40.87085664339871],[-73.89212875531868,40.878057802282314],[-73.8896588466814,40.87697483725254]]]]}}]}