{"type":"FeatureCollection","features":[{"type":"Feature","properties":{"district":"48"},"geometry":{"type":"MultiPolygon","coordinates":[[[[-73.96182099849075,40.63000487740199],[-73.96136921593188,40.6300583882626],[-73.96091777307718,40.627674514977336],[-73.95684697346559,40.62811987905445],[-73.95549070038507,40.62095009671479],[-73.957632052433,40.62071394305237],[-73.95718402307048,40.61832565078793],[-73.959505392173,40.61805945097746],[-73.96266288170713,40.61691123892404],[-73.9623639738088,40.61531358235341],[-73.97405679374926,40.61402849450281],[-73.97489295756635,40.61318636891679],[-73.97497264664409,40.61366811017199],[-73.99398197149371,40.62514139905074],[-73.99489280561376,40.62546179419188],[-73.99464972974168,40.62569717972431],[-73.99507814869848,40.6258067378373],[-74.00575961898387,40.63225355510885],[-74.00398960740756,40.63398956901812],[-74.00410651594468,40.63406012139351],[-73.99049634082614,40.64316444118859],[-73.9796809503624,40.63663932247287],[-73.98259781071984,40.633836278301644],[-73.97831134771293,40.63127486039664],[-73.97865137446766,40.63304465096845],[-73.9725572159544,40.63371337992711],[-73.97182772517044,40.62986338509969],[-73.97156802753176,40.629988015246475],[-73.97136622157025,40.62892916271605],[-73.96182099849075,40.63000487740199]]]]}}]}