{"type":"FeatureCollection","features":[{"type":"Feature","properties":{"district":"76"},"geometry":{"type":"MultiPolygon","coordinates":[[[[-73.96421230395704,40.74660431797426],[-73.96458318426947,40.74645440067351],[-73.9641598028843,40.74686554735975],[-73.96421230395704,40.74660431797426]]],[[[-73.95763576836282,40.74840634746513],[-73.95749344070785,40.74833646476331],[-73.9578395394205,40.74833800337541],[-73.9576883184342,40.748535026871835],[-73.95763576836282,40.74840634746513]]],[[[-73.93556797115896,40.77191877753408],[-73.93556621751405,40.77162911588921],[-73.93585195294749,40.77171600199284],[-73.93556797115896,40.77191877753408]]],[[[-73.94180032729426,40.769046926624874],[-73.94285528620705,40.76830349440948],[-73.94943175563205,40.76054861736164],[-73.95177822025997,40.75840254987715],[-73.95254079336877,40.75709531453745],[-73.95322009963168,40.75642684181784],[-73.95519503183567,40.754774523476385],[-73.95791452493187,40.75210985452551],[-73.96090586319525,40.74980198197352],[-73.96132845481047,40.74960095762467],[-73.96153855464473,40.749723119840674],[-73.96068557958185,40.75120193696811],[-73.96001132395902,40.751831517335226],[-73.9590161662748,40.753595059957576],[-73.95845836805675,40.753949236505065],[-73.95339140733955,40.75979676235788],[-73.95312451504947,40.76005275842971],[-73.9529778821611,40.75996210737449],[-73.95208632266514,40.76086215490759],[-73.95093734928088,40.762570495237995],[-73.94997191750257,40.763646030317226],[-73.94908628791565,40.76426402727513],[-73.94570357268658,40.768327934311664],[-73.94548114289289,40.76862477943799],[-73.94556302048748,40.76880177602729],[-73.94524510341354,40.768773268310575],[-73.94472478497455,40.769786271535025],[-73.94212674646828,40.7720347005096],[-73.94088707211625,40.772372516278764],[-73.94027460921222,40.77294743739572],[-73.94007665751654,40.77292618635813],[-73.94028207924197,40.7723014069914],[-73.94020021779653,40.77112830566291],[-73.9403553347751,40.770496574371236],[-73.94111778718026,40.76941440857483],[-73.94180032729426,40.769046926624874]]],[[[-73.93804640603439,40.7808295442757],[-73.93779448726416,40.78078125875562],[-73.93779944179563,40.78103133979683],[-73.93764631821483,40.781001215893035],[-73.93759894622623,40.78046784086164],[-73.93823773509402,40.780259079465516],[-73.93861200821945,40.780338955869134],[-73.93958378972476,40.77957647400733],[-73.93949329752056,40.7798736913156],[-73.93872802926595,40.780510743704774],[-73.93874423089275,40.78104387604242],[-73.93808213268714,40.78141843777737],[-73.93804640603439,40.7808295442757]]],[[[-73.94360047475412,40.780159099466346],[-73.94343876735986,40.77976324196603],[-73.94240220198307,40.78002633450528],[-73.94211585211751,40.77946438174761],[-73.9427297339572,40.77925724765569],[-73.94300246547327,40.77885287901502],[-73.94245741056957,40.77740747334814],[-73.9422805004479,40.7773474382288],[-73.94245545698132,40.77774786433379],[-73.94233541821181,40.77776881637426],[-73.94211982454031,40.77725556641191],[-73.94243403895558,40.77730046148639],[-73.94207418803877,40.776917846977256],[-73.94208160457377,40.77595701631722],[-73.94366431814802,40.77384076417699],[-73.94866416477923,40.76885762389705],[-73.950069793031,40.76702508788092],[-73.95441826078606,40.76218410495124],[-73.9584911954165,40.758545903830644],[-73.95871908226934,40.75864023261375],[-73.9580080529691,40.75958013014918],[-73.96106754453638,40.76085809312871],[-73.96142245637516,40.76036795127163],[-73.96188959450498,40.760565404980206],[-73.96175671586694,40.76074655138803],[-73.96319187988595,40.76147641636131],[-73.96348693266822,40.76107350388551],[-73.96388310434611,40.761233286093166],[-73.96114862936811,40.764987445976146],[-73.96340154149762,40.76591119153792],[-73.9530336795171,40.78012545503886],[-73.9507922917517,40.779179704151],[-73.94896177083349,40.781688877172016],[-73.94435789485777,40.77976109228746],[-73.94419493020563,40.78012779040083],[-73.94447051056217,40.782035272682734],[-73.94405439446334,40.78296435804639],[-73.94364823539011,40.78265616133344],[-73.94388068102455,40.781532043364535],[-73.94360047475412,40.780159099466346]]]]}}]}