{"type":"FeatureCollection","features":[{"type":"Feature","properties":{"district":"82"},"geometry":{"type":"MultiPolygon","coordinates":[[[[-73.78833349834521,40.83466712975954],[-73.78931223606624,40.83446488655362],[-73.78951019872305,40.83536404252595],[-73.78845700015209,40.835309914315566],[-73.78833349834521,40.83466712975954]]],[[[-73.80222295355253,40.84163481314427],[-73.80263811156284,40.841081152764744],[-73.80529495910672,40.841134924850394],[-73.80694608641734,40.841462446684005],[-73.80680801372397,40.8424891399877],[-73.80393073307255,40.842594073052695],[-73.80367560026521,40.842258492916194],[-73.80222295355253,40.84163481314427]]],[[[-73.7806894529125,40.854928807936076],[-73.78101002725666,40.85487625019061],[-73.78123322636526,40.85539866814683],[-73.78086994706949,40.85553169990013],[-73.78063107485207,40.85525897066272],[-73.7806894529125,40.854928807936076]]],[[[-73.78285213100395,40.855485805307886],[-73.78259711591907,40.85482256097164],[-73.7838586191202,40.85483156741573],[-73.78355666739014,40.855074310552645],[-73.78330379042221,40.85584858232035],[-73.78285213100395,40.855485805307886]]],[[[-73.78922202961881,40.85874251553153],[-73.78876651996593,40.85840216757863],[-73.78878402854569,40.85742069033674],[-73.78802830701825,40.857514681283895],[-73.78877898544017,40.85740092519987],[-73.78889654957185,40.856573386709975],[-73.7883594322236,40.85562648914848],[-73.78855365724812,40.85514873611447],[-73.7882941364666,40.85482265139031],[-73.7884773265335,40.85440052053239],[-73.78834700683626,40.85415351895001],[-73.78734753146423,40.8543858854597],[-73.78834514784103,40.8541320123503],[-73.78731450066233,40.85421194272587],[-73.78690734702697,40.8540639722994],[-73.78792821707314,40.85373779738932],[-73.78800064949667,40.85352463632825],[-73.78588186506491,40.85178867294363],[-73.78529210719022,40.8516206499737],[-73.78413189167978,40.85183280615744],[-73.78431415165997,40.85176754570707],[-73.78396112488305,40.85148693392315],[-73.78338158610377,40.85158673391453],[-73.78360210541598,40.85131951978288],[-73.78460077697598,40.85109569219537],[-73.78445463288537,40.850772873854645],[-73.78384119307984,40.850692899498476],[-73.78406580837334,40.850625233236585],[-73.78420047134377,40.85006064424078],[-73.78353497808567,40.84922096792302],[-73.78303535537907,40.84907190812803],[-73.78244952709214,40.84934115401586],[-73.78209456304502,40.849247300009885],[-73.78215814152048,40.84911617392409],[-73.78154449088434,40.84940043514604],[-73.78214108697831,40.84910066266785],[-73.78143249522284,40.84880000581349],[-73.78149386587489,40.84858047582596],[-73.78267467078871,40.84813967244418],[-73.78097820938946,40.848458347913756],[-73.78130627517389,40.84834768647283],[-73.78110697775486,40.848294757694134],[-73.78263740397888,40.84807264924602],[-73.78250408633528,40.847913273763446],[-73.78158418081549,40.84803705203999],[-73.78148431950568,40.84788219384885],[-73.78142920347912,40.84745634535744],[-73.78207848450111,40.847130807905565],[-73.78216393435585,40.84663633778104],[-73.78063668411163,40.846923334752624],[-73.78067693704057,40.847061485793674],[-73.7804624159846,40.84710023328975],[-73.780403269586,40.846931134166255],[-73.78106043972839,40.846802552357055],[-73.78115182578563,40.84624630462727],[-73.78110675760784,40.84674699714134],[-73.78168786937849,40.84663887521212],[-73.78174288903251,40.84641229011609],[-73.78171494622761,40.84665747421488],[-73.78109301885183,40.84679849158762],[-73.7825134511685,40.84640877155137],[-73.78235702810511,40.845981588332826],[-73.78257932865696,40.84593589302793],[-73.78249597258944,40.845661561949214],[-73.78309442048653,40.84551828556489],[-73.78314644227363,40.8453099420262],[-73.78307455830657,40.84550976429207],[-73.78181646104312,40.84576497805119],[-73.783050749408,40.84549682317608],[-73.78306023126578,40.84508570856724],[-73.7818153590045,40.845480582880526],[-73.78307457446681,40.84505636873404],[-73.78315245505728,40.845295983327965],[-73.78322207613923,40.84506344465836],[-73.78297579244337,40.84468094802061],[-73.7833653613534,40.844444722981876],[-73.7830604095184,40.8443720643956],[-73.78301129829386,40.844172690850016],[-73.7832698713884,40.844069392091825],[-73.78309494706117,40.843866094402465],[-73.78348428748818,40.84367854599862],[-73.78052736048552,40.84452514033834],[-73.77992703744428,40.84388308135602],[-73.78053302714385,40.844453022265434],[-73.78039623282005,40.84396640817994],[-73.78058464728879,40.8444345726984],[-73.78106261364299,40.84432831787688],[-73.78087690198701,40.843862220487964],[-73.78108977797854,40.844320127077836],[-73.78154602523335,40.84421588974787],[-73.78137674098357,40.843704486540204],[-73.78157590302688,40.84420770347067],[-73.78200770536664,40.84410960066983],[-73.78183306599355,40.84357551830506],[-73.7820375758627,40.844103474973664],[-73.78243679895445,40.844009431100055],[-73.78224871668732,40.84343616841767],[-73.78246939706243,40.843999187835244],[-73.78282243971395,40.84391948119968],[-73.78257210723939,40.8432945819435],[-73.7827849863565,40.843754545481126],[-73.7830918611237,40.84368505481138],[-73.78287388243189,40.84312410236253],[-73.78313252568665,40.84369749673193],[-73.78284151617675,40.84389478720214],[-73.78347481249244,40.8436547381099],[-73.78319194518633,40.84286786448668],[-73.78304539815447,40.84289633206691],[-73.78321038850865,40.84347933886669],[-73.78291098678723,40.84292235550836],[-73.78313925968678,40.84282231949021],[-73.78291747085107,40.84280644567928],[-73.78312383020314,40.84273620299385],[-73.78288778301486,40.84249482884979],[-73.78273319376765,40.8425217054987],[-73.78281584526042,40.84276452259681],[-73.78270669982564,40.8425324758105],[-73.78229941270918,40.842605896413545],[-73.78244452404584,40.84304203441694],[-73.78226682874738,40.84261201822846],[-73.78180048362434,40.84269614579382],[-73.78193306593671,40.843228088076614],[-73.7817719692772,40.842702273492186],[-73.78124656634495,40.842797107289634],[-73.78142785188602,40.84337087377914],[-73.7812160111929,40.8428047773959],[-73.78067429925017,40.842907304537896],[-73.7808290368131,40.8435072971459],[-73.780643759933,40.84291033762104],[-73.78029552531899,40.84297304539673],[-73.78022773872677,40.843778181297886],[-73.78022662418242,40.84288326843306],[-73.78286499304913,40.842478101882875],[-73.7805973582243,40.84278660044373],[-73.78236855953504,40.84242849314983],[-73.7821516613938,40.84235522861413],[-73.78231110910542,40.84222417895734],[-73.78162055021923,40.842329494888226],[-73.78230643317748,40.84221111581018],[-73.78233257215892,40.84192284411156],[-73.78144003107849,40.842142133493596],[-73.7823235128594,40.8418983304548],[-73.78203752533935,40.84184191671524],[-73.78226345326232,40.84177811598265],[-73.78201593435602,40.841793189025346],[-73.78216624418963,40.84168914411031],[-73.7812992811557,40.841794441623804],[-73.7813386857138,40.84199621898691],[-73.78124863502505,40.841877807985504],[-73.78119772238884,40.84204202937318],[-73.78097935660904,40.84195293533575],[-73.78102354424838,40.84209299491431],[-73.78084643996941,40.841989198625996],[-73.78088717448651,40.84213446705882],[-73.78069632802122,40.84203238300086],[-73.7807209883043,40.84219153230599],[-73.78065508284249,40.84204186886651],[-73.78056292706853,40.842214705706375],[-73.78034805158214,40.84210909822463],[-73.7804257718152,40.84249439420706],[-73.78029863976153,40.84251154046752],[-73.78019599955293,40.84204621097634],[-73.78185048197783,40.8416539463945],[-73.78166051213611,40.84112417508584],[-73.78084223802306,40.841276324028335],[-73.78089220610157,40.84155308419848],[-73.78079752923449,40.84125614604854],[-73.7816485529559,40.84109776352898],[-73.78139143568785,40.84103661012095],[-73.78161069651529,40.840996240025916],[-73.78137488194947,40.84097887100524],[-73.78159396937245,40.84093979674822],[-73.78141805071888,40.84071475571639],[-73.78154296060534,40.84038666160467],[-73.78149172006931,40.8402062245254],[-73.78125361834566,40.84025550043905],[-73.78148878089243,40.840197323922254],[-73.78136267245321,40.83973018981652],[-73.78117947802396,40.83974586225597],[-73.78135932010665,40.839711708215994],[-73.78134125145772,40.83947856344309],[-73.78113875725964,40.839494278801894],[-73.78133988849423,40.83946969983049],[-73.78156780983515,40.83853740573653],[-73.78200420989037,40.83801557230729],[-73.7818845572027,40.83765027660498],[-73.78238142556087,40.83732410616755],[-73.78272760738652,40.83748795984906],[-73.78290629190879,40.83732000607291],[-73.78270364583639,40.83684280196576],[-73.78282260139727,40.8363381558881],[-73.78302921862723,40.83634585234493],[-73.7833816805932,40.83690927168086],[-73.78410164591317,40.836725529358155],[-73.78448456140005,40.83702422253876],[-73.78498060328094,40.83674642608077],[-73.78508226642776,40.836881907710726],[-73.78450333965363,40.83705776517131],[-73.78485009222665,40.83747048917873],[-73.78563997845447,40.83706443458557],[-73.78583067964114,40.83720998000472],[-73.7856527957231,40.83713210472616],[-73.78516584428648,40.837471334061945],[-73.78557796850949,40.837927113225575],[-73.78553011511515,40.838798277338576],[-73.7857350929868,40.839234231776],[-73.78652598496416,40.839723115607214],[-73.78740758746011,40.83967762319708],[-73.78763931218995,40.840531895236886],[-73.78735724244449,40.840590771776846],[-73.78749166412584,40.84084234167426],[-73.78818132144553,40.840711080501535],[-73.78815921166512,40.84049077856722],[-73.78825453283457,40.84074586311868],[-73.78752379733524,40.840879612687914],[-73.78778656795092,40.840892222013],[-73.78786404049687,40.8410817258351],[-73.78761237782592,40.84119800529605],[-73.78784487499318,40.84147147983599],[-73.7883661747497,40.841504610514185],[-73.78802003550352,40.84178384145895],[-73.78829358843848,40.84178537313683],[-73.78805599070779,40.84186703017776],[-73.78838456613674,40.842381978370796],[-73.78883864895148,40.84235039596138],[-73.7885278086737,40.84242557689498],[-73.78905825501361,40.84323533177022],[-73.7899242492441,40.84322415424088],[-73.78993093388092,40.843042264866405],[-73.78999975309044,40.843307817243826],[-73.78973469326765,40.84341324747887],[-73.78989919889905,40.843417146659206],[-73.78980449502046,40.84358665628257],[-73.78933708725715,40.84368149805576],[-73.78947182214094,40.844292978352215],[-73.79066589001023,40.84574155883457],[-73.79098858375902,40.845652832062655],[-73.79069785364858,40.845786012551024],[-73.79097333310666,40.846357311525146],[-73.79149076513552,40.84625100496542],[-73.79112759246645,40.84635759094971],[-73.79118128785345,40.84655567593],[-73.79141379114441,40.846547847033],[-73.7914803472568,40.84680205271392],[-73.79179343625451,40.84673167232948],[-73.79136709858446,40.846887642686],[-73.79144049688172,40.84730604398631],[-73.79191997810095,40.84725821803094],[-73.79142962756488,40.84735998917455],[-73.79154104882261,40.84753801729846],[-73.79126708567196,40.84760186785688],[-73.79132975970043,40.84805792306448],[-73.79161765431445,40.84805292440802],[-73.79133588063222,40.848086238652606],[-73.79111195407879,40.848808127034346],[-73.79091971727904,40.848866873015986],[-73.79101362338832,40.8489852102196],[-73.79088710207208,40.84888656379928],[-73.7897571107061,40.8495314692878],[-73.78985836952175,40.849972559362044],[-73.79098877124811,40.849828349029764],[-73.78986630313811,40.84998939020077],[-73.79001758788995,40.85031633196268],[-73.79035766981725,40.8501423346161],[-73.79040506054308,40.85027276271417],[-73.78989186585837,40.85046418078952],[-73.79007093170742,40.85093202010702],[-73.79024764837524,40.850903510523025],[-73.79008640021898,40.850984473853664],[-73.79026824507268,40.850961088073994],[-73.79009094385734,40.850994764403076],[-73.79012439171822,40.851189912194755],[-73.78951371516158,40.85130077171335],[-73.78956272464195,40.85148733682227],[-73.78978510702639,40.851462293880886],[-73.78966571913854,40.85133864332759],[-73.7900578142692,40.85141453021126],[-73.79001797053547,40.8512594709597],[-73.79008961569983,40.851407163590004],[-73.79034518797937,40.851366793055185],[-73.79033709518069,40.85122014385123],[-73.79037943653302,40.8513585037242],[-73.79082454198961,40.851289706318575],[-73.79081765352956,40.851148627155986],[-73.79098717984299,40.851264015299236],[-73.79089018435656,40.8514039779405],[-73.78966490344513,40.85150038213228],[-73.78972573712088,40.85169267056516],[-73.79089217930074,40.85154690354906],[-73.79019588667279,40.851752904563085],[-73.790463705281,40.85176700615418],[-73.79008396904106,40.85203452738238],[-73.7901550926101,40.852251285235994],[-73.79016095150018,40.85204023592853],[-73.79027404235775,40.85222327109275],[-73.79053212420663,40.85216341514791],[-73.79045200336085,40.8519897209505],[-73.79080610587764,40.85209987596794],[-73.79056092524321,40.851944443891554],[-73.79079463354844,40.85186134138597],[-73.79085380717721,40.85208882496862],[-73.79111196150576,40.85200576731125],[-73.79101097118439,40.851860805253125],[-73.79117366731116,40.85181655326966],[-73.79118770764545,40.8520161125069],[-73.79146293338876,40.85194514969686],[-73.7913204511751,40.851779696094376],[-73.79151738677945,40.85172993589111],[-73.79149596814213,40.85193407242149],[-73.79249450978061,40.85155072509292],[-73.79176780605944,40.85177400770625],[-73.79205731457873,40.85182557326258],[-73.79017007126295,40.852280661153614],[-73.79113795170926,40.85205585257387],[-73.79136187979887,40.85222597753412],[-73.79123655971779,40.85228028988674],[-73.79318284075845,40.85180857187147],[-73.79311837183832,40.85157829524103],[-73.79323786787624,40.85193117467465],[-73.79124556783773,40.85230468141089],[-73.79138052695512,40.85260203830498],[-73.79340987631169,40.85202188373056],[-73.79350762831913,40.852264043925004],[-73.79342400669033,40.852136302527796],[-73.79139106468679,40.85262807498608],[-73.79144640027788,40.85277157192439],[-73.79042053780161,40.85302297821269],[-73.79049879362893,40.85318872201622],[-73.79100586740208,40.85311769126212],[-73.79145436303713,40.853010847713776],[-73.79143702716637,40.852822727983664],[-73.79150327251574,40.85300474895982],[-73.79170223896095,40.85295808594583],[-73.79165554436234,40.85277733822669],[-73.79172995524623,40.8529544234903],[-73.79196318311136,40.852895448228935],[-73.79191649946218,40.85271098813861],[-73.79198928164561,40.85288807029822],[-73.79222413063728,40.85283157209447],[-73.79217580837809,40.85264958432178],[-73.79225186097393,40.85282296088493],[-73.79248669881495,40.852770173952386],[-73.79243675473343,40.8525857082062],[-73.79250954048048,40.85276155271456],[-73.79283083884894,40.852680460768084],[-73.79281511966919,40.85249481930909],[-73.79290086687061,40.85269543598251],[-73.79080758729921,40.85319906006449],[-73.7911143142938,40.853264451924886],[-73.79126573165874,40.85370686423337],[-73.79252408728894,40.853409920705055],[-73.79240931036925,40.853053336114954],[-73.79255598392581,40.853401178541],[-73.79297928311047,40.853302944909615],[-73.79287610048584,40.85294418132866],[-73.7930399117026,40.8533712492854],[-73.79127368128135,40.85373220788182],[-73.79105721254825,40.853918412426836],[-73.7924581684481,40.85360070875515],[-73.79107002765942,40.85394495666483],[-73.79253714604856,40.8538493278131],[-73.79256758944628,40.85401643494329],[-73.79179366809404,40.8540048299006],[-73.7919181173638,40.854222354743115],[-73.79129282160632,40.854584025977054],[-73.79207675667554,40.85564516770727],[-73.79250306685435,40.85578866613724],[-73.79201712228527,40.85617694860646],[-73.79256814125975,40.856256118770155],[-73.79201050009051,40.85622512771863],[-73.79193700279743,40.85640515792235],[-73.79208814819965,40.85647764200957],[-73.7919018334025,40.85654691136823],[-73.7930949215236,40.856686441404335],[-73.7930307836123,40.856813917951726],[-73.79189422958875,40.85656888932982],[-73.79196180591408,40.85671685658538],[-73.79179264535283,40.85671985281931],[-73.79192955714267,40.856769001668646],[-73.79170704257358,40.856851842855214],[-73.79186032552957,40.85679280353217],[-73.79173546476552,40.85686642952846],[-73.79220265950248,40.85714600041052],[-73.79242794130647,40.856928542034424],[-73.79222189186386,40.857152298424865],[-73.79282713237976,40.85743578991807],[-73.79301264383005,40.85700302604341],[-73.79288403888904,40.85747920249383],[-73.79185978715203,40.85700410725963],[-73.79268338575484,40.85742039359287],[-73.79211266783624,40.85716693187052],[-73.79189451913076,40.85743712186542],[-73.79256970440599,40.85763962536249],[-73.79239521723282,40.85784554775238],[-73.79174254082349,40.85739395000432],[-73.79209332504095,40.85715798994739],[-73.79184303217382,40.85702870201153],[-73.79160393461318,40.85737531299264],[-73.79129378852147,40.85726323869826],[-73.79094202260366,40.85755274818905],[-73.7916366458796,40.85788281257107],[-73.7917852942325,40.857775425855735],[-73.79143695908105,40.85815468512328],[-73.79161866075827,40.85790134204828],[-73.79093222800584,40.85756778797329],[-73.79023592738763,40.85815408481143],[-73.79006133563244,40.85845954856141],[-73.79020122975736,40.85860158971066],[-73.7900459983775,40.85847540491228],[-73.78922202961881,40.85874251553153]]],[[[-73.76783205637173,40.85444220574227],[-73.7685566032706,40.853238322959626],[-73.76904438987118,40.85329092469381],[-73.76938529139694,40.85253613399701],[-73.76860817687106,40.850788395378316],[-73.76959674311463,40.84759451909839],[-73.76950321562752,40.84721783423538],[-73.76789492672812,40.84528943301722],[-73.76901389181107,40.84509734272204],[-73.77118378010564,40.84694451331228],[-73.77157218833237,40.84750005858057],[-73.7708892022117,40.84975177133818],[-73.7720496366846,40.85161828975761],[-73.77271117496133,40.851826580933874],[-73.77246594126491,40.85183368450245],[-73.77246052295433,40.85205954217388],[-73.77296356611284,40.85215925395881],[-73.77264837746921,40.85222440262974],[-73.7728907573129,40.85239826899842],[-73.7724594016319,40.852106266579796],[-73.77245149415467,40.85243589689374],[-73.77173060411904,40.8524768313193],[-73.7717171593653,40.85300453928204],[-73.77229680531372,40.85308637825256],[-73.77234917454994,40.85385142023427],[-73.77296285334867,40.853800062246656],[-73.77295817517044,40.85413743292356],[-73.77269448026055,40.85390663901353],[-73.77233272219733,40.85390084467542],[-73.77214036841814,40.854412712600784],[-73.77218152925143,40.85886834678368],[-73.77235432710658,40.85967316198077],[-73.77219223055423,40.85998663859717],[-73.77084562360575,40.86010101285692],[-73.76947305424014,40.85933013666878],[-73.76836277290778,40.85835828885209],[-73.76836085918974,40.85765536320354],[-73.76533243995276,40.85504359512506],[-73.76783205637173,40.85444220574227]]],[[[-73.78457451654569,40.86053199775851],[-73.7843696069389,40.85985020398061],[-73.78471397657268,40.85913607850752],[-73.78514017041738,40.85879261247825],[-73.78607540488525,40.859274602883524],[-73.78660807970739,40.85903614203593],[-73.78669393087422,40.858686064557176],[-73.78727504379454,40.858854636519446],[-73.78773372273469,40.85877099157831],[-73.7871569098527,40.859565703707815],[-73.78700130484604,40.860224388411744],[-73.78457451654569,40.86053199775851]]],[[[-73.77321845469882,40.860794463857],[-73.77326219958742,40.860630611649825],[-73.77339678514288,40.86073948468019],[-73.77321845469882,40.860794463857]]],[[[-73.7751378266812,40.86118467534837],[-73.77527340232487,40.86144667092562],[-73.77493188967567,40.86155230236164],[-73.7751378266812,40.86118467534837]]],[[[-73.77460156350928,40.862069047459904],[-73.77463383677213,40.86181689058324],[-73.7748490566945,40.86181038890453],[-73.77485681624742,40.86198363433453],[-73.77460156350928,40.862069047459904]]],[[[-73.78312589594476,40.86285616730087],[-73.78292783598303,40.862789613992085],[-73.78288197831175,40.862406433091465],[-73.7831450428813,40.86206867890583],[-73.78312068770416,40.86261806361327],[-73.78328053506085,40.862780706210124],[-73.78312589594476,40.86285616730087]]],[[[-73.78401249138903,40.86313199407458],[-73.7835410529967,40.863095506325],[-73.78380117343677,40.86296657452466],[-73.78376770348979,40.862610608464536],[-73.78469165850701,40.862542789908396],[-73.78451638211669,40.86295577921187],[-73.78416702363826,40.86308757974818],[-73.78428650500058,40.863205088780745],[-73.78401249138903,40.86313199407458]]],[[[-73.76963544622434,40.865542561079906],[-73.76994076930143,40.865523409999426],[-73.76944774766791,40.86576135090618],[-73.76963544622434,40.865542561079906]]],[[[-73.76692046625034,40.867049555851395],[-73.76722845921526,40.86692866789127],[-73.767123805844,40.867238188474154],[-73.76668098944248,40.867320683637594],[-73.76692046625034,40.867049555851395]]],[[[-73.77171762410595,40.87162118852291],[-73.77223564721527,40.871563993068285],[-73.77263488154172,40.87188020876713],[-73.77115806784697,40.87180498047058],[-73.77084864530934,40.87162776347454],[-73.77171762410595,40.87162118852291]]],[[[-73.77483042594686,40.87402873643642],[-73.77504980563911,40.873937718510874],[-73.77513690028573,40.87455444644262],[-73.77467379743139,40.8747905574114],[-73.77454436919932,40.874286311038176],[-73.77483042594686,40.87402873643642]]],[[[-73.78194122868925,40.87521595122493],[-73.78213787496449,40.87502908678764],[-73.78212699063377,40.87453122255998],[-73.78259880880712,40.87468739718064],[-73.78244064983123,40.87521232663188],[-73.78213695926486,40.875161514171474],[-73.78192813702833,40.87540460586876],[-73.78194122868925,40.87521595122493]]],[[[-73.7819018153177,40.87641936622736],[-73.78166863857506,40.87642368181051],[-73.7817195526909,40.87618875834317],[-73.78220080379837,40.876434202682404],[-73.7819018153177,40.87641936622736]]],[[[-73.78129458150686,40.875944902905566],[-73.78142242881238,40.87576633940415],[-73.78151357091939,40.876046023437105],[-73.78139551937315,40.87653905698293],[-73.78120581379403,40.87659007834781],[-73.78129458150686,40.875944902905566]]],[[[-73.78352831439575,40.87724086715855],[-73.7835602079533,40.87682215059617],[-73.78384032438835,40.876519766758555],[-73.78400493947044,40.8768643657194],[-73.78363874012419,40.87748439506101],[-73.78344706652793,40.87741286067435],[-73.78352831439575,40.87724086715855]]],[[[-73.785251347366,40.879908803063],[-73.78501218289891,40.879788015934196],[-73.78567549107373,40.87985203677247],[-73.78542670816626,40.88004124410342],[-73.785251347366,40.879908803063]]],[[[-73.78483587809545,40.88055827447181],[-73.78451226057273,40.880659209091064],[-73.7842652131063,40.88035707508814],[-73.78382241823431,40.88042442926224],[-73.78370155778747,40.87993192593837],[-73.78406640087343,40.879713414752096],[-73.78432850433249,40.880199944686545],[-73.78469285391463,40.88013391344228],[-73.78479888799157,40.8803485407047],[-73.785091133701,40.880264784652795],[-73.78534770673647,40.88052257751909],[-73.78495773470225,40.880745811768094],[-73.78483587809545,40.88055827447181]]],[[[-73.81940651728573,40.89026043427482],[-73.79300652649187,40.883358737383126],[-73.7937923749044,40.88197032676515],[-73.79491705586517,40.88054379148768],[-73.79554579908852,40.88069101537513],[-73.79502596232832,40.87974779721189],[-73.7962509753578,40.87701199977876],[-73.79712701174662,40.876190400904136],[-73.79743815457286,40.87513533295332],[-73.7985533078771,40.87440142827465],[-73.79891245463618,40.874645893143104],[-73.79981389580328,40.87415984971642],[-73.79987713793562,40.873484667292786],[-73.80047663437435,40.87254277676038],[-73.80080515564886,40.871494061246516],[-73.80178517404362,40.87106784933856],[-73.8020918507461,40.87084679823047],[-73.80211679577965,40.87037509550579],[-73.80267298767224,40.87015447044159],[-73.8027590760358,40.86970074110639],[-73.80260477623499,40.86934309462904],[-73.80297847593458,40.86874332976194],[-73.80335043989207,40.86897687476062],[-73.80361717452017,40.86877910002676],[-73.80392527661252,40.86902741019886],[-73.80407175267834,40.86873984625358],[-73.80447936693899,40.86871197457657],[-73.80499228310721,40.869145297219646],[-73.80594428659077,40.86892980282907],[-73.80599101807374,40.86913121240839],[-73.80565692940137,40.86931993143693],[-73.80569186812389,40.8695535199068],[-73.80670425166552,40.87041983722194],[-73.80785796804248,40.87086968379318],[-73.80786348838444,40.87113177402405],[-73.80796429605779,40.87100328399127],[-73.80869776542085,40.871342824439694],[-73.80924423452986,40.87122460197507],[-73.8084102028284,40.87092778402305],[-73.80872549256001,40.87043273598667],[-73.80754063636171,40.870377552173665],[-73.80756837434039,40.87012525615255],[-73.80870942498368,40.8690869313551],[-73.80785387653275,40.86972975164993],[-73.80672958392707,40.86952964630318],[-73.80694997701667,40.86885908832819],[-73.80659584356569,40.86889471000715],[-73.80674194096345,40.86873389403254],[-73.80626076032095,40.86842430819574],[-73.80487266170081,40.86823330232991],[-73.80473569836796,40.866655065393964],[-73.80385280781442,40.867166484800215],[-73.80291387088569,40.866978246792506],[-73.80309874003318,40.866549702569294],[-73.80300695884918,40.86574900707735],[-73.80230488072836,40.86562291243208],[-73.80177260000845,40.86587684941246],[-73.80175234561221,40.866414830244125],[-73.80070065113912,40.86814093798174],[-73.79996385367663,40.86887528934578],[-73.79839280194481,40.87161475026195],[-73.79774041985266,40.87234517745106],[-73.79479044681445,40.87320048453674],[-73.79397363837722,40.8745665945685],[-73.79357210883583,40.876121058303575],[-73.79359605330511,40.876720732726156],[-73.79316703778704,40.877055639066654],[-73.79422169990922,40.87738237046652],[-73.79440294586249,40.877641842999125],[-73.79384702788154,40.87859445979098],[-73.7929988022016,40.879146862172256],[-73.79289389520618,40.87957710999628],[-73.79219070342037,40.879590140879706],[-73.79173095484794,40.88005152693568],[-73.79095239067752,40.880073944963016],[-73.79063124525086,40.88037832993436],[-73.79076163255088,40.88084078046473],[-73.78914050790853,40.8812619235903],[-73.78907288326594,40.880809115512385],[-73.78931835780607,40.880578669589525],[-73.78912020636906,40.88008021099363],[-73.79006332860774,40.87959466151503],[-73.789523093688,40.87899812706076],[-73.78827313470907,40.878873573154436],[-73.78611470510947,40.87905789215071],[-73.78523624445602,40.87861962426065],[-73.7844329538062,40.87852758944487],[-73.78421715885797,40.87828178375187],[-73.78418223661708,40.87772136300397],[-73.78449730828078,40.876914324067485],[-73.78481030732993,40.87686527301873],[-73.78467950721335,40.87606091820709],[-73.78525351648248,40.87570005744863],[-73.7854037285381,40.87533768736199],[-73.78569560889208,40.87541020290808],[-73.78596227631884,40.87513865303466],[-73.7862492390622,40.87447792843039],[-73.78610640662673,40.874353762439675],[-73.78653936749643,40.87430660924396],[-73.78691061020537,40.87398751746425],[-73.78713685554287,40.87276046639283],[-73.78624874452605,40.87238284677232],[-73.78528234706788,40.87355565411938],[-73.78508139658763,40.87358996272335],[-73.78553456958697,40.87254402950554],[-73.7855472964992,40.87202403541648],[-73.78521974032056,40.871634753409154],[-73.7840152230201,40.87376790371924],[-73.78340673949519,40.87371717153501],[-73.78323782844447,40.87353816218767],[-73.78336116030022,40.87325606180287],[-73.78395100413773,40.872896330018314],[-73.78374983772476,40.872499550755755],[-73.78306853426027,40.87215357592296],[-73.78328614178682,40.87069891608],[-73.78429649061825,40.86977756914017],[-73.78488459457667,40.86951404303929],[-73.78560245305442,40.86834165222387],[-73.78558313092782,40.86917222611082],[-73.78595115213776,40.86932175694109],[-73.78858339376971,40.86917114113221],[-73.79025594388429,40.868492199936206],[-73.79153128143534,40.867318044282634],[-73.79198182966981,40.86646890416995],[-73.79223025414458,40.86525725915458],[-73.79211624096608,40.86383012236639],[-73.7914629112544,40.86227438409753],[-73.79189070810901,40.861071221861316],[-73.79359532737804,40.86051731318802],[-73.79385537658263,40.86014609867967],[-73.79371942164026,40.859967163777576],[-73.79412037403159,40.85969626870198],[-73.7941217124408,40.85931765680089],[-73.7945504747362,40.85888826780079],[-73.79487469148954,40.85807555988628],[-73.79427333699348,40.856800718139475],[-73.79435005934272,40.85652702380403],[-73.79685461759762,40.85626435871611],[-73.79798533480839,40.85484893259589],[-73.7987225560008,40.854914401172785],[-73.79902419392448,40.8539572676523],[-73.79864274329609,40.8533574599262],[-73.79795583310394,40.8529883302139],[-73.79780522990745,40.85194959809467],[-73.79819365996994,40.85059256090423],[-73.7993204316036,40.849912774874134],[-73.8002902670751,40.84814485585505],[-73.80082543113305,40.84824304206455],[-73.80146735264545,40.84877021372555],[-73.80197064757184,40.8503826760682],[-73.80417557932397,40.85334012018936],[-73.8045252672441,40.854851864448925],[-73.8035235980003,40.855556694872604],[-73.80413784756402,40.85784176037583],[-73.80420585726534,40.85895904893271],[-73.80464293882284,40.859968201572535],[-73.80460527769026,40.86121718099286],[-73.80478643021046,40.86153847336176],[-73.80541316912006,40.86183780461614],[-73.80601085106464,40.86177306499939],[-73.80624571930763,40.861427484442665],[-73.80582041215786,40.86003461196704],[-73.80655629956537,40.85981792610032],[-73.80741432490069,40.860114437158956],[-73.808178704471,40.8594867161782],[-73.80940628102296,40.860547952221495],[-73.81045556571031,40.86191812870312],[-73.81082270092479,40.86206899176462],[-73.81085022792251,40.862331993972205],[-73.81327423944288,40.863220838892836],[-73.81372780533933,40.86387136643538],[-73.81404089680626,40.86386039503266],[-73.81395857354593,40.864102704216286],[-73.8142288047785,40.86386339803317],[-73.81412572186652,40.863727556314025],[-73.81437997747432,40.86325439834605],[-73.81510315384149,40.86305746536796],[-73.81641392102722,40.86118062770408],[-73.81549293707927,40.860955286737294],[-73.81479629757334,40.86112895674697],[-73.81485206024097,40.860900990310085],[-73.81381802586728,40.86054827917347],[-73.81273146495035,40.85887754194796],[-73.81230602708416,40.85416202647344],[-73.81640870908151,40.85408225461233],[-73.81714840667891,40.85230235724712],[-73.81719039626154,40.85176989361146],[-73.81691542317304,40.85167352556728],[-73.81712409042197,40.85126957344493],[-73.81685873870755,40.85095737599888],[-73.81571378494519,40.8508162043476],[-73.81628619094234,40.850194576449205],[-73.81552034592364,40.84922787393102],[-73.81513102820745,40.8491725035534],[-73.81532344002714,40.84857757069286],[-73.81590281420665,40.8480131214819],[-73.81586136315826,40.847775582354004],[-73.81560451391982,40.84765868316229],[-73.81609670609207,40.84751214603305],[-73.81610537477145,40.846454544437655],[-73.81571903834562,40.846293443498986],[-73.81464594697542,40.84721961352912],[-73.81451106769596,40.847106078026904],[-73.81570353189448,40.846291340423996],[-73.81492265739294,40.84648348869245],[-73.81368634738199,40.84727432550922],[-73.81356372861671,40.84715141127873],[-73.81490858203199,40.846468764879255],[-73.8144235257982,40.846187825072654],[-73.81502627604301,40.8454999950586],[-73.81420573129112,40.84601018088854],[-73.813990421324,40.84582691919396],[-73.81318865072497,40.846229536475384],[-73.81403198219364,40.84558929786809],[-73.81368589093518,40.845659062254995],[-73.81394279128905,40.845511589111396],[-73.81363258232699,40.84528076903155],[-73.81321295244251,40.845922939842026],[-73.81361858267053,40.8452750423887],[-73.81325997724689,40.8452339904584],[-73.81284939958523,40.8463187994985],[-73.81272457676761,40.846286619947314],[-73.8132432635106,40.84523590785021],[-73.81287703597418,40.845134668448665],[-73.81315597044244,40.845212100376514],[-73.81285536957633,40.84518628546158],[-73.81241445328128,40.84655938074896],[-73.81227790900505,40.8465434582794],[-73.81284143551537,40.84518017017501],[-73.81261378787293,40.8451095078661],[-73.8128577433794,40.84512954458932],[-73.81254457815602,40.84497959800851],[-73.81188458844791,40.84659496706141],[-73.8124362506067,40.84673771207574],[-73.81169971823648,40.846681700813825],[-73.81266141349049,40.84420764950102],[-73.81271242301708,40.844466536296615],[-73.81282121937927,40.844259615547124],[-73.81276123529805,40.844473304438246],[-73.8129912030509,40.84452250705573],[-73.81270337280483,40.84448531243261],[-73.8126488933667,40.84465946766751],[-73.81311795023709,40.84478760306726],[-73.81264095809871,40.84468166226051],[-73.81254909120709,40.844952275146255],[-73.81367848753,40.845056980515935],[-73.81416729043146,40.84478090603215],[-73.81369979287803,40.84484845686357],[-73.81418334592415,40.844682199083614],[-73.81346597094539,40.844263188431995],[-73.81347956598182,40.84365111955148],[-73.81499955039779,40.84350445264208],[-73.81521540865157,40.84407819957212],[-73.81567292613445,40.844428775759205],[-73.8163057192387,40.844399210430495],[-73.81643583754615,40.84406490674788],[-73.81699352071384,40.84408902119419],[-73.81750072974424,40.84436744491051],[-73.81824065893849,40.84434212791019],[-73.818190890506,40.84411314800023],[-73.81768994519228,40.8442684955502],[-73.81718704179603,40.843915964417775],[-73.81662677325095,40.84394489856042],[-73.81572300131998,40.8425365659871],[-73.81517113664873,40.84257716162403],[-73.81570207846407,40.84251972168978],[-73.81541503896409,40.84239132778359],[-73.81558492163327,40.841841264603744],[-73.81526263397677,40.84125983942325],[-73.81473345817533,40.841375728311085],[-73.81522026179319,40.841202676499854],[-73.81523404887245,40.84100964149672],[-73.81505399109437,40.84053808589673],[-73.81490477086102,40.84055936014477],[-73.81504912628199,40.8405176195515],[-73.81480646696137,40.83980436688663],[-73.81436596502486,40.83986536376513],[-73.81479697880735,40.839787957407104],[-73.81472319684482,40.839588886600204],[-73.81430900133682,40.83962241637948],[-73.81471999083716,40.839571879092226],[-73.81478277740266,40.83907648795785],[-73.81602281915458,40.838526386244894],[-73.81647878477862,40.8377039838886],[-73.81606068234666,40.83603019645711],[-73.81550338608984,40.83595321346723],[-73.81606339574208,40.83577292747392],[-73.81600773070701,40.835512597838836],[-73.81557397060101,40.83552508183128],[-73.81608188313594,40.83536118240042],[-73.81608401401107,40.834590346265415],[-73.81566358139244,40.83449084930709],[-73.81599347092263,40.8343958445531],[-73.81603747121723,40.834168614805456],[-73.81593920982324,40.83367686641571],[-73.8156987722173,40.83346228086138],[-73.81573931591329,40.83291756902344],[-73.81528686987531,40.831875700533416],[-73.8150312525411,40.831682117018055],[-73.8148793738859,40.8310300864916],[-73.81449221012436,40.83117114022457],[-73.81484313432419,40.830986120513835],[-73.8145200857769,40.83062287579448],[-73.81389783360487,40.83090755415845],[-73.81451016521439,40.83061404705133],[-73.81430920681511,40.83035927120766],[-73.81385671977277,40.830561442922836],[-73.81429959295038,40.83035010370283],[-73.8138677501533,40.829857368782875],[-73.81366831284689,40.82989128485404],[-73.81388971246565,40.82977745220246],[-73.81356669955272,40.82958954788858],[-73.8136111049432,40.829376758458736],[-73.81337687307196,40.82939120271069],[-73.81350420409575,40.82922093467641],[-73.8133876638913,40.82902309447373],[-73.81290321918756,40.828953131666175],[-73.81318011408925,40.82880287122972],[-73.81283902833232,40.82864666669585],[-73.81275469994516,40.82824823625153],[-73.809927992508,40.82819322268483],[-73.81009578138243,40.82781949309168],[-73.81029679194123,40.82799085301224],[-73.81105446059631,40.82798479483612],[-73.81104880187468,40.82784080515475],[-73.81003792061868,40.82778156842338],[-73.81182440558153,40.82782881363523],[-73.81107330717174,40.82784157654804],[-73.81107326796136,40.827984402314925],[-73.81159139311146,40.82799915354873],[-73.81263975263083,40.82783640656203],[-73.81265206400504,40.82755877961498],[-73.81384974845062,40.82680352872422],[-73.81372207686603,40.82627159251522],[-73.81291776131222,40.82635038912083],[-73.81399111600322,40.826069598740425],[-73.8139505407614,40.825729151443774],[-73.81342102197195,40.82592501676849],[-73.8139416195339,40.82571703172866],[-73.81379523517661,40.82529808600175],[-73.81333522606086,40.82517094670781],[-73.81211350556435,40.825552634659516],[-73.81327735515306,40.82516132170772],[-73.81308215093006,40.824944546839895],[-73.81403745843352,40.824483469494105],[-73.81397110343492,40.82419026920771],[-73.81378080191381,40.82399992051855],[-73.8132741739903,40.82396666581975],[-73.81281028698106,40.82433911367457],[-73.81273339108938,40.82477847082255],[-73.81232005539012,40.8244113084201],[-73.81177284871205,40.82433980617299],[-73.81164355619616,40.824601662268854],[-73.81103147525586,40.82470822704219],[-73.81087496294379,40.82511394844671],[-73.81076192559188,40.82490157071443],[-73.8096548114174,40.825275535621806],[-73.80909234633549,40.8258733981643],[-73.80783421319278,40.82576745480322],[-73.80766604765233,40.82589699205927],[-73.80697771152201,40.82538837089766],[-73.80656361554976,40.82460640543196],[-73.80677536296291,40.824448617737126],[-73.80651819407534,40.82419799191291],[-73.80673104693946,40.82413488149515],[-73.80675058060025,40.82382807065881],[-73.80646480610469,40.82379926749933],[-73.80669197728993,40.82367927106443],[-73.80666166000621,40.823419584237335],[-73.80623630693701,40.8233079346509],[-73.80651018671028,40.82315261172057],[-73.80638355020652,40.8228927626324],[-73.80595169124446,40.822882595349604],[-73.80622242082086,40.82274142998961],[-73.80582465580834,40.8217677897932],[-73.80599159848933,40.82082355849026],[-73.80572802989728,40.8201773386952],[-73.80461931205204,40.81902711471654],[-73.80348320649303,40.81827698546684],[-73.80267407634148,40.81823857509168],[-73.80252163401762,40.81852598830611],[-73.80207892871852,40.81855673696875],[-73.8007085972132,40.81804327579612],[-73.80032540130557,40.81756044516139],[-73.79759032777474,40.81650753156775],[-73.79738112573526,40.81576350489581],[-73.79771465236787,40.81551329274363],[-73.79811945293466,40.81569878500344],[-73.798642206466,40.81546401593534],[-73.79902816314,40.81554113493885],[-73.8001114686428,40.81402452556079],[-73.80091593237641,40.813761402506735],[-73.801458005173,40.81294094720333],[-73.80174561215946,40.8128650174159],[-73.80133906141197,40.81239373439257],[-73.8017593218082,40.81286139698747],[-73.80305792060486,40.81245229753628],[-73.80361424977075,40.812523113660696],[-73.80351997906492,40.81292187125176],[-73.80377912019877,40.812809906043235],[-73.80361429261028,40.81304451492828],[-73.804358103467,40.81360853867418],[-73.80415365301042,40.81373067286529],[-73.80361455805945,40.81297219119175],[-73.80325294454971,40.81319677355019],[-73.80346101380117,40.813329243757735],[-73.80322449366629,40.8133585805214],[-73.80453081609834,40.81425461992452],[-73.80322176299285,40.81337410994241],[-73.80351667337368,40.8139519636488],[-73.80418033130341,40.81458996281165],[-73.80443003333593,40.814583062613295],[-73.80471812332812,40.81523050509418],[-73.80658358725697,40.8165945881658],[-73.80611761373622,40.815952209326255],[-73.8050810346668,40.815197964012754],[-73.80455440518865,40.81462984223728],[-73.80465942815025,40.814544989122176],[-73.80527878825075,40.815377264776494],[-73.80632932566165,40.81613795881775],[-73.80671967987072,40.81657517074711],[-73.80660603189511,40.81666449454388],[-73.80692933177552,40.81656837907689],[-73.80653572493937,40.81589198638647],[-73.80704600153508,40.816533693875506],[-73.80662873423144,40.81568384020791],[-73.80640177811446,40.815702030649675],[-73.80663156323897,40.81559499146097],[-73.80568442908414,40.81503342491178],[-73.80545612201098,40.814686574062925],[-73.80544921172645,40.81337665560838],[-73.80499834751825,40.81220663456617],[-73.80476488943775,40.812033678062946],[-73.8039118606247,40.81211049788137],[-73.8033727645836,40.81153978619663],[-73.80293001868921,40.810541861353],[-73.80235340279003,40.81003705895922],[-73.80214816448928,40.810026521740625],[-73.80135552746913,40.810710844895134],[-73.80115707624903,40.81058776561525],[-73.80101172909842,40.810713399647476],[-73.80146670007328,40.81014171796329],[-73.80010949916637,40.80971095407848],[-73.7985376596495,40.809587075529905],[-73.79228907337423,40.80684900557966],[-73.79140059873883,40.806997877908465],[-73.79130157564589,40.80717252058432],[-73.79152359087004,40.8074890878062],[-73.79086475738563,40.80734113993815],[-73.79073479983785,40.80658882885675],[-73.79025263728434,40.806019197024774],[-73.79006256328036,40.80540894183462],[-73.79028410874172,40.80481710368903],[-73.79103717515576,40.804263031702185],[-73.79224529219154,40.80399636431506],[-73.7933898228672,40.80420433003646],[-73.79577769394001,40.80616294902936],[-73.79601037569107,40.80592103186723],[-73.79620903473185,40.80596859046204],[-73.79650268526494,40.80610443548761],[-73.79636945999799,40.806277202766786],[-73.79791578987737,40.80671223002207],[-73.801671905973,40.80901657294826],[-73.80278236265518,40.80912012339995],[-73.80392673417204,40.80852797081189],[-73.8046780836849,40.8092257987877],[-73.80713987884187,40.810661676453925],[-73.80822799216608,40.811891002197285],[-73.8099202908178,40.812929152261944],[-73.81042488566318,40.81298055702468],[-73.8107847786833,40.812770951355176],[-73.81133318625712,40.813014675039405],[-73.81185065747438,40.81293940004048],[-73.81359806345634,40.81332634208583],[-73.81400319066054,40.81355146726609],[-73.81443067312418,40.81351837571591],[-73.8143693843687,40.81293640140616],[-73.81449994116008,40.81290828760471],[-73.81461860845134,40.81296689723888],[-73.81447727191015,40.81351854184135],[-73.81566326325769,40.81351203974366],[-73.8162005689643,40.81384747597692],[-73.81737201626999,40.813574343804625],[-73.81735988456629,40.81337572003741],[-73.81738942091515,40.81357073625084],[-73.81792084127568,40.813544680100904],[-73.81797608887013,40.81329902414658],[-73.81804229161185,40.81353296785646],[-73.81981638454947,40.813179933156086],[-73.82010759340298,40.81286406966558],[-73.82055521517309,40.813017655077104],[-73.82024436122057,40.81243067757415],[-73.82106512070945,40.81220359196503],[-73.8203235551588,40.812439652195124],[-73.82042087950583,40.812638072505415],[-73.82112969804922,40.81244975686706],[-73.82044179624134,40.81265757783644],[-73.82058709143863,40.813019447110854],[-73.82141253439893,40.81287295247819],[-73.82142259915253,40.81270158730655],[-73.82151718570914,40.81284732123563],[-73.82169530549909,40.81266483427267],[-73.82228290825742,40.81266149978779],[-73.8221714521873,40.812354005276646],[-73.82230863560132,40.812658215078734],[-73.82339468020483,40.81235588549569],[-73.82347433550338,40.81219137377928],[-73.82408760781654,40.81216384832528],[-73.82505782162893,40.8118299178869],[-73.82480905359992,40.81143928160021],[-73.82507659171799,40.81182331338762],[-73.82524350467826,40.81176134024024],[-73.82487938938073,40.811272983828395],[-73.82526664318074,40.81175234789871],[-73.82549075318562,40.81165933042357],[-73.82523137433307,40.811209789296456],[-73.82551303817354,40.81164913340958],[-73.82565070298223,40.81159229041371],[-73.82535766859549,40.81102764392394],[-73.82567229084796,40.81158474373054],[-73.82553710461548,40.81101552428081],[-73.82581255718912,40.81153370452054],[-73.82579755905094,40.81120533563991],[-73.82595641099927,40.811474448435305],[-73.826209663358,40.8112790068008],[-73.82802775144881,40.81145236638727],[-73.82916397036465,40.811265116655214],[-73.83018245574914,40.810839087126965],[-73.8316219994741,40.80956814534823],[-73.83217486842416,40.8081597794441],[-73.83213795292717,40.80740773735611],[-73.8316182295314,40.806645780055625],[-73.83139548735745,40.805170708059954],[-73.8316157445545,40.80493825599347],[-73.83431545192279,40.805162656820706],[-73.83735487250836,40.80615004014872],[-73.83806076528177,40.80703977469353],[-73.8381386984199,40.80793445799139],[-73.83897298831992,40.80951471994929],[-73.84025952896259,40.81144303678297],[-73.84043199540953,40.8125411282371],[-73.8402686768038,40.81328047502404],[-73.83966236683594,40.81392164508082],[-73.83956806528863,40.81449124860831],[-73.83953766669438,40.815819182724965],[-73.84019020523155,40.817188273056594],[-73.84009277081641,40.81779897053961],[-73.83921022100891,40.81888835712699],[-73.83892733295289,40.81900121010729],[-73.83868347700866,40.81959138101699],[-73.83906398923855,40.81980243234184],[-73.83888231646733,40.82214048985618],[-73.83907059473005,40.82225284895774],[-73.83904904481194,40.822688748146064],[-73.83952777714225,40.82303815915202],[-73.83944934873239,40.82326535508363],[-73.83974013877227,40.82411049303689],[-73.84013113528489,40.82431708917762],[-73.8422204799932,40.82834188794403],[-73.84233077477266,40.829073962453876],[-73.84188643774428,40.83071317653467],[-73.83918095199299,40.83315611875267],[-73.83885232384722,40.83369066784842],[-73.83923392305653,40.83674104076103],[-73.839192552357,40.83871362805796],[-73.83958953765703,40.838798485825855],[-73.83972014515525,40.839565405986335],[-73.84030282537191,40.839524313945226],[-73.83984179647032,40.83790493838039],[-73.83984235556295,40.83611624146407],[-73.8397594290159,40.83629627837064],[-73.83979992825567,40.83581139835384],[-73.83965173481587,40.83582911599192],[-73.8396800156726,40.83606315988022],[-73.83960098545434,40.83567071869877],[-73.83979605087632,40.83578848940358],[-73.83965849740537,40.83574348973643],[-73.83979488562292,40.835619206990465],[-73.8396148723857,40.83561056836595],[-73.83945783797591,40.83500610569212],[-73.839619931812,40.83480098193857],[-73.83941519123677,40.83464963615165],[-73.83959266821329,40.834560475144066],[-73.83959108452291,40.8340416880908],[-73.83992048478672,40.83332079479967],[-73.84221334664694,40.83155050727739],[-73.84275884293768,40.830818484142995],[-73.8444133761404,40.830598451098425],[-73.84457641043412,40.83130217329366],[-73.84420518617146,40.83133873647291],[-73.8399553560245,40.834901464836456],[-73.84000276482352,40.83566166691191],[-73.84027326604456,40.83625704687264],[-73.84197673998752,40.838909771343836],[-73.8430625277515,40.839797206294854],[-73.84458129174455,40.838535507629636],[-73.85052278148929,40.84278948980259],[-73.85333524942047,40.84247015515494],[-73.85738111421539,40.84371626566677],[-73.85865367334866,40.84528639011323],[-73.8594398893357,40.84665921644603],[-73.84968869796839,40.85105890653925],[-73.84430846965132,40.85119046419749],[-73.8422529523218,40.85425839762195],[-73.84045915519162,40.85563492621919],[-73.8389011676685,40.85638058433018],[-73.83768048064059,40.85664184092062],[-73.83804458772339,40.85686855964826],[-73.8328511129325,40.85608915162177],[-73.83121095818073,40.85749802335012],[-73.82840758975831,40.860948301201155],[-73.82954731157822,40.86216408726573],[-73.83264403451685,40.868236956297],[-73.83433721081043,40.872027023033105],[-73.8348772938107,40.87440388242999],[-73.83484098424535,40.87579292595709],[-73.83458452306004,40.87691141650526],[-73.83411782039248,40.87798029239339],[-73.83288377565293,40.87948404982108],[-73.83013474749315,40.88179997220743],[-73.82561980094802,40.884070152547814],[-73.81986656222293,40.885724326832474],[-73.81994301090687,40.886383921566846],[-73.8204965260533,40.88703574221565],[-73.82079094307373,40.886956055849495],[-73.82392307250072,40.88782267152433],[-73.82373661584379,40.88792970596866],[-73.8241480518209,40.88855112984755],[-73.82408839688176,40.88906879187725],[-73.82388370694513,40.88907495449798],[-73.82356620193522,40.889816578975676],[-73.82366848120671,40.889903740295516],[-73.82252377666882,40.88942882391685],[-73.82240605556254,40.88956629014444],[-73.8226055152407,40.88982953763234],[-73.82335542698966,40.88987329838835],[-73.82337003996082,40.890967295878525],[-73.82285335072685,40.8912068290964],[-73.81940651728573,40.89026043427482]]]]}}]}