{"type":"FeatureCollection","features":[{"type":"Feature","properties":{"district":"29"},"geometry":{"type":"MultiPolygon","coordinates":[[[[-73.72586264182358,40.68324108094806],[-73.72563005119694,40.679587951284134],[-73.72629437118819,40.67705811280228],[-73.72755616356653,40.67416158768915],[-73.7282413121141,40.66802409750177],[-73.72827272254973,40.666429592083816],[-73.72811351396625,40.66534531443702],[-73.7278578721934,40.66506797018426],[-73.72781751015889,40.66311678348361],[-73.72833071875961,40.66304394373133],[-73.72793124345495,40.661748835103474],[-73.7264443860825,40.65916161542237],[-73.72556769770412,40.65672514308154],[-73.72550259072494,40.65551651557244],[-73.7249847077882,40.65425343540573],[-73.72509934582095,40.65234574831195],[-73.72522608107016,40.652001000147635],[-73.73028652972182,40.650368522674576],[-73.7351350140632,40.64973204046549],[-73.73673508636625,40.649099816497596],[-73.7415320160831,40.657358544533096],[-73.73870546985391,40.65732039663654],[-73.73626565309095,40.66062571883964],[-73.73985718543022,40.66220383794336],[-73.73798466991505,40.6646766036739],[-73.73954958290831,40.6652560220917],[-73.73937134215618,40.66545222891094],[-73.74108265213066,40.66574690705303],[-73.73993110682933,40.666401553807745],[-73.75551141712552,40.66639876383892],[-73.75717253300047,40.667041821661606],[-73.75912138088052,40.66735162725966],[-73.75878774437919,40.66852634829255],[-73.76560462694324,40.66966619618095],[-73.76435325021397,40.67185336868713],[-73.7636767757841,40.67474552572684],[-73.76248600364025,40.674194981764856],[-73.75789961552105,40.676123409652156],[-73.75983741098409,40.67896950623188],[-73.76088158102361,40.67931258095584],[-73.76974091392493,40.68378627585679],[-73.77014324667269,40.68311109705301],[-73.77232211204058,40.681490968262686],[-73.77356539523514,40.68096392630888],[-73.77670779439752,40.682885576176055],[-73.77314858749949,40.685806085736395],[-73.77661911985385,40.688363723048205],[-73.78211026162558,40.695237145547075],[-73.78342823772134,40.6947021785597],[-73.78392256498444,40.695587719461095],[-73.78590150002333,40.697731770448165],[-73.78645565486423,40.69778795228928],[-73.7904980354235,40.70179100657976],[-73.79186916556714,40.7013661371888],[-73.79246106872054,40.700553824703455],[-73.79357708668842,40.699756471694826],[-73.79700599658189,40.704610258082496],[-73.79679902068794,40.70469746491653],[-73.79930425351388,40.70869823164847],[-73.80022185193383,40.70844580151379],[-73.80106920251419,40.70981821030883],[-73.79321635668796,40.71261328052131],[-73.7925385529227,40.71261641857094],[-73.79140161835163,40.71302097305896],[-73.79064904427233,40.71249912010549],[-73.78904485126608,40.712596932561645],[-73.78858168019974,40.71233184750617],[-73.78180006658467,40.71440084919433],[-73.7784662067165,40.71520084112769],[-73.77800119633673,40.71405112413166],[-73.77357135234456,40.715120095370196],[-73.76733228086881,40.717289796810775],[-73.76446951723543,40.71889039287925],[-73.76113827190004,40.72032917718589],[-73.75640389523868,40.71398559531269],[-73.75621111985362,40.7134970817007],[-73.75925219592358,40.713471800765625],[-73.75810245031778,40.71200510955704],[-73.76825969052467,40.7095263678771],[-73.76844546450798,40.70963702715867],[-73.7709358513658,40.70862589657665],[-73.7765664833749,40.7072246880091],[-73.77582076071195,40.705373906033984],[-73.7719133001424,40.70464651971488],[-73.76727953856427,40.703410110079886],[-73.76319185607217,40.69960018857647],[-73.762615417306,40.69869667554947],[-73.76282206055733,40.698717291023996],[-73.763538507381,40.697814278262356],[-73.7685757374629,40.69703100925524],[-73.769294136621,40.69665030016615],[-73.76522150632196,40.692758197368],[-73.7653936877625,40.69206518275781],[-73.76238524147489,40.69166785363288],[-73.75686898996297,40.69317178335817],[-73.75729615236574,40.69406116181375],[-73.75615657226446,40.69436251540088],[-73.75642238425407,40.69502631729523],[-73.75464527447242,40.69548857734724],[-73.75395754018152,40.69397145855595],[-73.75422984937705,40.69389686588326],[-73.75375229377309,40.692888852412004],[-73.75290846302555,40.693125031610464],[-73.75157984389368,40.690346050116055],[-73.75132313225646,40.690045218765405],[-73.75038445141058,40.69038159117586],[-73.74921274399942,40.68854518507023],[-73.74812293228476,40.69013086730815],[-73.74617365169983,40.689368834728704],[-73.72586264182358,40.68324108094806]]]]}}]}