{"type":"FeatureCollection","features":[{"type":"Feature","properties":{"district":"55"},"geometry":{"type":"MultiPolygon","coordinates":[[[[-73.89554341895499,40.670625787961974],[-73.9019821814221,40.66967007119881],[-73.89878859292311,40.65741288789226],[-73.9101225569847,40.65585177155428],[-73.90977962087938,40.65446625508421],[-73.91074109779946,40.65434213957211],[-73.91070974643269,40.65417873430887],[-73.91253566891943,40.65430063485825],[-73.91465843169381,40.656214254345855],[-73.91377943741749,40.65678367971154],[-73.91441247690435,40.6573624197938],[-73.91556629612182,40.65839257171841],[-73.9164858999143,40.657859089379116],[-73.92546270195405,40.66591675199176],[-73.92872204594605,40.664495569685464],[-73.9286840449078,40.665086023274434],[-73.93145550047724,40.66523381808775],[-73.93052948257333,40.67503879683608],[-73.92204843320636,40.67457439719823],[-73.92164748131954,40.67887054703281],[-73.92197376275982,40.67907748928789],[-73.92213242865931,40.679744977700686],[-73.92354238901639,40.68707598253421],[-73.9208863703903,40.687382019443234],[-73.92121369884177,40.68901947711515],[-73.9000225492494,40.67679972795488],[-73.89724169605458,40.67720616717052],[-73.89554341895499,40.670625787961974]]]]}}]}