{"type":"FeatureCollection","features":[{"type":"Feature","properties":{"district":"46"},"geometry":{"type":"MultiPolygon","coordinates":[[[[-74.0180593048281,40.62861955791679],[-74.01926375737062,40.625576263300914],[-74.02007423343322,40.62424643447751],[-74.01885791481199,40.624274062030224],[-74.01726142532779,40.62526924225215],[-74.01025743799511,40.621032234181676],[-74.01374808840544,40.61767659532045],[-74.00934164498163,40.61501509604001],[-74.01701910154738,40.60765441697132],[-74.01149994952105,40.60476006025182],[-74.01356337940108,40.60258487677974],[-74.01161032912438,40.60211138807557],[-74.00372956713744,40.59735820645538],[-74.00257227922886,40.597040810592944],[-74.00347629456243,40.596822299759964],[-74.00003975683616,40.59593699286636],[-73.9986558663795,40.597268562483066],[-73.99483984044971,40.59403116548088],[-73.99402108859955,40.59364476568327],[-73.99427029797788,40.59358685430682],[-73.98998818151126,40.58846193037724],[-73.98653065848514,40.59167068977726],[-73.98432755631576,40.59034194976077],[-73.98409378813308,40.59056653505219],[-73.98326960009861,40.586187590069684],[-73.98423080333441,40.58606834140231],[-73.98387593305021,40.58397574566237],[-73.98281157707858,40.583792388419084],[-73.98271031696414,40.58324273002693],[-73.9789920192188,40.58266697212527],[-73.97662134988394,40.58257008828364],[-73.96788581646786,40.5838378025682],[-73.96677678374068,40.58391499002196],[-73.96691975150385,40.58335247304222],[-73.96539304008782,40.583130539222225],[-73.96528477011536,40.58368741755765],[-73.96504434894184,40.58386391999116],[-73.96206978425876,40.58420304043457],[-73.96143022920447,40.58389984639822],[-73.96103189910589,40.58172558661337],[-73.95994330865145,40.58195926812556],[-73.9594744554649,40.57587405404421],[-73.96113608337794,40.57580267709368],[-73.9610334283566,40.57507632436183],[-73.95941778288545,40.57517798313939],[-73.95939182247403,40.57391210975257],[-73.96720294103956,40.57332631739762],[-73.9674356779313,40.573208969671484],[-73.96742628474541,40.57298510896942],[-73.96753149753702,40.57319073238481],[-73.96839037828883,40.57315444294028],[-73.96945126202374,40.572857280363365],[-73.96924621215567,40.57230407565472],[-73.9695589515174,40.57280858046091],[-73.97085363074373,40.57277051528003],[-73.97135044587515,40.57259945954289],[-73.97118306355719,40.57194189908436],[-73.9716070645239,40.57262822392002],[-73.97249673747082,40.572576256747595],[-73.9733450222981,40.57232121400631],[-73.97324990115143,40.57162668610919],[-73.97344805325683,40.57227210696953],[-73.9737320997119,40.57228692509416],[-73.97547081902785,40.57196900381711],[-73.97540564094218,40.5714210406407],[-73.97567918029264,40.57195598449751],[-73.9759255209153,40.57201865743774],[-73.97727057020663,40.57186365042473],[-73.97766384588142,40.57172938779928],[-73.97767087523825,40.57117102007926],[-73.97807599798224,40.57122957012887],[-73.9777153307247,40.571251914345],[-73.97780796518913,40.571756200724806],[-73.97845486511191,40.571892204296596],[-73.97984694469407,40.57153931961033],[-73.9794251615826,40.57122102372418],[-73.97977198326755,40.57124014633363],[-73.98000799187608,40.571708806607695],[-73.9802088309702,40.571726205491196],[-73.98204075852516,40.57148037052266],[-73.98157155423429,40.571249988425],[-73.98194794042385,40.57123700215768],[-73.98225580253013,40.571568418289836],[-73.98367270153263,40.57140705768757],[-73.98340440737677,40.57016554451094],[-73.98304328883712,40.57014586098814],[-73.98339168436654,40.570094684517066],[-73.98336058039285,40.569529993984325],[-73.9834852186614,40.57008901506295],[-73.9838394948926,40.57011246715812],[-73.98348842146684,40.57015603004669],[-73.98375790448652,40.57139622725111],[-73.98803716678536,40.57098510876888],[-73.9886202548146,40.57089605131433],[-73.98857772038873,40.57069790950512],[-73.98872145848829,40.570883692082816],[-73.99026267527438,40.57070834011741],[-73.99077310323918,40.570599422340585],[-73.99079264766944,40.57024864875571],[-73.99086374684873,40.57060201624256],[-73.99119337523616,40.57061187496838],[-73.99272854897072,40.570433788037604],[-73.99298098072167,40.57019677330934],[-73.9931574188674,40.570379789439016],[-73.99493763229947,40.57035467451256],[-73.99513854436805,40.57031466120686],[-73.99518726085735,40.5700218776333],[-73.99529301203256,40.570321283216586],[-73.99719493825842,40.570348649044],[-73.997369448826,40.57013730754305],[-73.99766712135202,40.570374751166334],[-73.99846777900159,40.57049739697316],[-74.00077859539269,40.5704909982214],[-74.00201167053906,40.5702087585243],[-74.00208547639734,40.56958598398511],[-74.0024870773771,40.571738388872625],[-74.0047994162169,40.572878854348446],[-74.00668904970406,40.57339722045679],[-74.01007410785427,40.57383080951783],[-74.01115668729264,40.574166761859004],[-74.01201540191131,40.57488505247441],[-74.01245749577932,40.57661074641708],[-74.0130238006225,40.57780436976003],[-74.0123503592923,40.5792218211566],[-74.0108603557124,40.580462245264826],[-74.00762456723075,40.58176779027811],[-74.00604734235812,40.58198365253342],[-74.00294374157806,40.5814328355212],[-74.00055986763827,40.58129742968316],[-73.9996415228003,40.58131655849627],[-73.99895997129458,40.58163304592502],[-73.99818261219656,40.58172536373689],[-73.99776464433626,40.58145433077118],[-73.99771779495471,40.58070677630617],[-73.99182912790278,40.579247080928965],[-73.9903620646656,40.579424580120666],[-73.9889909355634,40.57883509996901],[-73.98842833769437,40.57881584211708],[-73.98739064388405,40.57908698306386],[-73.98669540063,40.57981490763022],[-73.98702138577706,40.58002276487546],[-73.98588567394853,40.58114442456495],[-73.98604509916231,40.581720685151765],[-73.98684478996451,40.58123210200535],[-73.98763925793929,40.57991759787685],[-73.98805399717064,40.57963273906323],[-73.98995504921773,40.58066166953157],[-73.99163007472379,40.581079884382035],[-73.9918252957587,40.581738520302906],[-73.9903376250445,40.58421825538863],[-73.99026244714365,40.584619148708086],[-73.995471885484,40.58221005475514],[-73.9960552882052,40.58212890385432],[-74.00017922859408,40.583073950245186],[-74.00041739503706,40.58354592150345],[-74.00035951790483,40.58418644588058],[-73.99878762307115,40.58515289393346],[-73.99808523776014,40.585364721581676],[-73.99970597099512,40.585689819858736],[-73.99952567990363,40.58575854466008],[-73.99956511570319,40.586243920095846],[-73.99814530449004,40.58653169390733],[-73.99417305638377,40.588382857820946],[-73.9956605451227,40.58793620734399],[-73.9940790462178,40.58869344199073],[-73.99421554608305,40.58886853048296],[-73.99556316619987,40.588277072198956],[-73.99509949490815,40.588592505043984],[-73.99795639739288,40.58726950636582],[-73.99487677695369,40.58877174667533],[-73.99534737661217,40.58933138044016],[-74.00011449538404,40.586951640902775],[-74.00010886019504,40.58656072909692],[-74.00037368890935,40.58647481463014],[-74.00038207115722,40.58713305734965],[-73.99788311251038,40.58834343792298],[-73.99867293375561,40.58919554943726],[-73.99923690396959,40.58893532826925],[-73.99946446811074,40.58923326938089],[-73.9983783488211,40.589770445088746],[-73.99883618014573,40.58962548954246],[-73.99844387079492,40.58986039917769],[-73.99877800589586,40.590314355844654],[-73.99844325936868,40.59024010549462],[-73.99775972701362,40.590952469613946],[-73.99711168571537,40.59127797744395],[-73.99718982747926,40.591606180953484],[-73.99806438267684,40.591209464731676],[-73.99728269703786,40.59171481486826],[-73.99754851058402,40.59191757867318],[-73.99946271244364,40.59110320712731],[-73.99998735001267,40.59117294567664],[-74.00023075280212,40.591478489775135],[-73.99903131441657,40.59231280344775],[-73.99948304872375,40.59296919989778],[-73.99838831083619,40.59353139160648],[-74.00109596784155,40.59251870899915],[-74.00284295909886,40.59515359834246],[-74.00411359626966,40.596450279474034],[-74.00557303710914,40.597568612318376],[-74.01065533816518,40.600597005317255],[-74.01236981602699,40.60134925711637],[-74.01472837011984,40.602065911342756],[-74.0191356390289,40.60261275450514],[-74.01974772844801,40.603084809264054],[-74.02085657504311,40.603522132905056],[-74.03005146547684,40.604759173812155],[-74.03270681479886,40.60633106603828],[-74.03427280539475,40.60771747873311],[-74.0348704707392,40.608582287764214],[-74.03603977777915,40.60929563900205],[-74.03509032484646,40.60960201261059],[-74.03509119108922,40.610621015250146],[-74.03487149024242,40.61136623621376],[-74.03698450620585,40.613656501423556],[-74.03797502667884,40.615858808056956],[-74.0402824021368,40.61966323702951],[-74.04050275700634,40.620602581113],[-74.04017982041647,40.621632176984164],[-74.03953222639291,40.62167166572369],[-74.03784013154078,40.62127474594964],[-74.03463999435027,40.62910561340471],[-74.03195672319285,40.62847059683159],[-74.03019093132085,40.63279069550667],[-74.02479160206587,40.63150571166595],[-74.01982886060905,40.62916817864605],[-74.01966043297767,40.62957688145055],[-74.0180593048281,40.62861955791679]]]]}}]}