{"type":"FeatureCollection","features":[{"type":"Feature","properties":{"district":"62"},"geometry":{"type":"MultiPolygon","coordinates":[[[[-74.13489889189538,40.57616662287926],[-74.13330682155247,40.576366390186244],[-74.1292201138348,40.577668040401996],[-74.12886967830282,40.57702278537843],[-74.12724921167067,40.57755092083794],[-74.12706746958081,40.57640521866958],[-74.12749282414184,40.57542515776869],[-74.12784711441427,40.57516757625084],[-74.12762580337707,40.574146193631705],[-74.12771493575521,40.57375868811695],[-74.12681130589716,40.57340970984889],[-74.12721193341245,40.57202313319013],[-74.12761282837435,40.57136058547194],[-74.12418560387265,40.56942453772848],[-74.12489904372298,40.568949142444666],[-74.12309281139778,40.56796636645468],[-74.1267526524418,40.56444428513691],[-74.12740546347929,40.563538514757184],[-74.1315680408834,40.560040283765446],[-74.13183282158509,40.56018994440715],[-74.13666669004263,40.55633618152185],[-74.14050162534205,40.554169234953925],[-74.14042826033565,40.554360101204864],[-74.14272646144914,40.553355963142934],[-74.14463889741141,40.552808301922326],[-74.14849186485577,40.5522956759481],[-74.15050968146393,40.55164585786306],[-74.1506370100835,40.55195023185101],[-74.16116710896706,40.54919070455124],[-74.1652403158963,40.548730716380206],[-74.16459854863791,40.545849515043685],[-74.16574238458435,40.54539770524367],[-74.1654008081082,40.54443272303941],[-74.16426953128064,40.543335501698294],[-74.1634576285123,40.543778723308016],[-74.16239128128325,40.54391140783238],[-74.16095234815485,40.54242380624153],[-74.16021104035146,40.54282970935763],[-74.15866066512656,40.541245971054494],[-74.15794963807588,40.54166690386404],[-74.15472403336838,40.53840339539596],[-74.14929752778538,40.5350320122887],[-74.14991646657685,40.53463853876733],[-74.14921733263964,40.53424158776107],[-74.14977717489343,40.53388786930431],[-74.14971830290297,40.53349191002259],[-74.15021506106473,40.532897345219965],[-74.15069553618272,40.532545838937324],[-74.1511202569052,40.532741382506885],[-74.15175798831618,40.53240179402822],[-74.15185337744485,40.5321640210235],[-74.15245660936688,40.532067944001106],[-74.1540010766683,40.53083155332172],[-74.15389831682606,40.53067377293571],[-74.15410381534747,40.53076082199778],[-74.15462807870676,40.53035429625152],[-74.15454357374453,40.53006213630381],[-74.15492894849395,40.53022548357582],[-74.15564782339318,40.52964298409582],[-74.1555035725126,40.52943802633791],[-74.15573153435037,40.52960090453265],[-74.15622373887385,40.52921970885156],[-74.15644868150012,40.52893184170155],[-74.15618731852328,40.528611371091884],[-74.15667105208163,40.52899331160743],[-74.15701861946391,40.52897765631238],[-74.15826103107301,40.52830049916315],[-74.15797239457906,40.52806708584459],[-74.15832645126989,40.52827842678335],[-74.15970134520207,40.52729599283172],[-74.1603042631384,40.527555747322296],[-74.16158217423639,40.52701347827946],[-74.16227196108763,40.52719426230854],[-74.16999711161473,40.523045772452576],[-74.17050791660368,40.523048719785685],[-74.17128682067288,40.523457767139824],[-74.17269667263014,40.522968735523776],[-74.17601245479067,40.520875962829265],[-74.17758295522106,40.51923086686623],[-74.17831876690656,40.51994578563119],[-74.17924381368742,40.519984216679156],[-74.1798101694893,40.5205523377063],[-74.18105192746827,40.520663254038176],[-74.18243461417494,40.520318205802404],[-74.1848311647976,40.51934135860102],[-74.18656733191207,40.51811584990252],[-74.18849871608533,40.5163127263648],[-74.18926875557327,40.515344976872555],[-74.18884297821849,40.5150871663459],[-74.18971218498393,40.51532037853449],[-74.19178922669774,40.51305164434617],[-74.19344318347443,40.5115673095969],[-74.19409643736367,40.51064124236241],[-74.19521339999068,40.509977652955875],[-74.19649936986211,40.50992353098781],[-74.19860831704987,40.5111970231467],[-74.19967205359374,40.51142685047984],[-74.2000592561697,40.51261937254108],[-74.19892572793869,40.5127773059986],[-74.19907307095482,40.51308388453719],[-74.19995659988135,40.51293021841032],[-74.20082898254242,40.51303070395863],[-74.20530532183156,40.51232600514726],[-74.20820370577567,40.51163898082419],[-74.2096878939744,40.51079736934264],[-74.20918996825198,40.51049905745798],[-74.20932200464202,40.5103986288956],[-74.20971374205877,40.51077770324319],[-74.21013466033601,40.51041675033073],[-74.21179183197995,40.508173273495196],[-74.2133816997362,40.50676628821555],[-74.2135313080367,40.506397477228056],[-74.21385533847535,40.506607024673265],[-74.21434250129722,40.506518911287486],[-74.2156583741019,40.505616577935946],[-74.21760226300161,40.50333541478761],[-74.21977016417114,40.50274268846006],[-74.22304657852258,40.50247817901294],[-74.22500232195428,40.50177029511352],[-74.22729413511078,40.50229749944576],[-74.22971584237062,40.50208568758785],[-74.23033892500185,40.501804178372176],[-74.23055401780135,40.501946854659934],[-74.23124443244185,40.50182686031915],[-74.23359904119738,40.50091253160142],[-74.23526495948053,40.50060602854845],[-74.2367884562405,40.50000083553837],[-74.23766770359929,40.49912325543654],[-74.23798737379059,40.49916598084844],[-74.2385132163552,40.49889607586644],[-74.23984851236823,40.4975830136407],[-74.24432798252431,40.49754674020985],[-74.24548938982623,40.497044773867316],[-74.2467610277419,40.49613398761203],[-74.24837449685393,40.49633059857334],[-74.24964219479405,40.49683795432863],[-74.25085489422248,40.4980061635954],[-74.251104114858,40.498934197854325],[-74.25259982739979,40.49964307588649],[-74.2532977155883,40.50031455086905],[-74.25384590620644,40.50163566934477],[-74.25527947208296,40.504055531957384],[-74.25530710377622,40.50653645411922],[-74.25559136315209,40.50771295072926],[-74.25524817753173,40.50824323071319],[-74.25462856709909,40.508674825727205],[-74.25497290370767,40.50880566163084],[-74.25461850728021,40.50868390880002],[-74.25399753079344,40.50897031481095],[-74.25403804567854,40.50925267164586],[-74.25431454169312,40.509413694649204],[-74.25402069505525,40.50927297629023],[-74.25368911881061,40.50942559643936],[-74.25464651262905,40.50982624592461],[-74.25452621732428,40.50997301538377],[-74.25364812518256,40.5094705304365],[-74.25331579805132,40.50986150454117],[-74.25306394553081,40.511055257369975],[-74.2532580688567,40.51108868938098],[-74.25300847277555,40.51119398970561],[-74.2535268507671,40.51167776603207],[-74.25303635381549,40.511433160458935],[-74.25308950868654,40.512121961374085],[-74.25195197488469,40.51299700254742],[-74.2521259139706,40.51371037980015],[-74.25135331412858,40.514392897537746],[-74.25011171056995,40.5150448198553],[-74.2500756883246,40.515219092251996],[-74.25055526413557,40.51571634242909],[-74.25015626516763,40.515361188199655],[-74.24988824874998,40.51552154519314],[-74.25056007272009,40.51610674103263],[-74.25041535921383,40.516188335026094],[-74.24935660923893,40.51500592819388],[-74.24921528676096,40.51508486129946],[-74.24994158808036,40.51613748819118],[-74.24943096899091,40.51568788559771],[-74.24864764632107,40.51611262849697],[-74.24875958315138,40.516356221134416],[-74.24854589291671,40.51616991714866],[-74.24860080823045,40.51631333191808],[-74.2482842208389,40.51648694955386],[-74.24894624665613,40.51719453978692],[-74.24940770789097,40.51698083092126],[-74.24851449056031,40.517475626265245],[-74.24891910653054,40.51720843369266],[-74.24751811835532,40.515735864778854],[-74.24693048008477,40.51606645441794],[-74.24644039651132,40.5159650280061],[-74.24612857679283,40.51613739257391],[-74.24674997194062,40.5164956132407],[-74.24651040267673,40.516669855306176],[-74.24699556996588,40.517182085195735],[-74.24647899705323,40.51668732721104],[-74.24653682834257,40.51695996037966],[-74.24634969801765,40.51675337193509],[-74.24520861528356,40.5172897436243],[-74.24566989001377,40.51778970805146],[-74.2456347316994,40.518075580745965],[-74.24508804460534,40.51806683940441],[-74.24429835217606,40.51851500310796],[-74.24365228511596,40.51829461462335],[-74.24232477833276,40.51832652502193],[-74.24103122918724,40.51954251319067],[-74.24049069687702,40.51919162897021],[-74.23982258316951,40.52009071194654],[-74.2407328454876,40.52056915165404],[-74.24117293552197,40.52106013143217],[-74.24133219575523,40.520894517580395],[-74.24293235036323,40.521227160630374],[-74.24258375639266,40.52219864849821],[-74.24280157009575,40.524007296286875],[-74.24335792685682,40.524818913317986],[-74.24396500758859,40.52490536633801],[-74.24333883883855,40.52585380518017],[-74.24288674411123,40.52729733641782],[-74.2428867138121,40.52820013082621],[-74.24251028997547,40.528445935266085],[-74.2421880176231,40.52943755166044],[-74.24224528137324,40.529822779505146],[-74.24150733322897,40.53104134279533],[-74.24181061621528,40.5325626754217],[-74.24217799663231,40.53257613847683],[-74.2422820033815,40.53338749651791],[-74.24196458870458,40.53363371843335],[-74.24204570286004,40.53434637705064],[-74.24263289675623,40.534783354811715],[-74.24295641189781,40.53540676169805],[-74.24369670587454,40.53608011142469],[-74.2441249598849,40.53619629572923],[-74.24397655106576,40.53646049855938],[-74.24414782538697,40.53688140991723],[-74.2445875391072,40.53693292707299],[-74.24493693114462,40.536663876917345],[-74.24533651176053,40.53690599443482],[-74.24442748922033,40.53801643339913],[-74.24539376219913,40.53955167471587],[-74.24560205698324,40.540949594577555],[-74.24599284790557,40.541278932158036],[-74.24648614815786,40.54221339265584],[-74.2476777803961,40.543125403303],[-74.24803463735688,40.543093240441635],[-74.24613743768708,40.54569644693217],[-74.24336346552765,40.54786513523601],[-74.24358447651353,40.547623990878776],[-74.24293585929203,40.547113219748034],[-74.24220318463249,40.54694867779772],[-74.24039182810051,40.54766331017396],[-74.23837191304226,40.54914156681453],[-74.23761963467327,40.55012346857881],[-74.23641459726791,40.55050822345002],[-74.23616473136117,40.55142942466193],[-74.23650799187398,40.55202727130982],[-74.23639962082139,40.5523353332219],[-74.23489865800803,40.55300521667145],[-74.2337775501176,40.552514200016454],[-74.23332400080318,40.55250914356611],[-74.23229112933164,40.55336369797586],[-74.23193331444938,40.55414983011733],[-74.23071036198121,40.555557594259106],[-74.23024952153514,40.5553867461628],[-74.22931954185714,40.555491586962944],[-74.22935253825545,40.5557506006206],[-74.22905162187638,40.55610708210527],[-74.22833214372007,40.55639035431165],[-74.22743682730528,40.556038533516634],[-74.22640494542951,40.55625571284607],[-74.2239033413449,40.55589706554467],[-74.22386421498082,40.55609769408307],[-74.22344265106311,40.55604656990374],[-74.22378606708955,40.555880267507376],[-74.22316128942742,40.555787142691976],[-74.22297219698756,40.55550337362153],[-74.22257486801371,40.55540620977982],[-74.22179863887051,40.55541707075928],[-74.22157006613199,40.55564898295788],[-74.22129864604456,40.55536622468574],[-74.22086715093401,40.55594020227793],[-74.22029711808946,40.555597921062954],[-74.22010627164943,40.55492881292594],[-74.21974356930723,40.55461267207267],[-74.21908060899345,40.554847002198166],[-74.21933701278985,40.55569136698126],[-74.21921716370927,40.55579696987882],[-74.21895832633227,40.55485758341598],[-74.21859325782808,40.554674210247974],[-74.2187503688056,40.55602774053745],[-74.21775342391737,40.55500528477637],[-74.21604246060636,40.55554411878319],[-74.21474053198814,40.55624238913232],[-74.21499256964766,40.5567949327961],[-74.21462340478283,40.55691336222108],[-74.21422698854244,40.556557317917196],[-74.21395537449725,40.55665715479713],[-74.2137646731759,40.55639694332549],[-74.21327457291378,40.55662493427681],[-74.21305096422817,40.55713417230702],[-74.2126480348263,40.557284683925886],[-74.21267302665483,40.55764756000829],[-74.21195091597087,40.558486345888355],[-74.21175620455124,40.55912475727636],[-74.21197029168809,40.55929773757716],[-74.21187398427328,40.55961152202384],[-74.21117131028397,40.560473040169214],[-74.21134005281321,40.561230353085506],[-74.21109600355233,40.56213147129194],[-74.21137997858774,40.56349220527506],[-74.2106234374394,40.565520200174745],[-74.20954125857394,40.56751458487464],[-74.20953467232908,40.56792804865823],[-74.20932175268335,40.568025300757085],[-74.20886661112192,40.56890979392937],[-74.20892636328671,40.56962429845021],[-74.20801705381419,40.57051795740093],[-74.20816851102184,40.57071942341444],[-74.20783559015133,40.57261000094922],[-74.20707800410416,40.57426634021684],[-74.20728431413171,40.575254532872776],[-74.20681205626771,40.57592202018839],[-74.20708917179337,40.576305589836416],[-74.20658040532055,40.5766527368369],[-74.2065312542969,40.5769016373691],[-74.20680827961803,40.577179568792744],[-74.20632344195356,40.57753881896503],[-74.20591732509392,40.57861664755381],[-74.20599255081491,40.58041038393609],[-74.20572403289714,40.58096568893236],[-74.20541737057084,40.58106948698306],[-74.20508136987236,40.58159946880283],[-74.20508854408904,40.58220819057414],[-74.20440076433692,40.58371294584217],[-74.20463390208104,40.5843232388015],[-74.20436433899084,40.58463414937085],[-74.20441471663779,40.58552367532751],[-74.20411940258332,40.58589554107593],[-74.204274942826,40.586110054127154],[-74.20426533002895,40.587320535043176],[-74.20458065694791,40.58821760368281],[-74.20412200969584,40.58888147457861],[-74.2046460894321,40.58928574546605],[-74.20440892551585,40.58970676381176],[-74.2038855045637,40.589786110239075],[-74.20265866971876,40.590722145782586],[-74.2023776362332,40.59064471267339],[-74.20201405533443,40.59089579912525],[-74.20246775956737,40.590838825360166],[-74.20305254911503,40.591140541810056],[-74.20202733920699,40.59099907929216],[-74.20212378167746,40.59125332695727],[-74.20184092915534,40.59163648337985],[-74.20200349813028,40.59178076479522],[-74.2023164576832,40.591523965102944],[-74.20092540496357,40.59286637930506],[-74.20042684611835,40.5928414004722],[-74.19956913050166,40.593767929992744],[-74.19936212279688,40.59409408279576],[-74.19948344879725,40.5943209362905],[-74.1987323255373,40.595011798310665],[-74.19795002851603,40.59647035480391],[-74.19751357718859,40.596798986539554],[-74.19749670929889,40.597724259603595],[-74.19729933937751,40.59802023827353],[-74.19737346858733,40.598664646061586],[-74.19703805379042,40.59856824663488],[-74.19702235193607,40.59875934489722],[-74.19398492756306,40.597577806841514],[-74.19332867406695,40.59761414554252],[-74.1930786249701,40.5974595410873],[-74.1931875804571,40.596775837914954],[-74.19303883665711,40.59648717620975],[-74.19209617658805,40.596724273792084],[-74.19175818227131,40.59762841429071],[-74.19119023122693,40.59721194556835],[-74.19239396836447,40.594066446821465],[-74.19034473467622,40.59333496796433],[-74.18942952242763,40.59243117424369],[-74.18881878283409,40.59279410025107],[-74.18609435949026,40.59138549444148],[-74.18730112162243,40.59004117597228],[-74.1884562382499,40.59066026234784],[-74.18909581651928,40.58960371444575],[-74.19199543493619,40.58631493261582],[-74.1913178352544,40.58570448894961],[-74.19173777018197,40.58505296107956],[-74.19039947427996,40.57942552287853],[-74.18975889895238,40.578497401593275],[-74.18989010179124,40.578006685647416],[-74.19050913930853,40.57764538761009],[-74.1902029270096,40.57633878133659],[-74.18770433092205,40.576675895110604],[-74.18682111463282,40.57653376585335],[-74.18687589344435,40.577055098951355],[-74.1853973339789,40.57652120861249],[-74.1849137541937,40.57653779209246],[-74.18373006608962,40.57509911363791],[-74.183498207159,40.57455496764578],[-74.18303116473665,40.574376650715415],[-74.18329190632066,40.57430910843936],[-74.18288644696538,40.57395307374964],[-74.18013072951605,40.5732130314462],[-74.17979583433437,40.57292600154258],[-74.17924647955479,40.57284343432736],[-74.17870363782866,40.57236314335954],[-74.1783150671677,40.57254218948608],[-74.17825568229031,40.57208174810345],[-74.17661306065165,40.571004520738875],[-74.17663703329211,40.57077916131254],[-74.17624978083373,40.570319105091365],[-74.17589661750733,40.57018172236266],[-74.17587421113485,40.569978921802615],[-74.17559217976984,40.569984354867415],[-74.17582586371218,40.56967763641421],[-74.17552602133551,40.568504663060494],[-74.17520064049907,40.56776105148624],[-74.17446414808282,40.56702224431087],[-74.1738587655284,40.56695034043604],[-74.1735967690779,40.56722141386609],[-74.17347178258389,40.56704523868853],[-74.1717396657503,40.567314254505945],[-74.17159791013214,40.567593235384344],[-74.1714303852779,40.56732758196439],[-74.17031851654495,40.56724489065981],[-74.1703923960668,40.56754642364544],[-74.1705969177823,40.56761902945248],[-74.1705318054832,40.567814979880986],[-74.17036452836834,40.56764510695523],[-74.17022113282435,40.56801844192086],[-74.17051429278065,40.56829820682413],[-74.17019539741656,40.56821862289283],[-74.1700557883494,40.56787143988973],[-74.17021885688392,40.56786119079032],[-74.17024295471704,40.56755625876383],[-74.16996159834486,40.566937310921176],[-74.16966210876018,40.56690048631964],[-74.16982582382225,40.56109042060473],[-74.16591981713817,40.56029041026981],[-74.16499616553936,40.5614469703727],[-74.1647556775845,40.56296797148082],[-74.16493603934988,40.56367288711128],[-74.16456764519961,40.564349133161336],[-74.1643866512156,40.56562486153036],[-74.162622057179,40.56669466178307],[-74.15163713591767,40.570746928820625],[-74.15199747515932,40.570247900844215],[-74.15176763667962,40.569978055135465],[-74.15176085239389,40.57022484445546],[-74.15144684444262,40.57033384401556],[-74.15094616231777,40.57007465634726],[-74.15092105257091,40.569660042557764],[-74.15032411057169,40.56967967273167],[-74.1498351923224,40.56935734409486],[-74.14723568362837,40.571461058997585],[-74.14655628561466,40.57298060994446],[-74.14711341105172,40.5735276639561],[-74.14683528116794,40.57422870927292],[-74.14795691762055,40.57561348317495],[-74.14655643386533,40.57597650829004],[-74.14543651565718,40.57566895947198],[-74.14343819918615,40.576160671145644],[-74.14337391066938,40.575929156106426],[-74.14228685085551,40.576112415435475],[-74.14209743511707,40.57581542012825],[-74.14151136153559,40.57596244994836],[-74.14093190114541,40.57573763742206],[-74.1391688440525,40.57565902735656],[-74.13489889189538,40.57616662287926]]]]}}]}