{"type":"FeatureCollection","features":[{"type":"Feature","properties":{"district":"52"},"geometry":{"type":"MultiPolygon","coordinates":[[[[-73.9692929641454,40.707093331095905],[-73.96838331470957,40.70682937339366],[-73.9679513912622,40.705731217061505],[-73.96702061585643,40.70628391327005],[-73.96646672368018,40.704988375232944],[-73.96429615715577,40.703010181892815],[-73.9623924540252,40.702505721172784],[-73.96121495632025,40.7014459595105],[-73.96248295842662,40.69809538475474],[-73.96283963716343,40.698038668340025],[-73.9633163616578,40.696989698249254],[-73.96434801467144,40.696183765516075],[-73.96546721432578,40.695932161737],[-73.98040961451122,40.69655934358252],[-73.98054419117841,40.69824651225224],[-73.98040482546301,40.7006990062352],[-73.98077779042113,40.70124745293637],[-73.98476085600258,40.70143935454482],[-73.98482786970347,40.70057697932677],[-73.98570736653907,40.700602342610246],[-73.98220436337714,40.69750337169741],[-73.98256680552835,40.69229517479212],[-73.98064972139817,40.68845947755358],[-73.9735088335374,40.67863912147215],[-73.96597449992127,40.67705999563747],[-73.96693584973556,40.674433410656036],[-73.96871733072396,40.673926683599184],[-73.96894206417251,40.67288749177312],[-73.96966394014588,40.672642367364716],[-73.97040734527697,40.6726472194285],[-73.97332284319033,40.66882492376371],[-73.98278109087106,40.67339876010546],[-73.98478987017732,40.67098919318245],[-73.98721100462434,40.67216061675383],[-73.9892168537606,40.66975347507666],[-73.99387827624052,40.67200500616095],[-73.99489522426877,40.67079057646959],[-73.99763529026886,40.67208748800233],[-73.99802614126338,40.67137076575219],[-73.99881832223089,40.67257410887287],[-73.99776979411823,40.674741488131446],[-74.00067409156922,40.6755557896843],[-74.00153194421691,40.67727039766703],[-74.00329805092159,40.67952023022344],[-74.0006473800346,40.685253946560415],[-74.00453840898038,40.68635359979874],[-74.00485241603606,40.68566813081088],[-74.00717109683386,40.68635701090201],[-74.00753083240606,40.68607448791715],[-74.00771707561822,40.68626442901849],[-74.00701988682658,40.68652641769683],[-74.00588224183227,40.6861957683912],[-74.00459270521772,40.68821522298678],[-74.00382038919733,40.68892964469948],[-74.00297565436566,40.69042657592089],[-74.00196321992863,40.690136379460924],[-74.00185304524622,40.690387987244584],[-74.0009615685494,40.69012876835026],[-74.00069905841879,40.69061185841923],[-74.00132562399813,40.69146310033224],[-74.0019693859211,40.69184320882024],[-74.0017436211104,40.69240674970565],[-74.0009586848302,40.69406908358239],[-73.99941302433207,40.696357676956055],[-73.99947406820606,40.696704134462166],[-73.99887207276453,40.69692378457433],[-73.9974989831,40.69963886932142],[-73.99716054243922,40.69979281264431],[-73.99724462871697,40.70014140989725],[-73.9946629034361,40.70343060855936],[-73.99499542533938,40.70365056371443],[-73.99471424235152,40.70399668906109],[-73.99477614353458,40.70424586105254],[-73.99350881403609,40.70462350527417],[-73.99212703535068,40.70468964203369],[-73.99186159189317,40.704086642104556],[-73.99094755350794,40.70403244213939],[-73.99022721196012,40.70493404448724],[-73.98830332208541,40.70454046895521],[-73.98828999111286,40.7050706589978],[-73.98795676557543,40.705134217412734],[-73.98687252154129,40.70515727735156],[-73.98652973012088,40.70497909917395],[-73.98643429892708,40.70534860741984],[-73.98343806287949,40.70564409484805],[-73.98336819878104,40.70546106507666],[-73.98274161885993,40.705572441532865],[-73.98092510311987,40.70536925520069],[-73.98090864629846,40.70590794381209],[-73.97955918553285,40.70574361525014],[-73.97905049904112,40.705966963591806],[-73.97893110285543,40.70592490572794],[-73.9792433349359,40.705551196377705],[-73.97896355081068,40.70550219650449],[-73.97881909040053,40.705862467582065],[-73.97892765823747,40.70549619916925],[-73.97873829486635,40.70546306467228],[-73.97863906658571,40.705830648221955],[-73.97868440584472,40.705454177108074],[-73.97846557848965,40.70556222186459],[-73.97839230543768,40.705970682310976],[-73.97885303360727,40.70606553478217],[-73.97834474852871,40.705999964987754],[-73.97853198820691,40.70487652342981],[-73.97802067326656,40.704290966456334],[-73.97721196339239,40.70421392662441],[-73.97751215494964,40.70319675266364],[-73.97713562625398,40.70300558140269],[-73.97623864768488,40.704775644190875],[-73.97596096344817,40.70471550694328],[-73.97692749188352,40.70279782040056],[-73.97615937292022,40.70217128035703],[-73.97553456489742,40.70304280880587],[-73.97532987393983,40.70295192433845],[-73.97600587845464,40.70194613327937],[-73.9745502338837,40.70159034380239],[-73.97579951831469,40.699752418001054],[-73.97574761001927,40.69959519527502],[-73.97535997932667,40.69958051884197],[-73.9741151399254,40.70130527091706],[-73.97292642848618,40.70029455342787],[-73.97257311967203,40.70008205612111],[-73.97239201397458,40.70016632275242],[-73.973757007132,40.701534138881996],[-73.97318676670898,40.701669803673866],[-73.97097896857521,40.6998564576524],[-73.97080524432843,40.7000975003425],[-73.9733245610394,40.70241265601088],[-73.97283512788735,40.70272874074414],[-73.96982556559531,40.70024507036818],[-73.96948655218107,40.700519060755745],[-73.97283889974975,40.70334642809948],[-73.97266938433755,40.70350138043131],[-73.96924539207357,40.701364741883694],[-73.96898517428966,40.701747088786725],[-73.9723124627611,40.703844539538764],[-73.97215798824992,40.70397020762625],[-73.97110342298832,40.70345973583993],[-73.97093307886317,40.70362477255154],[-73.97101963118536,40.70381561318393],[-73.9746556960806,40.70607426249181],[-73.97439083502323,40.70632577414489],[-73.97339230539548,40.70573321164145],[-73.97254880057797,40.70620449050653],[-73.97462966604422,40.70768106076842],[-73.97423616968535,40.70802438612255],[-73.97122492912246,40.705789899911196],[-73.97109655489108,40.7058500565584],[-73.97105692306182,40.706946433816846],[-73.97275756998357,40.708831279050386],[-73.97232032139803,40.70908288380697],[-73.97026218532285,40.70688750428424],[-73.97048881848579,40.70540066562206],[-73.9701689450992,40.70536185340743],[-73.970180755728,40.70492927056703],[-73.96762114779925,40.70334850569708],[-73.9674767449303,40.703949870956436],[-73.96929693837713,40.70508833122986],[-73.9692929641454,40.707093331095905]]]]}}]}