{"type":"FeatureCollection","features":[{"type":"Feature","properties":{"district":"84"},"geometry":{"type":"MultiPolygon","coordinates":[[[[-73.92227431619587,40.82497060802715],[-73.92461384007036,40.82100496153756],[-73.91487748629882,40.81846212575153],[-73.91502472080978,40.81801813648745],[-73.91447151468734,40.81850680530211],[-73.91248657984552,40.81752632300577],[-73.91138050160266,40.81737256422407],[-73.91194232351432,40.81604742679492],[-73.90990993160837,40.81593597837849],[-73.90742681740177,40.82194506199515],[-73.90379310181581,40.8210911006588],[-73.9049997154151,40.8180598667696],[-73.90528570069215,40.81792898618454],[-73.9025785907422,40.81736979443104],[-73.90166319343292,40.819550426854505],[-73.89778573426362,40.817246209314874],[-73.89920727813598,40.815866001765215],[-73.8968507309871,40.8144601684915],[-73.89513979098011,40.81612581549541],[-73.88799643548518,40.81666338586268],[-73.88175451391076,40.817617314291105],[-73.8812729181854,40.818002395653515],[-73.87889162276399,40.81612159659154],[-73.87209717027153,40.813738021521935],[-73.87095753617953,40.812146180608885],[-73.87056806861786,40.81208731762185],[-73.87055342191634,40.811243380723106],[-73.86811219206221,40.806751832832774],[-73.86846346959145,40.80593654893923],[-73.8717450937392,40.80154736611633],[-73.87355096572506,40.800853302772026],[-73.87467716247924,40.80097942286364],[-73.87473060452699,40.801256637628775],[-73.87526517037323,40.801398152548636],[-73.87585788515192,40.801455987585854],[-73.87592998071607,40.801084223091316],[-73.87814218819923,40.801319290306644],[-73.87796880375375,40.80171111512834],[-73.87816581140062,40.80255168424769],[-73.8789245383548,40.80277208050836],[-73.88005462984879,40.80276015140779],[-73.88369542422477,40.80216212360307],[-73.88396462453474,40.80196514886174],[-73.88372326665923,40.801862843941215],[-73.88505172336708,40.80213090679819],[-73.88727097413258,40.803947002337495],[-73.88738095624217,40.804110681284065],[-73.88724738524475,40.80418614061763],[-73.88795897290096,40.80499792592148],[-73.88859217706403,40.80478927509799],[-73.88906442026072,40.80502191240217],[-73.88936640376936,40.80538078029835],[-73.88919794074766,40.8058070996788],[-73.88937439187553,40.80592527311482],[-73.8899913904922,40.80570425987257],[-73.89149717120594,40.80592719896893],[-73.89171223861756,40.80639290788171],[-73.8949690952872,40.806231130494105],[-73.89509836553461,40.806863639676905],[-73.89528550564228,40.80684271107156],[-73.89545911934086,40.80660308389025],[-73.89622424119065,40.80647704184243],[-73.89623040803158,40.806210471902936],[-73.89829494887951,40.80609757069851],[-73.89812197778416,40.80565765636515],[-73.89852656516604,40.805434309098096],[-73.90097298947674,40.804876097891906],[-73.90204952277965,40.80478414052171],[-73.90222284765609,40.80494811319028],[-73.9024453913696,40.80441695405469],[-73.90452954095734,40.803170235652054],[-73.90681401688889,40.80089063960636],[-73.90670130044873,40.80082002982648],[-73.90747030502895,40.80000345791558],[-73.90817714488041,40.79939009147922],[-73.90838080233769,40.799487044751814],[-73.90855026676263,40.79930742538916],[-73.90830303608291,40.79895913541825],[-73.91089222265344,40.79701779503648],[-73.91168831175064,40.796623769888456],[-73.91372255973579,40.796789438758864],[-73.92024068158875,40.799613687870476],[-73.92132730778515,40.801284591631585],[-73.92292710065784,40.802373294643054],[-73.92422706841215,40.80254501085572],[-73.92665794788489,40.802409803914856],[-73.92762788658847,40.80269566548173],[-73.92728271943602,40.80350826441722],[-73.92764500352577,40.80398863284625],[-73.92810959635482,40.804012934337955],[-73.92834056185593,40.80423989028156],[-73.92872607489883,40.80410362472488],[-73.93051758839178,40.80659056356698],[-73.93228261982792,40.80836397362315],[-73.93264257181461,40.80938286452689],[-73.93259434647264,40.81005355736954],[-73.9328639708333,40.8101244368861],[-73.93256503302071,40.810885975189855],[-73.93263229255248,40.81190462176082],[-73.93234245530482,40.81468568423336],[-73.93238971325029,40.819502847336956],[-73.9306150566943,40.81935324723657],[-73.9306992999515,40.82052377294348],[-73.9268778161284,40.81947887196964],[-73.92634345653649,40.82057855155499],[-73.93079522857462,40.82655401068576],[-73.93068561627994,40.827060599057575],[-73.93085703677322,40.82804059454166],[-73.93161005571011,40.82953735997557],[-73.93195590286284,40.83096406510233],[-73.92857188613122,40.830143947430194],[-73.92659197548271,40.83304714483622],[-73.92537540063647,40.83262809550455],[-73.92439355078281,40.834484027615126],[-73.925265264937,40.83477378030537],[-73.92330215729035,40.83731632434756],[-73.9232314320193,40.83815927529685],[-73.92224417580643,40.83784956444236],[-73.92190259902422,40.83847330355732],[-73.92119367826433,40.83815531592134],[-73.91978379676199,40.84087618537681],[-73.9178093484561,40.843296929737264],[-73.9179496521323,40.842229570607856],[-73.91618344432074,40.84233490025431],[-73.91768361901869,40.84022549502998],[-73.91594008704213,40.83955197402776],[-73.91447164298603,40.84162057041828],[-73.91288556122234,40.840981338962415],[-73.91330976574073,40.839880921638226],[-73.9144224047559,40.83817841533693],[-73.91859160257188,40.83387763786354],[-73.91990724643892,40.83432335896171],[-73.92166171331597,40.83133642544321],[-73.9204621930522,40.83091259393584],[-73.92347379160216,40.82541322020598],[-73.92227431619587,40.82497060802715]]]]}}]}