{"type":"FeatureCollection","features":[{"type":"Feature","properties":{"district":"80"},"geometry":{"type":"MultiPolygon","coordinates":[[[[-73.86943447720427,40.878129091979176],[-73.86685367796065,40.877501527389285],[-73.86709207893524,40.87714022008867],[-73.86703824135324,40.87521204084096],[-73.86813025847731,40.87530451322925],[-73.86820754483199,40.873235279094814],[-73.86629745752717,40.873212126598624],[-73.86591491699431,40.87349191513922],[-73.86554787406241,40.87349195631143],[-73.86489301450534,40.872969862898636],[-73.86409785058085,40.87266841728681],[-73.86386638208239,40.8722976477918],[-73.8631823848666,40.87217554300731],[-73.86338621197271,40.869640771072056],[-73.85666279368706,40.86951693903592],[-73.85672029651246,40.8676974716698],[-73.84903154016716,40.867553999334],[-73.84897345034585,40.86937250837116],[-73.84744194859321,40.869343406297986],[-73.84640766409363,40.870554300686344],[-73.84517256696682,40.86991469820478],[-73.84614345241933,40.868794562774575],[-73.84617439882335,40.86750341889359],[-73.8432134637291,40.867444566005005],[-73.8412236253175,40.86785815084914],[-73.83159620031942,40.86264470442457],[-73.82954731157822,40.862164087265704],[-73.82840758975843,40.86094830120111],[-73.83121095818079,40.85749802335012],[-73.8328511129326,40.856089151621724],[-73.8380445877235,40.85686855964826],[-73.83768048064069,40.856641840920574],[-73.8389011676685,40.85638058433018],[-73.8404591551918,40.85563492621914],[-73.8422529523218,40.85425839762195],[-73.8443084696514,40.851190464197444],[-73.84968869796849,40.85105890653925],[-73.8594398893357,40.846659216445985],[-73.85865367334866,40.84528639011318],[-73.85738111421554,40.84371626566677],[-73.85333524942047,40.84247015515494],[-73.86347232379067,40.841305932707414],[-73.86955862089135,40.83959565346207],[-73.87129999724903,40.841215077077386],[-73.8722992108916,40.84157999573916],[-73.8712339843976,40.846791849922155],[-73.87125668820887,40.850868865071504],[-73.87182051709651,40.854036218791016],[-73.87044157133327,40.854801428818035],[-73.86981576253233,40.85548377485455],[-73.86988842220666,40.85597106765234],[-73.86927391244505,40.85668898256506],[-73.86761378409787,40.85662051622977],[-73.86748632609984,40.8613455457195],[-73.87057937656479,40.86140455392803],[-73.8704212756725,40.865361080432955],[-73.87109782987243,40.86545365884201],[-73.87276528775602,40.86638528299335],[-73.87437707418773,40.86687875852312],[-73.87499113494933,40.86635729587038],[-73.87527859914786,40.865725602609544],[-73.87396955801167,40.863765509237936],[-73.87386834065481,40.86320023191066],[-73.87652833865596,40.859876817057405],[-73.8762142987577,40.85906710513755],[-73.87701083126261,40.85708169399643],[-73.87681233475448,40.85549209014493],[-73.87794781918885,40.85560208169368],[-73.88080810075395,40.85719844836061],[-73.88100678959339,40.85826802265719],[-73.88051533645832,40.86034556824342],[-73.8805900628452,40.86087844873461],[-73.88095114772987,40.86133891783947],[-73.8820079413837,40.862046853362436],[-73.88379371102805,40.86417157173204],[-73.88394303012619,40.864948187018335],[-73.88505260396649,40.865502709232565],[-73.87989454424574,40.868371738330836],[-73.88143103047531,40.87143526415474],[-73.88319913312598,40.876497704377556],[-73.88550126979533,40.87739598856497],[-73.88773577644082,40.8770338817904],[-73.88808032200716,40.87627274630073],[-73.8896588466814,40.87697483725254],[-73.88911365145401,40.87841932793849],[-73.88719583373005,40.88006354180216],[-73.88595071664201,40.880507412132715],[-73.88716505199065,40.88257651139499],[-73.88705142602338,40.8843495758468],[-73.88421671489873,40.88319766532239],[-73.88274833294655,40.883397386801185],[-73.88045687418452,40.882219838223676],[-73.8813716099872,40.88136294145641],[-73.88207065420863,40.87918172287087],[-73.88144150970012,40.878186137598824],[-73.88052443678038,40.87801155987226],[-73.88076046543624,40.87729853672938],[-73.88064905715272,40.876483470393545],[-73.87973061100864,40.876865494472696],[-73.87955970769092,40.875730178935214],[-73.87649057656851,40.875498544134544],[-73.8755920256457,40.875253906593024],[-73.87444868046667,40.87678727141988],[-73.87526842684593,40.87713937791913],[-73.87480123095862,40.87775798485897],[-73.87438658417516,40.879055173534425],[-73.86943447720427,40.878129091979176]]]]}}]}