{"type":"FeatureCollection","features":[{"type":"Feature","properties":{"district":"33"},"geometry":{"type":"MultiPolygon","coordinates":[[[[-73.72586264182358,40.68324108094806],[-73.74617365169983,40.689368834728704],[-73.74812293228476,40.69013086730815],[-73.74921274399942,40.68854518507023],[-73.75038445141058,40.69038159117586],[-73.75132313225646,40.690045218765405],[-73.75157984389368,40.690346050116055],[-73.75290846302555,40.693125031610464],[-73.75375229377309,40.692888852412004],[-73.75422984937705,40.69389686588326],[-73.75395754018152,40.69397145855595],[-73.75464527447242,40.69548857734724],[-73.75642238425407,40.69502631729523],[-73.75615657226446,40.69436251540088],[-73.75729615236574,40.69406116181375],[-73.75686898996297,40.69317178335817],[-73.76238524147489,40.69166785363288],[-73.7653936877625,40.69206518275781],[-73.76522150632196,40.692758197368],[-73.769294136621,40.69665030016615],[-73.7685757374629,40.69703100925524],[-73.763538507381,40.697814278262356],[-73.76282206055733,40.698717291023996],[-73.762615417306,40.69869667554947],[-73.76319185607217,40.69960018857647],[-73.76727953856427,40.703410110079886],[-73.7719133001424,40.70464651971488],[-73.77582076071195,40.705373906033984],[-73.7765664833749,40.7072246880091],[-73.7709358513658,40.70862589657665],[-73.76844546450798,40.70963702715867],[-73.76825969052467,40.7095263678771],[-73.75810245031778,40.71200510955704],[-73.75925219592358,40.713471800765625],[-73.7561440565946,40.71361259166731],[-73.76113827190004,40.72032917718589],[-73.7594414294101,40.72106344375331],[-73.75577121005354,40.72364021589367],[-73.7526081593755,40.72558048803453],[-73.74604290071132,40.72882348455708],[-73.74376398931943,40.730227197573804],[-73.73715502045289,40.72873201184209],[-73.73631695762866,40.73104254894412],[-73.73291097562559,40.73095233745712],[-73.7321863048405,40.73286716142304],[-73.72992228016072,40.73270409785711],[-73.72267503535048,40.734247358501015],[-73.72305897412795,40.73625298522513],[-73.72418753669098,40.73869953906306],[-73.72337374724016,40.73826139727343],[-73.70058163971602,40.74318384108434],[-73.70002020437218,40.7392365417304],[-73.70147073038119,40.73751156096427],[-73.70766217305993,40.72783093450962],[-73.71049995362073,40.72722708741339],[-73.71693287990968,40.72638641555398],[-73.72567196959442,40.72403765899333],[-73.73032628968096,40.72215729678499],[-73.72917629515445,40.7191672145619],[-73.72696515524652,40.710660709614785],[-73.72678961229161,40.70194545236917],[-73.72586264182358,40.68324108094806]]]]}}]}