{"type":"FeatureCollection","features":[{"type":"Feature","properties":{"district":"31"},"geometry":{"type":"MultiPolygon","coordinates":[[[[-73.80031807729914,40.607064401845086],[-73.79792736498872,40.606579404885785],[-73.79840918707966,40.606009968760645],[-73.79826575424987,40.60549019609661],[-73.79867707846408,40.60570368296186],[-73.79958079285763,40.60531174870977],[-73.80005328099905,40.60546543310207],[-73.80010928078991,40.6053188663213],[-73.7995254356845,40.60524348441606],[-73.79870714092648,40.605621108231944],[-73.79781142206308,40.60515992032976],[-73.79803735364929,40.60483703739881],[-73.79862422461082,40.60480604843245],[-73.7987685918107,40.605015969149335],[-73.79879614841535,40.60486522174858],[-73.79993794607618,40.60461003740552],[-73.80020559146213,40.60483462980742],[-73.80048632023508,40.60476281828105],[-73.80023550352566,40.60480163057844],[-73.80004650162621,40.60456168280313],[-73.79790083791092,40.60472008565295],[-73.79766326029701,40.60530838892538],[-73.79815149082475,40.60563252823001],[-73.79801861118872,40.6056570824498],[-73.79821561992897,40.60593629674097],[-73.7976614342219,40.606357756408386],[-73.79634761133646,40.60578800335621],[-73.79646765605271,40.605187564116974],[-73.79669375994447,40.605105923761386],[-73.79611452288293,40.60469396320254],[-73.79640372971178,40.60471938115602],[-73.79657663032023,40.60443474373496],[-73.79679652064151,40.60449886044589],[-73.79731901178185,40.60406667887668],[-73.79800480522084,40.60421036522704],[-73.79896550641939,40.60409881280053],[-73.79916891656309,40.60426791235126],[-73.80019814674449,40.60422429785931],[-73.80037472842119,40.60437665682303],[-73.80078919095749,40.60421295078419],[-73.8010685626969,40.60438008213786],[-73.80171364786658,40.604110116743435],[-73.80177730917227,40.60427020801374],[-73.80200208159533,40.60417060782821],[-73.80231331358746,40.604408892896345],[-73.80242464702377,40.60422243939958],[-73.8027240811416,40.60450736589486],[-73.80321951238241,40.60456598558422],[-73.80338062624413,40.60430406946996],[-73.80381183234223,40.60436099741666],[-73.80369450317168,40.60462452165203],[-73.80337740488017,40.60469893246112],[-73.80377309202328,40.60514932818821],[-73.80367025869101,40.60543786197107],[-73.80393554554064,40.60564374180608],[-73.80338852435882,40.60587044319307],[-73.80314302033186,40.606366934932936],[-73.80181702266873,40.6064229530483],[-73.80077334667854,40.607076295751675],[-73.80058101065406,40.606837222004465],[-73.80099698107443,40.606590875062416],[-73.80064444884306,40.606329315717204],[-73.80107400950135,40.60641056560764],[-73.80033863924557,40.606278815696925],[-73.80085479651733,40.606635045708366],[-73.80048279900514,40.6067926351448],[-73.8005283665261,40.60708862704324],[-73.80031807729914,40.607064401845086]]],[[[-73.79665699659022,40.60896091507148],[-73.79600863317904,40.608217360286154],[-73.79647817834127,40.608002119049615],[-73.79626124248149,40.60762499077681],[-73.79654941676456,40.60728754086634],[-73.79611287777539,40.607408655218514],[-73.79611533581901,40.607793713152525],[-73.79581987999927,40.60813391963247],[-73.7955169436739,40.60735496330088],[-73.79527814038407,40.605814321533884],[-73.79572698954331,40.6052306132468],[-73.79603208503855,40.60530040978384],[-73.79560502059154,40.605892468131046],[-73.79570141764704,40.606460525121975],[-73.79674937775796,40.606226355852655],[-73.7978974694127,40.60686880990857],[-73.7990199169041,40.606868440100726],[-73.80052617654209,40.60722633865083],[-73.80107067504782,40.60717936691719],[-73.80192792270964,40.60663741774661],[-73.80326523257317,40.606571932192224],[-73.80377411165689,40.6061205278826],[-73.80401493337446,40.60613150017502],[-73.8036054882775,40.60693415120957],[-73.80308415747787,40.60746513217984],[-73.80253792293627,40.60781046665622],[-73.80182143319743,40.607958823036164],[-73.801402636418,40.60822680699314],[-73.8016239788134,40.6083546166374],[-73.80099421230568,40.6086720979108],[-73.79817626416516,40.60899129448824],[-73.79665699659022,40.60896091507148]]],[[[-73.7763584369479,40.6096558382425],[-73.7752225507697,40.60970354714708],[-73.77412897394223,40.60874659586826],[-73.77481441008918,40.60839956311252],[-73.77421737753347,40.607636638971606],[-73.77460294599074,40.607417648882716],[-73.77523851986172,40.608550943000495],[-73.77600772152827,40.609190754248324],[-73.77494598484249,40.60806542027086],[-73.77459009469662,40.60729765659303],[-73.77458447675636,40.60652596732092],[-73.77518711261325,40.60450025631871],[-73.77469363854065,40.604306964817475],[-73.77491373899659,40.60411251323256],[-73.7753760831684,40.604157308868],[-73.7758814058216,40.603471681753604],[-73.77605391761065,40.60275289440248],[-73.77558895434596,40.603040299588166],[-73.77568814362705,40.60281474067073],[-73.77647924254978,40.6024481766436],[-73.77662545802484,40.60220777828833],[-73.77648988688918,40.6021717256867],[-73.77780302365805,40.60096655220429],[-73.77836872918753,40.60083878005197],[-73.77807565215485,40.60070077436686],[-73.77815821309508,40.60040208530328],[-73.7801721054756,40.60069783284551],[-73.78081083231405,40.599947754527214],[-73.78194090074207,40.59907384177569],[-73.78193601357016,40.59853114424349],[-73.7813297399812,40.5977530374471],[-73.78018334425897,40.59721257020608],[-73.78005719891783,40.596877499102824],[-73.77967070333735,40.597372167384165],[-73.77742174810759,40.598812404361524],[-73.7771985062932,40.59957695925321],[-73.77600163850968,40.60139432390505],[-73.77497207353781,40.601744487092105],[-73.77474212725778,40.600963425935355],[-73.77448133964758,40.60098770385091],[-73.77474724721814,40.60094979034346],[-73.77474285021891,40.60074378310963],[-73.77411995096888,40.59988138179279],[-73.77422338457663,40.599005218240656],[-73.77374432839068,40.59867015398173],[-73.77358545261635,40.59812047326169],[-73.77302409952458,40.597881081674394],[-73.77248585757451,40.5978938375396],[-73.77167906670005,40.597981577039775],[-73.7711284962987,40.598298728552216],[-73.77037277058409,40.5980900923546],[-73.76947725109342,40.598257769952724],[-73.76809925805182,40.59784597010989],[-73.76760118234942,40.59578605831927],[-73.77053990309695,40.59402961979289],[-73.77271340746334,40.59332111353376],[-73.77280827018168,40.59407391603096],[-73.77454211219306,40.59374993512183],[-73.77880136341581,40.59338707036942],[-73.77903633015072,40.595443502931076],[-73.78361248561232,40.59514523071838],[-73.78337478975124,40.59272174871644],[-73.78508112439374,40.59219688253013],[-73.78624736450361,40.5920885376385],[-73.78597340343234,40.5897085509105],[-73.79101903909111,40.58819141152964],[-73.79145821979557,40.59188170707556],[-73.79688115085331,40.59048394361629],[-73.80093282985185,40.58912555033],[-73.80355434536537,40.58847735684354],[-73.80986542337952,40.58774216365281],[-73.80978920504461,40.58698929725647],[-73.81319742974419,40.5862377271136],[-73.81436855026364,40.58775329940004],[-73.81092997565113,40.589297064794934],[-73.81105427603057,40.590450662756155],[-73.81160983453687,40.590474537394115],[-73.8115742042419,40.59282853270347],[-73.81133463623162,40.59174462318005],[-73.81019492560056,40.59223825461433],[-73.8098808554221,40.59228202338542],[-73.8097323261061,40.59204066718679],[-73.80977109267025,40.592369759450776],[-73.809486657449,40.59276603513677],[-73.80961679374374,40.59357572691475],[-73.80602807459842,40.59200930900474],[-73.80577902839032,40.59075949966878],[-73.80582389773117,40.5918893251901],[-73.80427041764679,40.59134544287302],[-73.80416569103024,40.59185470983296],[-73.80731386523037,40.5930660591071],[-73.80804688683963,40.59365031287636],[-73.8078135430893,40.593895037315825],[-73.80789489176581,40.594304966239825],[-73.80688549372952,40.595402517832795],[-73.80605033944218,40.59555675773795],[-73.80485298477258,40.595056336043505],[-73.80404215171487,40.59418887555872],[-73.80412568015268,40.59351380510341],[-73.80380902231202,40.59289116392555],[-73.80303153999354,40.59257718949023],[-73.8024384629031,40.59264006383529],[-73.80250965087272,40.59394812804169],[-73.80313503440718,40.593757943071374],[-73.80318082190897,40.59394537813114],[-73.80251304282976,40.59396685179259],[-73.8025683760107,40.5942722669944],[-73.80324253170998,40.59408723986565],[-73.80328793893025,40.59428211589189],[-73.80260442850975,40.594287751542616],[-73.80234513845657,40.59449597525708],[-73.8031857440441,40.59466300284184],[-73.80344017041448,40.594434209177074],[-73.80319675364944,40.59467819988342],[-73.80337754303827,40.59486904065922],[-73.80372454267375,40.59481711198008],[-73.80320010623193,40.5948728464243],[-73.80339097327904,40.59500651249434],[-73.80321494251257,40.59514564845081],[-73.80390842264723,40.59500481383502],[-73.80331453729211,40.595179561437085],[-73.80368468695728,40.595197790184],[-73.80470623094206,40.5963866750147],[-73.80511185479908,40.597151047998324],[-73.80470214568541,40.59768311083306],[-73.80393338922408,40.5979434985841],[-73.80295721424766,40.59885675528646],[-73.80167092680178,40.59889630926962],[-73.80094867862815,40.59915166462005],[-73.80091500623965,40.599390761135986],[-73.80077654707614,40.59916236047854],[-73.8004737922779,40.599331559123904],[-73.80045131861475,40.59918256837792],[-73.79912877642295,40.59937335357057],[-73.79843078589475,40.59917371408129],[-73.7955463762112,40.59949676214924],[-73.79457261550553,40.59942073709405],[-73.79330901736344,40.59998118333964],[-73.79233121548148,40.59996928119776],[-73.79025353547168,40.60125130259844],[-73.7878557488172,40.60311334463552],[-73.78635332811808,40.603194659038635],[-73.78617884041223,40.603032062874576],[-73.78716241855369,40.602326431072505],[-73.78792994192816,40.600995302548746],[-73.78953462130681,40.599971814926825],[-73.79033378979435,40.59919828434164],[-73.79124272166956,40.59662652165146],[-73.79093142251077,40.59596118340673],[-73.79103617492395,40.59552224010589],[-73.79086292379877,40.59501313776418],[-73.79042048230744,40.59475269551106],[-73.79080626141678,40.596093395884445],[-73.79059442974024,40.596108384773],[-73.79053857666516,40.59498078405622],[-73.79037896334765,40.594751965913304],[-73.79015263648805,40.59476820227299],[-73.79042481472277,40.59605393215407],[-73.79017830001315,40.596071319704606],[-73.79013119491621,40.594822874798695],[-73.78973901889819,40.594743668554756],[-73.78987360648384,40.596204443784735],[-73.78999909439095,40.59620894350346],[-73.78969872360817,40.59622803991152],[-73.78984110232885,40.59620694688005],[-73.78967389675819,40.59486047590034],[-73.78940242709974,40.594949785523895],[-73.78911306667307,40.59547475633231],[-73.78926858096266,40.59645372374903],[-73.78906829121502,40.59801992738281],[-73.78710231226577,40.599443300892595],[-73.78662409463627,40.60001863317852],[-73.78597109766216,40.60031649181488],[-73.78579378813426,40.60056892849607],[-73.78614358698641,40.600648618751876],[-73.78578006551935,40.60059326189322],[-73.78564205273257,40.600797194521064],[-73.78598359117777,40.6009182379421],[-73.78563276373285,40.60081638362869],[-73.78539358087029,40.60151802170865],[-73.784482331704,40.601800098583105],[-73.78350560905308,40.602563438742955],[-73.78312802405904,40.603760992350715],[-73.78394764971192,40.60482442511702],[-73.78366696292407,40.60532443643193],[-73.77927015444938,40.60930736180771],[-73.77768759425634,40.609804580868854],[-73.7763584369479,40.6096558382425]]],[[[-73.74799307317252,40.61231015796798],[-73.7476141892917,40.61199801088509],[-73.74721567885001,40.61217883915345],[-73.74685539024345,40.6115741000598],[-73.74576150178679,40.611991654748905],[-73.74562112512275,40.6117424929571],[-73.74899252915968,40.610304751284275],[-73.75005311686738,40.609568793152974],[-73.75120179726598,40.60841643399714],[-73.75062929716026,40.60809162566121],[-73.74996149891253,40.60876932391881],[-73.74869062731358,40.607873924730384],[-73.7528497285457,40.60425989690444],[-73.75423676403733,40.598881518011915],[-73.75426212406744,40.59731628745993],[-73.755012699568,40.59737506224865],[-73.75606091967641,40.59777558255511],[-73.75713747065616,40.59718703106649],[-73.75876807770106,40.596788563002846],[-73.75840736687087,40.59637622884756],[-73.75934720820226,40.59582787104998],[-73.76040863232868,40.59610310191616],[-73.76215645390909,40.59608501194109],[-73.76235719717106,40.59722931943187],[-73.76319972918985,40.59714459064488],[-73.76333449722014,40.59782287372218],[-73.76392632153728,40.59744968002875],[-73.76495711915597,40.597333233113226],[-73.76678028464652,40.5997362524164],[-73.76780326434657,40.60046951185693],[-73.76528430754117,40.60167142321312],[-73.76444582522093,40.600435240638],[-73.76256653181011,40.60133503313847],[-73.76057106341855,40.60184306982828],[-73.76038842061486,40.602332123429484],[-73.7609702249641,40.606458908984266],[-73.75973571099013,40.61015545765227],[-73.75947705297978,40.610332326946086],[-73.75656053403193,40.610139425129994],[-73.75587091285605,40.610306797650814],[-73.75559755295708,40.610081479760666],[-73.75587412912142,40.61038518505501],[-73.75556369084146,40.61011842794653],[-73.7550135854276,40.610128371859574],[-73.75473219572567,40.61040524167861],[-73.75345836196989,40.61051986240633],[-73.75008771076786,40.61164055382737],[-73.7482158588267,40.612011077589685],[-73.74799307317252,40.61231015796798]]],[[[-73.76671931113236,40.61500423164779],[-73.77087500376955,40.61586372321711],[-73.76854868123357,40.62055967827347],[-73.76745926950538,40.620511322062725],[-73.76671931113236,40.61500423164779]]],[[[-73.81251793553056,40.620199822550774],[-73.81260967501093,40.62064741708903],[-73.81251793553056,40.620199822550774]]],[[[-73.8122341921654,40.625300088367574],[-73.8122505778737,40.62455183351797],[-73.81243789543497,40.62439644777375],[-73.81168078177706,40.62364964369981],[-73.81208344133675,40.62339172841343],[-73.81251579982312,40.623539448327776],[-73.81252991145611,40.62313395335935],[-73.81301265177471,40.62226022792422],[-73.813250953106,40.62255809207517],[-73.8130319049184,40.6238567684221],[-73.8139968299479,40.62499917262055],[-73.81386198761575,40.62504389942085],[-73.81442910028773,40.625186782534364],[-73.81447870774272,40.625470874311084],[-73.81383288662272,40.625926233997795],[-73.81260003612245,40.626318868060984],[-73.81249149581198,40.62654067531403],[-73.81198752013151,40.62602204367667],[-73.8122341921654,40.625300088367574]]],[[[-73.79881981576617,40.62532794483111],[-73.79866235955059,40.625371825352055],[-73.79781573308009,40.624453154455075],[-73.79820877848233,40.62445724468067],[-73.79875482519184,40.62507775814774],[-73.80037265255179,40.624108341700286],[-73.80036269148214,40.62393509857876],[-73.79922701509861,40.62419346436876],[-73.79867716995602,40.62343495448778],[-73.79974914103252,40.62105401018869],[-73.79983636671778,40.62005774248742],[-73.80016273997366,40.619626849807965],[-73.80074082550813,40.61948507765282],[-73.8011217454249,40.619698781365905],[-73.80181355944615,40.62083123680774],[-73.80206419853624,40.62079091379661],[-73.80131044905464,40.61854287376459],[-73.80149300444626,40.618409384538204],[-73.80151104449415,40.61772390806265],[-73.80187093707063,40.61676936008928],[-73.80347411308159,40.6144009639251],[-73.80362092326818,40.61602056562998],[-73.80453517195802,40.61698403726671],[-73.80447871168393,40.61755341576564],[-73.8049256253514,40.618587594611945],[-73.80589870617261,40.61961911276764],[-73.80564293053473,40.619891759601984],[-73.80640927866622,40.621113071688974],[-73.8061672281016,40.62137379458401],[-73.80629105268979,40.62173604591741],[-73.80615277847392,40.62182593616892],[-73.80640950588405,40.62233955652874],[-73.80594981646442,40.62338033894661],[-73.80541649344103,40.62379186193321],[-73.8046603866242,40.62384293892274],[-73.80469918889246,40.62398747729082],[-73.80365377301744,40.62468100369328],[-73.80294573122995,40.62471800433303],[-73.80162741972283,40.62559619023175],[-73.79956441906673,40.62612023504819],[-73.79906021857397,40.626580525921945],[-73.79831656079713,40.62618185121418],[-73.79759190359371,40.62610142269964],[-73.7989766379127,40.62533756241364],[-73.79881981576617,40.62532794483111]]],[[[-73.81429373223955,40.629142401746066],[-73.81466886840825,40.627502561822915],[-73.81531549213119,40.62775854451804],[-73.81617361615918,40.62890143519914],[-73.81644551897877,40.62983606492812],[-73.81596975872556,40.63037871835661],[-73.81527605467807,40.63022810473038],[-73.81467414305273,40.629985289404814],[-73.81429373223955,40.629142401746066]]],[[[-73.78915781912187,40.668338095746975],[-73.78940999422133,40.666841158184745],[-73.77342462813043,40.668027619592145],[-73.766754021845,40.66743299461133],[-73.7656046269433,40.669666196180984],[-73.75878774437913,40.66852634829258],[-73.7591213808804,40.6673516272597],[-73.75717253300031,40.667041821661606],[-73.7555114171254,40.66639876383892],[-73.73993110682923,40.666401553807766],[-73.74108265213056,40.66574690705306],[-73.73937134215606,40.665452228910986],[-73.7395495829082,40.6652560220917],[-73.73798466991501,40.6646766036739],[-73.73985718543013,40.66220383794336],[-73.7362656530909,40.66062571883964],[-73.7387054698538,40.65732039663654],[-73.74153201608299,40.657358544533096],[-73.73673508636621,40.649099816497596],[-73.73904482131428,40.6482011803446],[-73.74143706042352,40.64688917832163],[-73.74166141317717,40.64219806168002],[-73.74205084952764,40.64147420452586],[-73.74142279314958,40.64050339075354],[-73.74227387225915,40.64012338145165],[-73.74125900067573,40.63889749943524],[-73.73947121626792,40.6357064318296],[-73.73995957570371,40.635143809876084],[-73.74000390414142,40.635308864792975],[-73.74170620982906,40.63503754626711],[-73.74146473729922,40.63494288932982],[-73.74177038312104,40.63488103262095],[-73.74171935824074,40.634997161378855],[-73.7419556483044,40.6348918129039],[-73.74253691856377,40.63517496612196],[-73.74237215392348,40.635816546366314],[-73.74124959182484,40.63693970077006],[-73.74102309003337,40.63727201246065],[-73.7411179417444,40.63746814979451],[-73.74096487686366,40.637304775030245],[-73.74130372491103,40.63789881291866],[-73.74189040305612,40.63812221354046],[-73.7427296630336,40.63827015598191],[-73.74397128496219,40.63788001261504],[-73.74352226238186,40.638889486375],[-73.7437342150463,40.63902211766418],[-73.74479558148495,40.63707502907636],[-73.74471275511688,40.6373070468944],[-73.7451949696679,40.63719171231217],[-73.74629219000661,40.63643726798267],[-73.74679074638055,40.63677813554561],[-73.74645394301926,40.6372598208814],[-73.74527138642927,40.63791590124552],[-73.74515886775069,40.63807741225228],[-73.74529639409818,40.6383301395409],[-73.74567316004243,40.638124657428115],[-73.74551058251747,40.63794388103354],[-73.74702300440804,40.6369087828245],[-73.74699985138277,40.637127027760506],[-73.74715435857692,40.63712636360669],[-73.74699391257111,40.63715064468594],[-73.74704316341963,40.63756642696194],[-73.7466009130313,40.63835060986839],[-73.74617068906109,40.64039592151639],[-73.74635494255764,40.64067874596923],[-73.74631467868133,40.641394312679175],[-73.74729153885399,40.64318668655788],[-73.74875121261788,40.64447110284794],[-73.74869254853962,40.64494421589611],[-73.74885047914466,40.645169270113435],[-73.74945274272405,40.644931234269066],[-73.7517130246691,40.6465005907689],[-73.75327090492785,40.64733376201672],[-73.75340365356126,40.64716237460763],[-73.75323328269432,40.64705211468637],[-73.7535419183587,40.647196312319416],[-73.75329210674899,40.64734340272214],[-73.75427809856765,40.6478864220791],[-73.75475592551938,40.647812198893575],[-73.7549276864291,40.64757272103863],[-73.75461208438024,40.64720045895571],[-73.75379289369329,40.646705604685714],[-73.7537377082634,40.64696042357798],[-73.75340189507165,40.64680746120947],[-73.75376146361373,40.64668632265829],[-73.75057032811947,40.64472855667405],[-73.74870701496532,40.643343492337614],[-73.74742095899626,40.64141364368467],[-73.74752877886596,40.6393244347557],[-73.74812488584779,40.63687273164493],[-73.74839815536161,40.63665363732009],[-73.748554783949,40.63541155957582],[-73.74935446965928,40.63494725684251],[-73.75069606974144,40.63462797576578],[-73.75243758572938,40.63367677974091],[-73.75348397724734,40.6335142910793],[-73.75479100304916,40.63288248836342],[-73.75900955400878,40.6314892963801],[-73.76053159841472,40.6306633171898],[-73.76219407813787,40.630259432956706],[-73.76308789670844,40.629658898502214],[-73.76453002637294,40.62922113635718],[-73.76500891405117,40.62941218257731],[-73.76474289734864,40.62916808540039],[-73.76649560506911,40.628250375901466],[-73.76860408720783,40.624732718412396],[-73.76884275459498,40.62393929173366],[-73.76855326073441,40.62318922918052],[-73.76866781717264,40.622731964623405],[-73.76944652356401,40.62201544843225],[-73.76951843253488,40.62212182850632],[-73.76972348417151,40.6217616884658],[-73.76982199121251,40.62140497267227],[-73.76961487455476,40.62114696867299],[-73.77018829165735,40.619791010419256],[-73.77109318666908,40.61997770778098],[-73.7716545462262,40.62041642681574],[-73.77171699447133,40.620961679300756],[-73.7709149994609,40.622403888653146],[-73.77081128948615,40.6229497472961],[-73.77086001250763,40.62333053837307],[-73.77143883664012,40.62328461670514],[-73.77172760285129,40.623585028030526],[-73.77214546970639,40.62304610520065],[-73.77203131431371,40.622991212903244],[-73.77218824028016,40.62299579379533],[-73.77518045935551,40.61926471788504],[-73.77220950703997,40.62300523198469],[-73.7723626016271,40.62314732600442],[-73.77216897866818,40.62305554784142],[-73.7720046057531,40.623261929019236],[-73.77217018334763,40.62335963116936],[-73.7719966927056,40.62328155898526],[-73.77181882771771,40.62349901798325],[-73.77198776448427,40.623597581962265],[-73.77173897581244,40.62360572607363],[-73.77323537240508,40.624994162477165],[-73.77348616545042,40.62508511832723],[-73.77381024409397,40.62492559673115],[-73.77349461614574,40.62514256937113],[-73.77407526415493,40.625783482840376],[-73.7765422988783,40.627651724729105],[-73.77946897687943,40.62731550512165],[-73.78419483297877,40.62089266991051],[-73.78491900312562,40.620478691624754],[-73.78521543076681,40.62006349374462],[-73.78507784902251,40.619966613580836],[-73.78515920006002,40.61864728248359],[-73.78478111816777,40.61833567667887],[-73.78478547486286,40.61798072233823],[-73.78451882678748,40.617982670589534],[-73.7845818498871,40.617855050601456],[-73.78435569021109,40.6177644905876],[-73.78446087068049,40.617027834627265],[-73.78322554530014,40.61557873072347],[-73.78248993127501,40.615567549887],[-73.78229527471422,40.61516815367775],[-73.78189090283624,40.615047434393915],[-73.78171700912468,40.61517684879679],[-73.7807937650353,40.61458756709255],[-73.78070887195283,40.61402680900606],[-73.78114906073043,40.613998271479964],[-73.78088360834359,40.61364035463654],[-73.78355221437404,40.61192445198106],[-73.78497523353337,40.61192957008833],[-73.7852242315045,40.611415951745755],[-73.78577809315796,40.61099347707098],[-73.78646972800934,40.6106789689818],[-73.78684518697278,40.61079472358842],[-73.7871989741232,40.61065584166737],[-73.78719984810371,40.61038166491358],[-73.78741544568165,40.61026211109723],[-73.78770742637468,40.61036546776254],[-73.78785894330079,40.61019438497852],[-73.78865910627547,40.61009059422699],[-73.78876011660967,40.60963789567912],[-73.78908160165909,40.60955280596747],[-73.78901840238645,40.60922220694482],[-73.78995389362358,40.608981566326186],[-73.79011167083347,40.60885945333065],[-73.79001264272644,40.608685463307125],[-73.79047269491804,40.60845618791453],[-73.79038020614568,40.60824549017318],[-73.79085621325443,40.60804806724558],[-73.79087659100203,40.607695588785134],[-73.79139721012069,40.60761085474754],[-73.79159895008117,40.60780951011948],[-73.79151114690586,40.608154521417],[-73.79115751304454,40.60825180138941],[-73.79117287672634,40.60847459860635],[-73.79173302638982,40.608759343533464],[-73.79274948626328,40.60864636637573],[-73.79365104095486,40.60898581547189],[-73.79394893616981,40.609255632038916],[-73.79389688394961,40.609468516718444],[-73.79454166514695,40.609748744979846],[-73.79480633875197,40.610378359978824],[-73.79566026939078,40.6105463463494],[-73.79745676195705,40.61131820439642],[-73.7989852939449,40.61148245721681],[-73.79917318059654,40.61202624642941],[-73.80025700070239,40.61159728288837],[-73.80080125919629,40.61193390397919],[-73.80023948919145,40.61208196016945],[-73.79993435271605,40.6131438700306],[-73.79931694077477,40.61335822008919],[-73.799685101531,40.61377747404326],[-73.79903903506863,40.61555054198552],[-73.79878672544126,40.61554482615014],[-73.7985446566274,40.6158895966469],[-73.79816300611748,40.61571609028377],[-73.79806090382836,40.616326916511404],[-73.79727592497258,40.61666041255343],[-73.79743334153846,40.61691923278827],[-73.79713317353416,40.6173813796621],[-73.79724298146036,40.61759376347141],[-73.79678304297721,40.6177047226328],[-73.79700484778857,40.6183799439582],[-73.7963556790424,40.61845468453555],[-73.7961883089091,40.61960985302939],[-73.79559534308406,40.62021101310488],[-73.79554027260168,40.620912629674905],[-73.79502286259061,40.62129190728349],[-73.79523389664114,40.621606718870815],[-73.79482957564527,40.62182737813389],[-73.79446685514668,40.621785699811305],[-73.7947065002332,40.622180682954],[-73.79457567259594,40.62251914939957],[-73.7936837203645,40.62270233988122],[-73.79226568070139,40.622339427751236],[-73.79075818793622,40.62232836832445],[-73.78916270446422,40.62299975113101],[-73.78594058254244,40.625847005177334],[-73.78536320758097,40.62670665683843],[-73.78487888740895,40.62663147070813],[-73.78363079015826,40.62814252187056],[-73.78328415820381,40.62895434841496],[-73.78348975751075,40.63016511572027],[-73.78434764242147,40.63137332043368],[-73.78570293740455,40.632094989481],[-73.78690666684481,40.632261900729105],[-73.78949663072326,40.6342697792023],[-73.78971600034731,40.63406724975223],[-73.79076947473723,40.63384872578328],[-73.79066449490824,40.63415293947556],[-73.79079284299088,40.634282043205246],[-73.79811872226199,40.6310375092613],[-73.79827615415297,40.631252179365994],[-73.790811112505,40.63431035551095],[-73.7910813277265,40.63423263436598],[-73.79130877788221,40.63440130065499],[-73.79122898509743,40.63485706407009],[-73.79222318037623,40.63589008828015],[-73.79343369196113,40.63608669084751],[-73.79425964333869,40.6365642030473],[-73.79474387433272,40.636629366892116],[-73.79725742867075,40.63800761375793],[-73.79923711983864,40.6384201097038],[-73.80177220251416,40.63976028395292],[-73.80465930241435,40.64090520949681],[-73.80565939652627,40.641601983126456],[-73.80670200675765,40.64177618467306],[-73.80864568716697,40.64281492737801],[-73.81075749444096,40.64349239125605],[-73.81203333683291,40.644303575045974],[-73.81364360224747,40.644690949597404],[-73.81565104157626,40.645630022432194],[-73.81830316956352,40.64626766449117],[-73.81881842240742,40.64659251521879],[-73.82010812248005,40.64810402163736],[-73.8212292060586,40.64897515017099],[-73.82215143198066,40.65013528973995],[-73.82260572673476,40.65278610684331],[-73.8232184940707,40.65411655671603],[-73.82346560421553,40.65531301555449],[-73.82342121447223,40.6560254951472],[-73.82246765596551,40.659159866399065],[-73.82161125510135,40.65993528559844],[-73.82169139439411,40.66003508674328],[-73.82153552464848,40.65997238305635],[-73.82174650215691,40.660118366593544],[-73.82151179330785,40.6599821056023],[-73.81970074120684,40.660724086808884],[-73.81971419909215,40.66087372617609],[-73.81965725287023,40.66074191904562],[-73.8186953155868,40.66110505105535],[-73.81750491431545,40.66104832620168],[-73.81756727119134,40.66093673426222],[-73.81656759306618,40.66074251701304],[-73.81598180388713,40.66083581654876],[-73.81605203034718,40.66071157420537],[-73.81468148791375,40.660515214761915],[-73.81457011758246,40.66063459763931],[-73.81462533969847,40.66050667365333],[-73.81262125517662,40.66015704989859],[-73.8114383384403,40.66025421077374],[-73.81124435291099,40.66054463956688],[-73.8115144834632,40.660767142298724],[-73.81867184374161,40.66213277692886],[-73.82331870229751,40.66020791046261],[-73.8240659556742,40.65848414691259],[-73.82426410867653,40.65777909268677],[-73.82404130456885,40.65775567016448],[-73.82426776040361,40.657746511638706],[-73.82492940963316,40.65544153237472],[-73.8234752748072,40.65047629589143],[-73.82342199947176,40.64946400031588],[-73.8229071770089,40.648093446004935],[-73.82319444111556,40.64801116168047],[-73.8240126223632,40.64922918251984],[-73.824587603009,40.64948314918051],[-73.82499846516194,40.64937693088307],[-73.82534103085798,40.64966537615885],[-73.82588910297974,40.64948606881622],[-73.82614483059653,40.650081840942796],[-73.82630014811815,40.65002298577986],[-73.82617204535644,40.64952693570905],[-73.8264073556985,40.64928916257735],[-73.82622033638891,40.64836102759461],[-73.82639242910476,40.648324348616825],[-73.82859942404691,40.657196973016184],[-73.83334819269342,40.66677318701559],[-73.83100711560158,40.66619293970455],[-73.82807933027769,40.666086474761485],[-73.82467313253287,40.67703086954946],[-73.82994712068526,40.67790407309879],[-73.83410908071225,40.67885268350504],[-73.81393689500106,40.68459748073577],[-73.81086182406048,40.6860246217374],[-73.80796318130004,40.687066400210234],[-73.80179295507573,40.674393990589756],[-73.79836520053748,40.67408681090605],[-73.79848305708036,40.67334858477828],[-73.79808276687274,40.6704377627667],[-73.79616074659175,40.67011294047792],[-73.79628426610554,40.66939297963874],[-73.7938875375318,40.668860466951806],[-73.78915781912187,40.668338095746975]]]]}}]}