{"type":"FeatureCollection","features":[{"type":"Feature","properties":{"district":"67"},"geometry":{"type":"MultiPolygon","coordinates":[[[[-73.96372602608056,40.77700571789986],[-73.96703947513842,40.7724612188164],[-73.9680739404772,40.77282582808534],[-73.96885584867206,40.772546787366885],[-73.96882407078883,40.77315768900822],[-73.969211577507,40.77344556188784],[-73.97010313318118,40.77341925356898],[-73.97181456726193,40.773842401414385],[-73.97298968858902,40.77381421919312],[-73.974521930085,40.77468917758629],[-73.97547728869601,40.774496452277184],[-73.97545793714507,40.77593932105484],[-73.97595517361135,40.77621975462647],[-73.97691168292398,40.77490912402731],[-73.97974565842947,40.77611153036986],[-73.98691968502152,40.76626338546694],[-73.9861770573061,40.76601223015662],[-73.9862592815643,40.76590288289092],[-73.9859645383985,40.76573289687532],[-73.98585982078329,40.76588111870083],[-73.98495421074074,40.76550047584961],[-73.98473510236705,40.76580385018468],[-73.98382185703375,40.76541847469765],[-73.9856467772461,40.76291487448308],[-73.99133264508265,40.76530927040741],[-73.99498358134308,40.76030016182312],[-73.99569464288989,40.76060075156617],[-73.99621172445575,40.75993739381718],[-73.99831211272858,40.76082206902152],[-73.99879755529791,40.76015574909001],[-74.00162163443483,40.76134698788231],[-74.0010358745918,40.76196835175689],[-74.00178824088411,40.76229452014182],[-74.00153309066981,40.76264459812778],[-74.00375735037694,40.76358224164074],[-74.00361214794175,40.7637770439099],[-74.001386036986,40.762850095002065],[-74.00097308022016,40.76342027172584],[-74.00314976988994,40.76433288868739],[-74.00294809515722,40.764616835931506],[-74.00322275585363,40.764638037670395],[-74.00310088163013,40.76474574812681],[-73.99992712367728,40.763406528479514],[-73.99962263458187,40.76355908121064],[-73.99915098087908,40.76420525958287],[-74.00228802371481,40.76556154379539],[-74.00202454330335,40.765893266570565],[-73.99888473174988,40.76456937704867],[-73.99857638530538,40.76499860727096],[-73.99868870694561,40.76520857045002],[-73.9982709030835,40.76555223341343],[-74.00157335385268,40.76697719221087],[-74.00131469636004,40.76725112005011],[-73.99806675905354,40.76587188113588],[-73.99737808447966,40.76682338587715],[-74.00064950530418,40.76824523610574],[-74.00038586489076,40.76850419593204],[-73.99715588949212,40.76712869617297],[-73.9964571540504,40.76809881579582],[-73.99973590247853,40.7695061773317],[-73.99947253734024,40.76976421547192],[-73.99707176039311,40.76873264357703],[-73.99715035477146,40.76884738771358],[-73.99657126439577,40.769424568274005],[-73.99902682832902,40.77046327298224],[-73.99876206914315,40.77082505670939],[-73.99631327022085,40.76979883633659],[-73.99588004351685,40.770400579515005],[-73.99601693196199,40.77045484888637],[-73.99542474436302,40.771031615168134],[-73.99600175749052,40.77130746533072],[-73.99589990100937,40.77145029858229],[-73.99530566365357,40.77119600490969],[-73.99493501659009,40.77146814607559],[-73.9949768849473,40.771658774923495],[-73.99707328169315,40.77254286890211],[-73.9968729144914,40.77281748122877],[-73.99477407930823,40.77192954753038],[-73.99444501293384,40.77237712658849],[-73.99622972001936,40.773128975045495],[-73.99612087994667,40.773275391093186],[-73.99416328456306,40.772487191021455],[-73.99383108203092,40.77293178785083],[-73.99413665258861,40.77290187017444],[-73.99437655275096,40.773039551101554],[-73.99429402982382,40.77315624399199],[-73.99502327586075,40.77348119657636],[-73.99505028469918,40.773297153190036],[-73.9962406518988,40.77378979139785],[-73.99606316808179,40.77388688661024],[-73.99617945997379,40.77398695435169],[-73.99609524522621,40.774086186437806],[-73.9939369418221,40.77317951096707],[-73.99262266386542,40.77497405603712],[-73.99226708903541,40.77511603385873],[-73.9920590849371,40.775497598695026],[-73.99238604296033,40.775557179922245],[-73.99092717414969,40.77756687876315],[-73.99039616003651,40.77758506567923],[-73.98886861740003,40.77969292291159],[-73.99155105922745,40.77957482093496],[-73.99141982585964,40.77975528028724],[-73.98888614411696,40.77987889853291],[-73.98891926146842,40.78022609434386],[-73.98807644914505,40.78165093500181],[-73.98546581197026,40.78536070057562],[-73.98617270496545,40.786068452258874],[-73.98711901394266,40.78521031850171],[-73.98649778102359,40.785951202887425],[-73.98602727478912,40.786228964236905],[-73.98609763784941,40.786058225698135],[-73.98542932126942,40.78541394218482],[-73.98508113773205,40.78592193511063],[-73.98576566029752,40.78619627485881],[-73.98568287192252,40.78630978621333],[-73.98501696406484,40.7860142376984],[-73.98465507883023,40.786534741808154],[-73.98594956155668,40.786487113464126],[-73.9846194285841,40.786586016350014],[-73.98188645946547,40.7905165804327],[-73.98035659355139,40.789940558140216],[-73.97915188747481,40.791484038769156],[-73.97769128156781,40.79216338197885],[-73.97598914415094,40.791438127522824],[-73.97461559521648,40.79332480515753],[-73.97177312483741,40.792127360966035],[-73.97643948305846,40.78573489963896],[-73.9780578966022,40.78641962595184],[-73.97947039900625,40.78452296327341],[-73.9749851365476,40.78263053739035],[-73.97454045583096,40.7832425377183],[-73.97172305621956,40.78202147646258],[-73.97143192940395,40.7816474531301],[-73.97165490966556,40.78049875644077],[-73.9710287922735,40.77994524167645],[-73.96709687726808,40.7783334043064],[-73.96517676781448,40.77794605066335],[-73.96372602608056,40.77700571789986]]]]}}]}