{"type":"FeatureCollection","features":[{"type":"Feature","properties":{"district":"60"},"geometry":{"type":"MultiPolygon","coordinates":[[[[-73.86269778299533,40.65761830901255],[-73.86300202201289,40.657488116627455],[-73.86327623068608,40.65694121532833],[-73.86300171715266,40.65665375737041],[-73.86299920949274,40.65635733373809],[-73.8632019897679,40.65635955375476],[-73.8630513221345,40.656106098379894],[-73.86264117343165,40.65566753700785],[-73.86098917353912,40.65520976710535],[-73.85722330984366,40.65027867054156],[-73.8575526806712,40.64993257596552],[-73.85783469416329,40.64830233828782],[-73.85837605317673,40.64727441531365],[-73.85716978298213,40.643678558886165],[-73.85894097563549,40.643217036227796],[-73.86201301027748,40.642887041020266],[-73.86289463224388,40.642550679682635],[-73.86531173665126,40.640751191443975],[-73.86670411973779,40.64002176349559],[-73.8662847677707,40.63947288369331],[-73.86681528201251,40.63996352766691],[-73.86732291072713,40.63987198395302],[-73.86867282895088,40.64092507920359],[-73.86991239339434,40.64327820299374],[-73.87001708273581,40.64407137240561],[-73.8706149246106,40.644856741886926],[-73.87119172949545,40.645305356815214],[-73.87257043102892,40.64557561235981],[-73.87921658230898,40.65459108377317],[-73.87971979034303,40.654375929776506],[-73.87676193956312,40.65056095449532],[-73.87318593330954,40.645445013361794],[-73.87344344510453,40.64467191424094],[-73.8732703125524,40.643903214345094],[-73.8729732073257,40.64383923106545],[-73.87275635704988,40.643248964654966],[-73.87194880116554,40.64239408453892],[-73.87084503422274,40.64055662018334],[-73.87008544224426,40.639844181366435],[-73.87007958407015,40.63921169401717],[-73.86989583386149,40.63893452942232],[-73.8679970966813,40.63811526520981],[-73.86960972136565,40.637085534608914],[-73.8692084611064,40.63746580926118],[-73.86955902490303,40.63794748432769],[-73.87167244300342,40.637080424393176],[-73.8725533712021,40.636493365117545],[-73.87347939154407,40.63628554630156],[-73.87515014176597,40.637049704402806],[-73.87711428484626,40.63864148659316],[-73.87841589413969,40.63891218920429],[-73.87930954529786,40.64006707426914],[-73.87989404397653,40.64036327915739],[-73.88025625666039,40.64097010903616],[-73.88048386922625,40.640978034547665],[-73.8807362354642,40.641565957973356],[-73.88029248068572,40.64140491573332],[-73.88002616426265,40.641718113296164],[-73.88006714132425,40.64200344662691],[-73.88152855846558,40.64245168609184],[-73.88224108165657,40.64345349240925],[-73.88214832562572,40.64374372784077],[-73.88341999203027,40.64452381564966],[-73.88480750411128,40.643946303680444],[-73.88557762148994,40.64404094978996],[-73.88743444708422,40.64593668177392],[-73.88766589229476,40.64650492455406],[-73.88772611233226,40.64714302920005],[-73.88751623247263,40.64741516069443],[-73.88771211156097,40.64787443463672],[-73.88863638434101,40.64802449261584],[-73.88924677936025,40.64874565360693],[-73.89006780073066,40.649323635640656],[-73.89033529141227,40.64934776900215],[-73.89013701016974,40.649170412116625],[-73.89034734693776,40.64903360577827],[-73.8910029805153,40.64935070556585],[-73.89120421309669,40.64912689958019],[-73.89108330605372,40.648792575696184],[-73.8894507422767,40.647173955596635],[-73.8894815257607,40.646912755068406],[-73.88879690848671,40.64605025805653],[-73.88941387285534,40.64693843949173],[-73.88889569015318,40.64721881890873],[-73.88861004869386,40.647081360932106],[-73.88851637568523,40.64736069152213],[-73.88820050726657,40.647140869529274],[-73.88818990838847,40.64677356952407],[-73.88845015102358,40.646728552538],[-73.88853549293229,40.64696814919857],[-73.8886418159309,40.646785112948955],[-73.8880813888399,40.64662057013149],[-73.88809441935732,40.646212786549505],[-73.88828981420744,40.64604421554579],[-73.88800052027007,40.6460277053548],[-73.88740960156501,40.645329280124386],[-73.88791690723538,40.645067549205564],[-73.88808383164908,40.64516423112911],[-73.8879640644287,40.64503257382952],[-73.88730217444433,40.64519592592968],[-73.88691203454515,40.64447377760806],[-73.88654888955999,40.6443124903786],[-73.88623646791807,40.64381678772118],[-73.88469181436618,40.64312114697254],[-73.88373578763786,40.642450349188586],[-73.88078889725645,40.63975743313829],[-73.88076685498378,40.63958164715104],[-73.88371830492846,40.63767975868291],[-73.89102105380462,40.64424540966742],[-73.89176213395467,40.64376474641946],[-73.89541805149197,40.64704870990691],[-73.89467912492367,40.64752933536064],[-73.9016506963539,40.65375166739885],[-73.9059895179668,40.65095039452418],[-73.90730723397648,40.65627306866559],[-73.89878859292311,40.65741288789226],[-73.9019821814221,40.66967007119881],[-73.88551701652919,40.67211299444503],[-73.88519577189905,40.670858462724624],[-73.8713025807271,40.67285838588756],[-73.87191497686275,40.67540264798418],[-73.86453747433461,40.676448783801156],[-73.86171238717559,40.6766105959753],[-73.86038519920734,40.67125171099068],[-73.85763323174372,40.67165619403902],[-73.85568461221035,40.663867492875696],[-73.85842950857302,40.66345336093203],[-73.85761537251577,40.6601189331548],[-73.8603049463005,40.659634655304906],[-73.86317083340506,40.658276512446456],[-73.86269778299533,40.65761830901255]]]]}}]}