{"type":"FeatureCollection","features":[{"type":"Feature","properties":{"district":"34"},"geometry":{"type":"MultiPolygon","coordinates":[[[[-73.88945486837545,40.77353295162928],[-73.88941280723816,40.77298524223148],[-73.89288992639547,40.77380766121187],[-73.89418258598882,40.772745127151644],[-73.89309377007136,40.76678468543356],[-73.8904751491773,40.766509941284895],[-73.88904958140844,40.76663072053381],[-73.89109027779136,40.76633663560345],[-73.89089043694104,40.765858198110585],[-73.89191096643144,40.76571110859666],[-73.89167350231205,40.764389889182915],[-73.88706388159817,40.76487296993608],[-73.88672972663143,40.76305326116762],[-73.88009225429725,40.763819114549975],[-73.87926332093922,40.7636847043578],[-73.87895382732579,40.76198398198411],[-73.87499575093962,40.76126432242963],[-73.87441279706523,40.758225301645105],[-73.87365721778173,40.75680348560293],[-73.87221856383626,40.756943224795805],[-73.87188583270029,40.75511354855826],[-73.87008304753282,40.755301482510426],[-73.86974802195516,40.75347413063952],[-73.86907770798102,40.75202973125048],[-73.86540142971394,40.75301000078795],[-73.86397789542355,40.75041031755616],[-73.86309725326615,40.75067209133357],[-73.86272633846227,40.7498679384315],[-73.86315501426608,40.74859108792287],[-73.86843751028879,40.747031197316005],[-73.86852925170723,40.74758830224446],[-73.87037517732146,40.7469890083601],[-73.87191898842296,40.74678778849137],[-73.87196437474539,40.74698438405785],[-73.87397770540014,40.74786468896828],[-73.87489575538011,40.74666962642406],[-73.87678880587856,40.747510625053785],[-73.8771587248542,40.74686503192124],[-73.87889200995943,40.747638872187316],[-73.87936270534512,40.74703374825712],[-73.88109890189688,40.74780632481576],[-73.88224640143613,40.75402415170701],[-73.8915449574536,40.75304729023291],[-73.89226101273672,40.756990061782794],[-73.89597574529142,40.75660809601123],[-73.89626218681788,40.75815848400844],[-73.90782817537729,40.756999264899],[-73.90901259079544,40.75427981484081],[-73.91023124734656,40.75297652347353],[-73.91650534553833,40.75389159079408],[-73.91421213695176,40.75672079824569],[-73.91500715841333,40.7570981770248],[-73.91378541691691,40.7586029493859],[-73.91469591689061,40.76018781461304],[-73.9162939528562,40.76094527590963],[-73.9099800633221,40.76869723475905],[-73.910941749616,40.76885247317323],[-73.91024079314877,40.769427323629415],[-73.91167318067039,40.769644606451934],[-73.91845500418226,40.774449055396765],[-73.915920199549,40.776519596435136],[-73.91660672777714,40.777005926027904],[-73.9122109481198,40.78060567002046],[-73.91290076360609,40.781089745201825],[-73.91073147978038,40.7828551852977],[-73.91558710205888,40.786429631166506],[-73.91259985977615,40.78937632963455],[-73.91240811000254,40.78927430344574],[-73.91266748360792,40.78900397454189],[-73.91195110905574,40.78940179722117],[-73.91207975090545,40.78952181499022],[-73.91183777736101,40.78968088445849],[-73.91094297500358,40.78975504325399],[-73.91090487098738,40.79004068496303],[-73.9102221578405,40.79046520778251],[-73.90985862925778,40.79094549378207],[-73.90677991420773,40.79037510865335],[-73.906473146101,40.79018117520826],[-73.90206327886757,40.78949440599798],[-73.90032629743821,40.78900766282588],[-73.89693993562564,40.78662466896988],[-73.89651204913615,40.78606865902618],[-73.89635251322336,40.786179310203444],[-73.8965025483398,40.786057467844245],[-73.89604376668132,40.78579998748064],[-73.89624259793263,40.78574043299211],[-73.89592962975526,40.78564894431399],[-73.89612632632591,40.78559316880902],[-73.8958291437706,40.78522152738367],[-73.89876162661504,40.78274894588209],[-73.90114577552112,40.782711106090765],[-73.90217815316002,40.78178056186365],[-73.90267677081076,40.78035257204688],[-73.90225480922867,40.780274168316964],[-73.90203565790117,40.78120310196311],[-73.90129127618927,40.78185841927053],[-73.90034960780339,40.78216441002758],[-73.89865437844038,40.78199542032097],[-73.89429914077286,40.784228610620445],[-73.89606377738431,40.783157201805366],[-73.89477429053537,40.78225359249442],[-73.89542197971666,40.781717771016446],[-73.89460091774589,40.78225315898151],[-73.8953485046738,40.781649265484525],[-73.89528467911305,40.78154124925496],[-73.89413991190071,40.78247415952239],[-73.89306090692064,40.78184828970733],[-73.89230750203646,40.782466041573905],[-73.89274917876415,40.78296570668492],[-73.89165459123726,40.782194781530876],[-73.89224191097368,40.78241079956387],[-73.89300986180193,40.78179802356237],[-73.89227864597596,40.78130032218296],[-73.89211148854682,40.78139517920925],[-73.89221792778646,40.7812053238767],[-73.89167103732991,40.780854854274025],[-73.89159164168416,40.780581120818795],[-73.89253484564902,40.779770519588666],[-73.89254018145552,40.77955183427164],[-73.89166859702924,40.77949253890747],[-73.89119589704401,40.77856328788727],[-73.89252259860889,40.77740462898924],[-73.89141605902395,40.776338956234454],[-73.89183244904514,40.77488019988893],[-73.89144361875275,40.775622694709824],[-73.89145185712488,40.77651276927105],[-73.8911204433948,40.77712469973618],[-73.89056250595358,40.777403920964474],[-73.8903519308253,40.77780032077759],[-73.89008729416882,40.77778419310447],[-73.88947105399676,40.775535551469986],[-73.88978900756065,40.774236861170024],[-73.89019171520671,40.77364687622517],[-73.88985169959678,40.7737532973641],[-73.88945486837545,40.77353295162928]]]]}}]}