{"type":"FeatureCollection","features":[{"type":"Feature","properties":{"district":"32"},"geometry":{"type":"MultiPolygon","coordinates":[[[[-73.76560462694324,40.66966619618095],[-73.76675402184512,40.667432994611296],[-73.77342462813054,40.668027619592145],[-73.78940999422139,40.666841158184745],[-73.78915781912191,40.668338095746975],[-73.79388753753175,40.668860466951806],[-73.79628426610566,40.66939297963874],[-73.79616074659168,40.67011294047792],[-73.7980827668728,40.6704377627667],[-73.7984830570804,40.67334858477828],[-73.79836520053753,40.67408681090602],[-73.80179295507583,40.67439399058972],[-73.80717487392037,40.685605273529966],[-73.81441218944926,40.698335038096566],[-73.81406989260105,40.69833080271081],[-73.81418145648067,40.69858543208983],[-73.8123254403812,40.69910991560015],[-73.81336118140001,40.701215046772695],[-73.81163756254249,40.70171011537787],[-73.81193002238005,40.70234083607663],[-73.811528569193,40.702272874880634],[-73.81201248584306,40.70594494480858],[-73.80327598183266,40.70841152851486],[-73.80302414740676,40.708139657094485],[-73.80193296990161,40.70891159534917],[-73.80151152607957,40.709621608404504],[-73.80106920251419,40.70981821030883],[-73.80022185193383,40.70844580151379],[-73.79930425351388,40.70869823164847],[-73.79679902068794,40.70469746491653],[-73.79700599658189,40.704610258082496],[-73.79357708668842,40.699756471694826],[-73.79246106872054,40.700553824703455],[-73.79186916556714,40.7013661371888],[-73.7904980354235,40.70179100657976],[-73.78645565486423,40.69778795228928],[-73.78590150002333,40.697731770448165],[-73.78392256498444,40.695587719461095],[-73.78342823772134,40.6947021785597],[-73.78211026162558,40.695237145547075],[-73.77661911985385,40.688363723048205],[-73.77314858749949,40.685806085736395],[-73.77670779439752,40.682885576176055],[-73.77356539523514,40.68096392630888],[-73.77232211204058,40.681490968262686],[-73.77014324667269,40.68311109705301],[-73.76974091392493,40.68378627585679],[-73.76088158102361,40.67931258095584],[-73.75983741098409,40.67896950623188],[-73.75789961552105,40.676123409652156],[-73.76248600364025,40.674194981764856],[-73.7636767757841,40.67474552572684],[-73.76435325021397,40.67185336868713],[-73.76560462694324,40.66966619618095]]]]}}]}