{"type":"FeatureCollection","features":[{"type":"Feature","properties":{"district":"63"},"geometry":{"type":"MultiPolygon","coordinates":[[[[-74.20432302142393,40.589136617473564],[-74.20457422072934,40.58871913932566],[-74.20470529848622,40.588772370830746],[-74.20446810314506,40.58918269561888],[-74.20432302142393,40.589136617473564]]],[[[-74.20369974335796,40.590199906474986],[-74.20394167611985,40.589807396399515],[-74.2041007534238,40.58984275741269],[-74.2038588660927,40.590249525361855],[-74.20369974335796,40.590199906474986]]],[[[-74.17989568340026,40.645268796478305],[-74.17972987752029,40.64438070211213],[-74.17933117249432,40.64440051177273],[-74.17925123340659,40.645041876970446],[-74.17907466583888,40.644646507056706],[-74.17903555928557,40.64339478702087],[-74.17940482802032,40.643128966476624],[-74.1795871372141,40.64191768346423],[-74.17918728067428,40.64298753949409],[-74.1787907843687,40.6424985034597],[-74.17848313827221,40.64252117523069],[-74.17825662146029,40.64212922786842],[-74.17834127011962,40.642589475996004],[-74.17781237608769,40.64259984414228],[-74.17768636299843,40.64294859651973],[-74.17721118570951,40.643122778603264],[-74.17682386896028,40.642859146486096],[-74.1767048915117,40.6424169112842],[-74.1763578661753,40.642327220563075],[-74.17668723791225,40.64255213862141],[-74.17666795538246,40.6433868447718],[-74.17598183191922,40.64346362228093],[-74.17560250954429,40.64331129867264],[-74.17547166255278,40.64412310546135],[-74.17568470742572,40.644710284895275],[-74.17546691157192,40.64464652110249],[-74.17529691545057,40.64507507681914],[-74.17436572943608,40.64513625864562],[-74.1729412389165,40.64420452285607],[-74.17300154585647,40.643585405079804],[-74.1723616538658,40.64325626755203],[-74.17272145305189,40.64294849899678],[-74.17196330565986,40.64285813269354],[-74.17150811099722,40.643134442091025],[-74.17133587281808,40.64285576505219],[-74.17186042582577,40.64252292851905],[-74.17172186950495,40.64193954418164],[-74.17147878989451,40.64170250999381],[-74.17158721923735,40.64102959339466],[-74.1720231585235,40.640989215160474],[-74.17297990582071,40.64048606719583],[-74.17156994685418,40.641011532092946],[-74.1713738235051,40.64208501526828],[-74.17105017239892,40.64259381913019],[-74.17127524445608,40.64211168276789],[-74.17119260951202,40.64173962651413],[-74.17028635441103,40.64177530825603],[-74.17007878651046,40.642086160575644],[-74.16915295569137,40.6418728598746],[-74.1690643162886,40.642130016798795],[-74.16774094051357,40.64172777449872],[-74.16757607092507,40.641844793608215],[-74.16653375792836,40.641422637883835],[-74.16621599917175,40.64242410073068],[-74.16631887292456,40.641436675005174],[-74.16580110755902,40.6412245114497],[-74.16563409763798,40.64121437137586],[-74.16544310082392,40.64228054670877],[-74.164941390413,40.64220900039209],[-74.16519041758235,40.64064230577956],[-74.16473426536807,40.640391467025005],[-74.16457132366851,40.64141866209867],[-74.16441459649232,40.641396785228864],[-74.1645965659758,40.64031574554521],[-74.16416886813627,40.6399941102305],[-74.16400179001414,40.64106586000702],[-74.16386249420357,40.64105279734401],[-74.16404731516637,40.63994665879975],[-74.16384976586293,40.639891509321046],[-74.16345445681993,40.63985656039842],[-74.16324577932627,40.6409574196884],[-74.16280502789434,40.64103818792249],[-74.16167534694229,40.640610784766956],[-74.1622846525208,40.638765652772534],[-74.16181856612258,40.638646278777806],[-74.16144917826891,40.63942833717108],[-74.16130221801548,40.639393734457244],[-74.16166010706995,40.638664993313455],[-74.1612401581498,40.638595011113814],[-74.16090490770513,40.63938614131879],[-74.16073654872477,40.639351014475665],[-74.161081617589,40.638567768312704],[-74.16034819993166,40.63844372645366],[-74.15986410465037,40.63992782369299],[-74.1602347053031,40.638410316925],[-74.1605026861884,40.62652962735995],[-74.16024419368385,40.626497425332],[-74.16044585002187,40.62485408803954],[-74.16121888420211,40.622688670097396],[-74.15683015387131,40.62202943103036],[-74.15725511924904,40.62160345977458],[-74.15154219170282,40.621201448183584],[-74.1500062812923,40.6224349474086],[-74.14858177665273,40.621705412096254],[-74.15260569756504,40.617554507395994],[-74.15219010759331,40.617538659268206],[-74.15287450874044,40.616118645565024],[-74.15383151177517,40.61246290579141],[-74.14998477050442,40.60953841783097],[-74.14024388190981,40.61149172955269],[-74.13772285556679,40.620999300238246],[-74.13370303060678,40.62029566853503],[-74.12706446907448,40.62073946371547],[-74.12648824895138,40.62057487188515],[-74.12466997734279,40.62080403275335],[-74.11926246748564,40.621893656554846],[-74.11842396095068,40.6226031423594],[-74.11828119363123,40.62313702602748],[-74.11840620824526,40.62376140148513],[-74.11701375821883,40.62452357781769],[-74.11326249557811,40.62305442504096],[-74.11614321176961,40.62870226452717],[-74.1171994707398,40.63456809813077],[-74.11507273357249,40.63475846415801],[-74.10252681728578,40.634662138457486],[-74.09903558388382,40.63404103096662],[-74.09726705781388,40.63399809825211],[-74.0957646588542,40.633166148882694],[-74.09442300215916,40.63334479262684],[-74.09319068009029,40.63312414455046],[-74.09213477423573,40.6333517739929],[-74.09114201643744,40.63269959586013],[-74.09003705407392,40.63277076138565],[-74.08761781639002,40.63164751252657],[-74.08807764880218,40.63108071673752],[-74.08682234732865,40.63031785961287],[-74.08851848052123,40.62891990101882],[-74.08892377870457,40.62770863107391],[-74.08848548551057,40.623693039426435],[-74.08871695638787,40.62092718213721],[-74.08985926098374,40.61990106425092],[-74.09066772022706,40.61870885687139],[-74.09192208657743,40.618575061523025],[-74.09322592877992,40.61877213408181],[-74.09371588245375,40.61859519825057],[-74.09407334283406,40.61803286467365],[-74.09430228018805,40.61665559907243],[-74.09268171304247,40.615988160963035],[-74.0925748845114,40.61539485506622],[-74.0920434232971,40.615407524698135],[-74.0901688752221,40.61475945468107],[-74.0904882089684,40.61428986141639],[-74.08868728767301,40.613706610206016],[-74.0897637827964,40.61222618310859],[-74.08885580653904,40.61185347728836],[-74.08951295446597,40.61087938616628],[-74.0889969411967,40.610664391251056],[-74.08958811607526,40.60984808644973],[-74.08885856157617,40.60941429531216],[-74.08794592987387,40.61031870592437],[-74.08296225836267,40.60736841145072],[-74.08083621907014,40.60945113195666],[-74.08015884286579,40.60919071620909],[-74.07764799427487,40.613508288606816],[-74.07726108243774,40.61430695133897],[-74.07725958997125,40.61476264032164],[-74.0811033252463,40.61778874553602],[-74.08197891312152,40.61877832848284],[-74.08148275601975,40.61975672792682],[-74.08189136429809,40.62082821874461],[-74.07825631435878,40.621980426913964],[-74.07959762667144,40.62460136256714],[-74.07997022704825,40.624483307966244],[-74.07813637011677,40.626507020153035],[-74.07288058839303,40.626929028469085],[-74.07270543377275,40.62687414856306],[-74.07225500955772,40.62460875019414],[-74.07002735061631,40.62145406435345],[-74.06619907954864,40.618722481288955],[-74.06557280841211,40.61927454360011],[-74.06544586069528,40.619202628792124],[-74.06668207982919,40.61806749593871],[-74.06641558715178,40.617872498165745],[-74.06604991535903,40.61819541035291],[-74.06569864744186,40.61795641608939],[-74.06546549952755,40.61810707028097],[-74.06496189280482,40.61777239906801],[-74.06425721751587,40.61817168758575],[-74.06509908407207,40.61751095612564],[-74.0644366200507,40.61706241510536],[-74.06390892174456,40.6173288256522],[-74.06432745858093,40.61698850352494],[-74.06376129983167,40.616798750007455],[-74.06376668678124,40.616603630840466],[-74.06143961457276,40.61437802069982],[-74.06073779377422,40.61304667709528],[-74.0605035922457,40.612100553617964],[-74.06027224809941,40.61181963993938],[-74.05947565131038,40.61169052980344],[-74.05890133421524,40.611002286486524],[-74.05908584308656,40.61063367675214],[-74.06255625190748,40.609237377306215],[-74.06264967661805,40.60935760824062],[-74.0637286310496,40.6085001440635],[-74.06806611079823,40.6065327253605],[-74.06910835055774,40.60412017253648],[-74.07303387760093,40.60559239139724],[-74.07654903651498,40.6062177717162],[-74.07710006569283,40.603239925375874],[-74.07709390018425,40.60283193018913],[-74.07670218642895,40.60212106785478],[-74.08007894922854,40.6020946938447],[-74.08024847514477,40.60170731481999],[-74.08218729319184,40.60194100804521],[-74.08380842715883,40.604155473802884],[-74.08497683963675,40.6036982399723],[-74.0852057707592,40.60408779823357],[-74.08565414584304,40.603738224631535],[-74.08593767628865,40.60383902149537],[-74.08597813837586,40.603215693803335],[-74.09040383229406,40.60587571370791],[-74.09094134437414,40.60620878034193],[-74.0894423457235,40.607691287889054],[-74.09150920374304,40.609105569684196],[-74.09363004438528,40.60993739262823],[-74.09618531435082,40.61028505476698],[-74.10401346138994,40.61013066727059],[-74.10376833405539,40.60991001127959],[-74.1054341693347,40.60982654776818],[-74.10547224811518,40.61015624359046],[-74.10963793568044,40.610172953510116],[-74.1138058996767,40.61105581742567],[-74.11677291779156,40.61093250463415],[-74.11666764136555,40.61008608493602],[-74.11788100487377,40.609979801324045],[-74.11742466453926,40.609289009414006],[-74.11834442054453,40.609144126734236],[-74.11777623924915,40.6018602481903],[-74.1205954634264,40.60180975823907],[-74.12070424315333,40.60070598094723],[-74.12259136159658,40.599492756485546],[-74.12628490040606,40.59345586743477],[-74.12627307084294,40.59101726198118],[-74.12782298198366,40.58936520375139],[-74.12776423350982,40.587486181139184],[-74.12910142045634,40.58629100474628],[-74.12890582754814,40.58541701363473],[-74.12914115371242,40.58416414692354],[-74.12714032420584,40.58252913477161],[-74.12639458115018,40.582512342520616],[-74.12614143940974,40.580560931488485],[-74.12749129862196,40.57978817864712],[-74.1271150972832,40.579179200910005],[-74.12971847624324,40.57823108192085],[-74.12946161297486,40.57796458636168],[-74.13209512239497,40.577222182716895],[-74.13489889189538,40.57616662287926],[-74.1391688440525,40.57565902735656],[-74.14093190114541,40.57573763742206],[-74.14151136153559,40.57596244994836],[-74.14209743511707,40.57581542012825],[-74.14228685085551,40.576112415435475],[-74.14337391066938,40.575929156106426],[-74.14343819918615,40.576160671145644],[-74.14543651565718,40.57566895947198],[-74.14655643386533,40.57597650829004],[-74.14795691762055,40.57561348317495],[-74.14683528116794,40.57422870927292],[-74.14711341105172,40.5735276639561],[-74.14655628561466,40.57298060994446],[-74.14723568362837,40.571461058997585],[-74.1498351923224,40.56935734409486],[-74.15032411057169,40.56967967273167],[-74.15092105257091,40.569660042557764],[-74.15094616231777,40.57007465634726],[-74.15144684444262,40.57033384401556],[-74.15176085239389,40.57022484445546],[-74.15176763667962,40.569978055135465],[-74.15199747515932,40.570247900844215],[-74.15163713591767,40.570746928820625],[-74.162622057179,40.56669466178307],[-74.1643866512156,40.56562486153036],[-74.16456764519961,40.564349133161336],[-74.16493603934988,40.56367288711128],[-74.1647556775845,40.56296797148082],[-74.16499616553936,40.5614469703727],[-74.16591981713817,40.56029041026981],[-74.16982582382225,40.56109042060473],[-74.16966210876018,40.56690048631964],[-74.16996159834486,40.566937310921176],[-74.17024295471704,40.56755625876383],[-74.17021885688392,40.56786119079032],[-74.1700557883494,40.56787143988973],[-74.17019539741656,40.56821862289283],[-74.17051429278065,40.56829820682413],[-74.17022113282435,40.56801844192086],[-74.17036452836834,40.56764510695523],[-74.1705318054832,40.567814979880986],[-74.1705969177823,40.56761902945248],[-74.1703923960668,40.56754642364544],[-74.17031851654495,40.56724489065981],[-74.1714303852779,40.56732758196439],[-74.17159791013214,40.567593235384344],[-74.1717396657503,40.567314254505945],[-74.17347178258389,40.56704523868853],[-74.1735967690779,40.56722141386609],[-74.1738587655284,40.56695034043604],[-74.17446414808282,40.56702224431087],[-74.17520064049907,40.56776105148624],[-74.17552602133551,40.568504663060494],[-74.17582586371218,40.56967763641421],[-74.17559217976984,40.569984354867415],[-74.17587421113485,40.569978921802615],[-74.17589661750733,40.57018172236266],[-74.17624978083373,40.570319105091365],[-74.17663703329211,40.57077916131254],[-74.17661306065165,40.571004520738875],[-74.17825568229031,40.57208174810345],[-74.1783150671677,40.57254218948608],[-74.17870363782866,40.57236314335954],[-74.17924647955479,40.57284343432736],[-74.17979583433437,40.57292600154258],[-74.18013072951605,40.5732130314462],[-74.18288644696538,40.57395307374964],[-74.18329190632066,40.57430910843936],[-74.18303116473665,40.574376650715415],[-74.183498207159,40.57455496764578],[-74.18373006608962,40.57509911363791],[-74.1849137541937,40.57653779209246],[-74.1853973339789,40.57652120861249],[-74.18687589344435,40.577055098951355],[-74.18682111463282,40.57653376585335],[-74.18770433092205,40.576675895110604],[-74.1902029270096,40.57633878133659],[-74.19050913930853,40.57764538761009],[-74.18989010179124,40.578006685647416],[-74.18975889895238,40.578497401593275],[-74.19039947427996,40.57942552287853],[-74.19173777018197,40.58505296107956],[-74.1913178352544,40.58570448894961],[-74.19199543493619,40.58631493261582],[-74.18909581651928,40.58960371444575],[-74.1884562382499,40.59066026234784],[-74.18730112162243,40.59004117597228],[-74.18609435949026,40.59138549444148],[-74.18881878283409,40.59279410025107],[-74.18942952242763,40.59243117424369],[-74.19034473467622,40.59333496796433],[-74.19239396836447,40.594066446821465],[-74.19119023122693,40.59721194556835],[-74.19175818227131,40.59762841429071],[-74.19209617658805,40.596724273792084],[-74.19303883665711,40.59648717620975],[-74.1931875804571,40.596775837914954],[-74.1930786249701,40.5974595410873],[-74.19332867406695,40.59761414554252],[-74.19398492756306,40.597577806841514],[-74.19702235193607,40.59875934489722],[-74.19697455010758,40.598605016163994],[-74.19731615623597,40.598696675953065],[-74.19743893252095,40.59846083455496],[-74.19875958205294,40.60171197517643],[-74.20014866759907,40.60368335009892],[-74.20138527472524,40.60463696620865],[-74.20221849851052,40.60596967961671],[-74.20281628374592,40.60827082796752],[-74.20230179014106,40.61187564203926],[-74.20244374449518,40.613284693932165],[-74.20045324444631,40.616327997309156],[-74.20058986446027,40.61702892738964],[-74.20082804386344,40.617094288551066],[-74.20091423238277,40.617798822398825],[-74.20087478740132,40.618100410856066],[-74.20054156331818,40.617997639493765],[-74.20035203856247,40.618342198554906],[-74.20083991450633,40.61880430260748],[-74.20068071414828,40.6191684543471],[-74.20106997469229,40.62038154027522],[-74.2005058812991,40.620299672101424],[-74.2004280019192,40.62049541101701],[-74.200873315822,40.62059115522388],[-74.20125847310119,40.62155483087242],[-74.20143239998035,40.62161260896555],[-74.20123089203481,40.622074210989666],[-74.20127534263133,40.62268827628623],[-74.20154553334764,40.62269805202331],[-74.20163346671166,40.62323260543753],[-74.20107662790329,40.624078346589954],[-74.20106080033446,40.6258951795096],[-74.20118252353662,40.62611021520705],[-74.20141670667755,40.62607051339337],[-74.20098625565407,40.62934414810653],[-74.20043565877462,40.62976477328612],[-74.20040812771613,40.63025010069474],[-74.20079956263814,40.63027839458254],[-74.20040311643059,40.6302923622676],[-74.20018462159052,40.631328669464374],[-74.20040427577656,40.63145567723904],[-74.2001726540773,40.63136108053117],[-74.1986224779907,40.63273751485443],[-74.19816703201201,40.632707803230375],[-74.1979746931524,40.632812971028414],[-74.19802519933923,40.63302919247008],[-74.19707850776288,40.633127264611744],[-74.19673700560328,40.63345188785856],[-74.19687865668357,40.63376138772176],[-74.19626673782375,40.634125785430214],[-74.19602904691298,40.63499584830463],[-74.19557688057968,40.635004218570764],[-74.19532934912048,40.63521215626377],[-74.19520096900095,40.635707944646505],[-74.1944948077445,40.63644952194808],[-74.1945185109163,40.63703429194798],[-74.19478689682471,40.637131511664386],[-74.19462310145185,40.63739118356387],[-74.19397308627647,40.637309114699136],[-74.19358317694855,40.63746911688488],[-74.19371964622094,40.637566814732885],[-74.18652496897599,40.64338866217163],[-74.18623209809662,40.64318739685546],[-74.18590896667855,40.64363143950194],[-74.18511431614884,40.643806238290196],[-74.18524793597282,40.643943526193574],[-74.18483594580847,40.64412826633892],[-74.18411319064435,40.64353008362598],[-74.1840648323192,40.643323989943404],[-74.18437046773803,40.64309957689013],[-74.18421444000022,40.64311689576974],[-74.18365067064063,40.64223964105084],[-74.18402611192153,40.643100409072474],[-74.18384575936905,40.64326615680756],[-74.18324212279276,40.642963677600655],[-74.18380044942415,40.64443190122324],[-74.1836674587201,40.64461048505026],[-74.18288931621835,40.644800282946264],[-74.18118434243927,40.644586159245094],[-74.18087212513223,40.64485142967856],[-74.18048173953655,40.64427892477671],[-74.18004077949224,40.644288140673844],[-74.17989568340026,40.645268796478305]]]]}}]}