{"type":"FeatureCollection","features":[{"type":"Feature","properties":{"district":"26"},"geometry":{"type":"MultiPolygon","coordinates":[[[[-73.74461376070957,40.778947376109635],[-73.7442928977755,40.77874726192362],[-73.74454629709695,40.77885465064734],[-73.74481235604428,40.77855689759709],[-73.74506031149637,40.77914294344395],[-73.74461376070957,40.778947376109635]]],[[[-73.7467245715036,40.78030652579986],[-73.74559224274319,40.77958067876725],[-73.7458187294903,40.779666716873606],[-73.74682065555072,40.77937431015792],[-73.74724480713085,40.780076344709634],[-73.7467245715036,40.78030652579986]]],[[[-73.77752169753904,40.796640133760015],[-73.77617885953373,40.79609605286031],[-73.77437174340294,40.79449606104049],[-73.77401353458623,40.794030001517356],[-73.7736324818892,40.79274975621529],[-73.77236296162185,40.791538203627766],[-73.77213292826461,40.79017877433461],[-73.77063124537601,40.78846290553478],[-73.77082315021427,40.78798266706012],[-73.77173756350666,40.78746360891203],[-73.77426836058969,40.78675665865493],[-73.77438976901033,40.7868571452983],[-73.7742301148686,40.7870650416761],[-73.77501922678304,40.78739447438433],[-73.77633728818721,40.788487225753954],[-73.77480695369415,40.78697068727905],[-73.77426466694433,40.78665122914543],[-73.7740763829779,40.78591728401938],[-73.77160731979487,40.78299626518565],[-73.76833795673888,40.779634872200916],[-73.76815915444229,40.77963595919765],[-73.76820055460027,40.779444179191145],[-73.76716193687592,40.77978287566085],[-73.76702392346508,40.7800862341585],[-73.76677570373936,40.77981245869854],[-73.76816173051581,40.779396821242194],[-73.76709113484735,40.77684484110936],[-73.76510436820215,40.773799038723254],[-73.75960078092824,40.7687232567132],[-73.75893512093695,40.768334328516055],[-73.75864264358079,40.767357170035645],[-73.75787030567228,40.76694642794973],[-73.75739020803874,40.7671666723586],[-73.75641084289751,40.76651422276777],[-73.75650494248829,40.766345873587426],[-73.75602210333291,40.76646442121036],[-73.75493674341264,40.76609325213905],[-73.75410065488441,40.76534935396471],[-73.75377036464533,40.765304631483126],[-73.7538044144522,40.76506822784472],[-73.75340994726432,40.7646926596567],[-73.75219261536523,40.763830418515276],[-73.7510743225256,40.76176367133642],[-73.74861225072561,40.76092780307617],[-73.74753513475056,40.759857196187504],[-73.7465598186795,40.75933914768864],[-73.74628904491375,40.75905924481772],[-73.74642482955997,40.75820966527997],[-73.7462770053958,40.75779678490609],[-73.74613143454951,40.75767688335841],[-73.74576014295552,40.75783664481713],[-73.74463599057209,40.756891175867295],[-73.74465748646874,40.75655810497749],[-73.74457639642853,40.756907272386584],[-73.74486618338659,40.757204304879146],[-73.7457598495421,40.75791351710883],[-73.74604668174611,40.757809942869464],[-73.74631196705491,40.75805481402295],[-73.74606214942192,40.75876150044942],[-73.74635893029055,40.759290872701364],[-73.74749424153306,40.759976687354914],[-73.74854146028699,40.76138618458747],[-73.7488725496159,40.76166805363255],[-73.74922202176387,40.761579747083005],[-73.74917394462572,40.761377744325536],[-73.75004042130577,40.761576082739815],[-73.75123100280108,40.762522495140004],[-73.7516952345571,40.76365182736891],[-73.75251092750104,40.76452737691886],[-73.75304571090007,40.7648172274353],[-73.75507210849047,40.76753310678754],[-73.75485915829503,40.76840425245603],[-73.75439388269162,40.76875346325141],[-73.75471391687864,40.768795143897705],[-73.75470593716679,40.76974152294687],[-73.7553327945919,40.770998154653455],[-73.75553498728895,40.77098552649457],[-73.75534216256084,40.77102215274398],[-73.75557332649315,40.77152912592288],[-73.75438074757541,40.772041271642344],[-73.75357000906135,40.77269461612949],[-73.75336691999495,40.77320784726102],[-73.75424149999385,40.775266830365396],[-73.75518575394327,40.77649807083039],[-73.75485800659737,40.77689639951659],[-73.75498193747218,40.77704380336295],[-73.75481322893435,40.77761903230577],[-73.75551737581797,40.777704048364356],[-73.75470837226607,40.77771781220085],[-73.75430183540865,40.77840611149005],[-73.75402624009541,40.77960387939488],[-73.7530081254972,40.78086607518866],[-73.75299839296434,40.781289489522294],[-73.75217910915786,40.78211742830932],[-73.75134808466834,40.78252873063594],[-73.75071951925568,40.782627027855206],[-73.75020770366015,40.78239927487963],[-73.74895634954238,40.78106652922562],[-73.7482491101888,40.780764779712634],[-73.74802763336444,40.780483149609815],[-73.74814452405515,40.78024038030129],[-73.74735791062548,40.77938330806449],[-73.74777892911487,40.77911499750847],[-73.74716558228887,40.77885633334734],[-73.74679375137532,40.779034851583766],[-73.746866256832,40.7788775040247],[-73.74564129623779,40.77782884870044],[-73.74534800304866,40.77715344956248],[-73.74568769909821,40.778152983986224],[-73.74611030250216,40.77845507503732],[-73.74600996424537,40.77887657289676],[-73.74540776901326,40.77898246038239],[-73.74507677183958,40.77824908135135],[-73.74461729498216,40.777919266815715],[-73.74523985922657,40.77740242977604],[-73.74524624200906,40.776962855464284],[-73.74501727404086,40.77659781246352],[-73.7450751205001,40.77745210064454],[-73.74466521379355,40.7776834953802],[-73.74471768193915,40.77748704752139],[-73.74443101629359,40.777456153522394],[-73.74441591814141,40.778123246439144],[-73.74408443034731,40.77825545912614],[-73.7443344982057,40.77843137402023],[-73.7440409139111,40.778590104781046],[-73.74007973971888,40.77620879539649],[-73.73937598887052,40.77601366916746],[-73.73770283622301,40.77479358573251],[-73.72153324745767,40.764823189587915],[-73.72097588434494,40.764760158786416],[-73.70782538565503,40.75621640432285],[-73.70163345892384,40.752493329190486],[-73.70090127347267,40.74712854407901],[-73.70058163971602,40.74318384108434],[-73.72337374724016,40.73826139727343],[-73.72418753669098,40.73869953906306],[-73.72305897412795,40.73625298522513],[-73.72267503535048,40.734247358501015],[-73.72992228016072,40.73270409785711],[-73.7321863048405,40.73286716142304],[-73.73291097562559,40.73095233745712],[-73.73631695762866,40.73104254894412],[-73.7361920562217,40.731365600785686],[-73.73860267093212,40.73749113027623],[-73.74167631051768,40.73682666182486],[-73.74029081629884,40.7385166701404],[-73.74019478446421,40.73903094033876],[-73.74106699936125,40.73897800003901],[-73.74306820821381,40.73844081776205],[-73.74360280188783,40.73901260881387],[-73.74396193555003,40.74078912645363],[-73.74440220366081,40.74140780939176],[-73.74671645526243,40.74229169248747],[-73.74784861234893,40.743296077969916],[-73.75115737659814,40.75031873392183],[-73.75029070742703,40.750524749672614],[-73.75041127001197,40.75093069061001],[-73.75108971802695,40.750818657978435],[-73.75139187984158,40.7515718036731],[-73.75737034770664,40.750243856764726],[-73.75782746217166,40.75075826957934],[-73.76056471727004,40.74999990147265],[-73.76143469334428,40.75184519273571],[-73.76276145403486,40.75193165357312],[-73.76342031951155,40.756197213911676],[-73.76477141068325,40.76094790976417],[-73.77027509275024,40.76008338991743],[-73.77766748173475,40.75814833990519],[-73.77741732047056,40.75736153270221],[-73.78446762718231,40.75545961321071],[-73.78431521838534,40.75398613276612],[-73.79241910725733,40.75339516043962],[-73.79237517998384,40.75307044825971],[-73.7945772699,40.75356301133927],[-73.79755768034005,40.753892156191675],[-73.80300705364856,40.753699079901125],[-73.80215291895193,40.75998721851409],[-73.80125017485508,40.7598282378032],[-73.80083443158323,40.75997103337647],[-73.80204886889092,40.76083557829587],[-73.80048126981345,40.77220224017442],[-73.79845615825852,40.77319708952785],[-73.79743205785033,40.78068146797005],[-73.80159697750335,40.78101599257691],[-73.79854950476513,40.78363443273308],[-73.79585744809066,40.785559223074536],[-73.79508554374358,40.78585087684545],[-73.79470841260321,40.78703249150328],[-73.79591256646869,40.7915136813716],[-73.79781685733171,40.791324465689925],[-73.79766408740205,40.79083589002582],[-73.80007738440489,40.791012809650674],[-73.79985395962709,40.79242748895294],[-73.8016346317523,40.792570253582895],[-73.80120743283766,40.79565565653273],[-73.80014885111416,40.795568233056756],[-73.80002190080332,40.796238067665286],[-73.79968067900407,40.7961745027066],[-73.79962511332708,40.79633747800625],[-73.79789832687067,40.79555922141944],[-73.79758295471345,40.795967202154976],[-73.79787014914562,40.79555201264411],[-73.79673567660244,40.795208942918215],[-73.79646702704154,40.795638182583865],[-73.79670587562366,40.79519762544942],[-73.79649931607187,40.79511802527783],[-73.7950848105282,40.795065750456466],[-73.79439620407953,40.79481769126761],[-73.79456001584941,40.79474622336375],[-73.79432197990849,40.79434565883574],[-73.7943184655084,40.793566448140645],[-73.79464168117107,40.79310575714277],[-73.79458133808632,40.792706357811355],[-73.79484353308989,40.79253110011444],[-73.79494377022753,40.791750694240235],[-73.79375126484109,40.789061933339134],[-73.79338033504995,40.78957839262078],[-73.79323941781153,40.789530249704015],[-73.79362007276177,40.78899663724746],[-73.7926879011279,40.78877761872373],[-73.79028202353207,40.790316963399974],[-73.78568101301406,40.790340671660175],[-73.78383842514354,40.79064095467173],[-73.78253080663522,40.79127678943212],[-73.78434153059597,40.79174935379499],[-73.78174708763103,40.79113340664469],[-73.78107845970224,40.79167732177925],[-73.78077503139018,40.792990705340735],[-73.78083949014155,40.7932774406756],[-73.78158881545018,40.79346354101269],[-73.78163864257797,40.793309707768266],[-73.7816601155539,40.793482020313206],[-73.78072435069836,40.79333361882439],[-73.78079182072652,40.79403591986457],[-73.78100539667297,40.79438481862733],[-73.78190385421038,40.79490120389437],[-73.78310976963971,40.794914460506],[-73.78331796684263,40.79475835647435],[-73.78325876253038,40.7949239148007],[-73.78200326103382,40.79497546250372],[-73.78154150032749,40.795659737320186],[-73.7798030505223,40.79620552843437],[-73.7793624680483,40.79668539253502],[-73.77752169753904,40.796640133760015]]]]}}]}