{"type":"FeatureCollection","features":[{"type":"Feature","properties":{"district":"28"},"geometry":{"type":"MultiPolygon","coordinates":[[[[-73.82372319350715,40.7130217377508],[-73.82120731851994,40.71075559940799],[-73.82014353432507,40.70955504217004],[-73.81830678471906,40.70614939515777],[-73.81859830328395,40.70605200884581],[-73.81897481070324,40.70655699644766],[-73.81846485026112,40.705667270465554],[-73.82007915732441,40.70503091037825],[-73.82063187654445,40.70584197373229],[-73.82202045793572,40.70521232861201],[-73.82267410749886,40.705933514054685],[-73.8240466994588,40.70693074091636],[-73.82343812084558,40.703802363261424],[-73.82575764559171,40.70442753124005],[-73.83391709686666,40.70234736797055],[-73.83460244916061,40.703927467125624],[-73.83597534682268,40.70343215744939],[-73.83661882132142,40.70342001787204],[-73.83696237811037,40.70421245233334],[-73.83947815241453,40.70269019433179],[-73.84156378094423,40.70110059871778],[-73.84275664246616,40.7006576953069],[-73.84502472943142,40.69935937701725],[-73.84700405316528,40.69882521050992],[-73.84749627439577,40.70009792056644],[-73.84992862832019,40.70135095760437],[-73.85019348760666,40.70161315474651],[-73.85026356565884,40.70204219577398],[-73.86280855649437,40.703410915303316],[-73.86981898401325,40.702837930264046],[-73.87144061433555,40.706797667716344],[-73.87407926168893,40.70631350576607],[-73.874240664045,40.70672977355747],[-73.87527803591578,40.70659484077896],[-73.87491827793181,40.70681553212758],[-73.88090315706053,40.7063140508765],[-73.88431346095612,40.70541113665991],[-73.88459800988352,40.706123006231266],[-73.88652826814834,40.70622520637755],[-73.88911917751554,40.705598877397485],[-73.89126837624964,40.7035965758985],[-73.89279749102384,40.70197195398],[-73.892716783938,40.70186220668373],[-73.89343612866125,40.702187598996495],[-73.89313149476546,40.70256713532087],[-73.8944861947226,40.705733649137834],[-73.89633102974048,40.70527392207782],[-73.89756304853304,40.70775921277905],[-73.89845309892874,40.709040169155614],[-73.89616280605101,40.709621683889154],[-73.89645940150847,40.710298082718985],[-73.89863209889468,40.71122538181427],[-73.8997087722667,40.71098131294491],[-73.90059587784116,40.712697385240574],[-73.8950646952866,40.712479562728895],[-73.89553825122506,40.71380363370879],[-73.89750226433192,40.71638386771307],[-73.88243481632672,40.723508696818826],[-73.88092035215946,40.721603038451896],[-73.88130734341104,40.72141634800685],[-73.87646382507694,40.7215939936503],[-73.87455396992071,40.72200668557543],[-73.86839753563369,40.72485398969049],[-73.86387105575638,40.731813737814065],[-73.86342394358977,40.731950626379444],[-73.86259793824024,40.73041595893506],[-73.8593821839755,40.72923937087484],[-73.84700779327373,40.7329470030169],[-73.84575978242921,40.73049108069003],[-73.84570682950697,40.729500800850545],[-73.84468685079062,40.72843227027468],[-73.84052863332371,40.72032388139713],[-73.8408515764885,40.720064485891136],[-73.83584918962082,40.71772702843673],[-73.83125888987382,40.714441260009565],[-73.82545661777802,40.71200064009973],[-73.82372319350715,40.7130217377508]]]]}}]}