{"type":"FeatureCollection","features":[{"type":"Feature","properties":{"district":"81"},"geometry":{"type":"MultiPolygon","coordinates":[[[[-73.84708032914259,40.906156733033086],[-73.8478173892523,40.904554250731984],[-73.84799565262928,40.903252998360195],[-73.84657769611793,40.903153077805165],[-73.84680225521008,40.90155220573732],[-73.84742470507385,40.90027331559255],[-73.84821905017205,40.89982810017557],[-73.84908640634546,40.89963980249932],[-73.84984240325174,40.8998502410881],[-73.85171970243901,40.89756936184323],[-73.85327599055627,40.89467554289875],[-73.85443590023533,40.8950721264652],[-73.85566327271738,40.89285239422698],[-73.85736281685215,40.893411439404986],[-73.85851807917366,40.891337366838485],[-73.86139698500315,40.89225268291478],[-73.86178813918576,40.891549530078436],[-73.8626567342862,40.89181578642368],[-73.86620661508547,40.885378614062915],[-73.86605231263061,40.8842870441513],[-73.86874366791125,40.87882319221097],[-73.86943447720427,40.878129091979176],[-73.87438658417516,40.879055173534425],[-73.87480123095862,40.87775798485897],[-73.87526842684593,40.87713937791913],[-73.87444868046667,40.87678727141988],[-73.8755920256457,40.875253906593024],[-73.87649057656851,40.875498544134544],[-73.87955970769092,40.875730178935214],[-73.87973061100864,40.876865494472696],[-73.88064905715272,40.876483470393545],[-73.88076046543624,40.87729853672938],[-73.88052443678038,40.87801155987226],[-73.88144150970012,40.878186137598824],[-73.88207065420863,40.87918172287087],[-73.8813716099872,40.88136294145641],[-73.88045687418452,40.882219838223676],[-73.88274833294655,40.883397386801185],[-73.88421683360389,40.88319769174253],[-73.88692889734149,40.884355714351514],[-73.88705142602338,40.8843495758468],[-73.88716505199065,40.88257651139499],[-73.88595071664201,40.880507412132715],[-73.88719583373005,40.88006354180216],[-73.88911365145401,40.87841932793849],[-73.8896588466814,40.87697483725254],[-73.89212875531868,40.878057802282314],[-73.89778962270478,40.87085664339871],[-73.89930353111754,40.87124367164893],[-73.89908527286846,40.87196884365026],[-73.90214590250221,40.87250237165914],[-73.90174774857755,40.87367518993948],[-73.9047085378666,40.87461670169993],[-73.905714252963,40.873138322101426],[-73.90746489794311,40.87354735423658],[-73.90665099539478,40.87575250419279],[-73.90682822856839,40.87663155188898],[-73.9090623603834,40.878486782812246],[-73.91033193566491,40.879038046804844],[-73.91148913190445,40.87901885880971],[-73.91205829964028,40.878119320048306],[-73.9148462409017,40.876666710276176],[-73.91578515638106,40.87571694506499],[-73.91726028337294,40.87580900358074],[-73.91775669395919,40.87566362786087],[-73.91978381299002,40.87642143660915],[-73.92206723651886,40.878572414803116],[-73.92273788287528,40.87890544542808],[-73.92451795851036,40.879058659562084],[-73.92490327473082,40.87888836785333],[-73.92380525605498,40.88032490163623],[-73.9203928019909,40.88764850022706],[-73.91781783790027,40.89441642556813],[-73.91789963124658,40.894669009537004],[-73.91694161078402,40.89664455170254],[-73.91518455871676,40.90158428286234],[-73.91543172958428,40.90181268368851],[-73.91501449586045,40.90308129910659],[-73.91459039243315,40.904119002196545],[-73.91418543529882,40.904140390968834],[-73.9128685787661,40.907535475893596],[-73.91311022264122,40.90784583394495],[-73.91264932172878,40.90807081195554],[-73.91149190703744,40.91223376931219],[-73.91143213027848,40.91282382621984],[-73.9116547240221,40.913417851896895],[-73.9111079047459,40.914364577888186],[-73.91071204477049,40.91465916116142],[-73.91033256848978,40.91553277650281],[-73.90245664004941,40.91295893342614],[-73.89725326354895,40.91165552044135],[-73.88303257441972,40.907333631659945],[-73.85946778767001,40.900517209267875],[-73.85907692341044,40.90100799310083],[-73.85937696458922,40.901565217661116],[-73.85902704085989,40.901444909752854],[-73.85886401316354,40.901711695049734],[-73.85946389891883,40.90193387763297],[-73.85957883014497,40.902440842772364],[-73.8591049877187,40.90264445543508],[-73.85840075352176,40.9022132557992],[-73.85816000004854,40.902305710202896],[-73.85796932328364,40.90285090768784],[-73.85755967657647,40.90291779595877],[-73.85711090546211,40.903649532696946],[-73.85699157412989,40.90458420956675],[-73.85743457618243,40.90484154370063],[-73.85717766075966,40.90528654166164],[-73.85665436889012,40.90505500028076],[-73.8560102332303,40.90530598362625],[-73.85601160905586,40.90548208344171],[-73.85650251760606,40.90556384879677],[-73.85692398180078,40.905974170111215],[-73.85655732544913,40.906262032846236],[-73.85552697672837,40.906380251458486],[-73.85513792149328,40.90686688914201],[-73.85423776686882,40.90703286825456],[-73.85374103564517,40.907787916734904],[-73.85383360999587,40.90797434981978],[-73.85471078273416,40.908006309942316],[-73.85491109673632,40.90835486983437],[-73.85458940588242,40.9089394992985],[-73.85360061654038,40.90960674145013],[-73.85295618487677,40.91035304418024],[-73.8525847475041,40.91031061706426],[-73.85266035825856,40.91001519366009],[-73.85227451682731,40.9098540996442],[-73.85144753902804,40.910449671202116],[-73.85107116183943,40.91037151971954],[-73.85347522399834,40.90753029352687],[-73.8509205929659,40.90661649448888],[-73.85017317552095,40.90750786565156],[-73.84708032914259,40.906156733033086]]]]}}]}