{"type":"FeatureCollection","features":[{"type":"Feature","properties":{"district":"79"},"geometry":{"type":"MultiPolygon","coordinates":[[[[-73.88446532146699,40.84598572831939],[-73.88520286296607,40.84498274010251],[-73.88610173953857,40.84052535823225],[-73.8834675977225,40.83905679481169],[-73.88510718273889,40.83647522737828],[-73.88424920957185,40.83617844877561],[-73.88624251127833,40.83285453623337],[-73.88794800252592,40.83344670474781],[-73.88991106473179,40.83012419229134],[-73.89336041819165,40.83015253008588],[-73.89622185956763,40.82716977266674],[-73.89582330302001,40.825994969270575],[-73.89584771904998,40.82389229712343],[-73.89887454083637,40.823850452066864],[-73.89979919974103,40.8240579415117],[-73.9025785907422,40.81736979443104],[-73.90528570069215,40.81792898618454],[-73.9049997154151,40.8180598667696],[-73.90379310181581,40.8210911006588],[-73.90742681740177,40.82194506199515],[-73.90990993160837,40.81593597837849],[-73.91194232351432,40.81604742679492],[-73.91138050160266,40.81737256422407],[-73.91248657984552,40.81752632300577],[-73.91447151468734,40.81850680530211],[-73.91502472080978,40.81801813648745],[-73.91487748629882,40.81846212575153],[-73.92461384007036,40.82100496153756],[-73.92020143778704,40.82809980074745],[-73.91461051638781,40.82629450785416],[-73.91216982644426,40.827902221486305],[-73.90597940375623,40.83850519529964],[-73.90648535556349,40.83866105604371],[-73.90580671793398,40.83950414341279],[-73.90522045718235,40.840743454742324],[-73.90483250080672,40.84484207145952],[-73.89479022112339,40.843720321972334],[-73.89290102347081,40.846268329820084],[-73.89337309855703,40.84640119377854],[-73.89242068939595,40.84800282566968],[-73.89133401730534,40.84746957984192],[-73.89045917314411,40.848932530485136],[-73.88446532146699,40.84598572831939]]]]}}]}