{"type":"FeatureCollection","features":[{"type":"Feature","properties":{"district":"35"},"geometry":{"type":"MultiPolygon","coordinates":[[[[-73.8728719590387,40.78597502780498],[-73.8728719590387,40.78597502780498]]],[[[-73.87089907689167,40.78587142550366],[-73.86978081192638,40.785337933326005],[-73.86918113503913,40.78594348957095],[-73.86987007434445,40.78508590656581],[-73.86943751657189,40.783638399311336],[-73.86860526184714,40.78380915092564],[-73.86848597382019,40.78369365632897],[-73.8694234479541,40.78359131491797],[-73.87048029898958,40.782306112315425],[-73.87146292358177,40.78212640074099],[-73.87232286918953,40.781100761632636],[-73.8720174180928,40.78095575213115],[-73.8702191075742,40.78124732686801],[-73.87202831965163,40.78093336222344],[-73.87233603998413,40.781085052782494],[-73.87255732673727,40.780821121542765],[-73.86471066497188,40.77673318575118],[-73.85505106271819,40.77219538998928],[-73.85508635910341,40.7718313882776],[-73.85646272989298,40.77027306182904],[-73.85788340877986,40.77065971164016],[-73.85782463231725,40.77043731109025],[-73.85803884070444,40.77020352220307],[-73.85734730950398,40.770184232215556],[-73.85684990452465,40.76954245203837],[-73.85621267610291,40.7691957972554],[-73.85624565746282,40.76888571369662],[-73.85704790262325,40.76913955544647],[-73.8576780026624,40.768276265391684],[-73.85877376553164,40.76734999509865],[-73.85937510429778,40.76707532894287],[-73.8608553594459,40.76693211808941],[-73.8611027715228,40.76727194252999],[-73.86131386166217,40.7669406312414],[-73.86275490196871,40.76676452542855],[-73.8594133939809,40.762483265339476],[-73.85892056312602,40.76240640118539],[-73.85892298182625,40.76212234601918],[-73.85864510487953,40.7625143959092],[-73.85888722726258,40.762133609398816],[-73.85869110268314,40.76222119050104],[-73.85884371506253,40.76205876677933],[-73.85861915281858,40.76193559699908],[-73.85765473616219,40.7630798233513],[-73.85850081255367,40.76337643308266],[-73.8583431930897,40.76356256095815],[-73.857638966019,40.76309944913737],[-73.85683888701782,40.76400017911506],[-73.8569635593979,40.76407442786328],[-73.8566748236235,40.763930188326334],[-73.8568029095629,40.763980845461006],[-73.85758285470693,40.763072900626796],[-73.8565867538878,40.76272284011443],[-73.85678236963491,40.76250827740677],[-73.85671169399471,40.76261568695268],[-73.85760424037194,40.763053281789155],[-73.85817631070422,40.76239629472661],[-73.8566119581344,40.76164954225694],[-73.85819433132532,40.76237410798477],[-73.85858526284439,40.761917008597145],[-73.85712133534516,40.76118890387295],[-73.8553026602967,40.76064958475243],[-73.85466366458898,40.760171169562284],[-73.85372403934942,40.76024638863503],[-73.85279376594949,40.75997216613469],[-73.85299079399765,40.76019178829338],[-73.85270107838191,40.760128117819136],[-73.85277483386959,40.75996422817616],[-73.85254750230214,40.76006981174311],[-73.85224158541398,40.75992160798411],[-73.85266534418564,40.759918326769665],[-73.85158552901191,40.75935542065714],[-73.85032061307749,40.75953361547996],[-73.84950202299183,40.76000672901082],[-73.84930110814332,40.76024287535016],[-73.84987484496149,40.761103812948654],[-73.85197412962866,40.76024940738198],[-73.85207200177837,40.76039288467229],[-73.84981162475142,40.761270974008326],[-73.8491666240615,40.76029658428801],[-73.84868655659024,40.76013849460824],[-73.84670933664026,40.76134526913626],[-73.84596638489452,40.76069999140547],[-73.84324381422691,40.75533680376809],[-73.85189746326805,40.75275285966746],[-73.85049891462286,40.750120698758515],[-73.84382985856004,40.75246384549661],[-73.84350066564842,40.75206485260257],[-73.84118198945576,40.75268419291811],[-73.8418221062771,40.75191694190347],[-73.84256232743594,40.75142463970793],[-73.84264807022909,40.75098325643289],[-73.84313701851683,40.75088842409827],[-73.84414667604112,40.74857323038716],[-73.84858960008938,40.747280336806924],[-73.84698006085733,40.744425084541284],[-73.84579750741807,40.74154645663209],[-73.84535713172814,40.73974708227062],[-73.8455425043487,40.73965780314059],[-73.84500078525608,40.735882681849155],[-73.84438721773432,40.73417395748222],[-73.8449680007075,40.73400712882433],[-73.84475302701817,40.733619300252236],[-73.8593821839754,40.72923937087484],[-73.8625979382401,40.730415958935104],[-73.86462193356209,40.73428168961235],[-73.86631269847092,40.733774782978145],[-73.86783435588835,40.73691320993653],[-73.86822843033316,40.73684853605881],[-73.86857204324313,40.737745448288116],[-73.86819096105748,40.737829444140985],[-73.86898531309386,40.73988380782646],[-73.86731779390998,40.740261345191485],[-73.86714669750363,40.739837224401654],[-73.86441066789398,40.740472315819254],[-73.86352364635749,40.74068771505321],[-73.86185485974269,40.741589142181155],[-73.86072916425367,40.73963603405959],[-73.8587660572642,40.740797135693775],[-73.8573093791038,40.73968102331424],[-73.85393204927382,40.742343554823776],[-73.85367834057794,40.742109884745076],[-73.85120929088374,40.74284402122098],[-73.85666160766641,40.7531913730171],[-73.8625137408513,40.75144750690348],[-73.86224120150337,40.750920294035275],[-73.86397789542345,40.750410317556195],[-73.86540142971383,40.753010000787995],[-73.86907770798108,40.75202973125052],[-73.86974802195516,40.75347413063952],[-73.87008304753272,40.755301482510475],[-73.87188583270029,40.75511354855826],[-73.8722185638362,40.756943224795805],[-73.87365721778178,40.756803485602966],[-73.87441279706523,40.75822530164514],[-73.8749957509395,40.76126432242963],[-73.87895382732579,40.76198398198411],[-73.8792633209391,40.7636847043578],[-73.8800922542972,40.763819114549975],[-73.88672972663127,40.76305326116762],[-73.88706388159822,40.76487296993608],[-73.8916735023121,40.764389889182965],[-73.8919109664314,40.76571110859666],[-73.89089043694098,40.76585819811063],[-73.8910902777912,40.76633663560345],[-73.88904958140839,40.76663072053381],[-73.89047514917719,40.766509941284916],[-73.8930937700714,40.76678468543356],[-73.89418258598882,40.772745127151644],[-73.89288992639553,40.77380766121187],[-73.88941280723822,40.77298524223148],[-73.8894548683754,40.77353295162931],[-73.88580762286652,40.77402222447557],[-73.88567007665036,40.77443307121707],[-73.8856323103537,40.77409707478877],[-73.88578473697669,40.774024712164724],[-73.88391627963797,40.77413260659172],[-73.88455150532236,40.77436062182976],[-73.88483742391138,40.7749529802433],[-73.8847736190733,40.77533228058672],[-73.8842883055274,40.775483097036876],[-73.88505522658441,40.77840531274433],[-73.88525026986592,40.77861290174266],[-73.88505291741029,40.77877543516966],[-73.88511968881781,40.77951137538276],[-73.88541287251148,40.77965996003542],[-73.8851088700627,40.77952231004403],[-73.88519336272715,40.77978621409936],[-73.88500897510102,40.7795648071175],[-73.88488113731138,40.779987196238906],[-73.88385203219467,40.78026432025726],[-73.88274449717208,40.78022342356979],[-73.88139075985553,40.780601608408254],[-73.87973466843114,40.7806548175475],[-73.87960692432854,40.78085031306543],[-73.87870562518874,40.78058590995029],[-73.87905115693079,40.78173053286097],[-73.87930868295247,40.78185365782992],[-73.87885837485584,40.78239817868136],[-73.8797016367226,40.78288281807247],[-73.87883146781734,40.782430714494545],[-73.87833923298054,40.78302592074961],[-73.87515754893464,40.78150944915086],[-73.87484527331385,40.78168492457808],[-73.87124856242608,40.786038150752596],[-73.87089907689167,40.78587142550366]]]]}}]}