{"type":"FeatureCollection","features":[{"type":"Feature","properties":{"district":"24"},"geometry":{"type":"MultiPolygon","coordinates":[[[[-73.74863143999062,40.744978907215376],[-73.74784861234893,40.743296077969916],[-73.74707798039032,40.74253711758692],[-73.74440220366081,40.74140780939176],[-73.74396193555003,40.74078912645363],[-73.74360280188783,40.73901260881387],[-73.74306820821381,40.73844081776205],[-73.74106699936125,40.73897800003901],[-73.74019478446421,40.73903094033876],[-73.74029081629884,40.7385166701404],[-73.74167631051768,40.73682666182486],[-73.73860267093212,40.73749113027623],[-73.7361920562217,40.731365600785686],[-73.73715502045289,40.72873201184209],[-73.74376398931943,40.730227197573804],[-73.74604290071132,40.72882348455708],[-73.7526081593755,40.72558048803453],[-73.75577121005354,40.72364021589367],[-73.75950094150228,40.721027372276986],[-73.76446951723543,40.71889039287925],[-73.76733228086881,40.717289796810775],[-73.77357135234456,40.715120095370196],[-73.77800119633673,40.71405112413166],[-73.7784662067165,40.71520084112769],[-73.78180006658467,40.71440084919433],[-73.78858168019974,40.71233184750617],[-73.78904485126608,40.712596932561645],[-73.79064904427233,40.71249912010549],[-73.79140161835163,40.71302097305896],[-73.7925385529227,40.71261641857094],[-73.79321635668796,40.71261328052131],[-73.80130615604304,40.70974219301851],[-73.80193296990161,40.70891159534917],[-73.80302414740676,40.708139657094485],[-73.80327598183266,40.70841152851486],[-73.81201248584306,40.70594494480858],[-73.811528569193,40.702272874880634],[-73.81193002238005,40.70234083607663],[-73.81163756254249,40.70171011537787],[-73.81336118140001,40.701215046772695],[-73.8123254403812,40.69910991560015],[-73.81418145648067,40.69858543208983],[-73.81406989260105,40.69833080271081],[-73.81441218944926,40.698335038096566],[-73.80796318130004,40.687066400210234],[-73.8108618240606,40.6860246217374],[-73.81393689500116,40.68459748073574],[-73.83410908071235,40.67885268350504],[-73.83564988234524,40.679272697717856],[-73.8369748628379,40.68198801726154],[-73.83272599110134,40.68411632084437],[-73.8334219070658,40.685567781769684],[-73.83172298312515,40.68605070539833],[-73.83912106691338,40.70081670246775],[-73.84156378094423,40.70110059871778],[-73.83947815241453,40.70269019433179],[-73.83696237811037,40.70421245233334],[-73.83661882132142,40.70342001787204],[-73.83597534682268,40.70343215744939],[-73.83460244916061,40.703927467125624],[-73.83391709686666,40.70234736797055],[-73.82575764559171,40.70442753124005],[-73.82343812084558,40.703802363261424],[-73.8240466994588,40.70693074091636],[-73.82267410749886,40.705933514054685],[-73.82202045793572,40.70521232861201],[-73.82063187654445,40.70584197373229],[-73.82007915732441,40.70503091037825],[-73.81846485026112,40.705667270465554],[-73.81897481070324,40.70655699644766],[-73.81859830328395,40.70605200884581],[-73.81830678471906,40.70614939515777],[-73.81953776806611,40.70827941076774],[-73.81952770422853,40.7085791281709],[-73.819086639523,40.70777585600979],[-73.81910589190444,40.70848256384163],[-73.81880914412548,40.70881564755927],[-73.81641638993534,40.70986539372521],[-73.81542515569566,40.71078840101376],[-73.81419834142108,40.711037427165415],[-73.81451052057699,40.71166430924753],[-73.81524489071609,40.712050756881226],[-73.8163205594186,40.714228467998794],[-73.81520634132661,40.7142335368826],[-73.81523719239091,40.715651983821644],[-73.80682274235289,40.715744414788446],[-73.8031016389739,40.716082664629056],[-73.80000120613366,40.71659288085112],[-73.79201457179857,40.718896086708774],[-73.79089960601578,40.718875807790944],[-73.79037191586268,40.72013206965055],[-73.79035703945503,40.72300529967857],[-73.79045149323433,40.723554531823495],[-73.79174472669789,40.72578885039587],[-73.78116055033684,40.72921275860039],[-73.77491335315085,40.73091285976853],[-73.76369979236233,40.73286411684935],[-73.76511018346312,40.734557738043726],[-73.76273303467916,40.7352621626724],[-73.76246348310228,40.736547501088296],[-73.76431495493789,40.74067262683733],[-73.76075332685554,40.741653755679614],[-73.76158678573154,40.74341137119549],[-73.75975537777904,40.74391292260606],[-73.75992654625614,40.74428817970658],[-73.75495056414285,40.74561763167267],[-73.75397816564697,40.74351777553592],[-73.74863143999062,40.744978907215376]]]]}}]}