{"type":"FeatureCollection","features":[{"type":"Feature","properties":{"district":"69"},"geometry":{"type":"MultiPolygon","coordinates":[[[[-73.95817297037708,40.800582541457295],[-73.96417598521322,40.792362045027915],[-73.96164534413737,40.791267988046805],[-73.96019178935673,40.79040707572215],[-73.95847976681888,40.789931133579074],[-73.95528233480856,40.78858445548841],[-73.96372602608056,40.77700571789986],[-73.96517676781448,40.77794605066335],[-73.96709687726808,40.7783334043064],[-73.9710287922735,40.77994524167645],[-73.97165490966556,40.78049875644077],[-73.97143192940395,40.7816474531301],[-73.97172305621956,40.78202147646258],[-73.97454045583096,40.7832425377183],[-73.9749851365476,40.78263053739035],[-73.97947039900625,40.78452296327341],[-73.9780578966022,40.78641962595184],[-73.97643948305846,40.78573489963896],[-73.97177312483741,40.792127360966035],[-73.97461559521648,40.79332480515753],[-73.97598914415094,40.791438127522824],[-73.97769128156781,40.79216338197885],[-73.97915188747481,40.791484038769156],[-73.98035659355139,40.789940558140216],[-73.98188645946547,40.7905165804327],[-73.97205095521868,40.80453037601023],[-73.96855747771224,40.809072893821174],[-73.96534706485554,40.81393965189669],[-73.96210561781693,40.812251558348144],[-73.95971879911325,40.815526333890055],[-73.95870179109849,40.815120949415984],[-73.95829447377174,40.81569079013819],[-73.95428809784502,40.81099223229152],[-73.95496657172467,40.81006455470393],[-73.95781053729647,40.811265030887036],[-73.95827292837129,40.810628046462476],[-73.95730156670282,40.81015956582004],[-73.95717184428122,40.80956390139208],[-73.95794862567745,40.80805339204865],[-73.95982680041287,40.8054348537387],[-73.96107793935992,40.80180035772036],[-73.95817297037708,40.800582541457295]]]]}}]}