{"type":"FeatureCollection","features":[{"type":"Feature","properties":{"slug":"park-slope-5th-avenue","name":"Park Slope 5th Avenue"},"geometry":{"type":"MultiPolygon","coordinates":[[[[-73.97631,40.68177],[-73.97654,40.6814],[-73.97686,40.68153],[-73.97659,40.68194],[-73.97632,40.68184],[-73.97636,40.68178],[-73.97631,40.68177]]],[[[-73.97665,40.68124],[-73.97682,40.68099],[-73.97689,40.68102],[-73.97705,40.68079],[-73.97729,40.68088],[-73.97697,40.68136],[-73.97665,40.68124]]],[[[-73.97678,40.68209],[-73.9771,40.68161],[-73.97734,40.6817],[-73.97718,40.68194],[-73.97724,40.68197],[-73.97708,40.6822],[-73.97678,40.68209]]],[[[-73.9774,40.68026],[-73.97765,40.68035],[-73.97739,40.68074],[-73.97714,40.68065],[-73.9774,40.68026]]],[[[-73.97719,40.68146],[-73.97753,40.68098],[-73.97778,40.68108],[-73.97747,40.68157],[-73.97719,40.68146]]],[[[-73.9775,40.6801],[-73.97784,40.67962],[-73.97808,40.67972],[-73.97775,40.6802],[-73.9775,40.6801]]],[[[-73.97762,40.68083],[-73.97795,40.68035],[-73.97812,40.68041],[-73.97795,40.68065],[-73.97811,40.68072],[-73.97794,40.68096],[-73.97762,40.68083]]],[[[-73.97793,40.67947],[-73.97811,40.67923],[-73.97789,40.67914],[-73.97805,40.67891],[-73.97852,40.67908],[-73.97818,40.67957],[-73.97793,40.67947]]],[[[-73.97805,40.6802],[-73.97838,40.67974],[-73.97875,40.67988],[-73.97858,40.68014],[-73.9785,40.68011],[-73.97836,40.68031],[-73.97805,40.6802]]],[[[-73.97828,40.67881],[-73.97845,40.67857],[-73.97851,40.6786],[-73.97869,40.67835],[-73.97894,40.67845],[-73.9786,40.67894],[-73.97828,40.67881]]],[[[-73.97847,40.67956],[-73.97924,40.67844],[-73.97952,40.67856],[-73.97941,40.67873],[-73.97947,40.67875],[-73.97942,40.67883],[-73.97972,40.67895],[-73.97958,40.67918],[-73.97951,40.67915],[-73.9791,40.67979],[-73.97847,40.67956]]],[[[-73.9789,40.67794],[-73.97913,40.67759],[-73.97945,40.67772],[-73.97905,40.6783],[-73.9788,40.6782],[-73.97896,40.67796],[-73.9789,40.67794]]],[[[-73.97925,40.67746],[-73.9796,40.67699],[-73.97987,40.67709],[-73.97953,40.67758],[-73.97925,40.67746]]],[[[-73.97934,40.67829],[-73.97967,40.67781],[-73.97996,40.67792],[-73.97976,40.67821],[-73.9797,40.67818],[-73.97956,40.67838],[-73.97934,40.67829]]],[[[-73.9797,40.67683],[-73.98005,40.6764],[-73.98028,40.67649],[-73.97998,40.67694],[-73.9797,40.67683]]],[[[-73.97978,40.67766],[-73.9801,40.67718],[-73.98036,40.67728],[-73.98008,40.67778],[-73.97978,40.67766]]],[[[-73.98013,40.67616],[-73.9804,40.6757],[-73.98073,40.67584],[-73.98043,40.67628],[-73.98013,40.67616]]],[[[-73.98021,40.67703],[-73.98051,40.67657],[-73.98083,40.67669],[-73.98067,40.67692],[-73.98062,40.67697],[-73.98056,40.67694],[-73.98044,40.67712],[-73.98021,40.67703]]],[[[-73.98058,40.67557],[-73.98089,40.67509],[-73.98115,40.6752],[-73.98085,40.67567],[-73.98058,40.67557]]],[[[-73.98065,40.67637],[-73.98097,40.67591],[-73.98126,40.67603],[-73.98113,40.67622],[-73.98129,40.67628],[-73.98142,40.67609],[-73.9815,40.67612],[-73.98137,40.67631],[-73.98145,40.67634],[-73.9814,40.67641],[-73.98116,40.67632],[-73.98102,40.67651],[-73.98065,40.67637]]],[[[-73.98098,40.67492],[-73.98111,40.67472],[-73.98132,40.67482],[-73.98151,40.67458],[-73.98161,40.67463],[-73.98127,40.67504],[-73.98098,40.67492]]],[[[-73.98106,40.67575],[-73.98138,40.67528],[-73.98168,40.67539],[-73.98136,40.67587],[-73.98106,40.67575]]],[[[-73.98144,40.67435],[-73.98183,40.67387],[-73.98212,40.67402],[-73.98173,40.67449],[-73.98144,40.67435]]],[[[-73.98148,40.67513],[-73.98181,40.67472],[-73.98211,40.67486],[-73.98182,40.67525],[-73.98148,40.67513]]],[[[-73.98192,40.67459],[-73.98232,40.67412],[-73.98263,40.67427],[-73.98224,40.67475],[-73.98192,40.67459]]],[[[-73.98233,40.67331],[-73.98262,40.67343],[-73.98225,40.67389],[-73.98196,40.67375],[-73.98233,40.67331]]],[[[-73.98245,40.67397],[-73.98283,40.67352],[-73.98317,40.67369],[-73.98302,40.67387],[-73.98314,40.67393],[-73.9831,40.67398],[-73.98302,40.67394],[-73.98284,40.67416],[-73.98245,40.67397]]],[[[-73.98248,40.67318],[-73.98291,40.67276],[-73.9831,40.67285],[-73.98273,40.6733],[-73.98248,40.67318]]],[[[-73.98293,40.67339],[-73.98331,40.67293],[-73.98361,40.67308],[-73.98319,40.67352],[-73.98293,40.67339]]],[[[-73.98336,40.67211],[-73.9836,40.67221],[-73.98323,40.67266],[-73.98305,40.67257],[-73.98323,40.67236],[-73.98318,40.67233],[-73.98336,40.67211]]],[[[-73.98359,40.67169],[-73.98378,40.67146],[-73.98409,40.67161],[-73.9837,40.67208],[-73.98344,40.67195],[-73.98363,40.67172],[-73.98359,40.67169]]],[[[-73.98347,40.67275],[-73.98384,40.67231],[-73.98599,40.67338],[-73.98563,40.67381],[-73.98347,40.67275]]],[[[-73.98394,40.67132],[-73.9843,40.67087],[-73.9846,40.67102],[-73.98424,40.67147],[-73.98394,40.67132]]],[[[-73.98521,40.67274],[-73.98498,40.67268],[-73.98394,40.67217],[-73.98433,40.67171],[-73.98616,40.67262],[-73.98578,40.67308],[-73.98525,40.67282],[-73.98521,40.67274]]],[[[-73.98566,40.66934],[-73.98538,40.6692],[-73.9852,40.66941],[-73.9848,40.66922],[-73.98496,40.66902],[-73.98491,40.66899],[-73.98474,40.66919],[-73.98436,40.66901],[-73.98474,40.66855],[-73.9861,40.66922],[-73.98573,40.66967],[-73.98549,40.66955],[-73.98566,40.66934]]],[[[-73.9844,40.67071],[-73.98461,40.67045],[-73.98471,40.6705],[-73.98487,40.67029],[-73.98512,40.67042],[-73.98474,40.67088],[-73.9844,40.67071]]],[[[-73.98447,40.67157],[-73.98483,40.67112],[-73.98513,40.67127],[-73.98476,40.67172],[-73.98447,40.67157]]],[[[-73.98493,40.67011],[-73.98532,40.66967],[-73.9856,40.66981],[-73.98523,40.67025],[-73.98493,40.67011]]],[[[-73.98497,40.67097],[-73.98535,40.67052],[-73.98559,40.67064],[-73.98523,40.6711],[-73.98497,40.67097]]],[[[-73.98625,40.66905],[-73.9853,40.66858],[-73.98548,40.66836],[-73.98613,40.66869],[-73.98632,40.66846],[-73.98662,40.66861],[-73.98625,40.66905]]],[[[-73.98547,40.67038],[-73.98585,40.66991],[-73.98615,40.67006],[-73.98596,40.67029],[-73.9859,40.67026],[-73.98571,40.67049],[-73.98547,40.67038]]],[[[-73.98688,40.67023],[-73.98598,40.66979],[-73.98635,40.66933],[-73.98756,40.66993],[-73.98736,40.67017],[-73.98706,40.67002],[-73.98688,40.67023]]],[[[-73.98684,40.66871],[-73.98715,40.66885],[-73.9868,40.66928],[-73.98649,40.66912],[-73.98684,40.66871]]],[[[-73.98652,40.66834],[-73.9869,40.66789],[-73.98712,40.668],[-73.98675,40.66846],[-73.98652,40.66834]]],[[[-73.9873,40.66723],[-73.98762,40.66739],[-73.98723,40.66786],[-73.98696,40.66773],[-73.98721,40.66744],[-73.98715,40.66741],[-73.9873,40.66723]]],[[[-73.98699,40.66857],[-73.98736,40.66812],[-73.98765,40.66826],[-73.98747,40.66848],[-73.98756,40.66853],[-73.98737,40.66876],[-73.98699,40.66857]]],[[[-73.98738,40.66704],[-73.98756,40.66683],[-73.98763,40.66686],[-73.98781,40.66665],[-73.9881,40.66679],[-73.98774,40.66722],[-73.98738,40.66704]]],[[[-73.98784,40.66751],[-73.98816,40.66764],[-73.98778,40.6681],[-73.98748,40.66795],[-73.98784,40.66751]]],[[[-73.98793,40.6665],[-73.98831,40.66605],[-73.98861,40.66619],[-73.98823,40.66664],[-73.98793,40.6665]]],[[[-73.98799,40.66734],[-73.98834,40.66692],[-73.98864,40.66706],[-73.98822,40.66746],[-73.98799,40.66734]]],[[[-73.98845,40.6659],[-73.98882,40.66546],[-73.98912,40.6656],[-73.98874,40.66605],[-73.98845,40.6659]]],[[[-73.9885,40.66677],[-73.98888,40.6663],[-73.98917,40.66645],[-73.98881,40.66692],[-73.9885,40.66677]]],[[[-73.98871,40.66519],[-73.98899,40.66486],[-73.98923,40.66498],[-73.98933,40.66485],[-73.98962,40.66499],[-73.98924,40.66545],[-73.98871,40.66519]]],[[[-73.98963,40.66428],[-73.98958,40.66426],[-73.98947,40.66438],[-73.98931,40.6643],[-73.98911,40.66453],[-73.98907,40.66452],[-73.98927,40.66428],[-73.98879,40.66404],[-73.98888,40.6639],[-73.98929,40.66351],[-73.99032,40.66415],[-73.98973,40.66484],[-73.9895,40.66473],[-73.98968,40.66452],[-73.98961,40.66449],[-73.98972,40.66437],[-73.9896,40.66431],[-73.98963,40.66428]]],[[[-73.99037,40.66365],[-73.98961,40.6631],[-73.98893,40.66244],[-73.98897,40.6624],[-73.99007,40.66308],[-73.98988,40.66326],[-73.99036,40.66358],[-73.99042,40.66362],[-73.99053,40.66352],[-73.9906,40.66356],[-73.9907,40.66347],[-73.9909,40.6636],[-73.99068,40.66381],[-73.99037,40.66365]]],[[[-73.98954,40.66611],[-73.98935,40.66633],[-73.98899,40.66615],[-73.98937,40.6657],[-73.99003,40.66603],[-73.98989,40.66621],[-73.99003,40.66629],[-73.99,40.66633],[-73.98954,40.66611]]],[[[-73.98989,40.66511],[-73.99018,40.66524],[-73.98998,40.66547],[-73.99006,40.66551],[-73.98986,40.66574],[-73.98949,40.66557],[-73.98989,40.66511]]],[[[-73.99062,40.66527],[-73.99,40.66496],[-73.99055,40.6643],[-73.99085,40.66448],[-73.99064,40.66469],[-73.99059,40.66467],[-73.99052,40.66474],[-73.99136,40.66517],[-73.99128,40.66526],[-73.99082,40.66504],[-73.99062,40.66527]]],[[[-73.99087,40.66318],[-73.99104,40.66302],[-73.99114,40.66308],[-73.9913,40.66292],[-73.99149,40.66303],[-73.99103,40.66346],[-73.99084,40.66334],[-73.99095,40.66323],[-73.99087,40.66318]]],[[[-73.99092,40.66395],[-73.99114,40.66373],[-73.99128,40.66382],[-73.99106,40.66403],[-73.99092,40.66395]]],[[[-73.99127,40.66361],[-73.99171,40.66317],[-73.992,40.66334],[-73.99154,40.66378],[-73.99127,40.66361]]]]}}]}