{"type":"FeatureCollection","features":[{"type":"Feature","properties":{"district":"Brooklyn"},"geometry":{"type":"MultiPolygon","coordinates":[[[[-73.95621,40.57427],[-73.95631,40.5738],[-73.95657,40.57417],[-73.95888,40.57399],[-73.95899,40.57343],[-73.9591,40.57386],[-73.95983,40.57393],[-73.9672,40.57333],[-73.96743,40.57299],[-73.96753,40.57319],[-73.96839,40.57315],[-73.96945,40.57286],[-73.96925,40.5723],[-73.96976,40.57285],[-73.97133,40.57264],[-73.97118,40.57194],[-73.97161,40.57263],[-73.9725,40.57258],[-73.97335,40.57232],[-73.97325,40.57163],[-73.97345,40.57227],[-73.97373,40.57229],[-73.97547,40.57197],[-73.97541,40.57142],[-73.97593,40.57202],[-73.97727,40.57186],[-73.97766,40.57173],[-73.97767,40.57117],[-73.97808,40.57123],[-73.97772,40.57125],[-73.97781,40.57176],[-73.97845,40.57189],[-73.97985,40.57154],[-73.97943,40.57122],[-73.97977,40.57124],[-73.98021,40.57173],[-73.98204,40.57148],[-73.98157,40.57125],[-73.98195,40.57124],[-73.98226,40.57157],[-73.98367,40.57141],[-73.9834,40.57017],[-73.98304,40.57015],[-73.98339,40.57009],[-73.98336,40.56953],[-73.98349,40.57009],[-73.98384,40.57011],[-73.98349,40.57016],[-73.98376,40.5714],[-73.98804,40.57099],[-73.98862,40.5709],[-73.98858,40.5707],[-73.98872,40.57088],[-73.99026,40.57071],[-73.99077,40.5706],[-73.99079,40.57025],[-73.99086,40.5706],[-73.99119,40.57061],[-73.99273,40.57043],[-73.99298,40.5702],[-73.99316,40.57038],[-73.99494,40.57035],[-73.99519,40.57002],[-73.99529,40.57032],[-73.99719,40.57035],[-73.99737,40.57014],[-73.99847,40.5705],[-74.00078,40.57049],[-74.00201,40.57021],[-74.00209,40.56959],[-74.00249,40.57174],[-74.0048,40.57288],[-74.01116,40.57417],[-74.01202,40.57489],[-74.01232,40.57565],[-74.01246,40.57661],[-74.01302,40.5778],[-74.01282,40.57843],[-74.01225,40.57936],[-74.01133,40.58018],[-74.00796,40.58168],[-74.00605,40.58198],[-74.00294,40.58143],[-74.00056,40.5813],[-73.99818,40.58173],[-73.99776,40.58145],[-73.99772,40.58071],[-73.99183,40.57925],[-73.99036,40.57942],[-73.98899,40.57884],[-73.98843,40.57882],[-73.98739,40.57909],[-73.9867,40.57981],[-73.98702,40.58002],[-73.98589,40.58114],[-73.98605,40.58172],[-73.98695,40.58114],[-73.98764,40.57992],[-73.98804,40.57963],[-73.98996,40.58066],[-73.99163,40.58108],[-73.99183,40.58174],[-73.99026,40.58462],[-73.99547,40.58221],[-73.99606,40.58213],[-74.00018,40.58307],[-74.00042,40.58355],[-74.00036,40.58419],[-73.99809,40.58536],[-73.99971,40.58569],[-73.99953,40.58576],[-73.99957,40.58624],[-73.99815,40.58653],[-73.99417,40.58838],[-73.99566,40.58794],[-73.99408,40.58869],[-73.99422,40.58887],[-73.99556,40.58828],[-73.9951,40.58859],[-73.99796,40.58727],[-73.99488,40.58877],[-73.99535,40.58933],[-74.00011,40.58695],[-74.00011,40.58656],[-74.00037,40.58647],[-74.00038,40.58713],[-73.99788,40.58834],[-73.99867,40.5892],[-73.99924,40.58894],[-73.99946,40.58923],[-73.99838,40.58977],[-73.99884,40.58963],[-73.99844,40.58986],[-73.99878,40.59031],[-73.99844,40.59024],[-73.99711,40.59128],[-73.99719,40.59161],[-73.99806,40.59121],[-73.99728,40.59171],[-73.99755,40.59192],[-73.99946,40.5911],[-73.99999,40.59117],[-74.00023,40.59148],[-73.99903,40.59231],[-73.99948,40.59297],[-73.99839,40.59353],[-74.0011,40.59252],[-74.00284,40.59515],[-74.00411,40.59645],[-74.00922,40.59984],[-74.01237,40.60135],[-74.01579,40.60229],[-74.01914,40.60261],[-74.02102,40.60356],[-74.03005,40.60476],[-74.03271,40.60633],[-74.03427,40.60772],[-74.03487,40.60858],[-74.03604,40.6093],[-74.03696,40.61126],[-74.03903,40.61316],[-74.04013,40.61479],[-74.04162,40.62056],[-74.0419,40.62422],[-74.04106,40.63019],[-74.03681,40.63898],[-74.03876,40.63959],[-74.03869,40.63974],[-74.03672,40.63914],[-74.03571,40.64064],[-74.03674,40.64148],[-74.0367,40.64169],[-74.03407,40.64431],[-74.03288,40.64358],[-74.03264,40.64379],[-74.0323,40.64358],[-74.03254,40.64383],[-74.03231,40.64404],[-74.0261,40.64027],[-74.02592,40.64044],[-74.0261,40.64027],[-74.03231,40.64404],[-74.0319,40.64389],[-74.03052,40.64527],[-74.02908,40.6444],[-74.02915,40.64458],[-74.02886,40.64487],[-74.02909,40.64458],[-74.0285,40.64418],[-74.02819,40.64441],[-74.02846,40.64416],[-74.02821,40.64402],[-74.02605,40.64626],[-74.02974,40.64849],[-74.02939,40.6488],[-74.02572,40.64662],[-74.02538,40.64691],[-74.02507,40.64673],[-74.02415,40.64762],[-74.02513,40.64832],[-74.02497,40.64861],[-74.02554,40.64978],[-74.02484,40.6506],[-74.02521,40.65082],[-74.02542,40.65062],[-74.02605,40.65099],[-74.02553,40.65148],[-74.02491,40.65111],[-74.0251,40.65089],[-74.02477,40.65069],[-74.02424,40.65113],[-74.02542,40.65193],[-74.02418,40.65119],[-74.02359,40.65132],[-74.02306,40.65097],[-74.02285,40.65117],[-74.02537,40.65272],[-74.02523,40.65283],[-74.02154,40.65067],[-74.02125,40.65083],[-74.02139,40.65097],[-74.02105,40.6511],[-74.02234,40.65191],[-74.0209,40.65125],[-74.02381,40.65304],[-74.02359,40.65322],[-74.02196,40.65222],[-74.02119,40.65284],[-74.0232,40.6541],[-74.02306,40.65423],[-74.0221,40.65359],[-74.02163,40.65365],[-74.02115,40.65421],[-74.02182,40.65466],[-74.02164,40.65488],[-74.02047,40.65422],[-74.01919,40.65402],[-74.01873,40.65347],[-74.01812,40.65389],[-74.02026,40.65512],[-74.02005,40.65534],[-74.01787,40.65406],[-74.01715,40.65478],[-74.0198,40.65649],[-74.01727,40.65519],[-74.01639,40.65562],[-74.01911,40.65737],[-74.01861,40.65785],[-74.01585,40.65621],[-74.01544,40.65663],[-74.01787,40.65831],[-74.01769,40.65845],[-74.01505,40.65695],[-74.01442,40.65761],[-74.01746,40.65945],[-74.01554,40.66076],[-74.014,40.65981],[-74.01366,40.66003],[-74.01184,40.65891],[-74.01111,40.65971],[-74.01402,40.66153],[-74.01316,40.66198],[-74.01265,40.66198],[-74.0086,40.65952],[-74.00746,40.66056],[-74.01037,40.6624],[-74.01046,40.66264],[-74.00955,40.66327],[-74.00868,40.66337],[-74.00616,40.66185],[-74.00569,40.66227],[-74.00428,40.66144],[-74.00415,40.66156],[-74.00623,40.66279],[-74.00592,40.66311],[-74.00381,40.66191],[-74.00349,40.66224],[-74.00455,40.66282],[-74.00473,40.6625],[-74.00536,40.66287],[-74.00497,40.66307],[-74.00519,40.6632],[-74.00538,40.66288],[-74.006,40.66326],[-74.00561,40.66346],[-74.00767,40.66479],[-74.00731,40.6646],[-74.00713,40.66492],[-74.00652,40.66455],[-74.00688,40.66434],[-74.00663,40.66419],[-74.00645,40.66451],[-74.00584,40.66414],[-74.0062,40.66393],[-74.00605,40.66384],[-74.00576,40.66392],[-74.00585,40.6645],[-74.00564,40.66453],[-74.00565,40.6639],[-74.00363,40.66273],[-74.0034,40.66299],[-74.00459,40.66374],[-74.00432,40.66405],[-74.00528,40.66466],[-74.00486,40.66506],[-74.00114,40.6629],[-73.99953,40.6644],[-74.00292,40.66646],[-74.00224,40.66679],[-74.00162,40.66677],[-74.00121,40.66702],[-74.00146,40.66717],[-74.00069,40.66755],[-73.99998,40.66745],[-73.99903,40.66844],[-73.99903,40.66901],[-73.99924,40.66831],[-73.99908,40.66904],[-73.99866,40.66951],[-73.99891,40.66965],[-73.99856,40.67134],[-73.99877,40.6716],[-74.0003,40.66872],[-74.00106,40.66895],[-74.00142,40.66836],[-74.00222,40.66858],[-74.00289,40.66735],[-74.00586,40.66799],[-74.00684,40.66606],[-74.00696,40.66605],[-74.00475,40.67072],[-74.00544,40.67092],[-74.00755,40.66705],[-74.0078,40.66716],[-74.00709,40.66859],[-74.00985,40.66852],[-74.01154,40.66509],[-74.01575,40.66457],[-74.0169,40.66485],[-74.01789,40.66585],[-74.01858,40.67039],[-74.01876,40.67108],[-74.01934,40.67162],[-74.01751,40.67103],[-74.01649,40.66493],[-74.01603,40.66486],[-74.01594,40.66547],[-74.01228,40.66573],[-74.01088,40.6686],[-74.01036,40.66864],[-74.01034,40.66908],[-74.01091,40.66919],[-74.01087,40.66971],[-74.01154,40.66978],[-74.01163,40.67058],[-74.01425,40.66973],[-74.01175,40.67066],[-74.01208,40.67093],[-74.01262,40.67084],[-74.01427,40.67138],[-74.0152,40.67075],[-74.01387,40.67188],[-74.01423,40.67213],[-74.01569,40.67104],[-74.01298,40.67333],[-74.01336,40.67359],[-74.01512,40.67216],[-74.01632,40.67291],[-74.01458,40.67441],[-74.01496,40.67468],[-74.01817,40.67194],[-74.0188,40.67225],[-74.01727,40.67361],[-74.01775,40.67405],[-74.01801,40.67391],[-74.0178,40.6741],[-74.01818,40.67446],[-74.01783,40.67526],[-74.0183,40.67546],[-74.01817,40.67529],[-74.01839,40.6751],[-74.01852,40.67527],[-74.01889,40.67509],[-74.01841,40.67552],[-74.0185,40.67584],[-74.01802,40.67588],[-74.01792,40.67651],[-74.01977,40.67661],[-74.01995,40.6771],[-74.01908,40.67714],[-74.01918,40.67783],[-74.01843,40.67791],[-74.01841,40.67841],[-74.01966,40.67839],[-74.01827,40.67855],[-74.01858,40.67898],[-74.01954,40.67897],[-74.01928,40.67965],[-74.0152,40.68198],[-74.01532,40.68211],[-74.01282,40.68362],[-74.01213,40.68291],[-74.01411,40.68171],[-74.01361,40.68122],[-74.01387,40.68101],[-74.01302,40.68041],[-74.00967,40.68327],[-74.01077,40.68436],[-74.01178,40.68376],[-74.01218,40.6841],[-74.00835,40.6864],[-74.00816,40.68617],[-74.00702,40.68653],[-74.00588,40.6862],[-74.00563,40.68678],[-74.00783,40.68739],[-74.00742,40.68821],[-74.005,40.68761],[-74.00459,40.68822],[-74.00678,40.68883],[-74.00636,40.68967],[-74.00382,40.68893],[-74.00341,40.68961],[-74.00576,40.69024],[-74.00534,40.69109],[-74.00196,40.69014],[-74.00185,40.69039],[-74.00096,40.69013],[-74.0007,40.69061],[-74.00479,40.69176],[-74.00441,40.69253],[-74.00197,40.69184],[-74.00174,40.69241],[-74.00401,40.69321],[-74.00345,40.69405],[-74.00127,40.6933],[-74.00096,40.69407],[-74.00301,40.69478],[-74.0024,40.69571],[-74.00027,40.69497],[-73.99941,40.69636],[-73.99947,40.6967],[-73.99876,40.69712],[-74.00105,40.69791],[-74.00049,40.69876],[-73.99838,40.69806],[-73.99802,40.69876],[-74.00002,40.69947],[-73.99947,40.70032],[-73.9975,40.69964],[-73.99716,40.69979],[-73.99724,40.70014],[-73.9967,40.70088],[-73.99814,40.70152],[-73.99619,40.70338],[-73.99514,40.70297],[-73.99505,40.70313],[-73.99545,40.70328],[-73.99529,40.70355],[-73.9948,40.70329],[-73.99466,40.70343],[-73.99503,40.70381],[-73.99457,40.70438],[-73.99213,40.70469],[-73.99186,40.70409],[-73.99095,40.70403],[-73.99023,40.70493],[-73.9883,40.70454],[-73.98829,40.70507],[-73.98796,40.70513],[-73.98653,40.70498],[-73.98643,40.70535],[-73.98344,40.70564],[-73.98337,40.70546],[-73.98246,40.70551],[-73.98242,40.70582],[-73.98102,40.7059],[-73.9823,40.70574],[-73.98233,40.70555],[-73.98093,40.70537],[-73.98091,40.70591],[-73.97956,40.70574],[-73.97905,40.70597],[-73.97924,40.70555],[-73.97896,40.7055],[-73.97882,40.70586],[-73.97893,40.7055],[-73.97874,40.70546],[-73.97864,40.70583],[-73.97868,40.70545],[-73.97839,40.70597],[-73.97885,40.70607],[-73.97834,40.706],[-73.97853,40.70488],[-73.97802,40.70429],[-73.97721,40.70421],[-73.97751,40.7032],[-73.97714,40.70301],[-73.97624,40.70478],[-73.97596,40.70472],[-73.97693,40.7028],[-73.97616,40.70217],[-73.97553,40.70304],[-73.97533,40.70295],[-73.97601,40.70195],[-73.97455,40.70159],[-73.9758,40.69975],[-73.97572,40.69957],[-73.97536,40.69958],[-73.97412,40.70131],[-73.97293,40.70029],[-73.97239,40.70017],[-73.97376,40.70153],[-73.97319,40.70167],[-73.97114,40.69992],[-73.97078,40.69998],[-73.97332,40.70241],[-73.97284,40.70273],[-73.96983,40.70025],[-73.96949,40.70052],[-73.97284,40.70335],[-73.97267,40.7035],[-73.96925,40.70136],[-73.96899,40.70175],[-73.97231,40.70384],[-73.97216,40.70397],[-73.9711,40.70346],[-73.97102,40.70382],[-73.97466,40.70607],[-73.97439,40.70633],[-73.97339,40.70573],[-73.97255,40.7062],[-73.97463,40.70768],[-73.97424,40.70802],[-73.9711,40.70585],[-73.97106,40.70695],[-73.97276,40.70883],[-73.97232,40.70908],[-73.97026,40.70689],[-73.97049,40.7054],[-73.97017,40.70536],[-73.97018,40.70493],[-73.96752,40.70344],[-73.96748,40.70395],[-73.9693,40.70509],[-73.96929,40.70709],[-73.96985,40.708],[-73.96994,40.7093],[-73.96961,40.71027],[-73.97007,40.71045],[-73.96966,40.7105],[-73.96977,40.71079],[-73.96937,40.71102],[-73.96991,40.71127],[-73.96931,40.71111],[-73.96887,40.71258],[-73.96847,40.71282],[-73.96851,40.71311],[-73.96885,40.71321],[-73.96724,40.71659],[-73.96725,40.71699],[-73.9666,40.71797],[-73.96731,40.71831],[-73.96707,40.71844],[-73.96656,40.71802],[-73.96576,40.71869],[-73.96664,40.71913],[-73.96651,40.71943],[-73.96636,40.71905],[-73.96574,40.71871],[-73.96512,40.71923],[-73.96541,40.7197],[-73.96512,40.72032],[-73.9656,40.72074],[-73.96438,40.72014],[-73.96433,40.72039],[-73.96503,40.72079],[-73.96485,40.72095],[-73.96427,40.72058],[-73.96495,40.72142],[-73.9642,40.72065],[-73.96407,40.7208],[-73.96438,40.72099],[-73.96403,40.72088],[-73.96297,40.72203],[-73.96207,40.72388],[-73.96247,40.72417],[-73.96189,40.72411],[-73.96166,40.72486],[-73.96211,40.72515],[-73.9619,40.72532],[-73.96154,40.72511],[-73.96116,40.72526],[-73.96043,40.72511],[-73.95833,40.72441],[-73.95794,40.72465],[-73.95795,40.72504],[-73.95843,40.7254],[-73.96012,40.72532],[-73.96029,40.72595],[-73.96162,40.72587],[-73.96162,40.72666],[-73.96102,40.7287],[-73.96143,40.73095],[-73.96226,40.73292],[-73.96229,40.73405],[-73.96157,40.73518],[-73.95983,40.73706],[-73.95838,40.7381],[-73.95693,40.73889],[-73.9546,40.73913],[-73.95199,40.73875],[-73.94652,40.73693],[-73.9472,40.73536],[-73.94707,40.7344],[-73.9466,40.73444],[-73.94674,40.73528],[-73.94625,40.73617],[-73.94587,40.7361],[-73.94557,40.73661],[-73.945,40.73644],[-73.94519,40.73548],[-73.94452,40.73628],[-73.94239,40.73543],[-73.94115,40.73415],[-73.941,40.73379],[-73.94116,40.73375],[-73.94057,40.73306],[-73.93981,40.73115],[-73.9381,40.72973],[-73.93693,40.72911],[-73.93493,40.72854],[-73.932,40.72815],[-73.92924,40.7274],[-73.92787,40.72585],[-73.9278,40.72493],[-73.92561,40.72006],[-73.92482,40.72027],[-73.92452,40.71961],[-73.92458,40.71916],[-73.92499,40.71838],[-73.92838,40.71758],[-73.92888,40.71772],[-73.92971,40.71705],[-73.92932,40.71611],[-73.92947,40.71572],[-73.9322,40.71497],[-73.93215,40.71469],[-73.93175,40.71474],[-73.93143,40.71438],[-73.93124,40.71372],[-73.93165,40.71334],[-73.93264,40.71305],[-73.93203,40.71159],[-73.93338,40.71123],[-73.93328,40.71098],[-73.9319,40.71134],[-73.93093,40.70917],[-73.93036,40.70872],[-73.93025,40.70893],[-73.93155,40.71186],[-73.93078,40.71216],[-73.93161,40.71204],[-73.93185,40.71256],[-73.93042,40.71317],[-73.93105,40.71461],[-73.93085,40.7149],[-73.92844,40.71553],[-73.92891,40.71662],[-73.92823,40.71711],[-73.92465,40.71795],[-73.92364,40.71732],[-73.92306,40.71634],[-73.92431,40.71585],[-73.92489,40.71527],[-73.92434,40.71412],[-73.92223,40.71286],[-73.92155,40.71104],[-73.92075,40.71053],[-73.92189,40.7094],[-73.91181,40.70343],[-73.9129,40.70236],[-73.91068,40.70105],[-73.91181,40.69995],[-73.90426,40.6957],[-73.9058,40.69413],[-73.9014,40.69159],[-73.90189,40.69108],[-73.90042,40.68818],[-73.90116,40.68788],[-73.89647,40.68234],[-73.89578,40.6835],[-73.89417,40.68528],[-73.89258,40.68349],[-73.89015,40.685],[-73.88963,40.68424],[-73.88808,40.68529],[-73.88452,40.68668],[-73.88378,40.68786],[-73.87951,40.69115],[-73.87402,40.69419],[-73.86892,40.69515],[-73.86841,40.69473],[-73.86868,40.69403],[-73.8666,40.68527],[-73.86602,40.68192],[-73.8641,40.68237],[-73.86328,40.67908],[-73.86235,40.67916],[-73.86039,40.67125],[-73.85763,40.67166],[-73.85568,40.66387],[-73.85843,40.66345],[-73.85762,40.66012],[-73.8603,40.65963],[-73.86317,40.65828],[-73.8627,40.65762],[-73.86328,40.65694],[-73.863,40.65665],[-73.86299,40.65637],[-73.8632,40.65634],[-73.86264,40.65567],[-73.86087,40.65508],[-73.85722,40.65028],[-73.85755,40.64993],[-73.85783,40.6483],[-73.85838,40.64727],[-73.85717,40.64368],[-73.85894,40.64322],[-73.86201,40.64289],[-73.86289,40.64255],[-73.86531,40.64075],[-73.8667,40.64002],[-73.86628,40.63947],[-73.86682,40.63996],[-73.86732,40.63987],[-73.86867,40.64093],[-73.86991,40.64328],[-73.87002,40.64407],[-73.87061,40.64486],[-73.87119,40.64531],[-73.87257,40.64558],[-73.87922,40.65459],[-73.87972,40.65438],[-73.87319,40.64545],[-73.87344,40.64467],[-73.87327,40.6439],[-73.87297,40.64384],[-73.87085,40.64056],[-73.87009,40.63984],[-73.8699,40.63893],[-73.868,40.63812],[-73.86961,40.63709],[-73.86921,40.63747],[-73.86956,40.63795],[-73.87307,40.63633],[-73.87348,40.63629],[-73.87481,40.63684],[-73.87711,40.63864],[-73.87856,40.63904],[-73.87931,40.64007],[-73.88048,40.64098],[-73.88074,40.64157],[-73.88029,40.6414],[-73.88007,40.642],[-73.88153,40.64245],[-73.88224,40.64345],[-73.88215,40.64374],[-73.88342,40.64452],[-73.88481,40.64395],[-73.88558,40.64404],[-73.88743,40.64594],[-73.88771,40.64787],[-73.88864,40.64802],[-73.89013,40.64935],[-73.89034,40.64935],[-73.89014,40.64917],[-73.89035,40.64903],[-73.89087,40.64938],[-73.89119,40.64916],[-73.89087,40.64855],[-73.88941,40.64713],[-73.88948,40.64691],[-73.8888,40.64605],[-73.88941,40.64694],[-73.8889,40.64722],[-73.88861,40.64708],[-73.88852,40.64736],[-73.8882,40.64714],[-73.88819,40.64677],[-73.88845,40.64673],[-73.88854,40.64697],[-73.88864,40.64679],[-73.8885,40.64666],[-73.88808,40.64662],[-73.88829,40.64604],[-73.888,40.64603],[-73.88741,40.64533],[-73.88808,40.64516],[-73.88796,40.64503],[-73.88734,40.64522],[-73.88624,40.64382],[-73.88374,40.64245],[-73.88079,40.63976],[-73.88055,40.63916],[-73.87954,40.63822],[-73.87897,40.63846],[-73.87864,40.63829],[-73.87838,40.6379],[-73.87858,40.63752],[-73.87714,40.63598],[-73.87821,40.63457],[-73.87999,40.63351],[-73.88127,40.63237],[-73.88301,40.63163],[-73.88364,40.63094],[-73.88377,40.63022],[-73.88345,40.62991],[-73.88405,40.62956],[-73.88263,40.62827],[-73.88369,40.62756],[-73.88513,40.62883],[-73.88572,40.62845],[-73.88631,40.62868],[-73.88753,40.62833],[-73.89042,40.62628],[-73.89149,40.62448],[-73.89301,40.62336],[-73.89352,40.62335],[-73.89548,40.62249],[-73.91446,40.63099],[-73.91606,40.63203],[-73.91682,40.63198],[-73.91748,40.63146],[-73.91741,40.63109],[-73.91669,40.63074],[-73.91659,40.63045],[-73.90396,40.62483],[-73.90386,40.62494],[-73.90546,40.62577],[-73.90533,40.62586],[-73.90255,40.62444],[-73.90327,40.62448],[-73.90269,40.62421],[-73.90283,40.62405],[-73.90242,40.62446],[-73.90229,40.62441],[-73.90264,40.62392],[-73.90292,40.62395],[-73.90287,40.62365],[-73.90223,40.62358],[-73.90187,40.62296],[-73.90105,40.62271],[-73.90053,40.62168],[-73.89812,40.62185],[-73.89647,40.62143],[-73.89629,40.62074],[-73.89573,40.62024],[-73.89561,40.6198],[-73.89561,40.61935],[-73.89645,40.61808],[-73.89664,40.61735],[-73.89646,40.61613],[-73.89617,40.616],[-73.89573,40.61489],[-73.89603,40.6148],[-73.89586,40.61452],[-73.89428,40.61388],[-73.8925,40.61379],[-73.89134,40.61326],[-73.89095,40.61283],[-73.89141,40.61213],[-73.89393,40.61154],[-73.89396,40.61121],[-73.89355,40.611],[-73.89189,40.61153],[-73.891,40.61205],[-73.89108,40.61228],[-73.89033,40.61201],[-73.8897,40.61145],[-73.88978,40.61096],[-73.8903,40.61032],[-73.89194,40.6091],[-73.89177,40.60952],[-73.89227,40.60917],[-73.89222,40.60863],[-73.89242,40.60856],[-73.89217,40.60854],[-73.89273,40.60723],[-73.89335,40.60674],[-73.89486,40.6064],[-73.89591,40.60584],[-73.89834,40.6053],[-73.90014,40.6056],[-73.9011,40.60707],[-73.90078,40.60754],[-73.90062,40.60924],[-73.90028,40.61007],[-73.90141,40.61109],[-73.90137,40.6117],[-73.90229,40.61196],[-73.90249,40.61181],[-73.90119,40.61056],[-73.90133,40.61048],[-73.90265,40.61178],[-73.90236,40.61198],[-73.90272,40.61183],[-73.90304,40.6121],[-73.90242,40.61203],[-73.90587,40.61506],[-73.90573,40.61488],[-73.90603,40.61495],[-73.90588,40.61508],[-73.90696,40.61611],[-73.90717,40.61601],[-73.90674,40.6163],[-73.90726,40.61609],[-73.90708,40.61622],[-73.90744,40.61626],[-73.90711,40.61661],[-73.90753,40.61634],[-73.90724,40.61655],[-73.90768,40.6167],[-73.90762,40.6169],[-73.90879,40.61744],[-73.90863,40.61717],[-73.90907,40.61716],[-73.90835,40.61653],[-73.90879,40.61687],[-73.90914,40.61653],[-73.90797,40.61574],[-73.90816,40.6156],[-73.90918,40.61652],[-73.90881,40.61689],[-73.90896,40.61699],[-73.90964,40.61658],[-73.9096,40.61639],[-73.90862,40.61549],[-73.90778,40.61524],[-73.90536,40.61304],[-73.90422,40.61236],[-73.90429,40.61202],[-73.90351,40.61141],[-73.90331,40.61155],[-73.90349,40.61139],[-73.90314,40.61097],[-73.90275,40.61093],[-73.90226,40.61042],[-73.90164,40.60576],[-73.90524,40.60491],[-73.90597,40.60638],[-73.9081,40.60628],[-73.90864,40.60666],[-73.90934,40.60648],[-73.90985,40.606],[-73.90886,40.60506],[-73.90833,40.60407],[-73.91092,40.60351],[-73.91365,40.60398],[-73.91674,40.60681],[-73.91672,40.60762],[-73.91632,40.60868],[-73.91678,40.60877],[-73.91657,40.60942],[-73.91684,40.60876],[-73.91651,40.60863],[-73.91689,40.60871],[-73.91683,40.60891],[-73.91709,40.60882],[-73.91682,40.60893],[-73.9168,40.60949],[-73.91657,40.60944],[-73.91616,40.61052],[-73.9145,40.61165],[-73.91493,40.61396],[-73.91386,40.61464],[-73.91422,40.61493],[-73.91642,40.61357],[-73.91591,40.61385],[-73.91573,40.61362],[-73.91577,40.61354],[-73.91597,40.61381],[-73.91625,40.61363],[-73.91575,40.61338],[-73.91597,40.61324],[-73.91626,40.61361],[-73.9164,40.61345],[-73.91587,40.61291],[-73.91663,40.61344],[-73.91573,40.61183],[-73.91675,40.61118],[-73.91667,40.61101],[-73.91683,40.61112],[-73.91811,40.61021],[-73.91773,40.60978],[-73.91787,40.60933],[-73.91768,40.60966],[-73.91796,40.60879],[-73.91782,40.6093],[-73.91803,40.60885],[-73.91856,40.6085],[-73.91801,40.60815],[-73.91819,40.60802],[-73.91857,40.60849],[-73.91901,40.60827],[-73.91814,40.60765],[-73.91836,40.6075],[-73.91902,40.60826],[-73.91935,40.60804],[-73.91825,40.60723],[-73.9185,40.60707],[-73.91937,40.60803],[-73.91952,40.60774],[-73.91443,40.60286],[-73.91389,40.6027],[-73.91382,40.60289],[-73.91369,40.60285],[-73.91386,40.60269],[-73.91364,40.60252],[-73.91333,40.60276],[-73.91347,40.60291],[-73.9133,40.60277],[-73.91366,40.60247],[-73.9135,40.60237],[-73.91302,40.60275],[-73.91348,40.60235],[-73.91312,40.60222],[-73.91271,40.60269],[-73.91306,40.60221],[-73.91158,40.60214],[-73.91158,40.60222],[-73.91231,40.60228],[-73.91254,40.60236],[-73.91165,40.60228],[-73.91154,40.60244],[-73.91261,40.60253],[-73.91257,40.60268],[-73.91087,40.60249],[-73.91152,40.6024],[-73.91154,40.60222],[-73.91092,40.60221],[-73.91094,40.60213],[-73.91156,40.60216],[-73.91076,40.60203],[-73.91075,40.60244],[-73.90904,40.60268],[-73.90902,40.60252],[-73.91071,40.60242],[-73.91071,40.60214],[-73.90941,40.60219],[-73.91073,40.60202],[-73.90985,40.60204],[-73.90904,40.60163],[-73.90784,40.60227],[-73.9043,40.60267],[-73.90373,40.60242],[-73.90193,40.60318],[-73.90042,40.60324],[-73.89933,40.60355],[-73.89833,40.60321],[-73.89562,40.60301],[-73.89497,40.60321],[-73.89406,40.60309],[-73.89352,40.60339],[-73.89241,40.6033],[-73.89136,40.60352],[-73.89098,40.60392],[-73.8891,40.60451],[-73.88773,40.60527],[-73.88478,40.60514],[-73.88396,40.60555],[-73.88272,40.60418],[-73.88336,40.60288],[-73.88181,40.59937],[-73.88164,40.5978],[-73.88084,40.59634],[-73.8808,40.59479],[-73.87991,40.59205],[-73.87942,40.59213],[-73.8799,40.59202],[-73.87971,40.5914],[-73.87936,40.59084],[-73.87897,40.5909],[-73.87892,40.59071],[-73.87929,40.59066],[-73.87897,40.5899],[-73.87914,40.58937],[-73.87879,40.58803],[-73.8782,40.58687],[-73.87672,40.58491],[-73.8797,40.58014],[-73.88174,40.57959],[-73.88175,40.57916],[-73.88307,40.57904],[-73.88391,40.57863],[-73.88614,40.57813],[-73.88871,40.57814],[-73.88976,40.57779],[-73.89118,40.57787],[-73.89455,40.57684],[-73.89552,40.57677],[-73.89651,40.57901],[-73.89675,40.58319],[-73.89727,40.58432],[-73.89816,40.58535],[-73.89794,40.58588],[-73.89826,40.58679],[-73.89892,40.58754],[-73.89973,40.58717],[-73.89903,40.58767],[-73.89981,40.58801],[-73.89991,40.58779],[-73.89994,40.58798],[-73.90001,40.58782],[-73.90122,40.58738],[-73.89995,40.58804],[-73.90072,40.58808],[-73.9021,40.58736],[-73.90286,40.58737],[-73.90427,40.58691],[-73.90588,40.5875],[-73.90589,40.58788],[-73.90652,40.58803],[-73.90713,40.58753],[-73.90649,40.58734],[-73.90644,40.58703],[-73.90811,40.5868],[-73.91089,40.58595],[-73.91153,40.58611],[-73.91197,40.5867],[-73.91175,40.58727],[-73.91205,40.58874],[-73.91144,40.59108],[-73.91195,40.59255],[-73.91203,40.59437],[-73.91248,40.59536],[-73.91312,40.59587],[-73.91355,40.59672],[-73.91507,40.598],[-73.91517,40.59867],[-73.9158,40.59926],[-73.91701,40.59959],[-73.91862,40.60067],[-73.91987,40.60085],[-73.92171,40.60174],[-73.92216,40.6017],[-73.92297,40.60111],[-73.9233,40.60074],[-73.92326,40.60036],[-73.92394,40.59971],[-73.92471,40.59974],[-73.928,40.60193],[-73.92853,40.60221],[-73.92884,40.60212],[-73.92888,40.60243],[-73.92964,40.60297],[-73.92909,40.60379],[-73.92945,40.60394],[-73.93003,40.60365],[-73.93017,40.604],[-73.93051,40.60374],[-73.93117,40.60385],[-73.93196,40.60312],[-73.93212,40.60269],[-73.93176,40.6026],[-73.93145,40.60206],[-73.93033,40.60118],[-73.9297,40.60122],[-73.92936,40.60099],[-73.92923,40.60049],[-73.92865,40.60039],[-73.92859,40.60061],[-73.9272,40.59991],[-73.9229,40.59645],[-73.92178,40.59503],[-73.92034,40.59473],[-73.91818,40.59311],[-73.91641,40.59114],[-73.91488,40.59031],[-73.91507,40.59008],[-73.91457,40.5896],[-73.91455,40.58885],[-73.91725,40.58748],[-73.91791,40.58688],[-73.91806,40.58644],[-73.91917,40.58596],[-73.9196,40.58616],[-73.92017,40.58594],[-73.9204,40.58609],[-73.92081,40.58598],[-73.92067,40.58577],[-73.92074,40.58573],[-73.92093,40.58587],[-73.92091,40.58559],[-73.92101,40.58575],[-73.9219,40.58569],[-73.92235,40.58602],[-73.92493,40.58567],[-73.92721,40.58772],[-73.92765,40.58746],[-73.92725,40.58775],[-73.92736,40.58802],[-73.92792,40.58755],[-73.92808,40.5877],[-73.92737,40.58804],[-73.9274,40.58821],[-73.9279,40.58795],[-73.92802,40.58807],[-73.92745,40.5883],[-73.92776,40.58866],[-73.92395,40.59114],[-73.9242,40.59136],[-73.9246,40.5912],[-73.92816,40.58883],[-73.92836,40.58897],[-73.92842,40.58893],[-73.92822,40.58878],[-73.92863,40.58857],[-73.92876,40.58867],[-73.92838,40.58898],[-73.92862,40.58912],[-73.92895,40.58891],[-73.92867,40.58914],[-73.92922,40.58881],[-73.92876,40.58915],[-73.93003,40.58943],[-73.93058,40.58989],[-73.9301,40.58961],[-73.9303,40.59004],[-73.93059,40.58995],[-73.93065,40.59029],[-73.93047,40.59086],[-73.93062,40.59092],[-73.93065,40.59062],[-73.93064,40.59094],[-73.93046,40.591],[-73.9307,40.59102],[-73.93045,40.59108],[-73.93073,40.59109],[-73.93037,40.59121],[-73.9306,40.59119],[-73.93041,40.59173],[-73.93061,40.59154],[-73.93036,40.59248],[-73.93036,40.59231],[-73.93018,40.59241],[-73.93035,40.59255],[-73.93019,40.59245],[-73.92991,40.59285],[-73.9301,40.59287],[-73.93005,40.593],[-73.92989,40.59287],[-73.92971,40.59312],[-73.93004,40.59306],[-73.92996,40.59331],[-73.92974,40.59314],[-73.92982,40.59337],[-73.93004,40.59335],[-73.92978,40.59344],[-73.92996,40.59401],[-73.93022,40.59397],[-73.93008,40.5936],[-73.93023,40.59393],[-73.93052,40.59388],[-73.93036,40.59398],[-73.93055,40.5942],[-73.9303,40.59394],[-73.93004,40.5941],[-73.93043,40.5944],[-73.93076,40.59438],[-73.93062,40.5942],[-73.93083,40.59441],[-73.93066,40.59446],[-73.93083,40.59443],[-73.93094,40.59446],[-73.93122,40.59418],[-73.93095,40.59447],[-73.93137,40.59453],[-73.93176,40.59428],[-73.93161,40.5945],[-73.93137,40.59455],[-73.93085,40.59445],[-73.93078,40.5945],[-73.93231,40.59492],[-73.93256,40.59476],[-73.9326,40.59493],[-73.93283,40.5948],[-73.93268,40.59424],[-73.93176,40.59283],[-73.93171,40.59305],[-73.93144,40.59217],[-73.93114,40.59201],[-73.9314,40.5918],[-73.93101,40.59193],[-73.93135,40.59179],[-73.93143,40.5916],[-73.93105,40.59173],[-73.93108,40.5916],[-73.93131,40.59136],[-73.93125,40.59164],[-73.93142,40.59159],[-73.93156,40.59129],[-73.93121,40.58953],[-73.93069,40.58882],[-73.93009,40.58899],[-73.93065,40.58867],[-73.9304,40.58847],[-73.92973,40.58861],[-73.93039,40.58844],[-73.92972,40.58756],[-73.93135,40.58733],[-73.93125,40.58685],[-73.92857,40.58706],[-73.92808,40.5867],[-73.92815,40.58618],[-73.92792,40.58614],[-73.92828,40.58611],[-73.92816,40.58586],[-73.92737,40.58601],[-73.92759,40.58625],[-73.92752,40.5864],[-73.9273,40.58587],[-73.92549,40.58502],[-73.92635,40.58528],[-73.92529,40.58464],[-73.92345,40.58482],[-73.9202,40.58463],[-73.91566,40.58622],[-73.9135,40.5861],[-73.91259,40.58557],[-73.91237,40.58453],[-73.91271,40.5837],[-73.91246,40.58335],[-73.91305,40.58301],[-73.91305,40.58319],[-73.91463,40.58276],[-73.91499,40.58315],[-73.91614,40.58286],[-73.91656,40.58315],[-73.9173,40.58319],[-73.91681,40.58276],[-73.91633,40.58282],[-73.91596,40.58244],[-73.91541,40.58236],[-73.91439,40.58238],[-73.91446,40.58261],[-73.91417,40.5828],[-73.91373,40.58273],[-73.91336,40.58295],[-73.91297,40.58297],[-73.91299,40.58271],[-73.91285,40.58301],[-73.91191,40.58296],[-73.91129,40.58231],[-73.91148,40.58183],[-73.91506,40.58154],[-73.92221,40.58325],[-73.92444,40.58356],[-73.92963,40.5834],[-73.9306,40.5832],[-73.93089,40.58294],[-73.93074,40.58276],[-73.93118,40.58272],[-73.93171,40.58281],[-73.93194,40.58311],[-73.93193,40.58287],[-73.93238,40.58292],[-73.93201,40.58293],[-73.93202,40.58311],[-73.9326,40.58292],[-73.93421,40.58298],[-73.93569,40.58328],[-73.93582,40.58302],[-73.93577,40.58328],[-73.93613,40.58331],[-73.93629,40.583],[-73.9361,40.58295],[-73.93657,40.58296],[-73.9363,40.583],[-73.93658,40.58324],[-73.93697,40.58323],[-73.93699,40.58302],[-73.93663,40.58297],[-73.93706,40.58298],[-73.93705,40.58308],[-73.93763,40.5831],[-73.93703,40.58313],[-73.93701,40.58302],[-73.93701,40.58323],[-73.93712,40.58335],[-73.93812,40.58334],[-73.93809,40.58312],[-73.93855,40.58334],[-73.93863,40.58307],[-73.9393,40.58317],[-73.9393,40.58333],[-73.93983,40.58333],[-73.93983,40.58317],[-73.93986,40.58333],[-73.94058,40.58333],[-73.94057,40.58309],[-73.94011,40.58308],[-73.94068,40.58307],[-73.94059,40.58321],[-73.9407,40.58333],[-73.94092,40.5833],[-73.94074,40.58308],[-73.94103,40.58307],[-73.94093,40.5833],[-73.94116,40.5833],[-73.9411,40.58309],[-73.9412,40.58309],[-73.94157,40.58361],[-73.94255,40.58351],[-73.94202,40.58311],[-73.9427,40.58351],[-73.94305,40.58349],[-73.94256,40.58313],[-73.9432,40.58349],[-73.94354,40.58347],[-73.94309,40.58313],[-73.94369,40.58347],[-73.94407,40.58347],[-73.94364,40.58315],[-73.94462,40.5835],[-73.94432,40.58316],[-73.94517,40.58352],[-73.94485,40.58316],[-73.94573,40.58354],[-73.94538,40.58318],[-73.94629,40.58357],[-73.9458,40.58319],[-73.94643,40.58356],[-73.94679,40.58355],[-73.94632,40.58321],[-73.94692,40.58355],[-73.94727,40.58353],[-73.94682,40.58319],[-73.94747,40.58353],[-73.95349,40.58299],[-73.9533,40.582],[-73.9497,40.58232],[-73.94274,40.581],[-73.93258,40.58126],[-73.93106,40.57616],[-73.9315,40.57566],[-73.93486,40.57553],[-73.93489,40.57522],[-73.93508,40.57551],[-73.93647,40.57586],[-73.93671,40.57542],[-73.94251,40.57537],[-73.94256,40.57556],[-73.94416,40.57581],[-73.94463,40.57569],[-73.9446,40.57524],[-73.94474,40.57551],[-73.94572,40.57556],[-73.94618,40.5753],[-73.94592,40.57512],[-73.95258,40.5742],[-73.95374,40.5743],[-73.95408,40.57407],[-73.95413,40.57433],[-73.9544,40.57437],[-73.95621,40.57427]],[[-73.98018,40.66115],[-73.98013,40.66119],[-73.98009,40.66122],[-73.98018,40.66115]],[[-73.98009,40.66122],[-73.98009,40.66122],[-73.98008,40.66123],[-73.98009,40.66122]],[[-73.97999,40.66126],[-73.97999,40.66126],[-73.98003,40.66125],[-73.97999,40.66126]],[[-73.97988,40.66128],[-73.97988,40.66128],[-73.97991,40.66128],[-73.97988,40.66128]],[[-73.97976,40.66127],[-73.97976,40.66127],[-73.97982,40.66128],[-73.97976,40.66127]],[[-73.97965,40.66124],[-73.97965,40.66124],[-73.9797,40.66126],[-73.97965,40.66124]],[[-73.97665,40.66484],[-73.97685,40.66461],[-73.97696,40.66446],[-73.97685,40.66461],[-73.97665,40.66484]],[[-73.97412,40.66787],[-73.97433,40.66762],[-73.97457,40.66733],[-73.97433,40.66762],[-73.97412,40.66787]],[[-73.97254,40.66976],[-73.97282,40.66943],[-73.97332,40.66882],[-73.97282,40.66943],[-73.97254,40.66976]],[[-73.97133,40.67125],[-73.97068,40.67215],[-73.9715,40.67102],[-73.97133,40.67125]],[[-73.97123,40.67319],[-73.9713,40.67333],[-73.97121,40.67316],[-73.97123,40.67319]],[[-73.97146,40.6743],[-73.97146,40.6743],[-73.97148,40.6741],[-73.97146,40.6743]],[[-73.9741,40.68065],[-73.9745,40.68073],[-73.97514,40.68087],[-73.9745,40.68073],[-73.9741,40.68065]],[[-74.02572,40.64063],[-74.02466,40.63998],[-74.02572,40.64063],[-74.02572,40.64063]],[[-74.02355,40.63932],[-74.02457,40.63992],[-74.02355,40.63932],[-74.02348,40.63954],[-74.02355,40.63932]],[[-74.02192,40.63928],[-74.02297,40.63993],[-74.02311,40.64],[-74.02297,40.63993],[-74.02192,40.63928]],[[-74.02175,40.63918],[-74.02165,40.63912],[-74.02192,40.63928],[-74.02175,40.63918]],[[-74.02128,40.63849],[-74.02156,40.63898],[-74.02152,40.63888],[-74.02147,40.63878],[-74.02141,40.63868],[-74.02135,40.63858],[-74.02128,40.63849]],[[-74.02059,40.63782],[-74.02113,40.63831],[-74.02105,40.63823],[-74.02102,40.63819],[-74.02086,40.63804],[-74.02059,40.63782]],[[-74.02059,40.63782],[-74.02006,40.63744],[-74.01971,40.63723],[-74.01931,40.6371],[-74.01607,40.63614],[-74.01324,40.6354],[-74.01107,40.63474],[-74.01324,40.6354],[-74.01931,40.6371],[-74.02059,40.63782]],[[-74.0105,40.63458],[-74.01028,40.6348],[-74.0105,40.63458],[-74.01107,40.63474],[-74.0105,40.63458]],[[-74.00838,40.63664],[-74.00895,40.63608],[-74.00956,40.63549],[-74.00895,40.63608],[-74.00838,40.63664],[-74.00817,40.63683],[-74.00838,40.63664]],[[-74.00158,40.64316],[-74.00254,40.64224],[-74.00267,40.64211],[-74.00158,40.64316]],[[-73.99964,40.64504],[-74.00021,40.64448],[-74.0008,40.64392],[-74.00021,40.64448],[-73.99964,40.64504],[-73.9995,40.64518],[-73.99964,40.64504]],[[-73.98893,40.6442],[-73.98906,40.64412],[-73.99393,40.64707],[-73.99605,40.64834],[-73.98893,40.6442]],[[-73.98094,40.64722],[-73.98029,40.6473],[-73.97956,40.64738],[-73.98029,40.6473],[-73.98094,40.64722]],[[-73.97791,40.64756],[-73.97726,40.64763],[-73.9766,40.6477],[-73.97726,40.64763],[-73.97791,40.64756]],[[-73.97527,40.64783],[-73.97496,40.6478],[-73.97517,40.64782],[-73.97527,40.64783]],[[-73.9735,40.6476],[-73.9735,40.6476],[-73.97466,40.64776],[-73.97473,40.64777],[-73.9735,40.6476]],[[-73.97315,40.6476],[-73.97315,40.6476],[-73.97325,40.64759],[-73.97315,40.6476]],[[-73.97304,40.64764],[-73.97304,40.64764],[-73.97301,40.64765],[-73.97304,40.64764]],[[-73.9714,40.64826],[-73.9714,40.64826],[-73.97185,40.6481],[-73.9714,40.64826]],[[-73.98023,40.66099],[-73.98023,40.66099],[-73.98023,40.66099],[-73.98023,40.66099]],[[-73.98017,40.66087],[-73.98017,40.66087],[-73.98017,40.66087],[-73.98017,40.66087]],[[-73.97984,40.66073],[-73.97984,40.66073],[-73.97984,40.66073],[-73.97984,40.66073]],[[-73.97968,40.66077],[-73.97974,40.66074],[-73.97968,40.66077],[-73.97968,40.66077]],[[-73.97962,40.66081],[-73.97962,40.66081],[-73.97958,40.66085],[-73.97962,40.66081]],[[-73.97437,40.65819],[-73.97433,40.65813],[-73.9744,40.65823],[-73.97437,40.65819]],[[-73.97379,40.65639],[-73.97355,40.65564],[-73.97391,40.65684],[-73.97379,40.65639]],[[-74.00068,40.6919],[-74.00068,40.6919],[-74.00062,40.69204],[-74.00068,40.6919]],[[-73.99329,40.68778],[-73.993,40.68836],[-73.99296,40.68845],[-73.99329,40.68778]],[[-73.98907,40.68468],[-73.98907,40.68468],[-73.98892,40.68491],[-73.98907,40.68468]],[[-73.98879,40.68511],[-73.98879,40.68511],[-73.98872,40.68521],[-73.98879,40.68511]],[[-73.98437,40.68354],[-73.9848,40.68291],[-73.98437,40.68354],[-73.98437,40.68354]],[[-73.98046,40.68122],[-73.98025,40.68154],[-73.98046,40.68122],[-73.98046,40.68122]],[[-73.97982,40.68219],[-73.97962,40.68249],[-73.9794,40.68282],[-73.97962,40.68249],[-73.97982,40.68219]],[[-73.97876,40.68377],[-73.97876,40.68377],[-73.97893,40.68351],[-73.97876,40.68377]]],[[[-73.92085,40.59954],[-73.91866,40.59947],[-73.91844,40.59917],[-73.91626,40.59816],[-73.91602,40.59751],[-73.91442,40.59605],[-73.91338,40.59472],[-73.91306,40.59407],[-73.91326,40.59223],[-73.91295,40.59205],[-73.91439,40.59151],[-73.91524,40.59159],[-73.91605,40.5922],[-73.91644,40.59313],[-73.91788,40.59472],[-73.9202,40.59618],[-73.92083,40.59633],[-73.92182,40.59733],[-73.92227,40.59838],[-73.92213,40.59866],[-73.92085,40.59954]]],[[[-73.86449,40.58361],[-73.86773,40.58166],[-73.86896,40.58169],[-73.86926,40.58191],[-73.87051,40.58334],[-73.87061,40.58492],[-73.87116,40.58687],[-73.86981,40.58946],[-73.8685,40.59009],[-73.86635,40.59189],[-73.86431,40.59141],[-73.86327,40.59091],[-73.86125,40.58799],[-73.86167,40.58614],[-73.86327,40.58388],[-73.86381,40.5836],[-73.86449,40.58361]]],[[[-73.86953,40.59871],[-73.86967,40.59669],[-73.87021,40.59695],[-73.86953,40.59871]]],[[[-73.87049,40.6026],[-73.87026,40.60168],[-73.87019,40.599],[-73.87108,40.5989],[-73.87049,40.6026]]],[[[-73.86768,40.60307],[-73.86831,40.60314],[-73.86794,40.60396],[-73.86703,40.60417],[-73.86703,40.60374],[-73.86768,40.60307]]],[[[-73.8718,40.61028],[-73.87104,40.60972],[-73.86966,40.60654],[-73.87109,40.60469],[-73.87106,40.60629],[-73.87246,40.60819],[-73.873,40.61056],[-73.8718,40.61028]]],[[[-73.86868,40.60824],[-73.86778,40.60854],[-73.86702,40.60807],[-73.86874,40.60704],[-73.86868,40.60824]]],[[[-73.86685,40.61781],[-73.87395,40.61584],[-73.87725,40.61575],[-73.87862,40.61594],[-73.87972,40.61696],[-73.87974,40.61893],[-73.87938,40.61986],[-73.87851,40.62102],[-73.87481,40.62359],[-73.86645,40.62826],[-73.86547,40.62794],[-73.86473,40.62653],[-73.86498,40.62566],[-73.86554,40.62524],[-73.86587,40.62439],[-73.86651,40.62375],[-73.86638,40.623],[-73.8655,40.6223],[-73.86493,40.62111],[-73.8655,40.61891],[-73.86576,40.6185],[-73.86685,40.61781]]],[[[-73.86223,40.62382],[-73.86249,40.62392],[-73.86271,40.62343],[-73.86304,40.6233],[-73.86351,40.62341],[-73.86378,40.62395],[-73.86343,40.6239],[-73.86343,40.6242],[-73.86315,40.62395],[-73.86265,40.62396],[-73.86206,40.62432],[-73.86223,40.62382]]],[[[-73.85787,40.62482],[-73.85766,40.62531],[-73.85733,40.62512],[-73.85787,40.62482]]],[[[-73.85466,40.59658],[-73.85493,40.5963],[-73.85716,40.59604],[-73.86044,40.59647],[-73.86055,40.59706],[-73.86275,40.59907],[-73.86329,40.59981],[-73.86336,40.60032],[-73.86187,40.60216],[-73.86078,40.60261],[-73.86049,40.60234],[-73.85906,40.60206],[-73.85483,40.60187],[-73.85427,40.60143],[-73.85372,40.6014],[-73.85277,40.60095],[-73.85077,40.59884],[-73.85153,40.59843],[-73.85269,40.59717],[-73.85466,40.59658]]],[[[-73.84684,40.60496],[-73.84641,40.60448],[-73.84608,40.60454],[-73.84641,40.60419],[-73.84607,40.60431],[-73.84578,40.60482],[-73.84527,40.60485],[-73.84489,40.60472],[-73.84523,40.60477],[-73.84557,40.60454],[-73.84519,40.60447],[-73.84518,40.6047],[-73.84486,40.60469],[-73.84459,40.60482],[-73.84445,40.60469],[-73.84496,40.60438],[-73.84492,40.60368],[-73.84522,40.60386],[-73.8455,40.60385],[-73.84515,40.60373],[-73.84559,40.60352],[-73.84622,40.60419],[-73.84667,40.60418],[-73.84638,40.60441],[-73.84665,40.60458],[-73.84745,40.60446],[-73.84786,40.6047],[-73.84776,40.60491],[-73.84684,40.60496]]],[[[-73.84821,40.60544],[-73.84794,40.60534],[-73.84784,40.60508],[-73.84827,40.60516],[-73.84821,40.60544]]],[[[-73.84854,40.60596],[-73.84826,40.60578],[-73.84872,40.60589],[-73.84854,40.60596]]],[[[-73.83511,40.60704],[-73.83437,40.60785],[-73.83446,40.60719],[-73.83574,40.60579],[-73.83511,40.60704]]],[[[-73.84465,40.61393],[-73.84357,40.61367],[-73.84369,40.61337],[-73.84343,40.61297],[-73.84264,40.61317],[-73.84184,40.61269],[-73.84151,40.61232],[-73.84158,40.61183],[-73.84071,40.61163],[-73.84067,40.61145],[-73.84034,40.61204],[-73.8398,40.61236],[-73.83911,40.61247],[-73.83871,40.61199],[-73.8388,40.6128],[-73.83818,40.61308],[-73.83738,40.61301],[-73.83624,40.61227],[-73.83697,40.61111],[-73.83752,40.61086],[-73.83746,40.61016],[-73.83852,40.60924],[-73.83887,40.60791],[-73.8391,40.60831],[-73.8396,40.60806],[-73.84004,40.60823],[-73.8401,40.60896],[-73.8405,40.60856],[-73.84043,40.60827],[-73.83936,40.60761],[-73.83999,40.60754],[-73.84051,40.60696],[-73.84101,40.60703],[-73.84136,40.60679],[-73.84127,40.60625],[-73.84097,40.60608],[-73.84046,40.60621],[-73.84042,40.60577],[-73.8406,40.6054],[-73.84075,40.60564],[-73.84123,40.60553],[-73.84106,40.60521],[-73.84134,40.60509],[-73.84113,40.60469],[-73.84149,40.6045],[-73.84186,40.60479],[-73.84296,40.60421],[-73.84327,40.60442],[-73.84356,40.60417],[-73.84443,40.60416],[-73.84449,40.60436],[-73.84362,40.6044],[-73.84339,40.60468],[-73.84271,40.60464],[-73.84267,40.60508],[-73.84244,40.60484],[-73.84194,40.60493],[-73.84243,40.60529],[-73.84297,40.60507],[-73.84282,40.60473],[-73.84335,40.60518],[-73.84338,40.60499],[-73.84382,40.60543],[-73.84357,40.60585],[-73.8439,40.60642],[-73.84394,40.60598],[-73.84371,40.60582],[-73.84405,40.60545],[-73.84365,40.60511],[-73.84361,40.6047],[-73.84407,40.60456],[-73.84461,40.60504],[-73.84469,40.60615],[-73.84433,40.60581],[-73.84411,40.60589],[-73.84458,40.6066],[-73.84462,40.60633],[-73.8453,40.60627],[-73.8453,40.60597],[-73.84505,40.60586],[-73.84539,40.60571],[-73.84505,40.60553],[-73.84531,40.60539],[-73.84494,40.60503],[-73.84582,40.60516],[-73.84627,40.60471],[-73.84675,40.6051],[-73.84747,40.60508],[-73.84727,40.60582],[-73.84667,40.60604],[-73.84683,40.6058],[-73.84658,40.60583],[-73.84661,40.60609],[-73.84591,40.60629],[-73.84625,40.60641],[-73.84611,40.60664],[-73.84618,40.60676],[-73.84663,40.60676],[-73.84635,40.60705],[-73.84653,40.60717],[-73.84646,40.6072],[-73.8464,40.6073],[-73.84656,40.60717],[-73.8464,40.60704],[-73.84669,40.60687],[-73.84663,40.60659],[-73.84689,40.60657],[-73.84666,40.60654],[-73.84622,40.60672],[-73.84644,40.60622],[-73.84766,40.60592],[-73.84884,40.60637],[-73.84965,40.60605],[-73.84962,40.60667],[-73.84876,40.60652],[-73.84851,40.60684],[-73.84806,40.60673],[-73.84823,40.60709],[-73.84755,40.60698],[-73.84698,40.60751],[-73.84682,40.60806],[-73.8462,40.60792],[-73.8456,40.60832],[-73.84486,40.60809],[-73.8455,40.60851],[-73.84628,40.60828],[-73.84583,40.60862],[-73.84595,40.60883],[-73.84555,40.60934],[-73.84574,40.60973],[-73.84539,40.60978],[-73.84568,40.60995],[-73.84542,40.61013],[-73.84574,40.61043],[-73.84553,40.61047],[-73.84575,40.61077],[-73.84552,40.6108],[-73.84573,40.61144],[-73.84486,40.61103],[-73.84526,40.61149],[-73.84508,40.61233],[-73.84571,40.61288],[-73.84526,40.61327],[-73.84564,40.61369],[-73.84465,40.61393]]],[[[-73.85055,40.61234],[-73.84967,40.61211],[-73.84986,40.61196],[-73.84955,40.61146],[-73.84986,40.61101],[-73.8496,40.61088],[-73.84968,40.6104],[-73.8495,40.61033],[-73.85009,40.61016],[-73.84942,40.60982],[-73.84987,40.60982],[-73.84993,40.60943],[-73.85039,40.60965],[-73.85135,40.60927],[-73.8517,40.60861],[-73.85208,40.60869],[-73.85295,40.60796],[-73.85337,40.60801],[-73.85324,40.60773],[-73.85345,40.60792],[-73.85446,40.6079],[-73.85363,40.60726],[-73.85442,40.60717],[-73.85507,40.60746],[-73.85464,40.60769],[-73.8548,40.6086],[-73.85555,40.60898],[-73.85525,40.60954],[-73.85595,40.60954],[-73.85589,40.60991],[-73.8562,40.61007],[-73.85633,40.61065],[-73.8566,40.61083],[-73.85619,40.61105],[-73.85536,40.61041],[-73.85542,40.61012],[-73.85322,40.61014],[-73.8527,40.61042],[-73.85196,40.61024],[-73.85199,40.61056],[-73.85263,40.61098],[-73.85265,40.61117],[-73.85245,40.61094],[-73.85172,40.61095],[-73.85196,40.6112],[-73.85174,40.61157],[-73.85142,40.61177],[-73.85106,40.61147],[-73.85096,40.61196],[-73.85069,40.61198],[-73.85055,40.61234]]],[[[-73.83411,40.61436],[-73.83542,40.61461],[-73.83586,40.61521],[-73.83664,40.61515],[-73.83779,40.61556],[-73.83691,40.61615],[-73.83644,40.61617],[-73.83527,40.61725],[-73.83496,40.61778],[-73.83517,40.61804],[-73.83496,40.61853],[-73.83536,40.61871],[-73.83571,40.61973],[-73.83523,40.61996],[-73.83496,40.61984],[-73.83513,40.61951],[-73.83489,40.61961],[-73.8348,40.61992],[-73.83531,40.62015],[-73.8349,40.62047],[-73.83455,40.62037],[-73.83472,40.62022],[-73.83439,40.61985],[-73.8338,40.61965],[-73.83407,40.62003],[-73.83423,40.6199],[-73.83447,40.62012],[-73.8342,40.62032],[-73.83428,40.62065],[-73.8337,40.62098],[-73.83411,40.61436]]],[[[-73.85023,40.62321],[-73.84939,40.62248],[-73.84847,40.62232],[-73.84908,40.62169],[-73.84902,40.62148],[-73.84982,40.6213],[-73.85026,40.621],[-73.85019,40.62083],[-73.85049,40.62089],[-73.85085,40.62025],[-73.85347,40.6202],[-73.85402,40.61987],[-73.85491,40.62003],[-73.85655,40.61957],[-73.85676,40.62041],[-73.8574,40.6203],[-73.85737,40.62065],[-73.8566,40.62114],[-73.85675,40.6213],[-73.85657,40.62148],[-73.85635,40.62142],[-73.85596,40.6218],[-73.85533,40.62169],[-73.85517,40.62196],[-73.85464,40.62159],[-73.85451,40.6208],[-73.85359,40.62046],[-73.85185,40.62057],[-73.8514,40.6208],[-73.85129,40.62184],[-73.85234,40.62301],[-73.8519,40.62279],[-73.85176,40.62339],[-73.8509,40.62327],[-73.85028,40.62358],[-73.85023,40.62321]]],[[[-73.83502,40.62268],[-73.83401,40.62236],[-73.83362,40.6226],[-73.83368,40.62138],[-73.83412,40.62098],[-73.83499,40.62101],[-73.83464,40.622],[-73.83502,40.62268]]],[[[-73.83358,40.6236],[-73.83371,40.62371],[-73.83364,40.62396],[-73.83358,40.6236]]],[[[-73.846,40.62504],[-73.84477,40.62485],[-73.84467,40.62418],[-73.84384,40.62429],[-73.84389,40.62381],[-73.84322,40.62365],[-73.84294,40.62332],[-73.84428,40.62295],[-73.84537,40.62305],[-73.8451,40.62342],[-73.84554,40.62407],[-73.84521,40.62407],[-73.84521,40.62435],[-73.8458,40.6246],[-73.846,40.62504]]],[[[-73.84068,40.62745],[-73.83947,40.62729],[-73.84015,40.62679],[-73.84072,40.62586],[-73.84084,40.62614],[-73.84169,40.6264],[-73.84179,40.62659],[-73.84151,40.62678],[-73.84238,40.62744],[-73.84045,40.62659],[-73.84015,40.62704],[-73.84068,40.62745]]],[[[-73.84847,40.62866],[-73.84837,40.62887],[-73.84805,40.62867],[-73.84819,40.62852],[-73.84847,40.62866]]],[[[-73.84844,40.63056],[-73.84868,40.63046],[-73.8487,40.63061],[-73.84844,40.63056]]],[[[-73.85303,40.63188],[-73.8525,40.63119],[-73.85169,40.6309],[-73.85182,40.63056],[-73.85247,40.63034],[-73.85366,40.63088],[-73.85509,40.63011],[-73.8566,40.62984],[-73.85776,40.62994],[-73.85856,40.63046],[-73.8581,40.63125],[-73.85816,40.63197],[-73.85758,40.63272],[-73.85535,40.63281],[-73.85491,40.63347],[-73.8542,40.63376],[-73.85312,40.63384],[-73.85237,40.63359],[-73.85234,40.63316],[-73.85303,40.63188]]],[[[-73.84658,40.63524],[-73.84681,40.63426],[-73.8476,40.63349],[-73.84783,40.63278],[-73.84914,40.63211],[-73.85002,40.63214],[-73.84988,40.6341],[-73.84886,40.63544],[-73.84828,40.63747],[-73.84765,40.63828],[-73.84668,40.63873],[-73.84605,40.63847],[-73.84545,40.63737],[-73.84427,40.63669],[-73.84502,40.63568],[-73.84658,40.63524]]]]}}]}