{"type":"FeatureCollection","features":[{"type":"Feature","properties":{"district":"Queens"},"geometry":{"type":"MultiPolygon","coordinates":[[[[-73.93251,40.55755],[-73.92616,40.56155],[-73.9253,40.56181],[-73.92329,40.56209],[-73.92108,40.56208],[-73.92037,40.56222],[-73.92026,40.56261],[-73.9201,40.56257],[-73.92033,40.56223],[-73.91766,40.56283],[-73.91455,40.56435],[-73.91188,40.56499],[-73.91193,40.56511],[-73.91195,40.56581],[-73.91216,40.56584],[-73.91197,40.56587],[-73.91174,40.56587],[-73.91193,40.56581],[-73.91186,40.565],[-73.9108,40.56511],[-73.91017,40.56492],[-73.91039,40.56451],[-73.91037,40.5644],[-73.91069,40.56383],[-73.90977,40.56531],[-73.91002,40.56478],[-73.90976,40.56428],[-73.90873,40.56393],[-73.90792,40.56415],[-73.90799,40.56344],[-73.90665,40.56279],[-73.90469,40.56283],[-73.90287,40.56351],[-73.90252,40.56295],[-73.90171,40.56274],[-73.9,40.56322],[-73.89613,40.56536],[-73.89534,40.56633],[-73.89567,40.56703],[-73.89519,40.56691],[-73.89413,40.56782],[-73.89261,40.56859],[-73.88911,40.56792],[-73.88655,40.56847],[-73.88549,40.56703],[-73.88655,40.56847],[-73.88431,40.5687],[-73.88489,40.56847],[-73.88476,40.56829],[-73.8843,40.56844],[-73.88474,40.56827],[-73.88446,40.56789],[-73.88417,40.568],[-73.88426,40.56816],[-73.88379,40.56812],[-73.88402,40.5685],[-73.88378,40.56813],[-73.88358,40.56821],[-73.88369,40.5684],[-73.88348,40.56847],[-73.8839,40.56891],[-73.88369,40.56884],[-73.88337,40.56833],[-73.88263,40.56837],[-73.88192,40.56873],[-73.87867,40.56864],[-73.87761,40.56886],[-73.86554,40.57464],[-73.85306,40.58126],[-73.85044,40.58213],[-73.84861,40.58219],[-73.84521,40.58158],[-73.83935,40.58186],[-73.83896,40.58257],[-73.83855,40.58279],[-73.83584,40.58288],[-73.82852,40.58485],[-73.82804,40.58605],[-73.82481,40.58715],[-73.82294,40.58749],[-73.82146,40.58677],[-73.81742,40.58892],[-73.81764,40.58929],[-73.81674,40.58932],[-73.81525,40.58999],[-73.8147,40.59061],[-73.81363,40.59079],[-73.81326,40.59105],[-73.81359,40.5917],[-73.81323,40.59107],[-73.8117,40.59159],[-73.81151,40.59178],[-73.81149,40.5929],[-73.81133,40.59174],[-73.81101,40.59177],[-73.81082,40.59209],[-73.81095,40.5925],[-73.81139,40.59244],[-73.81141,40.59287],[-73.81107,40.59302],[-73.81137,40.5927],[-73.81075,40.59279],[-73.81137,40.59268],[-73.81136,40.59246],[-73.81094,40.59255],[-73.81081,40.59209],[-73.8099,40.59227],[-73.81004,40.59308],[-73.80973,40.5924],[-73.80981,40.59271],[-73.80971,40.59244],[-73.80949,40.59277],[-73.80961,40.59358],[-73.80603,40.59201],[-73.80575,40.59076],[-73.80582,40.59189],[-73.80434,40.59131],[-73.80417,40.59185],[-73.80782,40.59337],[-73.80805,40.59365],[-73.80781,40.59391],[-73.80798,40.59416],[-73.80711,40.59528],[-73.80604,40.59555],[-73.80485,40.59506],[-73.80411,40.59432],[-73.80413,40.59351],[-73.80381,40.59289],[-73.80303,40.59258],[-73.80244,40.59264],[-73.80251,40.59395],[-73.80314,40.59376],[-73.80318,40.59395],[-73.80251,40.59397],[-73.80257,40.59427],[-73.80324,40.59409],[-73.80329,40.59428],[-73.80235,40.5945],[-73.80319,40.59466],[-73.80344,40.59443],[-73.8032,40.59468],[-73.80338,40.59487],[-73.80366,40.59473],[-73.80372,40.59482],[-73.80365,40.59475],[-73.80338,40.59489],[-73.8032,40.59487],[-73.80339,40.59501],[-73.80321,40.59515],[-73.80391,40.595],[-73.80331,40.59518],[-73.80368,40.5952],[-73.80511,40.59715],[-73.8047,40.59768],[-73.80393,40.59794],[-73.80298,40.59884],[-73.80167,40.5989],[-73.80095,40.59915],[-73.80092,40.59939],[-73.80078,40.59916],[-73.80047,40.59933],[-73.79843,40.59917],[-73.79457,40.59942],[-73.79331,40.59998],[-73.79233,40.59997],[-73.78786,40.60311],[-73.78635,40.60319],[-73.78618,40.60303],[-73.78716,40.60233],[-73.78793,40.601],[-73.79033,40.5992],[-73.79124,40.59663],[-73.79093,40.59596],[-73.79086,40.59501],[-73.79042,40.59475],[-73.79057,40.59495],[-73.79081,40.59609],[-73.79059,40.59611],[-73.79054,40.59498],[-73.79015,40.59477],[-73.79042,40.59605],[-73.79018,40.59607],[-73.79013,40.59482],[-73.78976,40.59474],[-73.79,40.59621],[-73.7897,40.59623],[-73.78967,40.59486],[-73.7894,40.59495],[-73.78911,40.59547],[-73.78927,40.59645],[-73.78907,40.59802],[-73.78597,40.60032],[-73.78579,40.60057],[-73.78614,40.60065],[-73.78578,40.60059],[-73.78564,40.6008],[-73.78598,40.60092],[-73.78563,40.60082],[-73.78539,40.60152],[-73.78448,40.6018],[-73.78351,40.60256],[-73.78313,40.60376],[-73.78395,40.60482],[-73.78367,40.60532],[-73.78041,40.60843],[-73.77857,40.60964],[-73.77728,40.60985],[-73.77535,40.60974],[-73.77422,40.60889],[-73.77422,40.6086],[-73.77481,40.6084],[-73.77422,40.60764],[-73.7746,40.60742],[-73.77485,40.60802],[-73.77524,40.60855],[-73.77601,40.60919],[-73.77495,40.60807],[-73.77459,40.6073],[-73.77458,40.60653],[-73.77519,40.6045],[-73.77469,40.60432],[-73.77491,40.60411],[-73.77538,40.60416],[-73.77588,40.60347],[-73.77605,40.60275],[-73.77559,40.60304],[-73.77569,40.60281],[-73.77648,40.60245],[-73.77649,40.60217],[-73.7778,40.60097],[-73.77837,40.60084],[-73.77808,40.6007],[-73.77818,40.60039],[-73.78011,40.60073],[-73.78191,40.59911],[-73.78194,40.59853],[-73.78133,40.59775],[-73.78018,40.59721],[-73.78017,40.5969],[-73.78006,40.59688],[-73.77967,40.59737],[-73.77742,40.59881],[-73.7772,40.59958],[-73.776,40.60139],[-73.77497,40.60174],[-73.77474,40.60096],[-73.77448,40.60099],[-73.77475,40.60095],[-73.77474,40.60074],[-73.77412,40.59988],[-73.77422,40.59901],[-73.77374,40.59867],[-73.77359,40.59812],[-73.77249,40.59789],[-73.77113,40.5983],[-73.77037,40.59809],[-73.76948,40.59826],[-73.76813,40.59782],[-73.76794,40.59814],[-73.76827,40.59833],[-73.77034,40.59898],[-73.77093,40.59886],[-73.77116,40.59942],[-73.77084,40.60181],[-73.77019,40.60275],[-73.77042,40.60294],[-73.77016,40.60309],[-73.77057,40.60484],[-73.77001,40.60534],[-73.76984,40.60628],[-73.77001,40.60723],[-73.76978,40.60793],[-73.76922,40.60844],[-73.769,40.60939],[-73.76982,40.61009],[-73.77125,40.61039],[-73.77185,40.61082],[-73.77223,40.6115],[-73.7734,40.61109],[-73.77297,40.61016],[-73.77377,40.61126],[-73.77394,40.61212],[-73.77417,40.61183],[-73.77335,40.61368],[-73.77297,40.61356],[-73.77174,40.61396],[-73.76933,40.61397],[-73.76691,40.61429],[-73.7653,40.61382],[-73.76502,40.61349],[-73.76506,40.61204],[-73.7623,40.61136],[-73.76172,40.61185],[-73.76024,40.61082],[-73.76178,40.60915],[-73.76155,40.60903],[-73.75998,40.61088],[-73.75949,40.61082],[-73.75972,40.61015],[-73.7592,40.61037],[-73.75656,40.61014],[-73.75587,40.61031],[-73.75561,40.61008],[-73.75587,40.61039],[-73.75556,40.61012],[-73.755,40.61013],[-73.75473,40.61041],[-73.75346,40.61052],[-73.75009,40.61164],[-73.74822,40.61201],[-73.74799,40.61231],[-73.74761,40.612],[-73.74722,40.61218],[-73.74686,40.61157],[-73.74576,40.61199],[-73.74311,40.60772],[-73.7434,40.60747],[-73.74029,40.6046],[-73.73921,40.60404],[-73.7384,40.60312],[-73.73823,40.60257],[-73.73836,40.5976],[-73.73872,40.59695],[-73.73858,40.59725],[-73.73879,40.59697],[-73.7393,40.59723],[-73.73979,40.59714],[-73.74012,40.59677],[-73.7398,40.59643],[-73.74031,40.59619],[-73.74036,40.59677],[-73.74064,40.597],[-73.74183,40.5967],[-73.74052,40.59657],[-73.74055,40.59612],[-73.73993,40.59606],[-73.73946,40.59688],[-73.73988,40.59677],[-73.73975,40.59654],[-73.73991,40.59677],[-73.7398,40.59688],[-73.73951,40.59704],[-73.7394,40.59705],[-73.73895,40.59676],[-73.73838,40.59712],[-73.73841,40.59592],[-73.73799,40.59456],[-73.73849,40.59435],[-73.74063,40.59472],[-73.7409,40.59449],[-73.74132,40.59479],[-73.7417,40.59464],[-73.74223,40.59491],[-73.74239,40.59473],[-73.74335,40.5948],[-73.74348,40.59459],[-73.74462,40.59466],[-73.74663,40.5943],[-73.74913,40.59322],[-73.75175,40.59128],[-73.75387,40.59092],[-73.75595,40.59087],[-73.75789,40.59136],[-73.76134,40.59173],[-73.76797,40.59073],[-73.76873,40.59087],[-73.77593,40.59018],[-73.77584,40.59032],[-73.77918,40.58959],[-73.78043,40.5896],[-73.78453,40.58848],[-73.78768,40.58792],[-73.78878,40.58745],[-73.78941,40.58763],[-73.79201,40.58722],[-73.80183,40.58535],[-73.80326,40.58489],[-73.80372,40.58502],[-73.80679,40.58442],[-73.80799,40.584],[-73.81352,40.58347],[-73.83387,40.57765],[-73.83778,40.57592],[-73.8572,40.5691],[-73.86287,40.56683],[-73.86269,40.5665],[-73.863,40.56688],[-73.86356,40.56703],[-73.86661,40.56609],[-73.86631,40.56555],[-73.86663,40.56609],[-73.86686,40.56609],[-73.86849,40.56553],[-73.86825,40.56507],[-73.86853,40.56555],[-73.86925,40.56538],[-73.87062,40.56481],[-73.87028,40.56417],[-73.87064,40.56481],[-73.87091,40.56476],[-73.87264,40.56408],[-73.87238,40.56358],[-73.87275,40.56411],[-73.87321,40.56406],[-73.87625,40.5631],[-73.88029,40.56137],[-73.88128,40.56137],[-73.88242,40.56091],[-73.88237,40.56076],[-73.88325,40.56086],[-73.88486,40.56004],[-73.88611,40.55992],[-73.88698,40.5594],[-73.88789,40.55951],[-73.88964,40.55866],[-73.89022,40.55881],[-73.8908,40.55862],[-73.89214,40.55787],[-73.89253,40.55812],[-73.89347,40.55795],[-73.89495,40.55729],[-73.89492,40.55708],[-73.89551,40.55741],[-73.897,40.55689],[-73.89708,40.55666],[-73.89736,40.557],[-73.898,40.5571],[-73.89913,40.55664],[-73.90059,40.55642],[-73.90124,40.55676],[-73.90279,40.55673],[-73.90691,40.5556],[-73.91948,40.55062],[-73.93612,40.54452],[-73.9389,40.54324],[-73.94047,40.54286],[-73.94056,40.54186],[-73.94074,40.54183],[-73.94013,40.54801],[-73.94027,40.55241],[-73.93999,40.55364],[-73.93938,40.5548],[-73.93866,40.55568],[-73.93684,40.55678],[-73.9355,40.5572],[-73.93251,40.55755]],[[-73.91069,40.56383],[-73.91026,40.5624],[-73.90921,40.56081],[-73.90904,40.5608],[-73.91026,40.5624],[-73.91069,40.56383]],[[-73.88541,40.56691],[-73.88537,40.56686],[-73.88549,40.56703],[-73.88541,40.56691]],[[-73.86399,40.57506],[-73.86399,40.57506],[-73.8628,40.57593],[-73.86399,40.57506]],[[-73.86361,40.57382],[-73.86449,40.57354],[-73.86335,40.57402],[-73.86361,40.57382]],[[-73.86457,40.57369],[-73.86668,40.57299],[-73.86457,40.57369],[-73.86449,40.57354],[-73.86457,40.57369]],[[-73.86447,40.56914],[-73.86534,40.56879],[-73.86447,40.56914],[-73.86447,40.56914]],[[-73.90883,40.5608],[-73.90883,40.5608],[-73.90886,40.5608],[-73.90883,40.5608]],[[-73.90846,40.56081],[-73.90864,40.5608],[-73.90835,40.56075],[-73.90846,40.56081]],[[-73.90856,40.56075],[-73.90856,40.56075],[-73.90877,40.56075],[-73.90856,40.56075]],[[-73.90898,40.56075],[-73.909,40.56075],[-73.90877,40.56075],[-73.90898,40.56075]],[[-73.90908,40.55611],[-73.90948,40.56044],[-73.90949,40.56061],[-73.90908,40.55611]],[[-73.8915,40.56515],[-73.89137,40.56519],[-73.89177,40.56508],[-73.8915,40.56515]],[[-73.89057,40.56541],[-73.89122,40.56523],[-73.89092,40.56531],[-73.89057,40.56541]],[[-73.88691,40.56643],[-73.88801,40.56612],[-73.88674,40.56647],[-73.88691,40.56643]],[[-73.88583,40.56672],[-73.88561,40.56679],[-73.88627,40.5666],[-73.88583,40.56672]]],[[[-73.85722,40.65028],[-73.86099,40.65521],[-73.86045,40.65507],[-73.85979,40.65448],[-73.85898,40.65268],[-73.85732,40.65124],[-73.85696,40.65059],[-73.85722,40.65028]]],[[[-73.86892,40.69515],[-73.87402,40.69419],[-73.87951,40.69115],[-73.88378,40.68786],[-73.88452,40.68668],[-73.88808,40.68529],[-73.88963,40.68424],[-73.89015,40.685],[-73.89258,40.68349],[-73.89417,40.68528],[-73.89578,40.6835],[-73.89647,40.68234],[-73.90116,40.68788],[-73.90042,40.68818],[-73.90189,40.69108],[-73.9014,40.69159],[-73.9058,40.69413],[-73.90426,40.6957],[-73.91181,40.69995],[-73.91068,40.70105],[-73.9129,40.70236],[-73.91181,40.70343],[-73.92189,40.7094],[-73.92075,40.71053],[-73.92155,40.71104],[-73.92223,40.71286],[-73.92404,40.71401],[-73.92368,40.71408],[-73.92412,40.71514],[-73.92233,40.71608],[-73.92064,40.71577],[-73.92057,40.716],[-73.92224,40.71638],[-73.92279,40.71753],[-73.92347,40.71813],[-73.92394,40.71904],[-73.92384,40.72015],[-73.92424,40.72143],[-73.9252,40.72244],[-73.92442,40.72359],[-73.92214,40.72371],[-73.92073,40.72331],[-73.92037,40.72368],[-73.9249,40.72451],[-73.92656,40.72567],[-73.92856,40.72784],[-73.92923,40.72826],[-73.93453,40.7291],[-73.93645,40.72967],[-73.93804,40.73051],[-73.93911,40.73138],[-73.94017,40.73349],[-73.94007,40.73376],[-73.94162,40.73584],[-73.94594,40.73751],[-73.94258,40.73882],[-73.9428,40.73886],[-73.94256,40.73902],[-73.94146,40.73925],[-73.94051,40.74011],[-73.94036,40.74034],[-73.94056,40.74042],[-73.93911,40.74262],[-73.93867,40.74253],[-73.93859,40.74293],[-73.94002,40.74321],[-73.94015,40.74283],[-73.93965,40.74273],[-73.94119,40.74029],[-73.94184,40.73969],[-73.9426,40.7394],[-73.94271,40.73912],[-73.94715,40.7379],[-73.95138,40.73934],[-73.9538,40.73982],[-73.95741,40.73956],[-73.96073,40.73808],[-73.96217,40.73827],[-73.96255,40.7387],[-73.96262,40.73903],[-73.96221,40.74001],[-73.96179,40.74001],[-73.96125,40.74042],[-73.96194,40.74079],[-73.9618,40.7411],[-73.96122,40.74111],[-73.96107,40.74169],[-73.96136,40.74184],[-73.96111,40.74183],[-73.96155,40.74199],[-73.96119,40.74264],[-73.96054,40.74347],[-73.95977,40.7435],[-73.95971,40.74386],[-73.96057,40.74403],[-73.95963,40.74393],[-73.95939,40.74428],[-73.95973,40.74427],[-73.96016,40.74437],[-73.96013,40.74444],[-73.95923,40.74431],[-73.95878,40.74456],[-73.95944,40.7446],[-73.95888,40.74462],[-73.95876,40.74495],[-73.95964,40.7452],[-73.95849,40.74499],[-73.95934,40.74551],[-73.95906,40.74575],[-73.9585,40.74576],[-73.95914,40.746],[-73.95752,40.7483],[-73.95784,40.74834],[-73.95769,40.74854],[-73.95749,40.74834],[-73.95704,40.74892],[-73.95485,40.74804],[-73.95318,40.74773],[-73.95305,40.74809],[-73.95478,40.74843],[-73.95632,40.74908],[-73.95601,40.74937],[-73.95622,40.74952],[-73.956,40.74938],[-73.95576,40.7496],[-73.9562,40.74969],[-73.95546,40.74967],[-73.95535,40.75001],[-73.95507,40.74963],[-73.95452,40.75059],[-73.9545,40.75123],[-73.95131,40.75458],[-73.9435,40.7645],[-73.94131,40.76692],[-73.93984,40.76799],[-73.93937,40.76816],[-73.93896,40.76796],[-73.9382,40.7687],[-73.93789,40.76856],[-73.93796,40.76878],[-73.93747,40.76895],[-73.93681,40.7689],[-73.9364,40.76947],[-73.93574,40.76937],[-73.9349,40.77004],[-73.93469,40.77043],[-73.93515,40.77054],[-73.93501,40.77116],[-73.93453,40.77118],[-73.93444,40.77146],[-73.93555,40.77195],[-73.93557,40.77163],[-73.93585,40.77172],[-73.93559,40.77197],[-73.93747,40.77253],[-73.93781,40.77356],[-73.93765,40.77509],[-73.93609,40.77718],[-73.93474,40.77808],[-73.93272,40.77803],[-73.93179,40.77787],[-73.93105,40.77744],[-73.93063,40.77659],[-73.92988,40.77622],[-73.92861,40.77659],[-73.92632,40.77824],[-73.92487,40.77863],[-73.92296,40.78044],[-73.9221,40.78085],[-73.91909,40.78337],[-73.91819,40.78393],[-73.91717,40.78419],[-73.91683,40.78519],[-73.91575,40.78611],[-73.91526,40.78619],[-73.91559,40.78643],[-73.9126,40.78938],[-73.91241,40.78927],[-73.91267,40.789],[-73.91184,40.78968],[-73.91094,40.78976],[-73.9109,40.79004],[-73.90986,40.79095],[-73.90033,40.78901],[-73.89694,40.78662],[-73.89651,40.78607],[-73.89635,40.78618],[-73.8965,40.78606],[-73.89604,40.7858],[-73.89624,40.78574],[-73.89614,40.78561],[-73.89598,40.78571],[-73.89593,40.78565],[-73.89613,40.78559],[-73.89583,40.78522],[-73.89876,40.78275],[-73.90115,40.78271],[-73.90218,40.78178],[-73.90268,40.78035],[-73.90225,40.78027],[-73.90204,40.7812],[-73.90129,40.78186],[-73.90035,40.78216],[-73.89865,40.782],[-73.89432,40.78424],[-73.89606,40.78316],[-73.89477,40.78225],[-73.89542,40.78172],[-73.89536,40.78166],[-73.8946,40.78225],[-73.89534,40.78159],[-73.89416,40.78247],[-73.89306,40.78185],[-73.89231,40.78247],[-73.89275,40.78297],[-73.89165,40.78219],[-73.89224,40.78241],[-73.89301,40.7818],[-73.89228,40.7813],[-73.89211,40.7814],[-73.89222,40.78121],[-73.89167,40.78085],[-73.89159,40.78058],[-73.89254,40.77955],[-73.89167,40.77949],[-73.8912,40.77856],[-73.89252,40.7774],[-73.89142,40.77634],[-73.89183,40.77488],[-73.89112,40.77712],[-73.89017,40.77785],[-73.88947,40.77554],[-73.88979,40.77424],[-73.89019,40.77365],[-73.88985,40.77375],[-73.88945,40.77353],[-73.88581,40.77402],[-73.88583,40.77411],[-73.88567,40.77413],[-73.88571,40.77432],[-73.88563,40.77444],[-73.88563,40.7741],[-73.88578,40.77402],[-73.88408,40.7741],[-73.88393,40.77418],[-73.88466,40.77448],[-73.88484,40.77495],[-73.88477,40.77533],[-73.88429,40.77548],[-73.88525,40.77861],[-73.88505,40.77878],[-73.88512,40.77951],[-73.88541,40.77966],[-73.88511,40.77952],[-73.88519,40.77979],[-73.88501,40.77956],[-73.88488,40.77999],[-73.88385,40.78026],[-73.88274,40.78022],[-73.88139,40.7806],[-73.87973,40.78065],[-73.87961,40.78085],[-73.87871,40.78059],[-73.87905,40.78173],[-73.87931,40.78185],[-73.87886,40.7824],[-73.87975,40.78284],[-73.8797,40.78288],[-73.87883,40.78243],[-73.87834,40.78303],[-73.87516,40.78151],[-73.87125,40.78604],[-73.86978,40.78534],[-73.8681,40.78746],[-73.86788,40.78736],[-73.86987,40.78509],[-73.86944,40.78364],[-73.86861,40.78381],[-73.8685,40.78367],[-73.86942,40.78359],[-73.87048,40.78231],[-73.87146,40.78213],[-73.87232,40.7811],[-73.87202,40.78096],[-73.87022,40.78125],[-73.87203,40.78093],[-73.87234,40.78109],[-73.87256,40.78082],[-73.86471,40.77673],[-73.85505,40.7722],[-73.85509,40.77183],[-73.85646,40.77027],[-73.85788,40.77066],[-73.85804,40.7702],[-73.85735,40.77018],[-73.85685,40.76954],[-73.85621,40.7692],[-73.85625,40.76889],[-73.85705,40.76914],[-73.85768,40.76828],[-73.85938,40.76708],[-73.86086,40.76693],[-73.8611,40.76727],[-73.86131,40.76694],[-73.86275,40.76676],[-73.85949,40.76256],[-73.85892,40.76241],[-73.85892,40.76212],[-73.85865,40.76251],[-73.85884,40.76206],[-73.85862,40.76194],[-73.85765,40.76308],[-73.8585,40.76338],[-73.85834,40.76356],[-73.85764,40.7631],[-73.85696,40.76407],[-73.85667,40.76393],[-73.85758,40.76307],[-73.85659,40.76272],[-73.85678,40.76251],[-73.8576,40.76305],[-73.85818,40.7624],[-73.85661,40.76165],[-73.85819,40.76237],[-73.85859,40.76192],[-73.85712,40.76119],[-73.8553,40.76065],[-73.85466,40.76017],[-73.85372,40.76025],[-73.85159,40.75936],[-73.85069,40.75945],[-73.84994,40.7597],[-73.8493,40.76024],[-73.84987,40.7611],[-73.85197,40.76025],[-73.85207,40.76039],[-73.84981,40.76127],[-73.84917,40.7603],[-73.84859,40.76018],[-73.84359,40.76337],[-73.84369,40.76361],[-73.84344,40.76343],[-73.84307,40.76359],[-73.84304,40.76432],[-73.84273,40.76463],[-73.84244,40.7645],[-73.84202,40.76369],[-73.84199,40.76363],[-73.84161,40.76373],[-73.84199,40.76363],[-73.84244,40.7645],[-73.84261,40.76468],[-73.84053,40.76539],[-73.84047,40.7653],[-73.83993,40.76535],[-73.8397,40.76529],[-73.83958,40.76525],[-73.83913,40.76599],[-73.8397,40.76639],[-73.83959,40.76711],[-73.83994,40.76706],[-73.84031,40.76629],[-73.84449,40.76546],[-73.8462,40.7662],[-73.84723,40.76631],[-73.84781,40.76677],[-73.84862,40.76811],[-73.84827,40.7682],[-73.84819,40.76848],[-73.84875,40.76871],[-73.849,40.76915],[-73.84847,40.76973],[-73.84867,40.77076],[-73.84994,40.77193],[-73.8503,40.77194],[-73.85034,40.77174],[-73.8513,40.77181],[-73.85127,40.77199],[-73.84995,40.77196],[-73.85004,40.77222],[-73.84957,40.77256],[-73.84898,40.77356],[-73.84922,40.77465],[-73.84893,40.77556],[-73.84919,40.77579],[-73.84897,40.77802],[-73.84975,40.77841],[-73.84947,40.77866],[-73.84993,40.77877],[-73.84957,40.77919],[-73.84964,40.77948],[-73.85095,40.77907],[-73.85149,40.77899],[-73.84982,40.77963],[-73.85235,40.77948],[-73.85236,40.77917],[-73.85239,40.77953],[-73.84982,40.77965],[-73.84956,40.77988],[-73.85031,40.78004],[-73.85046,40.77989],[-73.85169,40.77987],[-73.85167,40.78004],[-73.84949,40.78007],[-73.84989,40.78109],[-73.85094,40.78112],[-73.84989,40.78112],[-73.84984,40.7816],[-73.84919,40.78164],[-73.84955,40.78184],[-73.84925,40.78226],[-73.85029,40.78246],[-73.85528,40.78198],[-73.85545,40.78314],[-73.85645,40.78335],[-73.85665,40.78289],[-73.85684,40.78337],[-73.85808,40.78372],[-73.85817,40.78405],[-73.8579,40.78449],[-73.85853,40.78521],[-73.859,40.78519],[-73.85906,40.78543],[-73.85907,40.78524],[-73.85911,40.78546],[-73.85924,40.78531],[-73.85946,40.78549],[-73.85935,40.78503],[-73.85951,40.78553],[-73.85899,40.78549],[-73.85912,40.78585],[-73.85859,40.78615],[-73.85868,40.78653],[-73.85814,40.78704],[-73.85681,40.78667],[-73.8562,40.78715],[-73.85594,40.78769],[-73.85345,40.78783],[-73.85284,40.78821],[-73.85438,40.78832],[-73.8548,40.78862],[-73.85447,40.79026],[-73.85266,40.79111],[-73.85378,40.79242],[-73.85373,40.79394],[-73.85277,40.79439],[-73.85263,40.79494],[-73.85159,40.79409],[-73.84906,40.79336],[-73.84885,40.7935],[-73.84908,40.79415],[-73.84878,40.79454],[-73.84871,40.79542],[-73.84624,40.79616],[-73.84558,40.79602],[-73.84528,40.79545],[-73.8446,40.79491],[-73.84355,40.79491],[-73.84334,40.79502],[-73.84331,40.7955],[-73.84285,40.79521],[-73.84328,40.79617],[-73.84281,40.79542],[-73.84226,40.79558],[-73.84287,40.79692],[-73.84217,40.79561],[-73.84142,40.79515],[-73.8413,40.79622],[-73.8406,40.79681],[-73.84014,40.79688],[-73.84042,40.79768],[-73.83921,40.79784],[-73.83843,40.79838],[-73.8379,40.79851],[-73.83919,40.79778],[-73.84026,40.79759],[-73.83997,40.79691],[-73.83904,40.79705],[-73.8384,40.79676],[-73.83706,40.79385],[-73.83659,40.79208],[-73.83662,40.79176],[-73.83732,40.79139],[-73.83752,40.79101],[-73.8375,40.79046],[-73.83682,40.79047],[-73.83748,40.79043],[-73.83718,40.78943],[-73.83728,40.78901],[-73.83713,40.78956],[-73.83566,40.78957],[-73.83533,40.78921],[-73.83414,40.78907],[-73.83381,40.78852],[-73.83293,40.78852],[-73.83212,40.78877],[-73.83174,40.78923],[-73.83144,40.78918],[-73.83195,40.78941],[-73.83215,40.79004],[-73.83137,40.79137],[-73.83066,40.79165],[-73.82997,40.79156],[-73.82895,40.79201],[-73.82852,40.79249],[-73.82923,40.793],[-73.8284,40.79255],[-73.82791,40.79289],[-73.82797,40.79479],[-73.82881,40.79618],[-73.82945,40.79666],[-73.82994,40.79608],[-73.83003,40.79614],[-73.82947,40.79667],[-73.82977,40.79683],[-73.83029,40.79624],[-73.83052,40.79639],[-73.82996,40.79691],[-73.82978,40.79687],[-73.82906,40.79646],[-73.82742,40.79675],[-73.82697,40.79713],[-73.82718,40.79761],[-73.82674,40.7978],[-73.82612,40.79727],[-73.82506,40.79738],[-73.82399,40.79801],[-73.82423,40.7987],[-73.82386,40.79815],[-73.82343,40.79841],[-73.82372,40.7989],[-73.82325,40.79847],[-73.8231,40.79868],[-73.82331,40.79896],[-73.823,40.79864],[-73.82261,40.79889],[-73.82279,40.79934],[-73.82241,40.79909],[-73.82268,40.79949],[-73.82239,40.79911],[-73.82162,40.79999],[-73.82043,40.80063],[-73.8205,40.80101],[-73.8204,40.80064],[-73.81981,40.8008],[-73.81922,40.80059],[-73.81721,40.79921],[-73.81684,40.79911],[-73.81657,40.79941],[-73.81682,40.7991],[-73.81646,40.79935],[-73.81668,40.79906],[-73.81611,40.79861],[-73.81577,40.79902],[-73.81608,40.79857],[-73.81368,40.79755],[-73.8137,40.79708],[-73.81335,40.79767],[-73.81364,40.79705],[-73.8135,40.79694],[-73.81325,40.79721],[-73.81287,40.79718],[-73.81255,40.79805],[-73.81224,40.79813],[-73.81179,40.79803],[-73.81182,40.79746],[-73.81161,40.79737],[-73.80636,40.79639],[-73.80623,40.79682],[-73.80633,40.79639],[-73.80589,40.79647],[-73.8054,40.79617],[-73.80532,40.79651],[-73.80534,40.79616],[-73.80467,40.79617],[-73.80463,40.79637],[-73.80462,40.79614],[-73.80435,40.79621],[-73.80427,40.79664],[-73.80417,40.79623],[-73.80411,40.79668],[-73.80414,40.79623],[-73.80395,40.79665],[-73.80387,40.79631],[-73.80361,40.79663],[-73.80348,40.79647],[-73.8034,40.79691],[-73.80346,40.79647],[-73.80321,40.79708],[-73.80326,40.79671],[-73.80258,40.7963],[-73.80101,40.79652],[-73.80029,40.79625],[-73.8002,40.79627],[-73.80016,40.79645],[-73.80013,40.79645],[-73.80018,40.79627],[-73.79961,40.79633],[-73.7979,40.79556],[-73.79767,40.79599],[-73.79758,40.79597],[-73.79787,40.79555],[-73.79674,40.79521],[-73.79649,40.79565],[-73.79671,40.7952],[-73.7965,40.79512],[-73.7946,40.79494],[-73.79438,40.79479],[-73.79456,40.79475],[-73.79432,40.79435],[-73.79432,40.79358],[-73.79464,40.79311],[-73.79458,40.79271],[-73.79484,40.79253],[-73.79494,40.79175],[-73.79375,40.78906],[-73.79338,40.78958],[-73.79362,40.789],[-73.79269,40.78878],[-73.79028,40.79032],[-73.78568,40.79034],[-73.78384,40.79064],[-73.78253,40.79128],[-73.78434,40.79175],[-73.78175,40.79113],[-73.78108,40.79168],[-73.78078,40.79299],[-73.78084,40.79328],[-73.78159,40.79346],[-73.78164,40.79331],[-73.78166,40.79348],[-73.78072,40.79333],[-73.78079,40.79404],[-73.7819,40.7949],[-73.78332,40.79476],[-73.78326,40.79492],[-73.782,40.79498],[-73.78154,40.79566],[-73.7798,40.79621],[-73.77943,40.79666],[-73.77827,40.79673],[-73.77618,40.7961],[-73.77472,40.79486],[-73.77401,40.79403],[-73.77363,40.79275],[-73.77236,40.79154],[-73.77213,40.79018],[-73.77063,40.78846],[-73.77082,40.78798],[-73.7719,40.78739],[-73.77427,40.78676],[-73.77423,40.78707],[-73.77502,40.78739],[-73.77634,40.78849],[-73.77426,40.78665],[-73.77408,40.78592],[-73.77061,40.78208],[-73.77076,40.782],[-73.77087,40.78194],[-73.77061,40.78208],[-73.76816,40.77964],[-73.7682,40.77944],[-73.76716,40.77978],[-73.76702,40.78009],[-73.76678,40.77981],[-73.76816,40.7794],[-73.76709,40.77684],[-73.7651,40.7738],[-73.7596,40.76872],[-73.75894,40.76833],[-73.75864,40.76736],[-73.75787,40.76695],[-73.75739,40.76717],[-73.75641,40.76651],[-73.7565,40.76635],[-73.75602,40.76646],[-73.75494,40.76609],[-73.75219,40.76383],[-73.75107,40.76176],[-73.74861,40.76093],[-73.74754,40.75986],[-73.74656,40.75934],[-73.74629,40.75906],[-73.74642,40.75821],[-73.74628,40.7578],[-73.74613,40.75768],[-73.74576,40.75784],[-73.74464,40.75689],[-73.74466,40.75656],[-73.74458,40.75691],[-73.74487,40.7572],[-73.74576,40.75791],[-73.74605,40.75781],[-73.74631,40.75805],[-73.74606,40.75876],[-73.74636,40.75929],[-73.74749,40.75998],[-73.74854,40.76139],[-73.74887,40.76167],[-73.74922,40.76158],[-73.74917,40.76138],[-73.75004,40.76158],[-73.75123,40.76252],[-73.7517,40.76365],[-73.75305,40.76482],[-73.75507,40.76753],[-73.75486,40.7684],[-73.75439,40.76875],[-73.75471,40.7688],[-73.75471,40.76974],[-73.75533,40.771],[-73.75553,40.77099],[-73.75534,40.77102],[-73.75557,40.77153],[-73.75438,40.77204],[-73.75357,40.77269],[-73.75337,40.77321],[-73.75424,40.77527],[-73.75519,40.7765],[-73.75486,40.7769],[-73.75481,40.77762],[-73.75552,40.77758],[-73.75552,40.7777],[-73.75471,40.77772],[-73.75403,40.7796],[-73.75301,40.78087],[-73.753,40.78129],[-73.75218,40.78212],[-73.75135,40.78253],[-73.75072,40.78263],[-73.75021,40.7824],[-73.74896,40.78107],[-73.74825,40.78076],[-73.74803,40.78048],[-73.74814,40.78024],[-73.74736,40.77938],[-73.74778,40.77911],[-73.74717,40.77886],[-73.74679,40.77903],[-73.74687,40.77888],[-73.74564,40.77783],[-73.74535,40.77715],[-73.74569,40.77815],[-73.74611,40.77846],[-73.74601,40.77888],[-73.74541,40.77898],[-73.74508,40.77825],[-73.74462,40.77792],[-73.74524,40.7774],[-73.74525,40.77696],[-73.74502,40.7766],[-73.74508,40.77745],[-73.74467,40.77768],[-73.74472,40.77749],[-73.74443,40.77746],[-73.74442,40.77812],[-73.74408,40.77826],[-73.74433,40.77843],[-73.74404,40.77859],[-73.74008,40.77621],[-73.73938,40.77601],[-73.72153,40.76482],[-73.72098,40.76476],[-73.70783,40.75622],[-73.70163,40.75249],[-73.70002,40.73924],[-73.70147,40.73751],[-73.70766,40.72783],[-73.7105,40.72723],[-73.71693,40.72639],[-73.72567,40.72404],[-73.73033,40.72216],[-73.72918,40.71917],[-73.72689,40.70998],[-73.72705,40.7095],[-73.72679,40.70195],[-73.72563,40.67959],[-73.72629,40.67706],[-73.72756,40.67416],[-73.72824,40.66802],[-73.72827,40.66643],[-73.72811,40.66535],[-73.72786,40.66507],[-73.72782,40.66312],[-73.72833,40.66304],[-73.72793,40.66175],[-73.72644,40.65916],[-73.72557,40.65673],[-73.7255,40.65552],[-73.72498,40.65425],[-73.72523,40.652],[-73.73051,40.65031],[-73.73514,40.64973],[-73.73904,40.6482],[-73.74144,40.64689],[-73.74166,40.6422],[-73.74205,40.64147],[-73.74142,40.6405],[-73.74227,40.64012],[-73.74126,40.6389],[-73.73947,40.63571],[-73.73996,40.63514],[-73.74,40.63531],[-73.74171,40.63504],[-73.74168,40.63495],[-73.74149,40.63501],[-73.74146,40.63494],[-73.7417,40.63488],[-73.74254,40.63517],[-73.74239,40.63563],[-73.74259,40.63545],[-73.74125,40.63694],[-73.74112,40.63747],[-73.74096,40.6373],[-73.74122,40.63782],[-73.74273,40.63827],[-73.74397,40.63788],[-73.74352,40.63889],[-73.74377,40.63902],[-73.7448,40.63708],[-73.74471,40.63731],[-73.74626,40.63644],[-73.74661,40.63658],[-73.74679,40.63685],[-73.74645,40.63726],[-73.74516,40.63811],[-73.74538,40.63829],[-73.74567,40.63812],[-73.74551,40.63794],[-73.74644,40.63743],[-73.74691,40.63692],[-73.74716,40.63706],[-73.7466,40.63835],[-73.74617,40.6404],[-73.74631,40.64139],[-73.74729,40.64319],[-73.74875,40.64447],[-73.74885,40.64517],[-73.74945,40.64493],[-73.75171,40.6465],[-73.75327,40.64733],[-73.7534,40.64716],[-73.75323,40.64705],[-73.75354,40.6472],[-73.75329,40.64734],[-73.75428,40.64789],[-73.75476,40.64781],[-73.75493,40.64757],[-73.75461,40.6472],[-73.75379,40.64671],[-73.75374,40.64696],[-73.7534,40.64681],[-73.75376,40.64669],[-73.74871,40.64334],[-73.74742,40.64141],[-73.74753,40.63932],[-73.74812,40.63687],[-73.7484,40.63665],[-73.74855,40.63541],[-73.74935,40.63495],[-73.7507,40.63463],[-73.75244,40.63368],[-73.75348,40.63351],[-73.75901,40.63149],[-73.76053,40.63066],[-73.76219,40.63026],[-73.76309,40.62966],[-73.76453,40.62922],[-73.765,40.62942],[-73.76474,40.62917],[-73.7664,40.62835],[-73.767,40.62753],[-73.76878,40.62432],[-73.76855,40.62319],[-73.76869,40.62268],[-73.76952,40.62212],[-73.76982,40.62138],[-73.77156,40.62136],[-73.77091,40.6224],[-73.77082,40.62328],[-73.77144,40.62328],[-73.77173,40.62359],[-73.77512,40.61923],[-73.77221,40.62301],[-73.7724,40.6231],[-73.77217,40.62306],[-73.772,40.62326],[-73.77217,40.62336],[-73.77182,40.6235],[-73.77199,40.6236],[-73.77174,40.62361],[-73.77324,40.62499],[-73.77381,40.62493],[-73.77349,40.62514],[-73.77408,40.62578],[-73.77654,40.62765],[-73.77947,40.62732],[-73.78419,40.62089],[-73.78522,40.62006],[-73.78516,40.61865],[-73.78478,40.61834],[-73.78479,40.61798],[-73.78436,40.61776],[-73.78446,40.61703],[-73.78323,40.61558],[-73.78249,40.61557],[-73.7823,40.61517],[-73.78172,40.61518],[-73.78079,40.61459],[-73.78071,40.61403],[-73.78115,40.614],[-73.78088,40.61364],[-73.78355,40.61192],[-73.78498,40.61193],[-73.78578,40.61099],[-73.7872,40.61066],[-73.78742,40.61026],[-73.78866,40.61009],[-73.78876,40.60964],[-73.78908,40.60955],[-73.78902,40.60922],[-73.79011,40.60886],[-73.79001,40.60869],[-73.79086,40.60805],[-73.79088,40.6077],[-73.7914,40.60761],[-73.7916,40.60781],[-73.79151,40.60815],[-73.79107,40.60838],[-73.79147,40.6087],[-73.79275,40.60865],[-73.79365,40.60899],[-73.79395,40.60926],[-73.79385,40.60942],[-73.79454,40.60975],[-73.79506,40.61049],[-73.79746,40.61132],[-73.79899,40.61148],[-73.79917,40.61203],[-73.80026,40.6116],[-73.8008,40.61193],[-73.80024,40.61208],[-73.79993,40.61314],[-73.79932,40.61336],[-73.79969,40.61378],[-73.79904,40.61555],[-73.79854,40.61589],[-73.79816,40.61572],[-73.79806,40.61633],[-73.79728,40.61666],[-73.79743,40.61692],[-73.79713,40.61738],[-73.79724,40.61759],[-73.79678,40.6177],[-73.797,40.61838],[-73.79636,40.61845],[-73.79619,40.61961],[-73.7956,40.62021],[-73.79554,40.62091],[-73.79502,40.62129],[-73.79523,40.62161],[-73.79447,40.62179],[-73.79471,40.62218],[-73.79458,40.62252],[-73.79355,40.6227],[-73.79143,40.62228],[-73.78973,40.62266],[-73.78594,40.62585],[-73.78536,40.62671],[-73.78488,40.62663],[-73.78363,40.62814],[-73.78328,40.62895],[-73.78349,40.63017],[-73.78435,40.63137],[-73.7857,40.63209],[-73.78691,40.63226],[-73.78935,40.63401],[-73.78943,40.63426],[-73.79077,40.63385],[-73.79079,40.63428],[-73.79812,40.63104],[-73.79828,40.63125],[-73.79081,40.63431],[-73.79131,40.6344],[-73.79123,40.63486],[-73.79222,40.63589],[-73.79343,40.63609],[-73.79474,40.63663],[-73.79726,40.63801],[-73.79924,40.63842],[-73.80177,40.63976],[-73.80466,40.64091],[-73.80566,40.6416],[-73.8067,40.64178],[-73.80865,40.64281],[-73.81076,40.64349],[-73.81203,40.6443],[-73.81364,40.64469],[-73.81565,40.64563],[-73.8183,40.64627],[-73.82123,40.64898],[-73.82215,40.65014],[-73.82261,40.65279],[-73.82322,40.65412],[-73.82347,40.65531],[-73.82239,40.6593],[-73.82154,40.65997],[-73.82175,40.66012],[-73.82151,40.65998],[-73.81971,40.66087],[-73.8187,40.66111],[-73.81457,40.66063],[-73.81309,40.66019],[-73.81129,40.66037],[-73.8113,40.66063],[-73.81201,40.66088],[-73.81867,40.66213],[-73.82348,40.66006],[-73.82426,40.65778],[-73.82404,40.65776],[-73.82406,40.6577],[-73.82427,40.65775],[-73.82493,40.65544],[-73.82348,40.65048],[-73.82342,40.64946],[-73.82291,40.64809],[-73.82307,40.64801],[-73.82387,40.64882],[-73.82396,40.64919],[-73.82459,40.64948],[-73.825,40.64938],[-73.82534,40.64967],[-73.82589,40.64949],[-73.82614,40.65008],[-73.82641,40.64929],[-73.82622,40.64836],[-73.82846,40.64912],[-73.8296,40.64983],[-73.82939,40.64997],[-73.8296,40.64983],[-73.83001,40.65033],[-73.83001,40.6509],[-73.83094,40.65163],[-73.83132,40.65273],[-73.83129,40.65348],[-73.83161,40.65375],[-73.82901,40.65611],[-73.82967,40.6556],[-73.83044,40.65552],[-73.8306,40.65481],[-73.83171,40.65393],[-73.83205,40.65405],[-73.832,40.65444],[-73.83222,40.65446],[-73.83149,40.65498],[-73.83116,40.65592],[-73.83003,40.65657],[-73.82938,40.65651],[-73.82931,40.65693],[-73.82897,40.65721],[-73.82918,40.6578],[-73.83013,40.6584],[-73.82971,40.6585],[-73.8296,40.65866],[-73.83013,40.65981],[-73.8297,40.65866],[-73.83024,40.65835],[-73.82922,40.65771],[-73.82909,40.65733],[-73.8295,40.65665],[-73.83009,40.65674],[-73.83127,40.656],[-73.83185,40.65489],[-73.83218,40.65489],[-73.8329,40.65748],[-73.83194,40.65617],[-73.8326,40.65783],[-73.83113,40.65832],[-73.83338,40.65805],[-73.8308,40.64898],[-73.83149,40.64789],[-73.83453,40.64803],[-73.83557,40.64843],[-73.83597,40.64935],[-73.83845,40.65936],[-73.83881,40.66094],[-73.83863,40.66108],[-73.83884,40.66112],[-73.83893,40.66127],[-73.83808,40.66159],[-73.83814,40.66207],[-73.83872,40.66241],[-73.8397,40.66224],[-73.83962,40.662],[-73.83998,40.6619],[-73.83592,40.6455],[-73.83633,40.64532],[-73.83659,40.64589],[-73.83739,40.64912],[-73.83659,40.64589],[-73.83633,40.64532],[-73.83861,40.64535],[-73.84579,40.6441],[-73.84951,40.64413],[-73.85208,40.64618],[-73.85243,40.64716],[-73.85173,40.64891],[-73.85137,40.64918],[-73.85091,40.64917],[-73.85059,40.65034],[-73.85038,40.65027],[-73.85042,40.65048],[-73.84926,40.65103],[-73.8494,40.65143],[-73.84992,40.65166],[-73.85078,40.65153],[-73.85251,40.65055],[-73.85403,40.65066],[-73.85525,40.65127],[-73.85592,40.65131],[-73.85628,40.65165],[-73.85671,40.6528],[-73.85705,40.65297],[-73.85772,40.65273],[-73.85828,40.65299],[-73.85933,40.65494],[-73.86136,40.65641],[-73.86136,40.65659],[-73.86062,40.65646],[-73.86021,40.65701],[-73.86007,40.65678],[-73.85983,40.65698],[-73.86007,40.65705],[-73.85981,40.65732],[-73.85994,40.65772],[-73.85957,40.65804],[-73.85964,40.65846],[-73.86026,40.65863],[-73.86023,40.6589],[-73.86051,40.6585],[-73.86098,40.65838],[-73.86049,40.65899],[-73.86061,40.65933],[-73.86125,40.65872],[-73.86127,40.65827],[-73.86096,40.65806],[-73.85977,40.65828],[-73.86058,40.65784],[-73.86034,40.65725],[-73.86088,40.65691],[-73.86161,40.657],[-73.8617,40.65802],[-73.8627,40.65762],[-73.86317,40.65828],[-73.8603,40.65963],[-73.85762,40.66012],[-73.85843,40.66345],[-73.85568,40.66387],[-73.85763,40.67166],[-73.86039,40.67125],[-73.86235,40.67916],[-73.86328,40.67908],[-73.8641,40.68237],[-73.86602,40.68192],[-73.8666,40.68527],[-73.86868,40.69403],[-73.86841,40.69473],[-73.86892,40.69515]],[[-73.83973,40.76515],[-73.83973,40.76515],[-73.84002,40.76423],[-73.83973,40.76515]],[[-73.84002,40.76423],[-73.84003,40.76407],[-73.84002,40.76396],[-73.84002,40.76423]],[[-73.84002,40.76396],[-73.83998,40.76344],[-73.83992,40.76321],[-73.84002,40.76396]],[[-73.8396,40.76255],[-73.83957,40.76248],[-73.83925,40.76191],[-73.83957,40.76248],[-73.8396,40.76254],[-73.8396,40.76255]],[[-73.84168,40.76231],[-73.84185,40.7623],[-73.84192,40.7623],[-73.84168,40.76231]],[[-73.84211,40.76227],[-73.84213,40.76227],[-73.84206,40.76228],[-73.84211,40.76227]],[[-73.84283,40.76208],[-73.84361,40.76178],[-73.84271,40.76212],[-73.84283,40.76208]],[[-73.84372,40.76174],[-73.84455,40.76129],[-73.84522,40.76086],[-73.84549,40.76069],[-73.84585,40.76046],[-73.84372,40.76174]],[[-73.84549,40.75973],[-73.84513,40.75907],[-73.84445,40.75774],[-73.84513,40.75907],[-73.84549,40.75973],[-73.84585,40.76046],[-73.84549,40.75973]],[[-73.84253,40.75554],[-73.842,40.75572],[-73.84324,40.75534],[-73.84253,40.75554]],[[-73.842,40.75572],[-73.83912,40.75683],[-73.83912,40.75682],[-73.842,40.75572]],[[-73.83908,40.75673],[-73.8391,40.75677],[-73.83909,40.75677],[-73.83908,40.75673]],[[-73.83906,40.7567],[-73.83905,40.75668],[-73.83906,40.75667],[-73.83906,40.7567]],[[-73.83906,40.75667],[-73.83906,40.75666],[-73.83906,40.75667],[-73.83906,40.75667]],[[-73.83908,40.75665],[-73.8391,40.75664],[-73.83914,40.75662],[-73.83908,40.75665]],[[-73.83919,40.7566],[-73.83923,40.75658],[-73.83914,40.75662],[-73.83919,40.7566]],[[-73.83937,40.7565],[-73.83945,40.75646],[-73.83946,40.75645],[-73.83937,40.7565]],[[-73.83953,40.75639],[-73.83951,40.75642],[-73.83952,40.75641],[-73.83952,40.7564],[-73.83953,40.75639]],[[-73.83953,40.75637],[-73.83953,40.75633],[-73.83953,40.7563],[-73.83953,40.75637]],[[-73.83955,40.75624],[-73.8396,40.75614],[-73.83961,40.75613],[-73.83956,40.75622],[-73.83955,40.75624]],[[-73.83964,40.75608],[-73.83972,40.75595],[-73.8398,40.75588],[-73.83964,40.75608]],[[-73.84019,40.7556],[-73.8399,40.75581],[-73.84002,40.75574],[-73.84005,40.75572],[-73.84007,40.75571],[-73.84009,40.75569],[-73.84012,40.75566],[-73.84018,40.75561],[-73.84019,40.7556]],[[-73.84029,40.75553],[-73.8403,40.75552],[-73.84028,40.75554],[-73.84029,40.75553]],[[-73.84038,40.75547],[-73.84039,40.75547],[-73.84038,40.75548],[-73.84038,40.75547]],[[-73.84042,40.75542],[-73.84041,40.75544],[-73.84041,40.75544],[-73.84042,40.75542]],[[-73.84047,40.75537],[-73.84051,40.75534],[-73.84054,40.75532],[-73.84047,40.75537]],[[-73.84063,40.75524],[-73.84063,40.75524],[-73.84065,40.75522],[-73.84063,40.75524]],[[-73.84073,40.75498],[-73.84066,40.75521],[-73.84068,40.75518],[-73.84069,40.75514],[-73.84073,40.75498]],[[-73.84074,40.75498],[-73.84074,40.75496],[-73.84075,40.75496],[-73.84074,40.75496],[-73.84074,40.75497],[-73.84074,40.75498]],[[-73.84075,40.7549],[-73.84075,40.75493],[-73.84075,40.75493],[-73.84075,40.7549]],[[-73.84073,40.75485],[-73.84073,40.75477],[-73.84076,40.75469],[-73.84073,40.75485]],[[-73.84076,40.75466],[-73.84076,40.75464],[-73.84076,40.75469],[-73.84076,40.75466]],[[-73.84077,40.75462],[-73.84077,40.75459],[-73.84076,40.75458],[-73.84072,40.75446],[-73.84071,40.75438],[-73.84069,40.75433],[-73.84069,40.75414],[-73.84069,40.75433],[-73.84072,40.75446],[-73.84076,40.75458],[-73.84077,40.75462]],[[-73.84077,40.75394],[-73.8407,40.75409],[-73.84073,40.75406],[-73.84075,40.75402],[-73.84076,40.75398],[-73.84077,40.75394]],[[-73.84073,40.7538],[-73.84078,40.75389],[-73.84078,40.75387],[-73.84077,40.75384],[-73.84075,40.75382],[-73.84073,40.7538]],[[-73.84072,40.75377],[-73.84069,40.75364],[-73.84073,40.7538],[-73.84072,40.75377]],[[-73.84068,40.75358],[-73.84004,40.7538],[-73.83806,40.75449],[-73.84004,40.7538],[-73.84068,40.75358]],[[-73.83799,40.75452],[-73.83799,40.75452],[-73.83806,40.75449],[-73.83799,40.75452]],[[-73.83793,40.75441],[-73.83625,40.75191],[-73.83555,40.75088],[-73.83793,40.75441]],[[-73.83555,40.75088],[-73.83479,40.74946],[-73.83473,40.74829],[-73.83479,40.74946],[-73.83508,40.75015],[-73.83555,40.75088]],[[-73.83474,40.74827],[-73.83502,40.74736],[-73.83514,40.74716],[-73.83474,40.74827]],[[-73.83482,40.74692],[-73.835,40.74702],[-73.83493,40.74698],[-73.83486,40.74694],[-73.83482,40.74692]],[[-73.8347,40.74689],[-73.83507,40.7462],[-73.83477,40.7469],[-73.8347,40.74689]],[[-73.83507,40.7462],[-73.83557,40.74515],[-73.83568,40.74485],[-73.83582,40.7443],[-73.83507,40.7462]],[[-73.83595,40.74373],[-73.83593,40.7435],[-73.83586,40.74414],[-73.83595,40.74373]],[[-73.83592,40.74343],[-73.83592,40.74343],[-73.83593,40.7435],[-73.83592,40.74343]],[[-73.83715,40.74336],[-73.83732,40.74335],[-73.83735,40.74334],[-73.83715,40.74336]],[[-73.83768,40.74198],[-73.83769,40.74324],[-73.83772,40.74237],[-73.83768,40.74198],[-73.83756,40.74147],[-73.83738,40.74084],[-73.83722,40.7403],[-73.83719,40.74019],[-73.83768,40.74198]],[[-73.83674,40.7386],[-73.83673,40.73852],[-73.83703,40.73964],[-73.83674,40.7386]],[[-73.83645,40.73598],[-73.83636,40.73501],[-73.83613,40.73424],[-73.83607,40.73412],[-73.83645,40.73598]],[[-73.83598,40.73392],[-73.83583,40.73362],[-73.83557,40.73312],[-73.83518,40.73239],[-73.83501,40.73205],[-73.83426,40.73061],[-73.83598,40.73392]],[[-73.83372,40.72958],[-73.83286,40.72789],[-73.83254,40.72729],[-73.83247,40.72717],[-73.83372,40.72958]],[[-73.83206,40.72659],[-73.83225,40.72683],[-73.83213,40.72667],[-73.83206,40.72659]],[[-73.83193,40.72644],[-73.83172,40.72622],[-73.83142,40.72596],[-73.83193,40.72644]],[[-73.83105,40.72569],[-73.83094,40.72562],[-73.83142,40.72596],[-73.83105,40.72569]],[[-73.83064,40.72542],[-73.83034,40.72523],[-73.82996,40.72498],[-73.83034,40.72523],[-73.83064,40.72542],[-73.8308,40.72553],[-73.83064,40.72542]],[[-73.82965,40.72478],[-73.82942,40.72461],[-73.82996,40.72498],[-73.82965,40.72478]],[[-73.82913,40.72439],[-73.82846,40.72379],[-73.82783,40.72307],[-73.82913,40.72439]],[[-73.8278,40.72303],[-73.82662,40.72124],[-73.82651,40.72104],[-73.8278,40.72303]],[[-73.82641,40.72083],[-73.82621,40.72011],[-73.82618,40.71931],[-73.82621,40.72011],[-73.82641,40.72083]],[[-73.8262,40.7191],[-73.8263,40.71867],[-73.82612,40.71757],[-73.8263,40.71867],[-73.8262,40.7191]],[[-73.8261,40.71724],[-73.82592,40.71665],[-73.82591,40.71662],[-73.8261,40.71724]],[[-73.82586,40.71647],[-73.82579,40.71622],[-73.82574,40.71612],[-73.82586,40.71647]],[[-73.82558,40.71576],[-73.82563,40.71586],[-73.82559,40.71577],[-73.82558,40.71576]],[[-73.82555,40.71571],[-73.82553,40.71566],[-73.82558,40.71576],[-73.82555,40.71571]],[[-73.82552,40.71564],[-73.82483,40.71464],[-73.82456,40.71426],[-73.82552,40.71564]],[[-73.82456,40.71426],[-73.82426,40.71382],[-73.82394,40.71323],[-73.82384,40.71294],[-73.82375,40.71284],[-73.82384,40.71294],[-73.82394,40.71323],[-73.82429,40.71387],[-73.82456,40.71426]],[[-73.88765,40.76686],[-73.88813,40.76826],[-73.88818,40.76843],[-73.88819,40.76853],[-73.8882,40.76858],[-73.88822,40.76862],[-73.88825,40.76867],[-73.88828,40.76871],[-73.88832,40.76875],[-73.88836,40.76878],[-73.88841,40.76881],[-73.88846,40.76884],[-73.88851,40.76887],[-73.88857,40.76888],[-73.88863,40.7689],[-73.88822,40.76862],[-73.8882,40.76858],[-73.88818,40.76843],[-73.88813,40.76826],[-73.88771,40.76684],[-73.88765,40.76686]],[[-73.8887,40.76891],[-73.88874,40.76892],[-73.88863,40.7689],[-73.8887,40.76891]],[[-73.8875,40.7669],[-73.88668,40.7671],[-73.88603,40.76728],[-73.8875,40.7669]],[[-73.8844,40.76784],[-73.8844,40.76784],[-73.88494,40.76764],[-73.8844,40.76784]],[[-73.87843,40.77084],[-73.87858,40.77078],[-73.87881,40.77066],[-73.87858,40.77078],[-73.87843,40.77084]],[[-73.87779,40.77109],[-73.87697,40.77134],[-73.87605,40.77154],[-73.87779,40.77109]],[[-73.87334,40.77176],[-73.87334,40.77176],[-73.87277,40.77173],[-73.87334,40.77176]],[[-73.87277,40.77173],[-73.87175,40.77162],[-73.87143,40.77158],[-73.87277,40.77173]],[[-73.87071,40.77139],[-73.87048,40.77131],[-73.87095,40.77145],[-73.87071,40.77139]],[[-73.86998,40.77114],[-73.86889,40.77065],[-73.86728,40.76965],[-73.86998,40.77114]],[[-73.86551,40.76835],[-73.86458,40.76757],[-73.86601,40.76875],[-73.86551,40.76835]],[[-73.86322,40.76625],[-73.8634,40.76646],[-73.86353,40.76658],[-73.8634,40.76646],[-73.86322,40.76625]],[[-73.86307,40.76633],[-73.86307,40.76633],[-73.86312,40.7663],[-73.86307,40.76633]],[[-73.84063,40.76402],[-73.8411,40.76388],[-73.84063,40.76402],[-73.84063,40.76402]],[[-73.89804,40.75415],[-73.89807,40.75411],[-73.89801,40.75418],[-73.89804,40.75415]],[[-73.89442,40.77473],[-73.89656,40.77625],[-73.89423,40.77815],[-73.89656,40.77625],[-73.89513,40.77523],[-73.89442,40.77473]],[[-73.89442,40.77473],[-73.89356,40.77412],[-73.89341,40.77403],[-73.89324,40.77394],[-73.89307,40.77387],[-73.89298,40.77384],[-73.89442,40.77473]],[[-73.8897,40.7731],[-73.89136,40.77347],[-73.89238,40.77369],[-73.8897,40.7731]],[[-73.88945,40.77302],[-73.88953,40.77306],[-73.88955,40.77307],[-73.88945,40.77302]],[[-73.88945,40.77302],[-73.88871,40.76909],[-73.88904,40.77092],[-73.8894,40.77293],[-73.88941,40.77299],[-73.88943,40.773],[-73.88945,40.77302]],[[-73.82327,40.71233],[-73.8229,40.71198],[-73.82336,40.71242],[-73.82327,40.71233]],[[-73.82282,40.71191],[-73.82078,40.71016],[-73.82064,40.70997],[-73.82039,40.70968],[-73.82026,40.70954],[-73.81983,40.70888],[-73.82026,40.70954],[-73.82078,40.71016],[-73.82103,40.71043],[-73.82175,40.71104],[-73.82282,40.71191]],[[-73.81954,40.70844],[-73.81899,40.70747],[-73.81892,40.70735],[-73.81861,40.70685],[-73.81812,40.70601],[-73.81861,40.70685],[-73.81899,40.70747],[-73.81954,40.70844]],[[-73.81792,40.70563],[-73.8171,40.70403],[-73.81703,40.70403],[-73.81792,40.70563]],[[-73.8269,40.65035],[-73.8269,40.65035],[-73.82698,40.65033],[-73.8269,40.65035]],[[-73.83456,40.64954],[-73.83547,40.64941],[-73.83433,40.64958],[-73.83456,40.64954]],[[-73.83272,40.64981],[-73.8318,40.64994],[-73.83272,40.64981],[-73.83292,40.64978],[-73.83272,40.64981]],[[-73.77267,40.78095],[-73.77267,40.78095],[-73.77235,40.78113],[-73.77267,40.78095]],[[-73.77404,40.78019],[-73.77562,40.77927],[-73.77392,40.78025],[-73.77404,40.78019]],[[-73.77584,40.77861],[-73.77584,40.77861],[-73.77631,40.77851],[-73.77584,40.77861]],[[-73.77794,40.77809],[-73.77769,40.77816],[-73.77724,40.77828],[-73.77769,40.77816],[-73.77794,40.77809]],[[-73.77948,40.77766],[-73.7828,40.77667],[-73.78408,40.77629],[-73.7828,40.77667],[-73.78036,40.77739],[-73.77948,40.77766],[-73.77901,40.7778],[-73.77948,40.77766]],[[-73.78441,40.77619],[-73.78459,40.77614],[-73.78408,40.77629],[-73.78441,40.77619]],[[-73.78528,40.77593],[-73.78491,40.77604],[-73.78459,40.77614],[-73.78491,40.77604],[-73.78528,40.77593]],[[-73.78853,40.77501],[-73.78827,40.77508],[-73.78741,40.77532],[-73.78827,40.77508],[-73.78853,40.77501]],[[-73.78914,40.77485],[-73.79035,40.77457],[-73.78906,40.77487],[-73.78914,40.77485]],[[-73.7915,40.77427],[-73.7915,40.77427],[-73.79037,40.77457],[-73.7915,40.77427]],[[-73.79248,40.76861],[-73.79246,40.76878],[-73.79245,40.76883],[-73.79246,40.76878],[-73.79248,40.76861]],[[-73.79343,40.75334],[-73.79458,40.75356],[-73.79238,40.75307],[-73.79343,40.75334]],[[-73.79476,40.74986],[-73.79481,40.74878],[-73.79481,40.74878],[-73.79476,40.74986]],[[-73.79448,40.74567],[-73.79448,40.74567],[-73.79452,40.7459],[-73.79448,40.74567]],[[-73.79446,40.74544],[-73.79446,40.74544],[-73.79447,40.74552],[-73.79446,40.74544]],[[-73.79446,40.74497],[-73.79446,40.74497],[-73.79446,40.74497],[-73.79446,40.74497]],[[-73.79449,40.74474],[-73.79449,40.74474],[-73.79449,40.74474],[-73.79449,40.74474]],[[-73.79461,40.74433],[-73.79461,40.74433],[-73.79458,40.74439],[-73.79461,40.74433]],[[-73.79501,40.74374],[-73.79501,40.74374],[-73.79483,40.74399],[-73.79501,40.74374]],[[-73.79501,40.74374],[-73.79501,40.74374],[-73.79501,40.74374],[-73.79501,40.74374]],[[-73.7956,40.74311],[-73.79543,40.74326],[-73.79536,40.74334],[-73.79543,40.74326],[-73.7956,40.74311]],[[-73.79611,40.7426],[-73.79589,40.7428],[-73.79589,40.7428],[-73.79589,40.7428],[-73.79611,40.7426]],[[-73.79639,40.74235],[-73.79639,40.74235],[-73.79627,40.74246],[-73.79639,40.74235]],[[-73.79667,40.74214],[-73.79667,40.74214],[-73.79667,40.74214],[-73.79667,40.74214]],[[-73.79672,40.73842],[-73.79629,40.73855],[-73.79672,40.73842],[-73.79672,40.73842]],[[-73.79612,40.73834],[-73.7964,40.73828],[-73.79606,40.73835],[-73.79612,40.73834]],[[-73.81614,40.70411],[-73.81524,40.7042],[-73.81444,40.7044],[-73.81524,40.7042],[-73.81614,40.70411]],[[-73.80923,40.70588],[-73.80969,40.70575],[-73.81059,40.7055],[-73.8119,40.70512],[-73.8126,40.70493],[-73.80969,40.70575],[-73.80923,40.70588]],[[-73.80108,40.7082],[-73.80279,40.70772],[-73.80332,40.70757],[-73.80279,40.70772],[-73.80186,40.70798],[-73.80108,40.7082]],[[-73.80022,40.70845],[-73.79995,40.70852],[-73.80108,40.7082],[-73.80022,40.70845]],[[-73.79731,40.70927],[-73.79818,40.70902],[-73.79889,40.70883],[-73.79818,40.70902],[-73.79731,40.70927]],[[-73.79639,40.70953],[-73.79616,40.7096],[-73.79731,40.70927],[-73.79639,40.70953]],[[-73.79058,40.71159],[-73.79203,40.71107],[-73.79259,40.71087],[-73.79203,40.71107],[-73.79058,40.71159]],[[-73.78923,40.71204],[-73.78941,40.712],[-73.78977,40.71187],[-73.78923,40.71204]],[[-73.78901,40.71211],[-73.78901,40.71211],[-73.789,40.71214],[-73.78901,40.71211]],[[-73.78885,40.71225],[-73.78885,40.71225],[-73.78858,40.71233],[-73.78885,40.71225]],[[-73.78844,40.712],[-73.78844,40.712],[-73.78792,40.71183],[-73.78844,40.712]],[[-73.78742,40.71185],[-73.78785,40.71181],[-73.787,40.7119],[-73.78742,40.71185]],[[-73.78658,40.71197],[-73.7863,40.71203],[-73.787,40.7119],[-73.78658,40.71197]],[[-73.78293,40.71286],[-73.78446,40.71249],[-73.78535,40.71228],[-73.78293,40.71286]],[[-73.78178,40.71314],[-73.78237,40.713],[-73.78247,40.71298],[-73.78255,40.71296],[-73.78178,40.71314]],[[-73.78178,40.71314],[-73.77998,40.71357],[-73.77973,40.71364],[-73.77887,40.71385],[-73.77843,40.71395],[-73.77887,40.71385],[-73.78178,40.71314]],[[-73.77674,40.71435],[-73.77731,40.71421],[-73.77771,40.71412],[-73.77731,40.71421],[-73.77674,40.71435]],[[-73.77276,40.7154],[-73.77357,40.71512],[-73.77564,40.71462],[-73.77357,40.71512],[-73.77276,40.7154]],[[-73.77192,40.71569],[-73.77147,40.71584],[-73.77276,40.7154],[-73.77192,40.71569]],[[-73.77041,40.71622],[-73.77008,40.71633],[-73.76984,40.71641],[-73.77008,40.71633],[-73.77041,40.71622]],[[-73.76914,40.71666],[-73.76914,40.71666],[-73.76908,40.71668],[-73.76914,40.71666]],[[-73.76307,40.71951],[-73.76361,40.71928],[-73.76447,40.71889],[-73.76597,40.71803],[-73.76307,40.71951]],[[-73.76162,40.72014],[-73.7624,40.71981],[-73.76263,40.7197],[-73.76162,40.72014]],[[-73.75769,40.72229],[-73.75868,40.7216],[-73.7588,40.72151],[-73.75769,40.72229]],[[-73.75537,40.7239],[-73.75497,40.72416],[-73.75447,40.72446],[-73.75497,40.72416],[-73.75537,40.7239]],[[-73.79423,40.7388],[-73.79534,40.73849],[-73.79441,40.73875],[-73.79423,40.7388]],[[-73.79298,40.73915],[-73.79298,40.73915],[-73.79321,40.73909],[-73.79298,40.73915]],[[-73.78848,40.74037],[-73.78865,40.74033],[-73.78906,40.74021],[-73.78865,40.74033],[-73.78848,40.74037]],[[-73.78401,40.7416],[-73.78484,40.74137],[-73.78504,40.74131],[-73.78484,40.74137],[-73.78401,40.7416]],[[-73.78401,40.7416],[-73.78311,40.74185],[-73.78225,40.74209],[-73.78401,40.7416]],[[-73.78159,40.74226],[-73.78177,40.74222],[-73.78201,40.74215],[-73.78177,40.74222],[-73.78159,40.74226]],[[-73.78122,40.74236],[-73.78122,40.74236],[-73.7813,40.74234],[-73.78122,40.74236]],[[-73.77551,40.74336],[-73.77551,40.74336],[-73.77554,40.74335],[-73.77551,40.74336]],[[-73.77178,40.7441],[-73.76937,40.74522],[-73.76879,40.74544],[-73.76937,40.74522],[-73.77178,40.7441]],[[-73.76773,40.74578],[-73.76772,40.74576],[-73.76773,40.74578],[-73.76773,40.74578]],[[-73.76649,40.74375],[-73.76663,40.74385],[-73.76676,40.74397],[-73.76663,40.74385],[-73.76649,40.74375]],[[-73.76431,40.74067],[-73.76515,40.74244],[-73.76536,40.74285],[-73.76515,40.74244],[-73.76431,40.74067]],[[-73.76361,40.73917],[-73.76349,40.73891],[-73.76431,40.74067],[-73.76361,40.73917]],[[-73.76246,40.73636],[-73.76246,40.73655],[-73.76247,40.73663],[-73.76246,40.73655],[-73.76246,40.73636]],[[-73.76246,40.73636],[-73.76246,40.73636],[-73.76246,40.73636],[-73.76246,40.73636]],[[-73.76258,40.7358],[-73.76253,40.736],[-73.76252,40.73604],[-73.76253,40.736],[-73.76258,40.7358]],[[-73.76471,40.73409],[-73.76341,40.73447],[-73.76299,40.73459],[-73.76341,40.73447],[-73.76471,40.73409]],[[-73.76502,40.73264],[-73.76502,40.73264],[-73.76494,40.73265],[-73.76502,40.73264]],[[-73.76555,40.73254],[-73.76555,40.73254],[-73.76531,40.73259],[-73.76555,40.73254]],[[-73.75675,40.72627],[-73.75675,40.72627],[-73.75675,40.72628],[-73.75675,40.72627]]],[[[-73.85224,40.75992],[-73.85269,40.75993],[-73.85255,40.76007],[-73.85224,40.75992]]],[[[-73.85277,40.75996],[-73.85278,40.76012],[-73.85299,40.76019],[-73.8527,40.76013],[-73.85277,40.75996]]],[[[-73.88837,40.79859],[-73.88823,40.79824],[-73.88745,40.79835],[-73.88654,40.79797],[-73.88376,40.79571],[-73.88366,40.79597],[-73.8832,40.79554],[-73.8821,40.79516],[-73.87837,40.79452],[-73.87583,40.79315],[-73.87449,40.79206],[-73.87288,40.79145],[-73.87121,40.79004],[-73.87081,40.7879],[-73.87163,40.7868],[-73.87281,40.7859],[-73.87653,40.78583],[-73.87831,40.78536],[-73.88537,40.78667],[-73.8877,40.78687],[-73.88905,40.78737],[-73.8903,40.78988],[-73.8908,40.79021],[-73.89161,40.79016],[-73.89218,40.79039],[-73.89282,40.79282],[-73.89179,40.79678],[-73.89073,40.79766],[-73.89087,40.79783],[-73.89062,40.79775],[-73.89083,40.79801],[-73.89061,40.79777],[-73.89017,40.79796],[-73.88886,40.79787],[-73.88831,40.79818],[-73.88851,40.79824],[-73.88851,40.79859],[-73.889,40.79868],[-73.88898,40.79875],[-73.88821,40.79867],[-73.88837,40.79859]]],[[[-73.82643,40.59032],[-73.82737,40.58976],[-73.82734,40.58994],[-73.82761,40.58998],[-73.82769,40.59057],[-73.82705,40.59098],[-73.8273,40.59146],[-73.82548,40.59197],[-73.82637,40.59139],[-73.82643,40.59032]]],[[[-73.83357,40.58904],[-73.83688,40.58952],[-73.83807,40.5903],[-73.83815,40.59073],[-73.8388,40.5912],[-73.8384,40.59039],[-73.84063,40.59153],[-73.8405,40.59121],[-73.8418,40.59201],[-73.84238,40.59248],[-73.84279,40.59333],[-73.84336,40.59347],[-73.8435,40.59508],[-73.84057,40.5973],[-73.83746,40.59686],[-73.83476,40.59394],[-73.834,40.59362],[-73.83193,40.59345],[-73.83117,40.59149],[-73.83357,40.58904]]],[[[-73.81659,40.61468],[-73.81623,40.61423],[-73.81472,40.6145],[-73.81444,40.61475],[-73.81408,40.61456],[-73.81468,40.61398],[-73.81486,40.6143],[-73.8155,40.61404],[-73.8148,40.61319],[-73.81504,40.61298],[-73.81547,40.61334],[-73.81616,40.61294],[-73.8154,40.61038],[-73.8145,40.61106],[-73.8145,40.61074],[-73.81521,40.60982],[-73.81476,40.60846],[-73.81506,40.60732],[-73.81574,40.60647],[-73.81546,40.60643],[-73.81553,40.60616],[-73.81553,40.60641],[-73.81596,40.60626],[-73.81589,40.60593],[-73.81643,40.60522],[-73.81739,40.60516],[-73.81725,40.60394],[-73.81772,40.60222],[-73.81831,40.60134],[-73.81849,40.59939],[-73.81928,40.59753],[-73.82038,40.59657],[-73.82067,40.5952],[-73.8212,40.59471],[-73.82414,40.59463],[-73.82548,40.59508],[-73.83322,40.59422],[-73.83472,40.59506],[-73.83485,40.59554],[-73.8344,40.59646],[-73.83239,40.5978],[-73.83154,40.59795],[-73.83063,40.59743],[-73.82948,40.59813],[-73.8291,40.59776],[-73.82806,40.59768],[-73.82598,40.59947],[-73.82557,40.59855],[-73.82465,40.59815],[-73.82396,40.59888],[-73.82452,40.59895],[-73.82477,40.59839],[-73.82453,40.59913],[-73.82408,40.59891],[-73.82417,40.5993],[-73.82377,40.60004],[-73.82194,40.5998],[-73.82147,40.59999],[-73.82444,40.60034],[-73.82445,40.6008],[-73.82354,40.60156],[-73.82362,40.60229],[-73.82307,40.60234],[-73.82294,40.60258],[-73.8229,40.60469],[-73.82247,40.60552],[-73.8229,40.60585],[-73.82236,40.60647],[-73.82126,40.607],[-73.82003,40.60892],[-73.81962,40.61048],[-73.82043,40.61207],[-73.82088,40.61226],[-73.82128,40.6111],[-73.82049,40.61022],[-73.82086,40.60923],[-73.82161,40.60848],[-73.82186,40.60987],[-73.82233,40.61029],[-73.82289,40.61034],[-73.82319,40.61094],[-73.824,40.61163],[-73.8241,40.61233],[-73.82467,40.61242],[-73.82469,40.61308],[-73.82556,40.61413],[-73.82594,40.61416],[-73.82726,40.61338],[-73.82788,40.6137],[-73.82724,40.61407],[-73.8275,40.6142],[-73.82846,40.61422],[-73.83092,40.61501],[-73.83402,40.61438],[-73.8337,40.62098],[-73.83255,40.62175],[-73.83159,40.62203],[-73.83268,40.62186],[-73.83289,40.62223],[-73.83259,40.62268],[-73.8314,40.6224],[-73.83102,40.62278],[-73.83039,40.62239],[-73.83007,40.62304],[-73.8302,40.6234],[-73.82996,40.62371],[-73.82987,40.6234],[-73.82919,40.6242],[-73.82966,40.62419],[-73.83011,40.62383],[-73.83052,40.62287],[-73.83033,40.62284],[-73.83041,40.62263],[-73.83088,40.62286],[-73.8306,40.62326],[-73.83071,40.62374],[-73.83051,40.62385],[-73.83046,40.62407],[-73.83077,40.62368],[-73.83065,40.62326],[-73.8311,40.62293],[-73.83153,40.62288],[-73.83193,40.6232],[-73.83174,40.62288],[-73.83213,40.62318],[-73.83097,40.62458],[-73.83092,40.62483],[-73.83134,40.62501],[-73.83077,40.6253],[-73.83095,40.62553],[-73.83063,40.62618],[-73.83082,40.62681],[-73.83167,40.62713],[-73.8323,40.62708],[-73.8324,40.62786],[-73.83229,40.62813],[-73.83185,40.62812],[-73.83159,40.62839],[-73.83171,40.62883],[-73.83188,40.62888],[-73.83163,40.62852],[-73.83189,40.62818],[-73.83263,40.62827],[-73.83306,40.62794],[-73.8329,40.6289],[-73.83196,40.62965],[-73.8319,40.63057],[-73.83114,40.63275],[-73.83133,40.63362],[-73.83194,40.63424],[-73.83196,40.63498],[-73.83249,40.63558],[-73.83341,40.6385],[-73.8329,40.63886],[-73.83222,40.63893],[-73.82867,40.63661],[-73.82809,40.63588],[-73.82592,40.63575],[-73.82443,40.63622],[-73.82414,40.63879],[-73.82457,40.63935],[-73.82419,40.63995],[-73.82338,40.63899],[-73.82277,40.63558],[-73.82198,40.63363],[-73.82185,40.63204],[-73.82067,40.62891],[-73.8201,40.62782],[-73.81826,40.627],[-73.81824,40.62639],[-73.81789,40.62591],[-73.81623,40.62469],[-73.81618,40.62441],[-73.81675,40.62395],[-73.81795,40.62409],[-73.81864,40.62337],[-73.81866,40.62288],[-73.81755,40.62209],[-73.81758,40.62176],[-73.81672,40.62157],[-73.81662,40.62197],[-73.81621,40.62209],[-73.81539,40.6215],[-73.81543,40.62012],[-73.81718,40.61927],[-73.81777,40.6175],[-73.81712,40.61528],[-73.81653,40.61495],[-73.81659,40.61468]],[[-73.82157,40.61491],[-73.82157,40.61491],[-73.8216,40.61489],[-73.82157,40.61491]],[[-73.82142,40.61505],[-73.82089,40.6152],[-73.82156,40.61492],[-73.82142,40.61505]],[[-73.82017,40.61518],[-73.82076,40.61523],[-73.82076,40.61523],[-73.82017,40.61518]],[[-73.8175,40.61421],[-73.8175,40.61421],[-73.82017,40.61518],[-73.8175,40.61421]]],[[[-73.8276,40.60937],[-73.82635,40.60929],[-73.82581,40.60892],[-73.82605,40.60829],[-73.82577,40.60785],[-73.82679,40.60791],[-73.82567,40.60779],[-73.82541,40.6067],[-73.82454,40.60508],[-73.82461,40.60474],[-73.82771,40.60524],[-73.82909,40.60582],[-73.8294,40.60658],[-73.82926,40.60706],[-73.82901,40.60738],[-73.82777,40.60777],[-73.82747,40.60823],[-73.82708,40.60833],[-73.8276,40.60937]]],[[[-73.8296,40.60733],[-73.82953,40.60724],[-73.82961,40.60726],[-73.8296,40.60733]]],[[[-73.83211,40.6095],[-73.83122,40.60883],[-73.83131,40.60841],[-73.83083,40.60847],[-73.83006,40.60792],[-73.82978,40.60712],[-73.82988,40.60632],[-73.83092,40.60536],[-73.83178,40.60509],[-73.83195,40.60527],[-73.83438,40.60515],[-73.83552,40.60546],[-73.83574,40.60579],[-73.83446,40.60719],[-73.83423,40.60805],[-73.83247,40.60946],[-73.83211,40.6095]]],[[[-73.81268,40.62057],[-73.81252,40.62045],[-73.81256,40.62016],[-73.81266,40.62034],[-73.81268,40.62057]]],[[[-73.83235,40.6235],[-73.83242,40.62292],[-73.8331,40.62241],[-73.83311,40.62168],[-73.83368,40.62138],[-73.83362,40.6226],[-73.83308,40.62276],[-73.83323,40.62336],[-73.83268,40.62391],[-73.83277,40.62403],[-73.83306,40.62369],[-73.83326,40.62383],[-73.83341,40.62355],[-73.83356,40.62394],[-73.83206,40.62469],[-73.83178,40.62432],[-73.83235,40.6235]]],[[[-73.81199,40.62602],[-73.81242,40.62435],[-73.81168,40.62365],[-73.81208,40.62339],[-73.81252,40.62354],[-73.81301,40.62226],[-73.81325,40.62256],[-73.81303,40.62386],[-73.81386,40.62504],[-73.81443,40.62519],[-73.81448,40.62547],[-73.81249,40.62654],[-73.81199,40.62602]]],[[[-73.81597,40.63038],[-73.81467,40.62999],[-73.81429,40.62914],[-73.81467,40.6275],[-73.81532,40.62776],[-73.81617,40.6289],[-73.81645,40.62984],[-73.81597,40.63038]]],[[[-73.8362,40.63203],[-73.83506,40.63184],[-73.83506,40.63173],[-73.83594,40.63135],[-73.83617,40.63154],[-73.8362,40.63203]]],[[[-73.83038,40.65513],[-73.83013,40.65551],[-73.82989,40.65552],[-73.83038,40.65513]]],[[[-73.80985,40.60037],[-73.81049,40.59878],[-73.81132,40.59855],[-73.81158,40.59814],[-73.81222,40.59855],[-73.81461,40.6013],[-73.81501,40.60206],[-73.8148,40.60408],[-73.81429,40.60446],[-73.81321,40.60436],[-73.81267,40.60389],[-73.81017,40.6028],[-73.80986,40.6019],[-73.81004,40.60095],[-73.80985,40.60037]]],[[[-73.80053,40.60709],[-73.79793,40.60658],[-73.79841,40.60601],[-73.79827,40.60549],[-73.79868,40.6057],[-73.80011,40.60532],[-73.79953,40.60524],[-73.79871,40.60562],[-73.79782,40.60513],[-73.79804,40.60484],[-73.79862,40.60481],[-73.79877,40.60502],[-73.79994,40.60461],[-73.80021,40.60483],[-73.80049,40.60476],[-73.80005,40.60456],[-73.7979,40.60472],[-73.79766,40.60531],[-73.79815,40.60563],[-73.79822,40.60594],[-73.79766,40.60636],[-73.79635,40.60579],[-73.79647,40.60519],[-73.79669,40.60511],[-73.79611,40.60469],[-73.7964,40.60472],[-73.79732,40.60407],[-73.80037,40.60438],[-73.80171,40.60411],[-73.80322,40.60457],[-73.80338,40.6043],[-73.80381,40.60436],[-73.80338,40.6047],[-73.80394,40.60564],[-73.80339,40.60587],[-73.80314,40.60637],[-73.80182,40.60642],[-73.80077,40.60708],[-73.80058,40.60684],[-73.801,40.60659],[-73.80064,40.60633],[-73.80103,40.60648],[-73.80107,40.60641],[-73.8007,40.60624],[-73.80034,40.60628],[-73.80085,40.60664],[-73.80048,40.60679],[-73.80053,40.60709]]],[[[-73.79601,40.60822],[-73.79648,40.608],[-73.79626,40.60762],[-73.79655,40.60729],[-73.79611,40.60741],[-73.79582,40.60813],[-73.79527,40.60622],[-73.7953,40.60563],[-73.79573,40.60523],[-73.79603,40.6053],[-73.79561,40.60589],[-73.7957,40.60646],[-73.79675,40.60623],[-73.7979,40.60687],[-73.79902,40.60687],[-73.80053,40.60723],[-73.80107,40.60718],[-73.80193,40.60664],[-73.80327,40.60657],[-73.80401,40.60613],[-73.80308,40.60747],[-73.80182,40.60796],[-73.8014,40.60823],[-73.80162,40.60835],[-73.80099,40.60867],[-73.79708,40.60901],[-73.79648,40.60886],[-73.79601,40.60822]]],[[[-73.76672,40.615],[-73.77088,40.61586],[-73.76855,40.62056],[-73.76746,40.62051],[-73.76672,40.615]]],[[[-73.79867,40.62537],[-73.79787,40.62464],[-73.79787,40.62437],[-73.79854,40.6247],[-73.79875,40.62508],[-73.80037,40.62411],[-73.80036,40.62394],[-73.79923,40.62419],[-73.79866,40.6236],[-73.79975,40.62105],[-73.80004,40.61973],[-73.80074,40.61949],[-73.80127,40.61983],[-73.80181,40.62083],[-73.80206,40.62079],[-73.80131,40.61854],[-73.80187,40.61677],[-73.80347,40.6144],[-73.80362,40.61602],[-73.80454,40.61698],[-73.80448,40.61755],[-73.80493,40.61859],[-73.8059,40.61962],[-73.80564,40.61989],[-73.80641,40.62111],[-73.80615,40.62183],[-73.80641,40.62234],[-73.80595,40.62338],[-73.80542,40.62379],[-73.80466,40.62384],[-73.80365,40.62468],[-73.80295,40.62472],[-73.80163,40.6256],[-73.79956,40.62612],[-73.79906,40.62658],[-73.79759,40.6261],[-73.79898,40.62534],[-73.79867,40.62537]]],[[[-73.77088,40.6199],[-73.77165,40.62042],[-73.77156,40.62136],[-73.76982,40.62138],[-73.76961,40.62115],[-73.77012,40.61987],[-73.77088,40.6199]]],[[[-73.74455,40.77885],[-73.74481,40.77856],[-73.745,40.7792],[-73.74429,40.77875],[-73.74455,40.77885]]],[[[-73.74559,40.77958],[-73.74682,40.77937],[-73.74724,40.78008],[-73.74672,40.78031],[-73.74559,40.77958]]]]}}]}