{"type":"FeatureCollection","features":[{"type":"Feature","properties":{"district":"Staten Island"},"geometry":{"type":"MultiPolygon","coordinates":[[[[-74.13303,40.53624],[-74.13338,40.53632],[-74.13301,40.53626],[-74.1312,40.53787],[-74.13153,40.53772],[-74.13129,40.53796],[-74.13181,40.53831],[-74.13211,40.53805],[-74.1317,40.53786],[-74.13185,40.53773],[-74.13214,40.53803],[-74.13242,40.53777],[-74.13191,40.53753],[-74.13208,40.5374],[-74.13245,40.53776],[-74.13275,40.5375],[-74.13224,40.53726],[-74.1324,40.53712],[-74.13278,40.53748],[-74.13307,40.53723],[-74.13256,40.53699],[-74.13274,40.53685],[-74.13309,40.53721],[-74.13339,40.53696],[-74.13287,40.53672],[-74.13304,40.53657],[-74.13341,40.53694],[-74.13386,40.5366],[-74.12997,40.53997],[-74.13021,40.5397],[-74.12968,40.53947],[-74.12985,40.53933],[-74.13023,40.53968],[-74.13052,40.53943],[-74.13,40.53917],[-74.13017,40.53903],[-74.13054,40.53941],[-74.13084,40.53915],[-74.13032,40.5389],[-74.13049,40.53876],[-74.13086,40.53913],[-74.13115,40.53887],[-74.13065,40.53862],[-74.1308,40.53849],[-74.13117,40.53886],[-74.13147,40.5386],[-74.13098,40.53834],[-74.13112,40.53822],[-74.1315,40.53858],[-74.13179,40.53833],[-74.13116,40.5379],[-74.12799,40.54071],[-74.12741,40.54202],[-74.12773,40.54342],[-74.12756,40.54348],[-74.12793,40.54337],[-74.12757,40.5435],[-74.12799,40.54348],[-74.12764,40.54363],[-74.12782,40.54356],[-74.12976,40.54575],[-74.132,40.54664],[-74.134,40.54683],[-74.13641,40.54625],[-74.13652,40.54591],[-74.13718,40.54579],[-74.13612,40.54502],[-74.13638,40.54485],[-74.13719,40.54578],[-74.13751,40.54558],[-74.13659,40.54485],[-74.13687,40.54468],[-74.13675,40.54478],[-74.13795,40.546],[-74.13887,40.54513],[-74.13762,40.54425],[-74.13776,40.54414],[-74.13876,40.54493],[-74.13902,40.54472],[-74.13787,40.54405],[-74.13804,40.5439],[-74.13903,40.5447],[-74.13954,40.5443],[-74.13915,40.54451],[-74.13942,40.54421],[-74.13897,40.54438],[-74.13922,40.54407],[-74.13908,40.54397],[-74.13888,40.54424],[-74.13873,40.54413],[-74.13908,40.54396],[-74.13883,40.54379],[-74.13859,40.5441],[-74.13842,40.54398],[-74.13882,40.54378],[-74.13854,40.54359],[-74.13828,40.54387],[-74.13815,40.54377],[-74.13853,40.54358],[-74.13834,40.54355],[-74.13852,40.5434],[-74.13957,40.54427],[-74.13984,40.54405],[-74.13871,40.54329],[-74.13891,40.54313],[-74.13877,40.54329],[-74.13904,40.54323],[-74.13968,40.54389],[-74.13989,40.54375],[-74.1397,40.54391],[-74.13987,40.54403],[-74.14001,40.54383],[-74.14039,40.54403],[-74.14033,40.5438],[-74.13922,40.54317],[-74.13941,40.54302],[-74.1403,40.54364],[-74.14013,40.54351],[-74.14029,40.54339],[-74.13936,40.54283],[-74.13954,40.54268],[-74.14031,40.54337],[-74.14063,40.54311],[-74.13963,40.54254],[-74.13986,40.54236],[-74.14065,40.54309],[-74.14085,40.54294],[-74.14132,40.54309],[-74.14017,40.54237],[-74.14034,40.54223],[-74.14021,40.54237],[-74.14141,40.54302],[-74.14108,40.54279],[-74.14134,40.54259],[-74.14026,40.54196],[-74.14068,40.54191],[-74.14135,40.54258],[-74.14129,40.54234],[-74.14148,40.54247],[-74.14135,40.54229],[-74.14155,40.54241],[-74.1418,40.5422],[-74.14089,40.54157],[-74.14064,40.54169],[-74.14096,40.54143],[-74.14187,40.54217],[-74.14169,40.54235],[-74.1423,40.54225],[-74.14218,40.54202],[-74.14248,40.54133],[-74.14178,40.54009],[-74.142,40.53957],[-74.14173,40.53934],[-74.1423,40.53907],[-74.14177,40.53854],[-74.14227,40.53814],[-74.14184,40.53842],[-74.14223,40.53811],[-74.14217,40.53793],[-74.14122,40.53725],[-74.14104,40.53735],[-74.1413,40.53714],[-74.14219,40.53792],[-74.14239,40.53775],[-74.14158,40.53709],[-74.14383,40.53714],[-74.14474,40.5358],[-74.14543,40.53582],[-74.146,40.53539],[-74.1467,40.53541],[-74.14922,40.53424],[-74.14978,40.53389],[-74.14976,40.53342],[-74.1507,40.53255],[-74.15112,40.53274],[-74.15185,40.53216],[-74.15246,40.53207],[-74.154,40.53083],[-74.1539,40.53067],[-74.1541,40.53076],[-74.15463,40.53035],[-74.15454,40.53006],[-74.15493,40.53023],[-74.15565,40.52964],[-74.1555,40.52944],[-74.15573,40.5296],[-74.15599,40.52942],[-74.15645,40.52893],[-74.15619,40.52861],[-74.15667,40.52899],[-74.15702,40.52898],[-74.15826,40.5283],[-74.15797,40.52807],[-74.15833,40.52828],[-74.1597,40.5273],[-74.1603,40.52756],[-74.16158,40.52701],[-74.16227,40.52719],[-74.17,40.52305],[-74.17051,40.52305],[-74.17129,40.52346],[-74.1727,40.52297],[-74.17601,40.52088],[-74.17758,40.51923],[-74.17832,40.51995],[-74.17924,40.51998],[-74.17981,40.52055],[-74.18105,40.52066],[-74.18483,40.51934],[-74.18657,40.51812],[-74.1885,40.51631],[-74.18927,40.51534],[-74.18884,40.51509],[-74.18971,40.51532],[-74.19344,40.51157],[-74.1941,40.51064],[-74.19521,40.50998],[-74.1965,40.50992],[-74.19861,40.5112],[-74.19967,40.51143],[-74.20006,40.51262],[-74.19893,40.51278],[-74.19907,40.51308],[-74.20083,40.51303],[-74.20757,40.51186],[-74.20969,40.5108],[-74.20919,40.5105],[-74.20932,40.5104],[-74.20971,40.51078],[-74.20985,40.51067],[-74.21179,40.50817],[-74.21338,40.50677],[-74.21353,40.5064],[-74.21386,40.50661],[-74.21434,40.50652],[-74.21511,40.50606],[-74.21758,40.50334],[-74.21977,40.50274],[-74.22305,40.50248],[-74.225,40.50177],[-74.22729,40.5023],[-74.23124,40.50183],[-74.23679,40.5],[-74.23767,40.49912],[-74.23851,40.4989],[-74.23985,40.49758],[-74.24433,40.49755],[-74.24676,40.49613],[-74.24837,40.49633],[-74.24964,40.49684],[-74.25085,40.49801],[-74.2511,40.49893],[-74.253,40.49995],[-74.25532,40.50418],[-74.25531,40.50654],[-74.25557,40.50776],[-74.25463,40.50867],[-74.25498,40.50877],[-74.25497,40.50881],[-74.25462,40.50868],[-74.254,40.50897],[-74.25431,40.50941],[-74.25369,40.50943],[-74.25465,40.50983],[-74.25453,40.50997],[-74.25365,40.50947],[-74.25332,40.50986],[-74.25306,40.51106],[-74.25326,40.51109],[-74.25301,40.51119],[-74.25353,40.51168],[-74.25304,40.51143],[-74.25309,40.51212],[-74.25195,40.513],[-74.25213,40.51371],[-74.25011,40.51504],[-74.25056,40.51572],[-74.25016,40.51536],[-74.24989,40.51552],[-74.25056,40.51611],[-74.25042,40.51619],[-74.24936,40.51501],[-74.24922,40.51508],[-74.24994,40.51614],[-74.24943,40.51569],[-74.24865,40.51611],[-74.24876,40.51636],[-74.24855,40.51617],[-74.24828,40.51649],[-74.24895,40.51719],[-74.24941,40.51698],[-74.24851,40.51748],[-74.24892,40.51721],[-74.24752,40.51574],[-74.24693,40.51607],[-74.24644,40.51597],[-74.24613,40.51614],[-74.24675,40.5165],[-74.24651,40.51667],[-74.247,40.51718],[-74.24648,40.51669],[-74.24654,40.51696],[-74.24635,40.51675],[-74.24521,40.51729],[-74.24567,40.51779],[-74.24563,40.51808],[-74.24509,40.51807],[-74.2443,40.51852],[-74.24365,40.51829],[-74.24232,40.51833],[-74.24103,40.51954],[-74.24049,40.51919],[-74.23982,40.52009],[-74.24117,40.52106],[-74.24133,40.52089],[-74.24293,40.52123],[-74.24258,40.5222],[-74.2428,40.52401],[-74.24336,40.52482],[-74.24397,40.52491],[-74.24334,40.52585],[-74.24289,40.5273],[-74.24289,40.5282],[-74.24251,40.52845],[-74.24225,40.52982],[-74.24169,40.53057],[-74.24151,40.53127],[-74.24181,40.53256],[-74.24218,40.53258],[-74.24228,40.53339],[-74.24196,40.53365],[-74.24221,40.5346],[-74.24263,40.53478],[-74.24371,40.53609],[-74.24412,40.5362],[-74.24398,40.53652],[-74.24416,40.53689],[-74.24459,40.53693],[-74.24494,40.53666],[-74.24535,40.53693],[-74.24443,40.53802],[-74.24539,40.53955],[-74.2456,40.54095],[-74.24649,40.54221],[-74.24768,40.54313],[-74.24803,40.54309],[-74.24614,40.5457],[-74.24336,40.54787],[-74.24358,40.54762],[-74.24294,40.54711],[-74.2422,40.54695],[-74.24039,40.54766],[-74.23837,40.54914],[-74.23762,40.55012],[-74.23641,40.55051],[-74.23616,40.55143],[-74.23651,40.55203],[-74.2364,40.55234],[-74.2349,40.55301],[-74.23332,40.55251],[-74.23229,40.55336],[-74.23193,40.55415],[-74.23071,40.55556],[-74.22932,40.55549],[-74.22905,40.55611],[-74.22833,40.55639],[-74.22744,40.55604],[-74.2264,40.55626],[-74.2239,40.5559],[-74.22386,40.5561],[-74.22344,40.55605],[-74.22379,40.55588],[-74.22257,40.55541],[-74.2218,40.55542],[-74.22157,40.55565],[-74.2213,40.55537],[-74.22087,40.55594],[-74.2203,40.5556],[-74.22011,40.55493],[-74.21974,40.55461],[-74.21908,40.55485],[-74.21934,40.55569],[-74.21922,40.5558],[-74.21896,40.55486],[-74.21859,40.55467],[-74.21875,40.55603],[-74.21775,40.55501],[-74.21604,40.55554],[-74.21474,40.55624],[-74.21499,40.55679],[-74.21462,40.55691],[-74.21376,40.5564],[-74.21327,40.55662],[-74.21198,40.55842],[-74.21176,40.55912],[-74.21197,40.5593],[-74.21188,40.5596],[-74.21117,40.56049],[-74.21134,40.56123],[-74.2111,40.56213],[-74.21138,40.56349],[-74.21062,40.56552],[-74.20954,40.56751],[-74.20953,40.56793],[-74.20887,40.56891],[-74.20893,40.56962],[-74.20802,40.57052],[-74.20817,40.57072],[-74.20784,40.57261],[-74.20708,40.57427],[-74.20728,40.57525],[-74.20681,40.57592],[-74.20709,40.57631],[-74.20658,40.57665],[-74.20681,40.57718],[-74.20632,40.57754],[-74.20592,40.57862],[-74.20599,40.58041],[-74.20508,40.5816],[-74.20509,40.58221],[-74.2044,40.58371],[-74.20463,40.58432],[-74.20436,40.58463],[-74.20441,40.58552],[-74.20412,40.5859],[-74.20458,40.58822],[-74.20412,40.58888],[-74.20432,40.58914],[-74.20471,40.58877],[-74.20444,40.58922],[-74.20465,40.58929],[-74.20386,40.59025],[-74.2037,40.5902],[-74.20389,40.58979],[-74.20266,40.59072],[-74.20201,40.5909],[-74.20247,40.59084],[-74.20305,40.59114],[-74.20203,40.591],[-74.20212,40.59125],[-74.20184,40.59164],[-74.202,40.59178],[-74.2023,40.59147],[-74.20232,40.59152],[-74.20093,40.59287],[-74.20047,40.59281],[-74.19974,40.59356],[-74.19936,40.59409],[-74.19948,40.59432],[-74.19873,40.59501],[-74.19795,40.59647],[-74.19751,40.5968],[-74.19731,40.59806],[-74.19876,40.60171],[-74.20015,40.60368],[-74.20139,40.60464],[-74.20222,40.60597],[-74.20282,40.60827],[-74.2023,40.61188],[-74.20244,40.61328],[-74.20045,40.61633],[-74.20091,40.6178],[-74.20087,40.6181],[-74.20054,40.618],[-74.20035,40.61834],[-74.20084,40.6188],[-74.20068,40.61917],[-74.20107,40.62038],[-74.20051,40.6203],[-74.20043,40.6205],[-74.20087,40.62059],[-74.20143,40.62161],[-74.20128,40.62269],[-74.20155,40.6227],[-74.20163,40.62312],[-74.20108,40.62408],[-74.20106,40.6259],[-74.20142,40.62607],[-74.20099,40.62934],[-74.20043,40.62982],[-74.20041,40.63025],[-74.20077,40.63025],[-74.20079,40.63035],[-74.2004,40.63029],[-74.20018,40.63133],[-74.20043,40.63136],[-74.2004,40.63146],[-74.20017,40.63136],[-74.19862,40.63274],[-74.19803,40.63277],[-74.19803,40.63303],[-74.19734,40.633],[-74.19679,40.63339],[-74.19688,40.63376],[-74.19631,40.63405],[-74.19603,40.635],[-74.19531,40.63523],[-74.1952,40.63571],[-74.19442,40.63658],[-74.19454,40.63707],[-74.19479,40.63713],[-74.19462,40.63739],[-74.19358,40.63747],[-74.19372,40.63757],[-74.18652,40.64339],[-74.18623,40.64319],[-74.18591,40.64363],[-74.18511,40.64381],[-74.18525,40.64394],[-74.18484,40.64413],[-74.18411,40.64353],[-74.18437,40.6431],[-74.18365,40.64224],[-74.18403,40.6431],[-74.18385,40.64327],[-74.18324,40.64296],[-74.1838,40.64443],[-74.18367,40.64461],[-74.18289,40.6448],[-74.18118,40.64459],[-74.18087,40.64485],[-74.18048,40.64428],[-74.18004,40.64429],[-74.17997,40.64527],[-74.17977,40.64517],[-74.17973,40.64438],[-74.17933,40.6444],[-74.17925,40.64504],[-74.17907,40.64465],[-74.17904,40.64339],[-74.1794,40.64313],[-74.17959,40.64192],[-74.17919,40.64299],[-74.17826,40.64213],[-74.17834,40.64259],[-74.17781,40.6426],[-74.17769,40.64295],[-74.17721,40.64312],[-74.17682,40.64286],[-74.1767,40.64242],[-74.17636,40.64233],[-74.17669,40.64255],[-74.17667,40.64339],[-74.1756,40.64331],[-74.17547,40.64412],[-74.17568,40.64471],[-74.17547,40.64465],[-74.1753,40.64508],[-74.17437,40.64514],[-74.17294,40.6442],[-74.173,40.64359],[-74.17236,40.64326],[-74.17272,40.64295],[-74.17196,40.64286],[-74.17151,40.64313],[-74.17134,40.64286],[-74.17186,40.64252],[-74.17148,40.6417],[-74.17159,40.64103],[-74.17202,40.64099],[-74.17294,40.64058],[-74.17298,40.64049],[-74.17157,40.64101],[-74.17137,40.64209],[-74.17105,40.64259],[-74.17119,40.64174],[-74.17029,40.64178],[-74.17008,40.64209],[-74.16915,40.64187],[-74.16906,40.64213],[-74.16653,40.64142],[-74.1661,40.64241],[-74.16632,40.64144],[-74.1658,40.64122],[-74.16563,40.64121],[-74.16544,40.64228],[-74.16494,40.64221],[-74.16519,40.64064],[-74.16473,40.64039],[-74.16457,40.64142],[-74.16441,40.6414],[-74.1646,40.64032],[-74.16417,40.63999],[-74.164,40.64107],[-74.16405,40.63995],[-74.16385,40.63989],[-74.16345,40.63986],[-74.16325,40.64096],[-74.16281,40.64104],[-74.16168,40.64061],[-74.16228,40.63877],[-74.16182,40.63865],[-74.16145,40.63943],[-74.1613,40.63939],[-74.16166,40.63866],[-74.16124,40.6386],[-74.1609,40.63939],[-74.16074,40.63935],[-74.16108,40.63857],[-74.16035,40.63844],[-74.15986,40.63993],[-74.16022,40.63834],[-74.15986,40.63873],[-74.15932,40.63781],[-74.15906,40.63804],[-74.15901,40.63882],[-74.15893,40.63826],[-74.15789,40.63797],[-74.15773,40.63888],[-74.15777,40.63796],[-74.1561,40.63794],[-74.15611,40.63753],[-74.1557,40.63752],[-74.15569,40.63779],[-74.15483,40.63772],[-74.15469,40.63919],[-74.15478,40.63772],[-74.1546,40.63734],[-74.1528,40.63713],[-74.1527,40.63764],[-74.15222,40.63769],[-74.1523,40.63827],[-74.15214,40.63829],[-74.15205,40.63767],[-74.1512,40.63773],[-74.1514,40.6394],[-74.15113,40.6385],[-74.15056,40.63856],[-74.14945,40.63741],[-74.14942,40.63829],[-74.14919,40.63867],[-74.14888,40.63871],[-74.14856,40.63744],[-74.14878,40.63888],[-74.14602,40.63909],[-74.14519,40.63938],[-74.14386,40.63889],[-74.14336,40.63971],[-74.14239,40.63964],[-74.1423,40.64031],[-74.14156,40.64037],[-74.14148,40.64009],[-74.14076,40.64059],[-74.13758,40.641],[-74.13737,40.6413],[-74.13435,40.64189],[-74.13299,40.64142],[-74.1324,40.6417],[-74.13126,40.6416],[-74.13146,40.64131],[-74.13033,40.64078],[-74.13012,40.64102],[-74.13018,40.64072],[-74.12949,40.64135],[-74.12998,40.64073],[-74.12931,40.64034],[-74.12893,40.64041],[-74.12891,40.64119],[-74.12881,40.64023],[-74.12753,40.64016],[-74.12703,40.63932],[-74.12705,40.64024],[-74.12607,40.64025],[-74.12637,40.64133],[-74.12564,40.64142],[-74.12613,40.64126],[-74.126,40.64023],[-74.12416,40.64013],[-74.12286,40.64082],[-74.1226,40.6406],[-74.12291,40.64102],[-74.12283,40.64129],[-74.12184,40.64141],[-74.12199,40.64155],[-74.12181,40.64141],[-74.12178,40.64159],[-74.12155,40.64161],[-74.12172,40.64143],[-74.12133,40.64161],[-74.12131,40.64145],[-74.12117,40.64167],[-74.12128,40.64143],[-74.12108,40.64161],[-74.12118,40.64138],[-74.12071,40.64105],[-74.11993,40.6412],[-74.11961,40.64138],[-74.11996,40.64221],[-74.11953,40.64147],[-74.1191,40.64147],[-74.1194,40.64238],[-74.119,40.64146],[-74.11862,40.64153],[-74.11884,40.64254],[-74.1184,40.64153],[-74.11792,40.64183],[-74.1177,40.64154],[-74.11712,40.64167],[-74.11722,40.64184],[-74.11672,40.64203],[-74.11722,40.64303],[-74.11667,40.64211],[-74.1163,40.6422],[-74.11667,40.64319],[-74.11614,40.64222],[-74.11535,40.64247],[-74.1138,40.64361],[-74.11395,40.64414],[-74.11289,40.64453],[-74.11386,40.64408],[-74.11365,40.64369],[-74.11333,40.64372],[-74.11116,40.6451],[-74.11177,40.64471],[-74.10974,40.64546],[-74.10412,40.64574],[-74.10013,40.64506],[-74.0988,40.64505],[-74.0985,40.64537],[-74.09469,40.64556],[-74.09299,40.64597],[-74.08571,40.64888],[-74.08484,40.64889],[-74.08221,40.64828],[-74.08142,40.6485],[-74.08052,40.64825],[-74.07981,40.64838],[-74.07651,40.64697],[-74.07445,40.64507],[-74.07396,40.64519],[-74.07359,40.645],[-74.07386,40.64542],[-74.07334,40.64578],[-74.07369,40.64531],[-74.07324,40.64496],[-74.07303,40.64513],[-74.0732,40.64494],[-74.07306,40.64481],[-74.07343,40.645],[-74.07312,40.64471],[-74.07259,40.64479],[-74.0727,40.64444],[-74.07169,40.64505],[-74.07231,40.64458],[-74.07202,40.64441],[-74.07229,40.64427],[-74.07186,40.6442],[-74.07176,40.64401],[-74.072,40.64378],[-74.07165,40.64379],[-74.0716,40.64346],[-74.07136,40.6435],[-74.07142,40.64319],[-74.07113,40.64321],[-74.0715,40.64313],[-74.07165,40.64268],[-74.07218,40.64271],[-74.07211,40.64246],[-74.07037,40.64269],[-74.07033,40.64253],[-74.07324,40.64218],[-74.07314,40.64185],[-74.07025,40.64221],[-74.07019,40.64201],[-74.07309,40.64164],[-74.07289,40.64092],[-74.07002,40.64128],[-74.06998,40.64107],[-74.07285,40.6408],[-74.07278,40.64053],[-74.07308,40.64051],[-74.07309,40.63862],[-74.07238,40.63816],[-74.07261,40.63814],[-74.07257,40.63787],[-74.07348,40.63779],[-74.07337,40.63661],[-74.07209,40.63665],[-74.07336,40.63654],[-74.07291,40.63363],[-74.07333,40.63206],[-74.07298,40.63031],[-74.06802,40.62879],[-74.06813,40.62854],[-74.07291,40.63],[-74.0723,40.62714],[-74.07353,40.62686],[-74.07271,40.62687],[-74.07226,40.62461],[-74.07003,40.62145],[-74.06649,40.6189],[-74.06596,40.61936],[-74.06641,40.61886],[-74.0662,40.61872],[-74.06545,40.6192],[-74.06668,40.61807],[-74.06642,40.61787],[-74.06605,40.6182],[-74.06496,40.61777],[-74.06426,40.61817],[-74.0651,40.61751],[-74.06444,40.61706],[-74.06391,40.61733],[-74.06433,40.61699],[-74.06376,40.6168],[-74.06144,40.61438],[-74.06034,40.6119],[-74.05985,40.6121],[-74.06002,40.61276],[-74.0602,40.61279],[-74.06,40.61278],[-74.05977,40.61206],[-74.06027,40.61182],[-74.05948,40.61169],[-74.05892,40.61106],[-74.05909,40.61063],[-74.05716,40.60874],[-74.0565,40.60725],[-74.05552,40.60648],[-74.05381,40.60591],[-74.05361,40.60524],[-74.05402,40.60493],[-74.05303,40.60147],[-74.05342,40.60052],[-74.05223,40.59978],[-74.05287,40.59987],[-74.05447,40.59876],[-74.05719,40.5964],[-74.05973,40.59391],[-74.05964,40.59371],[-74.05977,40.59384],[-74.06055,40.59338],[-74.06215,40.59203],[-74.06503,40.58899],[-74.06436,40.58827],[-74.06478,40.58849],[-74.06722,40.58673],[-74.07096,40.58318],[-74.07149,40.58217],[-74.07066,40.58163],[-74.07147,40.58203],[-74.07335,40.58068],[-74.07508,40.57916],[-74.0758,40.57831],[-74.07523,40.578],[-74.07535,40.57789],[-74.07602,40.57824],[-74.07688,40.57764],[-74.07674,40.57737],[-74.07694,40.57753],[-74.07737,40.57728],[-74.07926,40.57567],[-74.07868,40.57508],[-74.07934,40.57563],[-74.08091,40.57469],[-74.08655,40.56963],[-74.08691,40.56899],[-74.08622,40.56853],[-74.08725,40.56908],[-74.0883,40.56833],[-74.08925,40.56702],[-74.08998,40.56738],[-74.091,40.56674],[-74.09407,40.56273],[-74.09542,40.56315],[-74.09612,40.56259],[-74.0982,40.55984],[-74.09829,40.55933],[-74.09782,40.55905],[-74.09876,40.55942],[-74.09938,40.55896],[-74.09987,40.55909],[-74.1008,40.55832],[-74.10185,40.55622],[-74.10141,40.55554],[-74.10265,40.55613],[-74.1031,40.5559],[-74.10466,40.55412],[-74.10509,40.55324],[-74.10484,40.55303],[-74.10643,40.55385],[-74.10656,40.55419],[-74.10769,40.55398],[-74.11028,40.5515],[-74.11292,40.54782],[-74.11338,40.54807],[-74.11474,40.548],[-74.11546,40.54752],[-74.11655,40.54787],[-74.11804,40.54731],[-74.11986,40.54543],[-74.12221,40.54506],[-74.12424,40.54311],[-74.13071,40.53454],[-74.13356,40.53151],[-74.13691,40.52928],[-74.13729,40.52974],[-74.13883,40.52989],[-74.13915,40.53152],[-74.14061,40.53413],[-74.14032,40.53538],[-74.13483,40.5353],[-74.13367,40.53572],[-74.13303,40.53624]],[[-74.10573,40.55619],[-74.10593,40.55593],[-74.10444,40.55729],[-74.10573,40.55619]],[[-74.10996,40.55251],[-74.10996,40.55251],[-74.10985,40.55246],[-74.10996,40.55251]],[[-74.11206,40.55015],[-74.11253,40.54986],[-74.1118,40.55029],[-74.11206,40.55015]],[[-74.11368,40.55095],[-74.11422,40.55065],[-74.11368,40.55095],[-74.11297,40.55027],[-74.11368,40.55095]],[[-74.11497,40.55022],[-74.11656,40.54913],[-74.11467,40.55039],[-74.11497,40.55022]],[[-74.11672,40.54902],[-74.11676,40.54899],[-74.11656,40.54913],[-74.11672,40.54902]],[[-74.11834,40.55046],[-74.11957,40.55163],[-74.11676,40.54899],[-74.11834,40.55046]],[[-74.11946,40.55222],[-74.1227,40.55436],[-74.1238,40.55508],[-74.11946,40.55222]],[[-74.1238,40.55508],[-74.12573,40.55633],[-74.12725,40.55727],[-74.1238,40.55508]],[[-74.1273,40.5573],[-74.1273,40.5573],[-74.12725,40.55727],[-74.1273,40.5573]],[[-74.13015,40.55468],[-74.13109,40.55397],[-74.13178,40.55349],[-74.13015,40.55468]],[[-74.1377,40.54938],[-74.13798,40.54911],[-74.13739,40.54959],[-74.1377,40.54938]],[[-74.13984,40.60775],[-74.139,40.60779],[-74.13988,40.60774],[-74.13984,40.60775]],[[-74.13646,40.60793],[-74.13616,40.60794],[-74.13611,40.60795],[-74.13616,40.60794],[-74.13646,40.60793]],[[-74.12674,40.60863],[-74.12671,40.60864],[-74.12682,40.60862],[-74.12674,40.60863]],[[-74.12398,40.60914],[-74.12386,40.60916],[-74.1241,40.60911],[-74.12398,40.60914]],[[-74.11898,40.61048],[-74.11743,40.61093],[-74.11692,40.61104],[-74.11898,40.61048]],[[-74.11657,40.6111],[-74.11655,40.61111],[-74.1166,40.6111],[-74.11657,40.6111]],[[-74.11549,40.61123],[-74.11503,40.61124],[-74.11472,40.61123],[-74.11549,40.61123]],[[-74.1024,40.61045],[-74.10237,40.61045],[-74.1029,40.61043],[-74.1024,40.61045]],[[-74.10165,40.61048],[-74.10164,40.61048],[-74.10166,40.61048],[-74.10165,40.61048]],[[-74.09777,40.61062],[-74.0973,40.61063],[-74.09784,40.61062],[-74.09777,40.61062]],[[-74.06129,40.59975],[-74.06192,40.59954],[-74.06119,40.59978],[-74.06129,40.59975]],[[-74.06192,40.59954],[-74.06284,40.59924],[-74.06376,40.59893],[-74.06192,40.59954]],[[-74.06166,40.59428],[-74.0626,40.59358],[-74.06286,40.59338],[-74.06166,40.59428]],[[-74.06372,40.59266],[-74.06445,40.59214],[-74.0652,40.59154],[-74.06372,40.59266]],[[-74.06663,40.59034],[-74.06665,40.59032],[-74.06656,40.5904],[-74.06663,40.59034]],[[-74.06989,40.58697],[-74.07021,40.58657],[-74.07077,40.58588],[-74.06989,40.58697]],[[-74.07176,40.58479],[-74.07216,40.58453],[-74.07237,40.58439],[-74.07248,40.5843],[-74.07176,40.58479]],[[-74.07293,40.58389],[-74.07353,40.58331],[-74.07284,40.58397],[-74.07293,40.58389]],[[-74.07412,40.58272],[-74.07475,40.58207],[-74.07525,40.58152],[-74.07412,40.58272]],[[-74.07773,40.57932],[-74.07779,40.57926],[-74.07703,40.57994],[-74.07773,40.57932]],[[-74.07934,40.57792],[-74.07995,40.57753],[-74.08015,40.57741],[-74.07934,40.57792]],[[-74.08079,40.57705],[-74.08141,40.57669],[-74.08053,40.57719],[-74.08079,40.57705]],[[-74.08291,40.57584],[-74.08377,40.57533],[-74.08489,40.57468],[-74.08546,40.57433],[-74.08291,40.57584]],[[-74.08834,40.5727],[-74.0884,40.57265],[-74.08825,40.57275],[-74.08834,40.5727]],[[-74.08877,40.57237],[-74.08881,40.57233],[-74.08872,40.57241],[-74.08877,40.57237]],[[-74.08946,40.57161],[-74.08971,40.57136],[-74.08997,40.57109],[-74.08946,40.57161],[-74.08946,40.57161]],[[-74.09107,40.56993],[-74.0915,40.56947],[-74.09078,40.57024],[-74.09107,40.56993]],[[-74.09277,40.56794],[-74.09535,40.56918],[-74.09609,40.56956],[-74.09277,40.56794]],[[-74.09609,40.56956],[-74.09757,40.57034],[-74.09905,40.57111],[-74.09979,40.5715],[-74.10054,40.57188],[-74.10127,40.57228],[-74.10203,40.57266],[-74.10277,40.57305],[-74.10427,40.57381],[-74.10471,40.57401],[-74.10524,40.57309],[-74.10471,40.57401],[-74.09609,40.56956]],[[-74.10351,40.57139],[-74.10306,40.57192],[-74.10306,40.57192],[-74.10351,40.57139]],[[-74.10393,40.5703],[-74.10406,40.5703],[-74.10393,40.57031],[-74.10393,40.5703]],[[-74.10439,40.57027],[-74.10454,40.57025],[-74.10429,40.57028],[-74.10439,40.57027]],[[-74.1047,40.57022],[-74.10483,40.57019],[-74.10454,40.57025],[-74.1047,40.57022]],[[-74.10499,40.57014],[-74.10513,40.57009],[-74.10527,40.57004],[-74.10537,40.56999],[-74.10499,40.57014]],[[-74.10548,40.56994],[-74.10565,40.56985],[-74.10576,40.56978],[-74.10548,40.56994]],[[-74.10624,40.56934],[-74.10645,40.56911],[-74.10621,40.56939],[-74.10624,40.56934]],[[-74.09841,40.56361],[-74.09882,40.56316],[-74.09889,40.56309],[-74.09891,40.56306],[-74.09841,40.56361]],[[-74.09924,40.56269],[-74.09964,40.56225],[-74.09996,40.56188],[-74.09924,40.56269]],[[-74.10071,40.56105],[-74.10081,40.56094],[-74.10052,40.56126],[-74.10071,40.56105]],[[-74.10124,40.56047],[-74.10152,40.56015],[-74.10081,40.56094],[-74.10124,40.56047]]],[[[-74.13297,40.53629],[-74.13308,40.5364],[-74.13294,40.53632],[-74.13297,40.53629]]],[[[-74.15946,40.64145],[-74.16111,40.64184],[-74.16153,40.64416],[-74.1581,40.64376],[-74.15756,40.64324],[-74.15859,40.64246],[-74.15881,40.64176],[-74.15946,40.64145]]],[[[-74.04998,40.5664],[-74.04932,40.56589],[-74.04924,40.56536],[-74.05003,40.56532],[-74.05091,40.56609],[-74.05068,40.56631],[-74.05107,40.56672],[-74.04998,40.5664]]],[[[-74.07341,40.57843],[-74.07355,40.5782],[-74.07508,40.57916],[-74.07499,40.57924],[-74.07341,40.57843]]],[[[-74.05469,40.57969],[-74.05485,40.57995],[-74.05369,40.58055],[-74.05293,40.5799],[-74.05314,40.5777],[-74.05406,40.57712],[-74.0549,40.57778],[-74.05469,40.57969]]],[[[-74.05516,40.60673],[-74.05517,40.60649],[-74.05529,40.60654],[-74.05516,40.60673]]]]}}]}