{"type":"FeatureCollection","features":[{"type":"Feature","properties":{"district":"Bronx"},"geometry":{"type":"MultiPolygon","coordinates":[[[[-73.89797,40.79564],[-73.89919,40.7965],[-73.89788,40.79712],[-73.89713,40.7968],[-73.89679,40.79633],[-73.89681,40.79581],[-73.89694,40.79564],[-73.89797,40.79564]]],[[[-73.90021,40.79926],[-73.89979,40.79951],[-73.89972,40.8008],[-73.90004,40.80091],[-73.89949,40.8009],[-73.89939,40.80194],[-73.89833,40.80241],[-73.89647,40.80079],[-73.89864,40.7991],[-73.90021,40.79926]]],[[[-73.90221,40.80488],[-73.90297,40.80394],[-73.90373,40.80377],[-73.90453,40.80317],[-73.90652,40.80118],[-73.90639,40.80109],[-73.90681,40.80089],[-73.90807,40.79957],[-73.90779,40.79949],[-73.90768,40.79939],[-73.9081,40.79954],[-73.90803,40.79924],[-73.90842,40.79944],[-73.90855,40.79931],[-73.9083,40.79896],[-73.91089,40.79702],[-73.91169,40.79662],[-73.91372,40.79679],[-73.92024,40.79961],[-73.92133,40.80128],[-73.92293,40.80237],[-73.92423,40.80255],[-73.92666,40.80241],[-73.92763,40.8027],[-73.92728,40.80351],[-73.92765,40.80399],[-73.92834,40.80424],[-73.92873,40.8041],[-73.93052,40.80659],[-73.93228,40.80836],[-73.93264,40.80938],[-73.93259,40.81005],[-73.93286,40.81012],[-73.93257,40.81089],[-73.93234,40.81469],[-73.9324,40.82115],[-73.93361,40.83279],[-73.933,40.83568],[-73.93052,40.83993],[-73.93048,40.84046],[-73.92919,40.84282],[-73.92862,40.84468],[-73.92683,40.84729],[-73.92465,40.84979],[-73.92395,40.85122],[-73.92256,40.85319],[-73.92174,40.85422],[-73.92134,40.85432],[-73.92152,40.85451],[-73.9208,40.85538],[-73.9203,40.85525],[-73.92053,40.85569],[-73.91957,40.85684],[-73.91776,40.85871],[-73.91721,40.85893],[-73.91341,40.86337],[-73.91276,40.86303],[-73.91227,40.86363],[-73.9128,40.8639],[-73.91253,40.8638],[-73.91268,40.86402],[-73.91042,40.86657],[-73.90865,40.87139],[-73.9096,40.87309],[-73.91128,40.87433],[-73.91572,40.87571],[-73.91776,40.87566],[-73.91908,40.87606],[-73.92003,40.87659],[-73.92207,40.87857],[-73.92274,40.87891],[-73.92364,40.87882],[-73.92452,40.87906],[-73.9249,40.87889],[-73.92381,40.88032],[-73.92039,40.88765],[-73.91518,40.90158],[-73.91543,40.90181],[-73.91501,40.90308],[-73.91459,40.90412],[-73.91419,40.90414],[-73.91287,40.90754],[-73.91311,40.90785],[-73.91265,40.90807],[-73.91149,40.91223],[-73.91165,40.91342],[-73.91033,40.91553],[-73.90246,40.91296],[-73.89725,40.91166],[-73.85947,40.90052],[-73.85908,40.90101],[-73.85938,40.90157],[-73.85903,40.90144],[-73.85886,40.90171],[-73.85946,40.90193],[-73.85958,40.90244],[-73.85926,40.90267],[-73.85873,40.90229],[-73.85816,40.90231],[-73.85797,40.90285],[-73.85756,40.90292],[-73.85711,40.90365],[-73.85699,40.90458],[-73.85743,40.90484],[-73.85718,40.90529],[-73.85665,40.90506],[-73.85601,40.90531],[-73.85692,40.90597],[-73.85681,40.90616],[-73.8558,40.90626],[-73.85514,40.90687],[-73.85424,40.90703],[-73.85374,40.90779],[-73.85383,40.90797],[-73.85471,40.90801],[-73.85491,40.90835],[-73.85459,40.90894],[-73.85296,40.91035],[-73.85258,40.91031],[-73.85266,40.91002],[-73.85227,40.90985],[-73.85145,40.91045],[-73.85107,40.91037],[-73.85348,40.90753],[-73.85092,40.90662],[-73.85017,40.90751],[-73.84708,40.90616],[-73.84482,40.90553],[-73.84489,40.90419],[-73.84139,40.90417],[-73.84078,40.90163],[-73.83922,40.89942],[-73.83965,40.89733],[-73.83839,40.89407],[-73.83526,40.89339],[-73.82252,40.88943],[-73.82255,40.88981],[-73.82337,40.88992],[-73.82337,40.89097],[-73.82285,40.89121],[-73.81828,40.88985],[-73.79301,40.88336],[-73.79492,40.88054],[-73.79555,40.88069],[-73.79503,40.87975],[-73.79625,40.87701],[-73.79713,40.87619],[-73.79744,40.87514],[-73.79855,40.8744],[-73.79891,40.87465],[-73.79981,40.87416],[-73.79988,40.87348],[-73.80081,40.87149],[-73.80179,40.87107],[-73.80209,40.87085],[-73.80212,40.87038],[-73.80267,40.87015],[-73.8026,40.86934],[-73.80298,40.86874],[-73.80393,40.86903],[-73.80407,40.86874],[-73.80448,40.86871],[-73.80499,40.86915],[-73.80594,40.86893],[-73.80569,40.86955],[-73.8067,40.87042],[-73.80786,40.87087],[-73.80786,40.87113],[-73.8087,40.87134],[-73.80924,40.87122],[-73.80841,40.87093],[-73.80873,40.87043],[-73.80754,40.87038],[-73.80871,40.86909],[-73.80785,40.86973],[-73.80673,40.86953],[-73.80695,40.86886],[-73.8066,40.86889],[-73.80674,40.86873],[-73.80626,40.86842],[-73.80487,40.86823],[-73.80474,40.86666],[-73.80385,40.86717],[-73.80291,40.86698],[-73.80308,40.86607],[-73.80301,40.86575],[-73.80272,40.86566],[-73.80177,40.86588],[-73.80175,40.86641],[-73.8007,40.86814],[-73.79996,40.86888],[-73.79839,40.87161],[-73.79774,40.87235],[-73.79479,40.8732],[-73.79397,40.87457],[-73.7936,40.87672],[-73.79317,40.87706],[-73.79422,40.87738],[-73.7944,40.87764],[-73.79385,40.87859],[-73.793,40.87915],[-73.79289,40.87958],[-73.79219,40.87959],[-73.79173,40.88005],[-73.79095,40.88007],[-73.79063,40.88038],[-73.79076,40.88084],[-73.78914,40.88126],[-73.78907,40.88081],[-73.78932,40.88058],[-73.78912,40.88008],[-73.79006,40.87959],[-73.78952,40.879],[-73.78611,40.87906],[-73.78422,40.87828],[-73.7845,40.87691],[-73.78481,40.87687],[-73.78468,40.87606],[-73.78525,40.8757],[-73.7854,40.87534],[-73.7857,40.87541],[-73.78596,40.87514],[-73.78625,40.87448],[-73.78611,40.87435],[-73.78691,40.87399],[-73.78714,40.87276],[-73.78625,40.87238],[-73.78508,40.87359],[-73.78553,40.87254],[-73.78555,40.87202],[-73.78522,40.87163],[-73.78402,40.87377],[-73.78341,40.87372],[-73.78324,40.87354],[-73.78336,40.87326],[-73.78395,40.8729],[-73.78375,40.8725],[-73.78307,40.87215],[-73.78329,40.8707],[-73.78488,40.86951],[-73.7856,40.86834],[-73.78558,40.86917],[-73.78595,40.86932],[-73.78858,40.86917],[-73.79026,40.86849],[-73.79153,40.86732],[-73.79198,40.86647],[-73.79223,40.86526],[-73.79212,40.86383],[-73.79146,40.86227],[-73.79189,40.86107],[-73.7936,40.86052],[-73.79386,40.86015],[-73.79372,40.85997],[-73.79412,40.8597],[-73.79412,40.85932],[-73.79487,40.85808],[-73.79427,40.8568],[-73.79435,40.85653],[-73.79685,40.85626],[-73.79799,40.85485],[-73.79872,40.85491],[-73.79902,40.85396],[-73.79864,40.85336],[-73.79796,40.85299],[-73.79781,40.85195],[-73.79819,40.85059],[-73.79932,40.84991],[-73.80029,40.84814],[-73.80083,40.84824],[-73.80147,40.84877],[-73.80197,40.85038],[-73.80418,40.85334],[-73.80453,40.85485],[-73.80352,40.85556],[-73.80414,40.85784],[-73.80421,40.85896],[-73.80464,40.85997],[-73.80461,40.86122],[-73.80479,40.86154],[-73.80541,40.86184],[-73.80601,40.86177],[-73.80625,40.86143],[-73.80582,40.86003],[-73.80656,40.85982],[-73.80741,40.86011],[-73.80818,40.85949],[-73.80941,40.86055],[-73.81085,40.86233],[-73.81327,40.86322],[-73.81373,40.86387],[-73.81404,40.86386],[-73.81396,40.8641],[-73.81438,40.86325],[-73.8151,40.86306],[-73.81641,40.86118],[-73.81549,40.86096],[-73.8148,40.86113],[-73.81485,40.8609],[-73.81382,40.86055],[-73.81273,40.85888],[-73.81231,40.85416],[-73.81641,40.85408],[-73.81715,40.8523],[-73.81719,40.85177],[-73.81692,40.85167],[-73.81712,40.85127],[-73.81686,40.85096],[-73.81571,40.85082],[-73.81629,40.85019],[-73.81552,40.84923],[-73.81513,40.84917],[-73.81532,40.84858],[-73.8159,40.84801],[-73.8156,40.84766],[-73.8161,40.84751],[-73.81611,40.84645],[-73.81572,40.84629],[-73.81546,40.8466],[-73.81463,40.84714],[-73.81465,40.84722],[-73.81451,40.84711],[-73.8157,40.84629],[-73.81492,40.84648],[-73.81369,40.84727],[-73.81356,40.84715],[-73.81491,40.84647],[-73.81442,40.84619],[-73.81503,40.8455],[-73.81421,40.84601],[-73.81399,40.84583],[-73.81319,40.84623],[-73.81403,40.84559],[-73.81369,40.84566],[-73.81394,40.84551],[-73.81363,40.84528],[-73.81336,40.84585],[-73.81329,40.84595],[-73.81321,40.84592],[-73.81362,40.84528],[-73.81326,40.84523],[-73.81285,40.84632],[-73.81324,40.84524],[-73.8131,40.84517],[-73.81288,40.84513],[-73.81316,40.84521],[-73.81286,40.84519],[-73.81241,40.84656],[-73.81228,40.84654],[-73.81284,40.84518],[-73.81261,40.84511],[-73.81286,40.84513],[-73.81254,40.84498],[-73.81188,40.84659],[-73.81244,40.84674],[-73.8117,40.84668],[-73.81266,40.84421],[-73.81271,40.84447],[-73.81282,40.84426],[-73.81276,40.84447],[-73.81299,40.84452],[-73.81265,40.84466],[-73.81312,40.84479],[-73.81264,40.84468],[-73.81255,40.84495],[-73.81368,40.84506],[-73.81417,40.84478],[-73.8137,40.84485],[-73.81418,40.84468],[-73.81347,40.84426],[-73.81348,40.84365],[-73.815,40.8435],[-73.81522,40.84408],[-73.81567,40.84443],[-73.81631,40.8444],[-73.81644,40.84406],[-73.8175,40.84437],[-73.81824,40.84434],[-73.81819,40.84411],[-73.81769,40.84427],[-73.81719,40.84392],[-73.81663,40.84394],[-73.81572,40.84254],[-73.81517,40.84258],[-73.8157,40.84252],[-73.81542,40.84239],[-73.81558,40.84184],[-73.81526,40.84126],[-73.81473,40.84138],[-73.81523,40.84101],[-73.8149,40.84056],[-73.81481,40.8398],[-73.81437,40.83987],[-73.8148,40.83979],[-73.81472,40.83959],[-73.81432,40.83965],[-73.81431,40.83962],[-73.81472,40.83957],[-73.81478,40.83908],[-73.81602,40.83853],[-73.81648,40.8377],[-73.81606,40.83603],[-73.8155,40.83595],[-73.81606,40.83577],[-73.81601,40.83551],[-73.81557,40.83553],[-73.81608,40.83536],[-73.81608,40.83459],[-73.81566,40.83449],[-73.81604,40.83417],[-73.8157,40.83346],[-73.81574,40.83292],[-73.81488,40.83103],[-73.81449,40.83117],[-73.81484,40.83099],[-73.81452,40.83062],[-73.81391,40.83092],[-73.8139,40.83091],[-73.81451,40.83061],[-73.81431,40.83036],[-73.81386,40.83056],[-73.8143,40.83035],[-73.81367,40.82989],[-73.81389,40.82978],[-73.81357,40.82959],[-73.81361,40.82938],[-73.81338,40.82939],[-73.81339,40.82902],[-73.8129,40.82895],[-73.81318,40.8288],[-73.81284,40.82865],[-73.81275,40.82825],[-73.80993,40.82819],[-73.8101,40.82782],[-73.81105,40.82798],[-73.81004,40.82778],[-73.81182,40.82783],[-73.81107,40.82784],[-73.81159,40.828],[-73.81264,40.82784],[-73.81265,40.82756],[-73.81385,40.8268],[-73.81372,40.82627],[-73.81292,40.82635],[-73.81399,40.82607],[-73.81395,40.82573],[-73.81342,40.82593],[-73.81394,40.82572],[-73.8138,40.8253],[-73.81334,40.82517],[-73.81211,40.82555],[-73.81328,40.82516],[-73.81308,40.82494],[-73.81404,40.82448],[-73.81397,40.82419],[-73.81327,40.82397],[-73.81281,40.82434],[-73.81273,40.82478],[-73.81232,40.82441],[-73.81177,40.82434],[-73.81164,40.8246],[-73.81103,40.82471],[-73.81087,40.82511],[-73.81076,40.8249],[-73.80965,40.82528],[-73.80909,40.82587],[-73.80767,40.8259],[-73.80698,40.82539],[-73.80656,40.82461],[-73.80678,40.82445],[-73.80652,40.8242],[-73.80675,40.82383],[-73.80646,40.8238],[-73.80666,40.82342],[-73.80624,40.82331],[-73.80651,40.82315],[-73.80638,40.82289],[-73.80595,40.82288],[-73.80622,40.82274],[-73.80582,40.82177],[-73.80599,40.82082],[-73.80573,40.82018],[-73.80462,40.81903],[-73.80348,40.81828],[-73.80267,40.81824],[-73.80252,40.81853],[-73.80208,40.81856],[-73.80071,40.81804],[-73.80033,40.81756],[-73.79759,40.81651],[-73.79738,40.81576],[-73.79771,40.81551],[-73.79812,40.8157],[-73.79903,40.81554],[-73.80011,40.81402],[-73.80092,40.81376],[-73.80146,40.81294],[-73.80175,40.81287],[-73.80134,40.81239],[-73.80176,40.81286],[-73.80306,40.81245],[-73.80361,40.81252],[-73.80352,40.81292],[-73.80378,40.81281],[-73.80361,40.81304],[-73.80436,40.81361],[-73.80415,40.81373],[-73.80423,40.81366],[-73.80356,40.81304],[-73.80361,40.81297],[-73.80325,40.8132],[-73.80453,40.81425],[-73.80322,40.81337],[-73.80352,40.81395],[-73.80443,40.81458],[-73.80472,40.81523],[-73.80658,40.81659],[-73.80612,40.81595],[-73.80538,40.81548],[-73.80508,40.8152],[-73.80455,40.81463],[-73.80466,40.81454],[-73.80528,40.81538],[-73.8061,40.81592],[-73.80633,40.81614],[-73.80672,40.81658],[-73.80661,40.81666],[-73.80693,40.81657],[-73.80654,40.81589],[-73.80705,40.81653],[-73.80663,40.81568],[-73.8064,40.8157],[-73.80663,40.81559],[-73.80546,40.81469],[-73.80545,40.81338],[-73.805,40.81221],[-73.80476,40.81203],[-73.80391,40.81211],[-73.80337,40.81154],[-73.80293,40.81054],[-73.80235,40.81004],[-73.80136,40.81071],[-73.80101,40.81071],[-73.80147,40.81014],[-73.80011,40.80971],[-73.79854,40.80959],[-73.79229,40.80685],[-73.7914,40.807],[-73.79152,40.80749],[-73.79086,40.80734],[-73.79073,40.80659],[-73.79006,40.80541],[-73.79066,40.80449],[-73.79225,40.804],[-73.79339,40.8042],[-73.79578,40.80616],[-73.79621,40.80597],[-73.7965,40.8061],[-73.79637,40.80628],[-73.79792,40.80671],[-73.80175,40.80904],[-73.80278,40.80912],[-73.80393,40.80853],[-73.80468,40.80923],[-73.80714,40.81066],[-73.80823,40.81189],[-73.80992,40.81293],[-73.81078,40.81277],[-73.814,40.81355],[-73.81443,40.81352],[-73.8145,40.81291],[-73.81448,40.81352],[-73.81566,40.81351],[-73.8162,40.81385],[-73.81737,40.81357],[-73.81736,40.81338],[-73.81739,40.81357],[-73.81792,40.81354],[-73.81794,40.8133],[-73.81798,40.8133],[-73.81804,40.81353],[-73.81982,40.81318],[-73.82011,40.81286],[-73.82056,40.81302],[-73.82024,40.81243],[-73.82107,40.8122],[-73.82032,40.81244],[-73.82042,40.81264],[-73.82113,40.81245],[-73.82044,40.81266],[-73.82059,40.81302],[-73.82228,40.81266],[-73.82217,40.81235],[-73.82231,40.81266],[-73.82409,40.81216],[-73.82506,40.81183],[-73.82481,40.81144],[-73.82524,40.81176],[-73.82488,40.81127],[-73.82527,40.81175],[-73.82549,40.81166],[-73.82523,40.81121],[-73.82565,40.81159],[-73.82536,40.81103],[-73.82567,40.81158],[-73.82554,40.81102],[-73.82581,40.81153],[-73.8258,40.81121],[-73.82596,40.81147],[-73.82621,40.81128],[-73.82803,40.81145],[-73.83018,40.81084],[-73.83162,40.80957],[-73.83217,40.80816],[-73.83214,40.80741],[-73.83162,40.80665],[-73.8314,40.80517],[-73.83162,40.80494],[-73.83432,40.80516],[-73.83744,40.8062],[-73.83806,40.80704],[-73.83824,40.80818],[-73.84026,40.81144],[-73.84043,40.81254],[-73.84027,40.81328],[-73.83966,40.81392],[-73.83957,40.81449],[-73.83954,40.81582],[-73.84019,40.81719],[-73.84009,40.8178],[-73.83893,40.819],[-73.83868,40.81959],[-73.83906,40.8198],[-73.83888,40.82214],[-73.83905,40.82269],[-73.83953,40.82304],[-73.83974,40.82411],[-73.84013,40.82432],[-73.84222,40.82834],[-73.84233,40.82907],[-73.84189,40.83071],[-73.83918,40.83316],[-73.83885,40.83369],[-73.83923,40.83674],[-73.83919,40.83871],[-73.83959,40.8388],[-73.83972,40.83957],[-73.8403,40.83952],[-73.83984,40.8379],[-73.83984,40.83612],[-73.83976,40.8363],[-73.8398,40.83581],[-73.83968,40.83606],[-73.8396,40.83567],[-73.83966,40.8358],[-73.8398,40.83579],[-73.83979,40.83562],[-73.83961,40.83561],[-73.83946,40.83503],[-73.83959,40.83404],[-73.84018,40.83304],[-73.84221,40.83155],[-73.84276,40.83082],[-73.84311,40.82979],[-73.84253,40.82753],[-73.84002,40.82219],[-73.83983,40.82157],[-73.84,40.81993],[-73.84199,40.81877],[-73.84209,40.81806],[-73.84374,40.81532],[-73.84521,40.81189],[-73.84577,40.81158],[-73.84617,40.81068],[-73.8472,40.81058],[-73.84821,40.81246],[-73.84939,40.81324],[-73.85041,40.81358],[-73.8506,40.81393],[-73.85301,40.81458],[-73.85262,40.81406],[-73.85298,40.81387],[-73.85291,40.81369],[-73.85337,40.81359],[-73.85515,40.81437],[-73.85538,40.81429],[-73.85443,40.81372],[-73.85347,40.81348],[-73.85256,40.81374],[-73.8512,40.81355],[-73.84921,40.81238],[-73.84905,40.81199],[-73.84938,40.81129],[-73.84917,40.81092],[-73.8498,40.81003],[-73.85002,40.80925],[-73.84985,40.80925],[-73.85004,40.80922],[-73.84997,40.80888],[-73.84973,40.80888],[-73.84995,40.80871],[-73.84955,40.80872],[-73.84997,40.80858],[-73.84961,40.80812],[-73.84876,40.80834],[-73.84952,40.80806],[-73.84842,40.80737],[-73.84838,40.80636],[-73.84754,40.80593],[-73.84753,40.80533],[-73.8479,40.805],[-73.84865,40.8047],[-73.84933,40.80505],[-73.84932,40.80466],[-73.84943,40.80506],[-73.84982,40.80509],[-73.85015,40.80453],[-73.85065,40.80448],[-73.85605,40.80459],[-73.85662,40.80487],[-73.85569,40.80468],[-73.8556,40.80506],[-73.85724,40.80531],[-73.85668,40.805],[-73.85683,40.80491],[-73.85889,40.80589],[-73.85831,40.806],[-73.85861,40.8067],[-73.85908,40.80648],[-73.85888,40.80599],[-73.8592,40.80627],[-73.8594,40.80753],[-73.85916,40.80688],[-73.85867,40.80683],[-73.85839,40.80826],[-73.85895,40.81027],[-73.85908,40.80998],[-73.86013,40.80961],[-73.85933,40.809],[-73.85939,40.80816],[-73.85982,40.80911],[-73.86066,40.80963],[-73.86766,40.81058],[-73.87078,40.81449],[-73.87172,40.81492],[-73.87652,40.81613],[-73.87673,40.81539],[-73.87239,40.81397],[-73.87096,40.81215],[-73.87057,40.81209],[-73.87055,40.81124],[-73.86811,40.80675],[-73.86846,40.80594],[-73.87175,40.80155],[-73.87355,40.80085],[-73.87468,40.80098],[-73.87473,40.80126],[-73.87527,40.8014],[-73.87586,40.80146],[-73.87593,40.80108],[-73.87814,40.80132],[-73.87797,40.80171],[-73.87823,40.80265],[-73.87921,40.8028],[-73.8837,40.80216],[-73.88396,40.80197],[-73.88369,40.80195],[-73.88372,40.80186],[-73.88505,40.80213],[-73.88727,40.80395],[-73.88725,40.80419],[-73.88796,40.805],[-73.88859,40.80479],[-73.88906,40.80502],[-73.88937,40.80538],[-73.88922,40.80585],[-73.89,40.80489],[-73.89015,40.80496],[-73.88937,40.80593],[-73.89006,40.8057],[-73.8915,40.80593],[-73.89144,40.80566],[-73.89179,40.80562],[-73.89198,40.80638],[-73.89271,40.80634],[-73.89253,40.80566],[-73.89227,40.8057],[-73.89216,40.8053],[-73.89127,40.80501],[-73.89173,40.80505],[-73.8922,40.80528],[-73.8923,40.80566],[-73.89257,40.80562],[-73.89275,40.80634],[-73.89463,40.80623],[-73.89473,40.80603],[-73.89485,40.80621],[-73.89484,40.80572],[-73.8951,40.80686],[-73.89551,40.8066],[-73.89528,40.80577],[-73.89559,40.80658],[-73.89567,40.80629],[-73.89598,40.80652],[-73.89587,40.80581],[-73.89611,40.8065],[-73.89623,40.80621],[-73.89726,40.80604],[-73.8975,40.80621],[-73.89741,40.8058],[-73.89764,40.8062],[-73.89773,40.80597],[-73.89801,40.80617],[-73.89787,40.80553],[-73.89816,40.80614],[-73.89813,40.80565],[-73.89853,40.80543],[-73.90097,40.80488],[-73.90221,40.80488]],[[-73.86791,40.90292],[-73.868,40.90272],[-73.86804,40.90262],[-73.86791,40.90292]],[[-73.86815,40.90244],[-73.8682,40.90236],[-73.86831,40.90225],[-73.86848,40.90207],[-73.86873,40.90182],[-73.86815,40.90244]],[[-73.86931,40.90131],[-73.86947,40.90118],[-73.86918,40.90142],[-73.86931,40.90131]],[[-73.86979,40.90095],[-73.86996,40.90083],[-73.86973,40.90099],[-73.86979,40.90095]],[[-73.87206,40.89972],[-73.87227,40.89963],[-73.87192,40.89978],[-73.87206,40.89972]],[[-73.87243,40.89956],[-73.87301,40.89934],[-73.87313,40.8993],[-73.87243,40.89956]],[[-73.87372,40.89906],[-73.87377,40.89903],[-73.87369,40.89907],[-73.87372,40.89906]],[[-73.874,40.89892],[-73.87433,40.89875],[-73.87445,40.89867],[-73.874,40.89892]],[[-73.87489,40.89839],[-73.87522,40.89815],[-73.87538,40.89802],[-73.87553,40.89789],[-73.87489,40.89839]],[[-73.87553,40.89789],[-73.87582,40.89761],[-73.87593,40.89749],[-73.87599,40.89742],[-73.87553,40.89789]],[[-73.87615,40.89725],[-73.87625,40.89713],[-73.87634,40.897],[-73.87644,40.89687],[-73.87655,40.8967],[-73.87665,40.89653],[-73.87675,40.89636],[-73.87683,40.89619],[-73.87689,40.89607],[-73.87615,40.89725]],[[-73.87706,40.89565],[-73.87712,40.89547],[-73.87705,40.89568],[-73.87706,40.89565]],[[-73.87957,40.89527],[-73.87973,40.89525],[-73.87894,40.89532],[-73.87957,40.89527]],[[-73.88004,40.89522],[-73.88014,40.89506],[-73.88004,40.89522],[-73.88004,40.89522]],[[-73.88016,40.89491],[-73.88035,40.89352],[-73.88038,40.8934],[-73.8804,40.89329],[-73.88016,40.89491]],[[-73.8804,40.89327],[-73.88042,40.89304],[-73.88042,40.893],[-73.8804,40.89327]],[[-73.8804,40.89279],[-73.88039,40.89269],[-73.88041,40.89286],[-73.8804,40.89279]],[[-73.88036,40.89255],[-73.88033,40.89244],[-73.88038,40.89265],[-73.88036,40.89255]],[[-73.87819,40.88805],[-73.88018,40.89209],[-73.87919,40.89031],[-73.87819,40.88805]],[[-73.87805,40.88763],[-73.878,40.88745],[-73.87815,40.88794],[-73.87805,40.88763]],[[-73.87792,40.88741],[-73.87789,40.88732],[-73.878,40.88745],[-73.87792,40.88741]],[[-73.87784,40.88709],[-73.87783,40.88677],[-73.87784,40.88711],[-73.87784,40.88709]],[[-73.87773,40.88345],[-73.87809,40.88228],[-73.87761,40.88452],[-73.87773,40.88345]],[[-73.87813,40.88215],[-73.87717,40.88199],[-73.8747,40.88155],[-73.87717,40.88199],[-73.87813,40.88215]],[[-73.87479,40.88008],[-73.87479,40.88008],[-73.8747,40.88155],[-73.87479,40.88008]],[[-73.87495,40.87995],[-73.87495,40.87995],[-73.87479,40.88007],[-73.87495,40.87995]],[[-73.87407,40.88004],[-73.87318,40.88012],[-73.87476,40.87997],[-73.87407,40.88004]],[[-73.87192,40.88024],[-73.87187,40.88033],[-73.87241,40.88019],[-73.87192,40.88024]],[[-73.87187,40.88033],[-73.87015,40.88035],[-73.87094,40.87851],[-73.87161,40.87692],[-73.87255,40.87518],[-73.87437,40.8727],[-73.87479,40.87212],[-73.87255,40.87518],[-73.87161,40.87692],[-73.87015,40.88035],[-73.87068,40.88046],[-73.87084,40.88045],[-73.87187,40.88033]],[[-73.87519,40.87158],[-73.87386,40.87155],[-73.87326,40.87153],[-73.87294,40.87153],[-73.87283,40.87152],[-73.87386,40.87155],[-73.87519,40.87158]],[[-73.87273,40.87152],[-73.87211,40.87151],[-73.87283,40.87152],[-73.87273,40.87152]],[[-73.87203,40.87151],[-73.87197,40.87151],[-73.87211,40.87151],[-73.87203,40.87151]],[[-73.87056,40.87151],[-73.87054,40.86967],[-73.87056,40.87151],[-73.87145,40.87151],[-73.87056,40.87151]],[[-73.86991,40.86968],[-73.86985,40.86968],[-73.87054,40.86967],[-73.86991,40.86968]],[[-73.86974,40.86968],[-73.86928,40.86968],[-73.86912,40.86968],[-73.86974,40.86968]],[[-73.86778,40.86969],[-73.86753,40.86969],[-73.86785,40.86969],[-73.86778,40.86969]],[[-73.86654,40.8697],[-73.86526,40.86967],[-73.86433,40.86966],[-73.86339,40.86964],[-73.86245,40.86962],[-73.86143,40.8696],[-73.86339,40.86964],[-73.86433,40.86966],[-73.86621,40.86969],[-73.86654,40.8697]],[[-73.85948,40.86957],[-73.85856,40.86955],[-73.86042,40.86959],[-73.85948,40.86957]],[[-73.85761,40.86953],[-73.85745,40.86953],[-73.85823,40.86955],[-73.85761,40.86953]],[[-73.85666,40.87036],[-73.85658,40.87047],[-73.85745,40.86953],[-73.85666,40.87036]],[[-73.85454,40.8726],[-73.85428,40.87281],[-73.85506,40.8722],[-73.85454,40.8726]],[[-73.85364,40.8733],[-73.8486,40.87167],[-73.84793,40.87134],[-73.85364,40.8733]],[[-73.84793,40.87134],[-73.84699,40.87085],[-73.84609,40.87039],[-73.84793,40.87134]],[[-73.84609,40.87039],[-73.84558,40.87013],[-73.84518,40.86992],[-73.84609,40.87039]],[[-73.84517,40.86991],[-73.84423,40.86942],[-73.84359,40.86909],[-73.84316,40.86886],[-73.84289,40.86873],[-73.84517,40.86991]],[[-73.84266,40.86861],[-73.84185,40.86819],[-73.84132,40.86791],[-73.84266,40.86861]],[[-73.84064,40.86755],[-73.83974,40.86709],[-73.84089,40.86768],[-73.84064,40.86755]],[[-73.83954,40.86699],[-73.83922,40.86682],[-73.83974,40.86709],[-73.83954,40.86699]],[[-73.83875,40.86657],[-73.83784,40.8661],[-73.83922,40.86682],[-73.83875,40.86657]],[[-73.83697,40.86564],[-73.83089,40.86221],[-73.8293,40.86168],[-73.83089,40.86221],[-73.83578,40.86502],[-73.83697,40.86564]],[[-73.8292,40.8616],[-73.82842,40.86093],[-73.82834,40.86089],[-73.8292,40.8616]],[[-73.83372,40.87077],[-73.83382,40.87101],[-73.83369,40.87069],[-73.83372,40.87077]],[[-73.83449,40.87607],[-73.83438,40.87658],[-73.83448,40.87573],[-73.83449,40.87607]],[[-73.83319,40.879],[-73.8326,40.87966],[-73.83225,40.88001],[-73.83319,40.879]],[[-73.83224,40.88002],[-73.83225,40.88002],[-73.83225,40.88002],[-73.83224,40.88002]],[[-73.83121,40.88093],[-73.83105,40.88105],[-73.83129,40.88087],[-73.83121,40.88093]],[[-73.82837,40.8827],[-73.82622,40.88372],[-73.82872,40.88251],[-73.82837,40.8827]],[[-73.82579,40.8839],[-73.82577,40.88391],[-73.82586,40.88388],[-73.82579,40.8839]],[[-73.82199,40.88509],[-73.82185,40.88513],[-73.82221,40.88503],[-73.82199,40.88509]],[[-73.82066,40.88545],[-73.82035,40.88553],[-73.82081,40.88541],[-73.82066,40.88545]],[[-73.8201,40.8856],[-73.81941,40.88578],[-73.81842,40.88604],[-73.8201,40.8856]],[[-73.81743,40.88629],[-73.81655,40.88652],[-73.81842,40.88604],[-73.81743,40.88629]],[[-73.80636,40.88595],[-73.8069,40.88593],[-73.80618,40.88596],[-73.80636,40.88595]],[[-73.80551,40.88609],[-73.80571,40.88604],[-73.80609,40.88597],[-73.80571,40.88604],[-73.80551,40.88609]],[[-73.8052,40.886],[-73.80535,40.88605],[-73.80329,40.88542],[-73.8052,40.886]],[[-73.80329,40.88542],[-73.79938,40.88435],[-73.79826,40.88406],[-73.80329,40.88542]],[[-73.79417,40.88299],[-73.79449,40.88307],[-73.79681,40.88368],[-73.79449,40.88307],[-73.79417,40.88299]],[[-73.81589,40.88663],[-73.81602,40.88661],[-73.81571,40.88666],[-73.81589,40.88663]],[[-73.81548,40.88669],[-73.81568,40.88666],[-73.81539,40.8867],[-73.81548,40.88669]],[[-73.81532,40.88671],[-73.81443,40.88677],[-73.81402,40.88678],[-73.81532,40.88671]],[[-73.81357,40.88678],[-73.814,40.88678],[-73.8121,40.88672],[-73.81357,40.88678]],[[-73.81198,40.8867],[-73.80834,40.88604],[-73.80799,40.88599],[-73.80764,40.88595],[-73.80729,40.88593],[-73.80693,40.88593],[-73.81198,40.8867]]],[[[-73.78951,40.83536],[-73.78846,40.83531],[-73.78833,40.83467],[-73.78931,40.83446],[-73.78951,40.83536]]],[[[-73.80393,40.84259],[-73.80368,40.84226],[-73.80222,40.84163],[-73.80264,40.84108],[-73.80529,40.84113],[-73.80695,40.84146],[-73.80681,40.84249],[-73.80393,40.84259]]],[[[-73.78907,40.85867],[-73.78877,40.8584],[-73.78878,40.85742],[-73.78804,40.85756],[-73.78803,40.85751],[-73.78878,40.8574],[-73.7889,40.85657],[-73.78836,40.85563],[-73.78848,40.8544],[-73.78835,40.85415],[-73.78756,40.85438],[-73.78735,40.85439],[-73.78832,40.8541],[-73.78691,40.85406],[-73.78793,40.85374],[-73.788,40.85352],[-73.78588,40.85179],[-73.78529,40.85162],[-73.78413,40.85183],[-73.78431,40.85177],[-73.78396,40.85149],[-73.78338,40.85159],[-73.7836,40.85132],[-73.7846,40.8511],[-73.78445,40.85077],[-73.78384,40.85069],[-73.78407,40.85063],[-73.7842,40.85006],[-73.78353,40.84922],[-73.78304,40.84907],[-73.78154,40.8494],[-73.78214,40.8491],[-73.78143,40.8488],[-73.78149,40.84858],[-73.78267,40.84814],[-73.78098,40.84846],[-73.78264,40.84807],[-73.78148,40.84788],[-73.78143,40.84746],[-73.78208,40.84713],[-73.78216,40.84664],[-73.78046,40.8471],[-73.7804,40.84693],[-73.78106,40.8468],[-73.78115,40.84625],[-73.78111,40.84675],[-73.78169,40.84664],[-73.78174,40.84641],[-73.78171,40.84666],[-73.78109,40.8468],[-73.78216,40.84661],[-73.78251,40.84641],[-73.7825,40.84566],[-73.78309,40.84552],[-73.78315,40.84531],[-73.78307,40.84551],[-73.78242,40.84568],[-73.78182,40.84576],[-73.78305,40.8455],[-73.78306,40.84509],[-73.78182,40.84548],[-73.78307,40.84506],[-73.78315,40.8453],[-73.78298,40.84468],[-73.78337,40.84444],[-73.78301,40.84417],[-73.78327,40.84407],[-73.78309,40.84387],[-73.78348,40.84368],[-73.78291,40.84394],[-73.78053,40.84453],[-73.77993,40.84388],[-73.78053,40.84445],[-73.7804,40.84397],[-73.78058,40.84443],[-73.78106,40.84433],[-73.78088,40.84386],[-73.78109,40.84432],[-73.78155,40.84422],[-73.78138,40.8437],[-73.78158,40.84421],[-73.78201,40.84411],[-73.78183,40.84358],[-73.78204,40.8441],[-73.78244,40.84401],[-73.78225,40.84344],[-73.78247,40.844],[-73.78282,40.84392],[-73.78257,40.84329],[-73.78278,40.84375],[-73.78309,40.84369],[-73.78287,40.84312],[-73.78313,40.8437],[-73.78281,40.84378],[-73.78284,40.84389],[-73.78347,40.84365],[-73.78319,40.84287],[-73.78321,40.84348],[-73.78291,40.84292],[-73.78314,40.84282],[-73.78292,40.84281],[-73.78312,40.84274],[-73.78289,40.84249],[-73.78282,40.84276],[-73.78271,40.84253],[-73.7823,40.84261],[-73.78244,40.84304],[-73.78227,40.84261],[-73.7818,40.8427],[-73.78193,40.84323],[-73.78177,40.8427],[-73.78125,40.8428],[-73.78143,40.84337],[-73.78122,40.8428],[-73.78067,40.84291],[-73.78083,40.84351],[-73.78064,40.84291],[-73.7803,40.84297],[-73.78023,40.84378],[-73.78023,40.84288],[-73.78286,40.84248],[-73.7806,40.84279],[-73.78237,40.84243],[-73.78215,40.84236],[-73.78231,40.84222],[-73.78162,40.84233],[-73.78231,40.84221],[-73.78233,40.84192],[-73.78144,40.84214],[-73.78232,40.8419],[-73.78204,40.84184],[-73.78217,40.84169],[-73.7813,40.84179],[-73.78134,40.842],[-73.7807,40.84203],[-73.78072,40.84219],[-73.78035,40.84211],[-73.78043,40.84249],[-73.7802,40.84205],[-73.78185,40.84165],[-73.78166,40.84112],[-73.78084,40.84128],[-73.78089,40.84155],[-73.7808,40.84126],[-73.78165,40.8411],[-73.78139,40.84104],[-73.78161,40.841],[-73.78137,40.84098],[-73.78159,40.84094],[-73.78142,40.84071],[-73.78154,40.84039],[-73.78125,40.84026],[-73.78149,40.8402],[-73.78136,40.83973],[-73.78118,40.83975],[-73.78134,40.83948],[-73.78114,40.83949],[-73.78134,40.83947],[-73.78157,40.83854],[-73.782,40.83802],[-73.78188,40.83765],[-73.78238,40.83732],[-73.78273,40.83749],[-73.78291,40.83732],[-73.7827,40.83684],[-73.78282,40.83634],[-73.78338,40.83691],[-73.7841,40.83673],[-73.78448,40.83702],[-73.78498,40.83675],[-73.78508,40.83688],[-73.7845,40.83706],[-73.78485,40.83747],[-73.78564,40.83706],[-73.78583,40.83721],[-73.78517,40.83747],[-73.78558,40.83793],[-73.78553,40.8388],[-73.78574,40.83923],[-73.78653,40.83972],[-73.78741,40.83968],[-73.78764,40.84053],[-73.78736,40.84059],[-73.78749,40.84084],[-73.78818,40.84071],[-73.78816,40.84049],[-73.78825,40.84075],[-73.78752,40.84088],[-73.78786,40.84108],[-73.78761,40.8412],[-73.78784,40.84147],[-73.78837,40.8415],[-73.78802,40.84178],[-73.78829,40.84179],[-73.78806,40.84187],[-73.78838,40.84238],[-73.78884,40.84235],[-73.78853,40.84243],[-73.78906,40.84324],[-73.78992,40.84322],[-73.78993,40.84304],[-73.79,40.84331],[-73.78973,40.84341],[-73.7899,40.84342],[-73.7898,40.84359],[-73.78934,40.84368],[-73.78947,40.84429],[-73.79067,40.84574],[-73.79099,40.84565],[-73.7907,40.84579],[-73.79097,40.84636],[-73.79149,40.84625],[-73.79113,40.84636],[-73.79118,40.84656],[-73.79141,40.84655],[-73.79148,40.8468],[-73.79179,40.84673],[-73.79137,40.84689],[-73.79144,40.84731],[-73.79177,40.84723],[-73.79192,40.84726],[-73.79127,40.8476],[-73.79133,40.84806],[-73.79162,40.84805],[-73.79134,40.84809],[-73.79101,40.84899],[-73.78976,40.84953],[-73.78986,40.84997],[-73.79095,40.84974],[-73.79099,40.84983],[-73.78987,40.84999],[-73.79002,40.85032],[-73.79036,40.85014],[-73.78989,40.85046],[-73.79007,40.85093],[-73.79025,40.8509],[-73.79009,40.85098],[-73.79027,40.85096],[-73.78951,40.8513],[-73.78956,40.85149],[-73.79006,40.85141],[-73.79002,40.85126],[-73.79099,40.85126],[-73.78966,40.8515],[-73.78973,40.85169],[-73.79089,40.85155],[-73.7902,40.85175],[-73.79046,40.85177],[-73.79008,40.85203],[-73.79016,40.85225],[-73.79016,40.85204],[-73.79027,40.85222],[-73.79053,40.85216],[-73.79045,40.85199],[-73.79081,40.8521],[-73.79056,40.85194],[-73.79079,40.85186],[-73.79085,40.85209],[-73.79111,40.85201],[-73.79101,40.85186],[-73.79119,40.85202],[-73.79146,40.85195],[-73.79132,40.85178],[-73.79152,40.85173],[-73.7915,40.85193],[-73.79173,40.85176],[-73.79249,40.85155],[-73.79177,40.85177],[-73.79206,40.85183],[-73.79017,40.85228],[-73.79114,40.85206],[-73.79124,40.85228],[-73.79318,40.85181],[-73.79312,40.85158],[-73.79324,40.85193],[-73.79125,40.8523],[-73.79138,40.8526],[-73.79341,40.85202],[-73.79351,40.85226],[-73.79139,40.85263],[-73.79145,40.85277],[-73.79042,40.85302],[-73.7905,40.85319],[-73.79101,40.85312],[-73.79145,40.85301],[-73.79144,40.85282],[-73.7915,40.853],[-73.79166,40.85278],[-73.79196,40.8529],[-73.79192,40.85271],[-73.79199,40.85289],[-73.79222,40.85283],[-73.79218,40.85265],[-73.79225,40.85282],[-73.79249,40.85277],[-73.79244,40.85259],[-73.79251,40.85276],[-73.79283,40.85268],[-73.79282,40.85249],[-73.7929,40.8527],[-73.79081,40.8532],[-73.79111,40.85326],[-73.79127,40.85371],[-73.79252,40.85341],[-73.79241,40.85305],[-73.79256,40.8534],[-73.79298,40.8533],[-73.79288,40.85294],[-73.79304,40.85337],[-73.79106,40.85392],[-73.79246,40.8536],[-73.79107,40.85394],[-73.79254,40.85385],[-73.79257,40.85402],[-73.79179,40.854],[-73.79192,40.85422],[-73.79129,40.85458],[-73.79208,40.85565],[-73.7925,40.85579],[-73.79202,40.85618],[-73.79257,40.85626],[-73.79201,40.85623],[-73.79209,40.85648],[-73.7919,40.85655],[-73.79309,40.85669],[-73.79189,40.85657],[-73.79171,40.85685],[-73.7922,40.85715],[-73.79243,40.85693],[-73.79222,40.85715],[-73.79283,40.85744],[-73.79301,40.857],[-73.79288,40.85748],[-73.79186,40.857],[-73.79268,40.85742],[-73.79211,40.85717],[-73.79189,40.85744],[-73.79257,40.85764],[-73.7924,40.85785],[-73.79174,40.85739],[-73.79209,40.85716],[-73.79184,40.85703],[-73.7916,40.85738],[-73.79129,40.85726],[-73.79094,40.85755],[-73.79179,40.85778],[-73.79144,40.85815],[-73.79162,40.8579],[-73.79093,40.85757],[-73.79024,40.85815],[-73.79019,40.85861],[-73.78907,40.85867]]],[[[-73.7826,40.85482],[-73.78386,40.85483],[-73.7833,40.85585],[-73.78285,40.85549],[-73.7826,40.85482]]],[[[-73.78434,40.86006],[-73.78464,40.85924],[-73.78514,40.85879],[-73.78608,40.85927],[-73.78661,40.85904],[-73.78669,40.85869],[-73.78773,40.85877],[-73.78692,40.86027],[-73.78457,40.86053],[-73.78434,40.86006]]],[[[-73.78429,40.86321],[-73.78354,40.86308],[-73.7838,40.86297],[-73.78379,40.86259],[-73.78469,40.86254],[-73.78452,40.86296],[-73.78417,40.86309],[-73.78429,40.86321]]],[[[-73.78356,40.8775],[-73.78367,40.87663],[-73.78384,40.87652],[-73.784,40.87686],[-73.78356,40.8775]]],[[[-73.78543,40.88004],[-73.78514,40.87974],[-73.78568,40.87985],[-73.78543,40.88004]]],[[[-73.7844,40.88041],[-73.78382,40.88042],[-73.7837,40.87993],[-73.78407,40.87971],[-73.78433,40.8802],[-73.78469,40.88013],[-73.78535,40.88052],[-73.78496,40.88075],[-73.78469,40.88052],[-73.78443,40.88063],[-73.7844,40.88041]]],[[[-73.7696,40.84759],[-73.76789,40.84529],[-73.76901,40.8451],[-73.77118,40.84694],[-73.77157,40.8475],[-73.77089,40.84975],[-73.77205,40.85162],[-73.77271,40.85183],[-73.77247,40.85183],[-73.77246,40.85206],[-73.77296,40.85216],[-73.77265,40.85222],[-73.77289,40.8524],[-73.77246,40.85211],[-73.77245,40.85244],[-73.77173,40.85248],[-73.77172,40.853],[-73.7723,40.85309],[-73.77235,40.85385],[-73.77296,40.8538],[-73.77296,40.85414],[-73.77233,40.8539],[-73.77214,40.85441],[-73.77235,40.85967],[-73.77219,40.85999],[-73.77085,40.8601],[-73.76947,40.85933],[-73.76836,40.85836],[-73.76836,40.85766],[-73.76533,40.85504],[-73.76783,40.85444],[-73.76856,40.85324],[-73.76904,40.85329],[-73.76939,40.85254],[-73.76861,40.85079],[-73.7696,40.84759]]],[[[-73.78121,40.85507],[-73.78105,40.85551],[-73.78063,40.85526],[-73.78077,40.85484],[-73.78121,40.85507]]],[[[-73.77322,40.86079],[-73.7734,40.86074],[-73.77334,40.86085],[-73.77322,40.86079]]],[[[-73.77512,40.86119],[-73.77527,40.86145],[-73.77493,40.86155],[-73.77512,40.86119]]],[[[-73.77475,40.86205],[-73.77467,40.8618],[-73.77487,40.86183],[-73.77475,40.86205]]],[[[-73.78302,40.86281],[-73.78289,40.86232],[-73.78315,40.86207],[-73.78328,40.86278],[-73.78302,40.86281]]],[[[-73.76978,40.86569],[-73.76945,40.86576],[-73.76994,40.86552],[-73.76978,40.86569]]],[[[-73.76723,40.86693],[-73.76712,40.86724],[-73.76668,40.86732],[-73.76692,40.86705],[-73.76723,40.86693]]],[[[-73.77085,40.87163],[-73.77224,40.87156],[-73.77263,40.87188],[-73.77085,40.87163]]],[[[-73.77512,40.87439],[-73.77467,40.87479],[-73.77451,40.8745],[-73.77494,40.87392],[-73.77512,40.87439]]],[[[-73.78193,40.8754],[-73.78213,40.87453],[-73.78266,40.87479],[-73.78244,40.87521],[-73.78214,40.87516],[-73.78193,40.8754]]],[[[-73.78142,40.87577],[-73.7814,40.87654],[-73.78121,40.87659],[-73.78142,40.87577]]],[[[-73.78172,40.87622],[-73.78207,40.87624],[-73.7822,40.87643],[-73.78167,40.87642],[-73.78172,40.87622]]]]}}]}