{"type":"FeatureCollection","features":[{"type":"Feature","properties":{"district":"112"},"geometry":{"type":"MultiPolygon","coordinates":[[[[-73.93445239397371,40.83598096015007],[-73.93463510596277,40.836050192077316],[-73.93467393002159,40.83606490323893],[-73.93474569422922,40.836092094628775],[-73.93479886410138,40.836110116262354],[-73.93485740342243,40.83598502557779],[-73.9349627411069,40.83575993475003],[-73.93506336342622,40.83567765881018],[-73.93530788070015,40.83547772493389],[-73.93572624332148,40.83515634659992],[-73.936603647337,40.83451301617419],[-73.93700641644807,40.83419311068312],[-73.93729533331444,40.83397591820404],[-73.93797246252848,40.833442817063265],[-73.93808182183795,40.833357489797265],[-73.9381880763366,40.83326992885104],[-73.93829114697994,40.83318019937277],[-73.93839095688602,40.8330883682454],[-73.93848743202058,40.832994503677426],[-73.93858050061814,40.83289867550621],[-73.93877360261659,40.83266321266261],[-73.93894859788985,40.83241733632852],[-73.93905770936382,40.83224050327578],[-73.9391066710285,40.83216123275883],[-73.93915027981227,40.83208017917896],[-73.93918842362683,40.831997550905996],[-73.93922856230117,40.83190780248418],[-73.93931397158647,40.831684143438075],[-73.93934990061288,40.83160394817424],[-73.93939397751794,40.83152613303988],[-73.9394459322249,40.83145117478988],[-73.93950544639475,40.83137953267409],[-73.93957215537704,40.83131164562383],[-73.93973047380646,40.83114415117424],[-73.93977940284938,40.83109716630966],[-73.93982367587596,40.831051244018326],[-73.93986433442215,40.831003432263024],[-73.93990123909782,40.83095389496664],[-73.9399340739839,40.83089511808376],[-73.93996168908741,40.8308348124905],[-73.93998396211373,40.830773245284],[-73.93999744383045,40.83073463633371],[-73.94006947601434,40.83048997427216],[-73.9401413121009,40.8303719888809],[-73.94034643247527,40.83045784284966],[-73.94107546980639,40.83076685137365],[-73.94136799581425,40.830890838083185],[-73.94297966199173,40.83156798036222],[-73.94571933698654,40.83272141326611],[-73.94582395086611,40.83276546128719],[-73.94592558162041,40.832806489702506],[-73.9482767685721,40.83386545559568],[-73.94890543220085,40.83406529887669],[-73.94919448891591,40.834210658595595],[-73.94941570556861,40.834358589832966],[-73.94955175283296,40.83441071669508],[-73.94957431780912,40.83441936191872],[-73.9496411974838,40.83443433008615],[-73.94970807851816,40.83444929000664],[-73.9497761628448,40.83445596451177],[-73.94985590482112,40.834459286866434],[-73.94996243957746,40.83443703067702],[-73.95021218560015,40.83430311995851],[-73.94988915620415,40.83528472126174],[-73.94979826505224,40.835489841210496],[-73.94978471338267,40.835520433884504],[-73.94974257886045,40.835628087825036],[-73.9497389152804,40.83570565447796],[-73.94971243579302,40.83577499028446],[-73.94969313831767,40.83586258094366],[-73.94968349007466,40.83592188337086],[-73.94968950571446,40.836041139373975],[-73.9496911764021,40.836074277497666],[-73.94968634744758,40.83610986332513],[-73.94965628913987,40.836190939970976],[-73.94964541816819,40.836220254750394],[-73.94962137643168,40.83623210360118],[-73.94960149708491,40.83630509880237],[-73.94958334065862,40.836483937836995],[-73.94954600729373,40.836604371501984],[-73.94950991762181,40.83666548968762],[-73.94945701919954,40.836705619473925],[-73.9493885290614,40.836715621438174],[-73.94932846081286,40.83671925093667],[-73.94929034657062,40.83672929248515],[-73.94928698611031,40.83673277579096],[-73.94928446259098,40.83673664542338],[-73.94928285089011,40.836740786563446],[-73.94928219882998,40.83674507633609],[-73.94928252575853,40.836749387456045],[-73.9492838219754,40.83675359200451],[-73.94928604901966,40.83675756522496],[-73.94928914081102,40.836761189224674],[-73.9492930056105,40.836764356473],[-73.94929752874252,40.836766972991796],[-73.94930257599755,40.83676896114426],[-73.94937713355948,40.8367803344201],[-73.94943994696526,40.83679169931707],[-73.94944230013118,40.83679215701864],[-73.94949739936226,40.836814981489646],[-73.94954210504484,40.83687963192584],[-73.94918058897862,40.83786401012183],[-73.9491523412929,40.83793355255788],[-73.94900459767892,40.83842558853372],[-73.94892891168685,40.838643426286254],[-73.94883961981105,40.83887563584422],[-73.94875763667535,40.83902023748271],[-73.94865775026861,40.83930134521836],[-73.94856054520527,40.83956488516188],[-73.94849640289061,40.8396675931727],[-73.94842860791549,40.83986085415082],[-73.94833417923782,40.83999733538363],[-73.9482744989375,40.8400635406623],[-73.94823352622095,40.84011759627016],[-73.94807484255504,40.84046625897552],[-73.94796701014053,40.84065410819889],[-73.9478600345227,40.84089601258774],[-73.94776196087732,40.84112575633147],[-73.94770934809964,40.841263606866335],[-73.94760600401791,40.84140954768248],[-73.9475560981857,40.8415286673708],[-73.9474889692931,40.84169746388186],[-73.94738322154262,40.84194082580206],[-73.94727430439127,40.8420517829702],[-73.94721047555683,40.84210112669695],[-73.9471678822236,40.84215909904353],[-73.94713367972261,40.842258624112944],[-73.9471205331108,40.84228559694085],[-73.94710715174415,40.84230678757907],[-73.94696012382846,40.84253957012694],[-73.94693502862808,40.84261919800694],[-73.94686918645297,40.842704822894405],[-73.94678768212597,40.842815127479064],[-73.94675510074804,40.84288846151576],[-73.94670984756601,40.842944124651716],[-73.94661642596199,40.843020098338194],[-73.94654808278284,40.84311998115957],[-73.94645858066613,40.84325438376358],[-73.94636919991535,40.843454779954925],[-73.94631349566352,40.843559770439114],[-73.94624891918195,40.84367120457871],[-73.94619788899398,40.8437540989682],[-73.94612625578607,40.843888568769465],[-73.94612416421772,40.843892496557295],[-73.94611933577555,40.84400473749423],[-73.94609745833887,40.84405505204745],[-73.94609415172175,40.844097355249154],[-73.94611365510728,40.84419627752632],[-73.94611699818833,40.8442249656694],[-73.94609316413103,40.844291148653056],[-73.94610537772513,40.84434972263556],[-73.94608425805833,40.844468181965304],[-73.94609124077476,40.844498801346155],[-73.94607880557129,40.84459766982594],[-73.94610929980439,40.84485857499094],[-73.94612272152823,40.844879554213435],[-73.94612836835319,40.844911807158844],[-73.94614692398912,40.844939756921],[-73.94616018788994,40.845029844919914],[-73.94616086907159,40.84512582705802],[-73.94619138728376,40.845197972276914],[-73.9462057455364,40.84523179311304],[-73.94622271166769,40.84525916634147],[-73.9462106518648,40.84533362513203],[-73.94617704845425,40.84536591471081],[-73.94617174983877,40.8453928915808],[-73.94620682472852,40.84546174573945],[-73.9462306238546,40.845576980242214],[-73.94627664957972,40.84569065991859],[-73.94630774814603,40.845740934326216],[-73.94643878255523,40.845885922421026],[-73.94646620992513,40.8458812604071],[-73.94647950512866,40.845919778073245],[-73.94644544481561,40.84592148759061],[-73.94648387687248,40.84596468731379],[-73.94651730200619,40.845995183901344],[-73.9465038958523,40.84602819926523],[-73.94645597912856,40.84605816459376],[-73.94642581953661,40.846063338628504],[-73.94634839459356,40.846156448606976],[-73.94635078049936,40.846240331289444],[-73.94640288265317,40.84636129111996],[-73.94643643817534,40.84643991949181],[-73.94647353057917,40.846528618163624],[-73.94651683205119,40.84659313985086],[-73.94664058276652,40.84668489403696],[-73.94671767879136,40.84682475874992],[-73.94678956849322,40.8469967493455],[-73.94682445342686,40.847134261567405],[-73.94680935266659,40.847288446135074],[-73.94678220544,40.84735338869433],[-73.9467493384277,40.84740595933733],[-73.94669858704917,40.847497393872544],[-73.9466857685379,40.847728395044456],[-73.94665606434616,40.84788332048371],[-73.9466405820579,40.84793929215066],[-73.94662285734353,40.84814551949168],[-73.94662027748593,40.848214017831324],[-73.94661949998888,40.84827842591213],[-73.94664422572278,40.848399333885524],[-73.94665040763176,40.84866760421698],[-73.94667853765395,40.84883745909318],[-73.94663550012669,40.84891242505988],[-73.94665064310519,40.84900501041187],[-73.9466649962484,40.84904569410107],[-73.94670601763004,40.84909437729724],[-73.94672051176053,40.849231783417004],[-73.94673313406388,40.84926749721469],[-73.94675656427766,40.84930266769525],[-73.94681164673335,40.8493519342915],[-73.94683872036461,40.84938282135117],[-73.94685525004355,40.84942768019982],[-73.9468547984757,40.84953947126517],[-73.94688244417458,40.84959284156934],[-73.94689505793295,40.849639453080925],[-73.94690063210692,40.84967414875561],[-73.94696652237154,40.849815174535415],[-73.94695922943819,40.84984895849067],[-73.94695108849982,40.84985916446576],[-73.94695222118318,40.84989009786206],[-73.94699578658114,40.84995592429239],[-73.94695814474186,40.849985259449376],[-73.94696706524549,40.84999566592089],[-73.9469851657691,40.84999453307072],[-73.94702782494721,40.85004183181262],[-73.94702536171071,40.85006211459126],[-73.94700527357742,40.850081867271356],[-73.9469744714631,40.85008989508147],[-73.94695342915082,40.85009773522227],[-73.94696404495707,40.850111655775606],[-73.94698645041228,40.85011883038303],[-73.94701781699507,40.85012699598287],[-73.94702897203594,40.850144759933784],[-73.94701921000414,40.850195092735795],[-73.94704980259193,40.85022334922854],[-73.9470439927835,40.85025474598799],[-73.94700406576868,40.85032932870041],[-73.94700459608353,40.85034406799361],[-73.9470111027367,40.85035629265694],[-73.94700167282564,40.85038652011213],[-73.94699808302224,40.85039803084285],[-73.94696441759594,40.85046552581838],[-73.94692626404864,40.85052805566855],[-73.94686899614925,40.85058959685891],[-73.94681367391628,40.85064903917828],[-73.9468021962802,40.850661371988615],[-73.9465159021613,40.85096833908067],[-73.9465022945865,40.85097566560892],[-73.94648743449166,40.85098142053981],[-73.94647163441957,40.85098548283357],[-73.946456883783,40.850987620912036],[-73.94644189202961,40.85098828158567],[-73.946426914691,40.8509874535934],[-73.94641216086171,40.85098514078295],[-73.94639793164113,40.850981383672966],[-73.94638447111373,40.85097624671198],[-73.94637201017785,40.85096981801814],[-73.94633875378985,40.850947826324884],[-73.94632077412027,40.85092325667709],[-73.94632888036679,40.85090437687046],[-73.94635174194327,40.85089307330564],[-73.94635218637764,40.85086996465743],[-73.94633796356045,40.85085289594633],[-73.94632729794796,40.85084603307702],[-73.94631589827777,40.85083869610878],[-73.94629717304834,40.85083313533108],[-73.94627501496706,40.85084097717317],[-73.9462437464238,40.85088454299506],[-73.94619776917537,40.850905666203694],[-73.94617304480155,40.85095795448585],[-73.94619597814525,40.85097417207267],[-73.94620078322082,40.85103148810554],[-73.94618601249205,40.85103146965708],[-73.94617210619417,40.85105211981528],[-73.94615819227633,40.85104728646912],[-73.94614699837965,40.8510312906286],[-73.94614542501228,40.851007465882134],[-73.94613392284641,40.85098393184374],[-73.94611976648,40.850968754141775],[-73.94609670195229,40.850966341248295],[-73.94608190501069,40.85098071488123],[-73.94608745879516,40.85100806299932],[-73.94609742395545,40.85103260246993],[-73.94609813224021,40.85103357560952],[-73.94614159383494,40.851093699467796],[-73.9461365365532,40.85115472606474],[-73.94611744105192,40.851172582517314],[-73.94604780286082,40.85118855097158],[-73.94596473439123,40.85117187483663],[-73.94593025783085,40.851189721707364],[-73.94589577454174,40.85118733910381],[-73.94584092799157,40.85116947664438],[-73.9457672616562,40.85116946565734],[-73.94572493994535,40.85119683231856],[-73.9457280636197,40.85122777319004],[-73.94568261912607,40.851226576624754],[-73.94565283626454,40.851211097838814],[-73.94561208079904,40.85123965310502],[-73.94555563975034,40.851320567777144],[-73.9455274302487,40.85132056333912],[-73.94551957908563,40.851362212659325],[-73.94548126448136,40.85137185814812],[-73.94544903734403,40.85142765920968],[-73.94542239540552,40.8514264664059],[-73.94539575400479,40.85141575106151],[-73.94537850253991,40.85142645819614],[-73.9453894688811,40.85145263641191],[-73.9453220733816,40.851469288984795],[-73.9453126619556,40.851484763018945],[-73.94527975259126,40.8514942774867],[-73.94525311095308,40.85149188685142],[-73.94524369522841,40.851519259229754],[-73.94527268032803,40.85154604373098],[-73.9452664099904,40.85157102905391],[-73.94519586853583,40.85159244593424],[-73.94515355659357,40.851586484607225],[-73.94506578300147,40.85163883110618],[-73.9450438270494,40.8516709578411],[-73.9450062023457,40.85170190125642],[-73.94497798395632,40.851731648003096],[-73.94493252678446,40.85173044225779],[-73.94487731272544,40.85175382276437],[-73.94477702280386,40.851796289732924],[-73.94476577414821,40.85180105290207],[-73.94471445485968,40.85181539412344],[-73.94469380703813,40.851824093769366],[-73.94468765455619,40.85183573436775],[-73.94469269934115,40.85186250585701],[-73.94468978310026,40.851877154047244],[-73.94468324055724,40.85191000995963],[-73.94466721178145,40.85192122600692],[-73.94463234124329,40.851909497043756],[-73.94458845635086,40.85192734234613],[-73.94457747870628,40.85194281556691],[-73.94450381945983,40.851957079452774],[-73.94448658151262,40.85192375812142],[-73.94450316357793,40.85189939814256],[-73.94450515512598,40.851889898512205],[-73.94448761915838,40.85188879832512],[-73.94446197854774,40.85189939088685],[-73.94445368133265,40.85189756775525],[-73.94442232659368,40.85190470473141],[-73.94439725279882,40.85189280267406],[-73.94440667125734,40.85185472059521],[-73.94436749784857,40.85182496177979],[-73.94432518482476,40.851822576438785],[-73.94431733342697,40.85185589339369],[-73.94429068208862,40.85188207432182],[-73.94424522499301,40.851920149365675],[-73.9442107380319,40.85192965572948],[-73.94422169651071,40.851976073392535],[-73.94419660781348,40.85201534181603],[-73.94413391031536,40.85202722958963],[-73.94407123081963,40.8520153196309],[-73.94401323950726,40.85199984366455],[-73.94399128130902,40.8520414905523],[-73.9439599164944,40.85211884132064],[-73.94388153574913,40.8521723777102],[-73.94379610595543,40.85219795296435],[-73.94360072985177,40.85223102071634],[-73.94347978545667,40.8522818824447],[-73.94305902944298,40.852601430147125],[-73.9430264437118,40.852626177871144],[-73.94279838505354,40.852851233890036],[-73.9426099668357,40.85306791474696],[-73.94247365925777,40.85317127780938],[-73.94205514258485,40.85365410745585],[-73.94186996426673,40.85386773944298],[-73.94182774425047,40.85398996013021],[-73.94173105661486,40.85410838854951],[-73.94158158800445,40.854347143808624],[-73.94153736742429,40.8544356435963],[-73.94150213189893,40.85450012674876],[-73.94149762132159,40.85450838436789],[-73.94140980642398,40.854684630486304],[-73.94131311131319,40.85479553975537],[-73.94126592051116,40.85494407878865],[-73.94123366359767,40.85500988797703],[-73.94103277003123,40.8553050386427],[-73.94099928999186,40.85535861893877],[-73.94100914313304,40.855415039634956],[-73.94095704472414,40.85552033439469],[-73.94085539855494,40.8556218307786],[-73.94076854842892,40.85580797146771],[-73.9407462171037,40.85584744692055],[-73.94069419380095,40.85585306606036],[-73.94061975134615,40.85601100074267],[-73.9404883126927,40.85620462882287],[-73.94040517776624,40.856372905782166],[-73.94035056461375,40.85651580357595],[-73.9402934749712,40.85664177065778],[-73.94014717618712,40.8568335170573],[-73.94008523452419,40.8568560512978],[-73.94001827015911,40.85695004564536],[-73.9399488067714,40.857066614256276],[-73.93978146211117,40.85723483699613],[-73.93968482410261,40.85728932103617],[-73.93961041073227,40.85739647639696],[-73.93940211514393,40.85766529797237],[-73.93936488888224,40.85774050573854],[-73.93928303850643,40.85786082279149],[-73.93922231976174,40.85789369423124],[-73.93911094164396,40.858040911225906],[-73.93904122641774,40.85820201636402],[-73.93891471443509,40.85840693742339],[-73.93865680565516,40.85873403041941],[-73.938653061647,40.85876881362213],[-73.93850174725029,40.859011335007935],[-73.93843728791872,40.859073362121315],[-73.93841643396281,40.85916624596727],[-73.93830957434292,40.859380523608294],[-73.9378533658648,40.8598302712331],[-73.93773556377961,40.85993351223953],[-73.93755734318508,40.8600813563254],[-73.9375294417256,40.8600966412822],[-73.93753066305457,40.860111878847775],[-73.93755218656987,40.86012367458313],[-73.93758716318418,40.86014954032677],[-73.93758054206499,40.860203206651384],[-73.93735436134426,40.86051512129032],[-73.93713577511467,40.860783637202374],[-73.93709390407562,40.86092524299144],[-73.93704223142183,40.86105753297909],[-73.93696851748108,40.861143219025294],[-73.93681096972902,40.86125802375],[-73.93680279963675,40.86127908162673],[-73.93681851547507,40.861315818680666],[-73.93681045449254,40.86136346606011],[-73.93647561664848,40.86192659167348],[-73.93596813006847,40.86254409239634],[-73.93559460797825,40.86296505185224],[-73.93485089173119,40.86396557693507],[-73.93475540717613,40.86409633924079],[-73.93461870076239,40.86426987104512],[-73.93443446851109,40.86450373173396],[-73.93435568513524,40.86473290706858],[-73.93423164079232,40.86481389782286],[-73.93419230301875,40.864879107531216],[-73.93408173881343,40.86497781014838],[-73.93401664426698,40.86503554829179],[-73.93401648524471,40.865195817666866],[-73.93395001711579,40.86534674621003],[-73.93386283123479,40.86541004611201],[-73.93378916436356,40.86542863426869],[-73.93363055568612,40.865709019423505],[-73.93357158007582,40.86576675094443],[-73.93357396122035,40.8658412955389],[-73.93349285424166,40.86594561482505],[-73.933436350697,40.865986581995486],[-73.9334362891443,40.86604807580768],[-73.93340182700804,40.86613564684008],[-73.93332317557568,40.86623809501434],[-73.93325688879918,40.86624178458118],[-73.93313150185674,40.86642621378974],[-73.93307500307857,40.86655741872524],[-73.93283349428317,40.866982048205614],[-73.93266332721463,40.86723706643717],[-73.93275648627251,40.867264360168114],[-73.93276260783125,40.86725229755732],[-73.93290171891769,40.86729304389986],[-73.93283958205063,40.86741527691158],[-73.93264569574568,40.86735847764253],[-73.93266035056371,40.86732966135394],[-73.93259794852806,40.86731134967057],[-73.93254830386952,40.86741383350169],[-73.9325188840444,40.86741050336603],[-73.93242538215391,40.867568247921255],[-73.9323866223573,40.86769389324491],[-73.93236431431176,40.867863301008015],[-73.93235078136821,40.86797912029553],[-73.93235431562974,40.86800719569802],[-73.93236746809548,40.868037214476125],[-73.93237341288571,40.868063488575984],[-73.9322739712806,40.86847715197805],[-73.93228124006656,40.86853253815773],[-73.93226769826255,40.86856231897257],[-73.93232284384425,40.86857811188719],[-73.93231591011325,40.86860414289624],[-73.93244643748244,40.86865976546907],[-73.93249214298633,40.86867751915986],[-73.93249377280182,40.868674809424625],[-73.9325307779682,40.868613271914064],[-73.93253690662301,40.86860307837573],[-73.93256891816314,40.86854984723824],[-73.93257970501186,40.868531909823425],[-73.9326143189161,40.86847434737965],[-73.93262211514617,40.86846138498592],[-73.9326252507503,40.868456167974344],[-73.93262844350275,40.86845727431729],[-73.93265083512807,40.86846503348205],[-73.9325454652185,40.86864025923309],[-73.93255050661644,40.868642005591305],[-73.93256804264085,40.86864808385623],[-73.93252354560038,40.8687220783591],[-73.93250125163004,40.86871435273172],[-73.93250619965718,40.86870612539141],[-73.93249532884053,40.86870195039161],[-73.9323522987469,40.86864702816256],[-73.93230597278905,40.86862923903995],[-73.93229831818654,40.868647370918055],[-73.93225031755,40.86863950887025],[-73.93225427749157,40.86868339885568],[-73.93227751053283,40.86871115697273],[-73.9322873204428,40.86887514239057],[-73.9323138544823,40.86892372034389],[-73.93236035093774,40.86894960979864],[-73.9324567080095,40.86896227317832],[-73.93253729354952,40.868968002362486],[-73.9325689548279,40.86897940321413],[-73.93256795169879,40.86904439147401],[-73.93250469803147,40.86912955866536],[-73.93239016804618,40.8691873031102],[-73.93229327689868,40.869199501942425],[-73.93218903826079,40.86936697638926],[-73.93246883069908,40.86947609938716],[-73.93235370807277,40.86975525529677],[-73.93226581636975,40.86973477164022],[-73.93235934466003,40.869507363219554],[-73.9321333660305,40.869415975441186],[-73.93210997106704,40.869477249101855],[-73.93207712619434,40.86954268416014],[-73.93205908286346,40.86958281688688],[-73.9320534384771,40.869600750744546],[-73.93205002169746,40.86964174678289],[-73.93206712211834,40.86969942778654],[-73.93209566102911,40.86975965114541],[-73.93217976024559,40.86982236640047],[-73.93219855115137,40.86984487074363],[-73.93220600531866,40.87009644510462],[-73.93212328527157,40.87037894310535],[-73.93204740481396,40.87058290396679],[-73.93203156926681,40.87075720253491],[-73.9319137713681,40.871129493722904],[-73.93178440124825,40.87133442292396],[-73.93160149587317,40.87158387547019],[-73.93146821139365,40.87179771620673],[-73.93137655898947,40.87210862736079],[-73.93122107559081,40.8723353228561],[-73.931062541996,40.8726668065289],[-73.93084511434458,40.872887170308026],[-73.93068381818169,40.87315687690065],[-73.92997686743148,40.874338962330555],[-73.92986215062565,40.87441844152531],[-73.929319188194,40.87529443856109],[-73.92917968255969,40.875555548966545],[-73.9290134580979,40.8757386600903],[-73.92859002632838,40.87609601029512],[-73.9283297696849,40.87635346908491],[-73.9281462360357,40.87652252894412],[-73.92803638576736,40.87658244250608],[-73.9279659464347,40.87661768537669],[-73.92753082127489,40.87671053481318],[-73.9268994050239,40.877216634434824],[-73.92660824434294,40.877507631211984],[-73.92653096278426,40.877583691280115],[-73.92648185718438,40.87761820301805],[-73.92641591454775,40.877610047700955],[-73.92640556921116,40.87762147653752],[-73.92635080268255,40.87759232046282],[-73.92629680992586,40.877565027875846],[-73.92631001739271,40.87755063388225],[-73.92630253571107,40.877537430897405],[-73.92629743588184,40.877523589529815],[-73.92629456201423,40.877506089517496],[-73.92629548797387,40.8774884680906],[-73.92630018894774,40.87747119739462],[-73.926308538976,40.87745474017712],[-73.92632031432721,40.8774395373893],[-73.92633519949314,40.87742599637107],[-73.92635279564266,40.87741447993706],[-73.92637263130797,40.87740529665554],[-73.92639417501698,40.877398692580826],[-73.92642113927508,40.877366965626074],[-73.92644105068861,40.87733236694996],[-73.92645339377985,40.87729579228188],[-73.92645784901016,40.877258188506374],[-73.92644013585625,40.87721840440725],[-73.92641433040971,40.87718125761655],[-73.92638108651842,40.87714768932599],[-73.92634124649513,40.8771185500572],[-73.92629581977518,40.87709457811238],[-73.92624595734011,40.87707638086849],[-73.92619292255573,40.87706441938846],[-73.92613805916282,40.87705899673972],[-73.92608275723198,40.87706025031561],[-73.9259756560598,40.87705486755531],[-73.92586834053455,40.877056446960964],[-73.9257615947666,40.87706497699251],[-73.92565619870388,40.87708039532443],[-73.92555292243381,40.877102589301224],[-73.92545252055729,40.87713139676026],[-73.92535572667573,40.87716660721667],[-73.92526324803141,40.87720796340087],[-73.9251757603404,40.8772551631384],[-73.9251688213816,40.87728336226925],[-73.9251575024618,40.87731073231341],[-73.92513804760816,40.8773423726157],[-73.92511275427465,40.87737153751064],[-73.92508215701338,40.877397610615745],[-73.92507323779525,40.87739347740139],[-73.92502681080506,40.87737196229751],[-73.9249623961505,40.87739363724983],[-73.92489567890983,40.877410837546144],[-73.92482719737032,40.87742342441091],[-73.92474202521237,40.87743239080541],[-73.92465607179548,40.877434227569616],[-73.9245703699118,40.877428912633476],[-73.92448594933086,40.877416509859714],[-73.92440382442518,40.877397168276524],[-73.92400505010013,40.87731744265685],[-73.92386147764297,40.877270064075574],[-73.92381973555429,40.87726181171103],[-73.923776812069,40.8772585751076],[-73.92373374677702,40.877260432654566],[-73.9236915827027,40.87726733936289],[-73.9236513410439,40.87727912795475],[-73.9236139964395,40.87729551291494],[-73.92354823367552,40.87730137973722],[-73.92329476733984,40.8772644349574],[-73.92318658338247,40.87721674534591],[-73.92315177551701,40.877201401217164],[-73.92312291445764,40.8771886779115],[-73.9230988966351,40.877166768033234],[-73.92307297768332,40.87714216663562],[-73.9229989883947,40.87710057903394],[-73.92299761359368,40.87709621197249],[-73.92296914988849,40.87705947937195],[-73.92292375203768,40.87703438615715],[-73.92290511691814,40.87702637785122],[-73.92285992854842,40.87701252217407],[-73.92283147429002,40.87700596909565],[-73.92281051453209,40.877004957648495],[-73.92280311153733,40.8770133728905],[-73.92279447112548,40.87700479765408],[-73.92280735015169,40.87699041640393],[-73.92281246559956,40.87697908255879],[-73.92279410684537,40.87697600561807],[-73.92277552540169,40.87697159722246],[-73.92275159485156,40.87695376215164],[-73.92271506279386,40.87693181751418],[-73.92267110341204,40.87691986614633],[-73.92264377370434,40.87691635280442],[-73.92262222332904,40.87693206371392],[-73.92261955902838,40.876917026597],[-73.92260901773896,40.87691449496136],[-73.92259596880969,40.87692123368972],[-73.92258515626511,40.87691378005282],[-73.92258024072251,40.87690617725523],[-73.92258384725571,40.87689634223858],[-73.92257719528656,40.87689567740166],[-73.92258179872685,40.876878089767835],[-73.92259148720407,40.87686583243177],[-73.92256855100506,40.87685691874137],[-73.92253786207058,40.87687131046044],[-73.92249234636206,40.8768489288534],[-73.9224768908113,40.87683204457981],[-73.92242340024154,40.87680146522491],[-73.92241708393776,40.876785891418045],[-73.92239768169317,40.87678022314138],[-73.92238754641686,40.87676323170045],[-73.9223766931572,40.876758934981915],[-73.92237632196814,40.87674793787125],[-73.92237521203197,40.87655685564899],[-73.9223811545329,40.87636582480667],[-73.9223941447462,40.876174995276436],[-73.92241417241584,40.87598451683116],[-73.92244122176282,40.87579453896694],[-73.92243956678487,40.87574312154886],[-73.92244468218188,40.87569183555923],[-73.9224565168357,40.87564119334258],[-73.92247495250382,40.87559170081101],[-73.92249980500121,40.87554385239024],[-73.92255082170831,40.87543488876457],[-73.92259328606464,40.875323831604746],[-73.92262705037838,40.875211067282414],[-73.9226519972274,40.875096988106485],[-73.9226680398672,40.874981990958275],[-73.922675122532,40.874866475910764],[-73.92267322062818,40.87475084483653],[-73.92266234081919,40.87463550000977],[-73.92264252100162,40.8745208427068],[-73.92261383017286,40.87440727181001],[-73.92257636819033,40.87429518242033],[-73.92253026542353,40.87418496448269],[-73.92247568229985,40.874077001429555],[-73.92241280874603,40.873971668847176],[-73.92234186352681,40.873869333169075],[-73.92226309348351,40.87377035040139],[-73.92217677267492,40.87367506488467],[-73.92208320142349,40.87358380809598],[-73.92198270527034,40.873496897496],[-73.92187563384257,40.87341463542493],[-73.92176235963682,40.873337308050814],[-73.92164327672332,40.87326518437416],[-73.92151879937511,40.87319851529252],[-73.92138936062688,40.873137532727675],[-73.9212554107687,40.87308244881917],[-73.92111741577973,40.8730334551864],[-73.92108868294082,40.873036393152326],[-73.92105969060053,40.87303637332349],[-73.9210309647829,40.87303339605969],[-73.92097343965249,40.8730180498904],[-73.92091406868407,40.873007505808474],[-73.92085354538605,40.87300188697855],[-73.92079257672636,40.87300125903373],[-73.92073187487483,40.87300562930901],[-73.92072984132467,40.873008314371944],[-73.92072725215468,40.87301070803407],[-73.92072417829837,40.87301274471794],[-73.92072070396793,40.87301436862599],[-73.92071692434709,40.87301553526921],[-73.92071294298336,40.873016212685904],[-73.92070886895128,40.87301638231736],[-73.92070481386425,40.87301603951637],[-73.92068931274764,40.87301184045817],[-73.9206835897847,40.87300439566329],[-73.92065921317116,40.87300564856175],[-73.920637876355,40.87299879024743],[-73.92060389439649,40.872991085615716],[-73.92056972286971,40.87299520544251],[-73.92055602106612,40.87299877396328],[-73.92052553083963,40.8730169898394],[-73.92049019600584,40.87303219583738],[-73.92045784203485,40.87304447139207],[-73.92042553462319,40.87305452980513],[-73.92038723144306,40.873072666211776],[-73.92035690847123,40.87307978578143],[-73.9203284953404,40.8730898803594],[-73.92030192340005,40.873105905839985],[-73.92029230572714,40.87309841662276],[-73.92027634052245,40.87310597829627],[-73.92025767981508,40.87312122589504],[-73.92022383019784,40.87314980551472],[-73.92019427081462,40.8731659007724],[-73.92016846718042,40.873168395934734],[-73.92015078813229,40.87318212694096],[-73.9201340570572,40.873192834478466],[-73.92012536070219,40.87320874832116],[-73.92010368749709,40.87322176073041],[-73.92008500471883,40.87323474605749],[-73.92006343503769,40.873253787509725],[-73.9200499671979,40.87328332920591],[-73.92001877553854,40.8733235772305],[-73.91999041526302,40.87335399345237],[-73.919981386561,40.873380848973895],[-73.9199717090996,40.87339827820572],[-73.9199579782898,40.8734097135068],[-73.91995560487796,40.87345046513659],[-73.91996685684583,40.87347149119096],[-73.91996014690889,40.87348738763551],[-73.91996152695476,40.873513021258795],[-73.9199657961229,40.87353260110345],[-73.91995200889662,40.87354101174001],[-73.91994924637882,40.87355537607775],[-73.9199446246653,40.87357803854096],[-73.91992890927837,40.87359024423906],[-73.91992699169874,40.87359479249311],[-73.91991209834835,40.87359567589232],[-73.91990536325103,40.87361081913334],[-73.91987352155995,40.873608081484235],[-73.91982885231022,40.873610731998],[-73.91979301672416,40.873606512158005],[-73.91979277649074,40.873646311055765],[-73.9198322991474,40.87365245042074],[-73.91987188079383,40.873648836299964],[-73.91989957882096,40.873648932924176],[-73.91992525757078,40.87365427378243],[-73.9199419807086,40.87366934602091],[-73.91995774794785,40.87367916324094],[-73.9199536640454,40.87370092413421],[-73.91994859388633,40.87372192311944],[-73.91995447494236,40.873730205170965],[-73.91995934351047,40.873744485846785],[-73.91996224003292,40.87375575929286],[-73.91996707895035,40.873773040951306],[-73.91997384763374,40.87379784119863],[-73.91998163535054,40.87381964449897],[-73.91997464567017,40.873829381103356],[-73.91998543966982,40.873844433308626],[-73.91999878749601,40.87384560517095],[-73.92012987176412,40.87392339120372],[-73.92014481681734,40.87390542651706],[-73.92017044204992,40.873919780345254],[-73.92015549479686,40.87393774218578],[-73.92019591546112,40.87396115934374],[-73.920213821777,40.873943955909404],[-73.92024139479355,40.87396281843684],[-73.92022250884898,40.87397851650842],[-73.92029151637325,40.87401629602339],[-73.92035164809863,40.874051043741964],[-73.9204058454069,40.87408426991451],[-73.92044131562454,40.874106909615975],[-73.92047377562703,40.87413705928927],[-73.92049985349438,40.87416005032828],[-73.92054444499277,40.87414518239884],[-73.92057687274607,40.8741805831902],[-73.92060639037797,40.8742069630455],[-73.92062699165687,40.87423481112893],[-73.92076966714161,40.874177385865615],[-73.92078761461624,40.87417891108459],[-73.92080255630357,40.874194058866856],[-73.92080751306924,40.87421526010016],[-73.92066084429266,40.87427874296909],[-73.92066980301335,40.87429691178137],[-73.92068572694207,40.874323415115896],[-73.92069665918821,40.87434840144955],[-73.92071107412377,40.87438739373986],[-73.92070010598985,40.8743919336096],[-73.92071604571971,40.87440632505279],[-73.92072498444598,40.87443055482104],[-73.9207429085349,40.87445175558206],[-73.92075785117476,40.8744661470046],[-73.92075483429629,40.874489611524744],[-73.92076677770561,40.874510816885994],[-73.92078070500611,40.874531258531235],[-73.9207816924167,40.874539588776905],[-73.92079265694505,40.87454716950546],[-73.92078865109998,40.87456306014492],[-73.92080359467644,40.87457669452642],[-73.92079957959797,40.874591073434246],[-73.92080954431938,40.87460092273857],[-73.92081650482747,40.87461379460451],[-73.92081649581844,40.87462135959207],[-73.92082945415417,40.874628941014954],[-73.92084240240092,40.874643331057804],[-73.9208394026656,40.874652414430614],[-73.92084337428219,40.87466452838175],[-73.92085235584503,40.87466377867922],[-73.9208687955981,40.87467627994892],[-73.92088273221378,40.87468839201998],[-73.92088671102694,40.87470429684744],[-73.92089167392987,40.87472095067354],[-73.92090561548851,40.87473912304911],[-73.92091956358946,40.874751244337205],[-73.92092254079134,40.874761844705766],[-73.92091453517749,40.87478001075037],[-73.9209155100289,40.87479817524289],[-73.92092349157289,40.87479969310788],[-73.92092746229663,40.874813320455935],[-73.92093841813042,40.8748277084522],[-73.9209473691218,40.87484285160692],[-73.92097230770965,40.874841355789314],[-73.9209872399264,40.87486407674125],[-73.92098721924155,40.87488148351584],[-73.92100015808848,40.874895124707045],[-73.92101610565855,40.874902700616275],[-73.92103202290927,40.87493450766626],[-73.92105493692368,40.874960259196705],[-73.9210813353079,40.87497806180457],[-73.92111420160492,40.87501366259368],[-73.92114009384979,40.87504849286115],[-73.92115600330547,40.87507727476169],[-73.92116695696895,40.87509468853025],[-73.92117492688541,40.87510604933741],[-73.92117491342361,40.87511740469134],[-73.92118186508976,40.875137840850826],[-73.92116988845746,40.875143892973966],[-73.92116987769627,40.875152969685],[-73.92117284868077,40.87516811862013],[-73.92116885342674,40.875175679711354],[-73.92116984179306,40.87518325291798],[-73.92115787665247,40.87518853980366],[-73.92115986015381,40.87519611486286],[-73.92114389543804,40.875203667272835],[-73.92114588498215,40.87520670431228],[-73.92113391038936,40.87520972125558],[-73.92113190442407,40.87522183111032],[-73.92112690618701,40.87523469595531],[-73.92111094462025,40.87523846720659],[-73.92110394084422,40.87525284290755],[-73.92111290364166,40.875267230193565],[-73.92110691408513,40.875276311528495],[-73.92110491037761,40.87528539676072],[-73.92107996422345,40.87529294352389],[-73.92106199576546,40.875308834002645],[-73.92105700109654,40.87531942020229],[-73.92103602209788,40.87534362880282],[-73.9210240353177,40.875367844223646],[-73.9210110576887,40.875376920771004],[-73.92099010857673,40.875385235494335],[-73.92097812109442,40.87540036481048],[-73.9209691304401,40.875418521973714],[-73.92095515364721,40.875429110728454],[-73.92093020805643,40.875437423206],[-73.92092920057638,40.87544649923364],[-73.92091823046646,40.87545330838525],[-73.92091322183161,40.875464660315345],[-73.92090325515426,40.87546616638273],[-73.92089428451293,40.87545783117014],[-73.92087559199669,40.87546395002343],[-73.92080609644063,40.875477492470296],[-73.92076162738198,40.875457995969064],[-73.9207209780556,40.875434217177656],[-73.92065217843222,40.87540091796689],[-73.92060838741519,40.87538663735848],[-73.9205677100342,40.875386609367524],[-73.92048327708252,40.87534379874352],[-73.92038631582773,40.875310481138584],[-73.92029561592366,40.87527479129863],[-73.92026124477532,40.8752343908836],[-73.92021746382635,40.87521298438497],[-73.92012676655709,40.87517491977815],[-73.92005171240442,40.875139241075665],[-73.9199766486526,40.87511068823338],[-73.91995161400291,40.8751130455063],[-73.91987964506362,40.8751129955634],[-73.91981708805666,40.87509395118055],[-73.91974204739263,40.875046396596204],[-73.91969828107636,40.875013114723224],[-73.91966388172962,40.874996465151916],[-73.91962633653779,40.87499406370395],[-73.91959507734407,40.874967915747575],[-73.91956066367962,40.874963141824715],[-73.91951686588487,40.874955986042],[-73.91940428333555,40.87490365510768],[-73.91925729092823,40.874844174244096],[-73.91917909122323,40.87482274376567],[-73.91913216427164,40.8748155851426],[-73.91909777317629,40.87479181016124],[-73.91900082276354,40.87475136547895],[-73.91894454965697,40.874710948789954],[-73.91887525897245,40.87467899639279],[-73.91884880921111,40.87461797638505],[-73.91888377880737,40.87455689921228],[-73.91894166292751,40.87451143717757],[-73.9189980756303,40.874437849349704],[-73.91903564984878,40.874416498971684],[-73.91906385401656,40.874380892019],[-73.91908892442923,40.87435003297085],[-73.91908582428287,40.87432628042087],[-73.91910463835889,40.8742930421791],[-73.91911409750853,40.87423367001986],[-73.91914856074187,40.874198068102295],[-73.91917676964809,40.87415771068005],[-73.91918930667285,40.87414109432985],[-73.9191956364688,40.87408171997096],[-73.91919573460413,40.874000966846005],[-73.91921148010395,40.87391784936926],[-73.91925225908312,40.87383474823544],[-73.9192586234016,40.87374687357347],[-73.91924621050319,40.873661360575],[-73.91927438318044,40.8736518804022],[-73.91924001060653,40.87361385497509],[-73.91922123918964,40.87361146602837],[-73.919183710112,40.8735971892568],[-73.91915247396933,40.8735520402491],[-73.91909936258196,40.87348549965257],[-73.91905250107655,40.87342608916553],[-73.91899937186732,40.87337379950777],[-73.91892851230503,40.87331651021589],[-73.91891581319177,40.87332441373179],[-73.91889712993498,40.8733269020536],[-73.9188824798226,40.873326891756626],[-73.9188714911105,40.87332771796051],[-73.91886415724905,40.87333438624363],[-73.91886012067621,40.87334077741664],[-73.9188483962036,40.87334410505436],[-73.91883850430476,40.873346044042876],[-73.91882934850314,40.873345203842106],[-73.91882129028238,40.873345754182075],[-73.91881139726203,40.87334824934325],[-73.91879967618041,40.87334879710469],[-73.91878759190432,40.873347120408816],[-73.91877587467614,40.87334433295865],[-73.91876599252413,40.87333793081894],[-73.91875831278342,40.87332819434691],[-73.91874770183591,40.87332040242574],[-73.91873744949812,40.873316780901796],[-73.91872536896742,40.873312046072854],[-73.91871988112793,40.87330703813345],[-73.9187132918374,40.873304530868744],[-73.91871329727574,40.87330008230397],[-73.91871355980643,40.873292939148136],[-73.91871367576151,40.87328979599904],[-73.91870489267862,40.873283395130755],[-73.91869757440794,40.873278385900754],[-73.91869941400373,40.87327143650726],[-73.91870894542372,40.873265048708056],[-73.91871701111317,40.87325838145274],[-73.9187225109606,40.87325338175471],[-73.91872288218981,40.87324921120037],[-73.91872032178873,40.87324642902069],[-73.9187133628724,40.87324642411912],[-73.9187075009716,40.8732480881822],[-73.91869577494424,40.87325197248173],[-73.91867159931012,40.873253901391614],[-73.91865986974125,40.87326139982243],[-73.91865289939686,40.87327001328843],[-73.9186488600856,40.87327862932286],[-73.91864116504259,40.87328195978001],[-73.91863200450743,40.87328445594483],[-73.9186174577788,40.873286355949894],[-73.9186034886986,40.87328601674792],[-73.91858681154709,40.87327787309065],[-73.91857034760125,40.873262692115],[-73.91856521191372,40.873251271642886],[-73.9185657132393,40.873244678633256],[-73.91856625786384,40.87323750987821],[-73.91855082542601,40.87322217316125],[-73.91853126321536,40.873213088661615],[-73.91852666929822,40.87321323099572],[-73.91851642893576,40.8732135475871],[-73.91850799095097,40.87320650483242],[-73.91850388053983,40.87319821239761],[-73.91849995662199,40.87319171560401],[-73.9184811580041,40.87319561130383],[-73.91844037849654,40.873197351195955],[-73.9184089214903,40.87319732895927],[-73.91839143131342,40.87320881418617],[-73.91839722808336,40.873231811631086],[-73.91841698758448,40.873269853283524],[-73.91844725919262,40.87328667889492],[-73.91849499715504,40.87331147467252],[-73.91853226318013,40.87332476661664],[-73.91859397285,40.8733566475421],[-73.91861259668218,40.873370810661015],[-73.91862886553999,40.87340531307243],[-73.91862765894746,40.8734398031602],[-73.91861247219546,40.873472514683016],[-73.91859729866316,40.87349549732527],[-73.91857283049315,40.87349636441599],[-73.91856116377713,40.87350962181278],[-73.91852735311106,40.8735281696946],[-73.91849587276113,40.87354760406788],[-73.91846904628137,40.87357146281525],[-73.91845390521418,40.873567914705255],[-73.91843877628347,40.87355375403138],[-73.91841198255459,40.87355108270263],[-73.91840148169192,40.87356257169894],[-73.91842475554508,40.87358558267012],[-73.91842473601628,40.87360150067432],[-73.91841772076695,40.87362183667044],[-73.91841071224552,40.87363686605062],[-73.91838740472856,40.873641271334385],[-73.91837340807159,40.87365452706409],[-73.91835241610417,40.87367131525474],[-73.9183279207093,40.87369429176772],[-73.91829527254023,40.873714609612215],[-73.91824631256566,40.87373668459863],[-73.91819852325564,40.87375345377393],[-73.91817869735272,40.873769358406385],[-73.91816235897646,40.87379145631412],[-73.91814717650598,40.873821514215564],[-73.91812269078608,40.87383653118006],[-73.91810403620777,40.8738471306806],[-73.9180589342757,40.8738498679842],[-73.91805165797437,40.873862545466686],[-73.91803715672663,40.87389725829077],[-73.91794108366356,40.87398314781048],[-73.9179290291799,40.873978893205205],[-73.91775468095322,40.87424853456634],[-73.91776990325627,40.87425430384269],[-73.9175772988473,40.874548678547384],[-73.91749921000545,40.87452007854035],[-73.9176906605858,40.87422522218334],[-73.91770931109484,40.87423249407948],[-73.91789032098323,40.87396247825441],[-73.91788506630638,40.87396025014772],[-73.91787144917505,40.87390499528883],[-73.91773016270129,40.87402315972232],[-73.91768683114137,40.87403599474198],[-73.9176208626149,40.8740788335071],[-73.91756808351953,40.87411739290499],[-73.91750587170966,40.874168811454595],[-73.91740413198764,40.87420304735135],[-73.9173005073949,40.87423871178214],[-73.91724588303671,40.87424581981694],[-73.91715920917862,40.8742800663001],[-73.91708950038674,40.87430145932454],[-73.91705554600382,40.874345750232976],[-73.91696700543345,40.874367129814026],[-73.91689732686227,40.874364220212],[-73.91678994492818,40.87439273378281],[-73.916693855044,40.87442554315157],[-73.91660905444874,40.87446836774005],[-73.91648661730233,40.874486863509304],[-73.91643573932143,40.87450969873354],[-73.91634348667569,40.87452384988984],[-73.91621216322862,40.87450358336544],[-73.91609852720299,40.874500158891976],[-73.91601675124213,40.87451484995854],[-73.91589033125022,40.87451963732452],[-73.91576604987809,40.8745276775629],[-73.91568463084471,40.87452761810526],[-73.91557751037355,40.8745194089049],[-73.91540183736201,40.874503016307465],[-73.91522402146056,40.8744866218683],[-73.91506980141536,40.87444910214082],[-73.91498198606973,40.87442464214007],[-73.91463283278524,40.874326621096955],[-73.91422167905834,40.87419960364574],[-73.91419784904609,40.87418935531269],[-73.91399706226329,40.87412628545786],[-73.91390273849174,40.874095700175026],[-73.91358513705576,40.87402537978608],[-73.91349743189797,40.873988320517356],[-73.91334510510175,40.87394421541494],[-73.91329373384129,40.87393558642642],[-73.91324890693507,40.87392050248751],[-73.91319419253641,40.8738853808935],[-73.91314256425338,40.87386085272368],[-73.91309558920298,40.873845749015636],[-73.9130399794851,40.87383382154818],[-73.91298019756998,40.87383535521939],[-73.91288986719734,40.87382589523746],[-73.91273154133037,40.873795081751126],[-73.91261073308553,40.87375731612324],[-73.91250279259326,40.87371941237044],[-73.91228918621314,40.87362890431903],[-73.91207818471493,40.873524634179205],[-73.9116381573252,40.8733023648454],[-73.91157791409435,40.8732715874745],[-73.9115151612332,40.87323662962545],[-73.91142596184433,40.87318176665259],[-73.91135878271294,40.87312775713551],[-73.9113050346001,40.87309198489051],[-73.911274316958,40.87306352176144],[-73.91122441407799,40.87302775193219],[-73.911190844095,40.872984707407795],[-73.91118411250179,40.87298835104226],[-73.91117450708145,40.872984695839165],[-73.91118028522128,40.872974487926214],[-73.91116685503187,40.8729562506001],[-73.91115342819134,40.87294311015766],[-73.9111035404607,40.87288473492092],[-73.91109971709048,40.87286796411078],[-73.91110454354371,40.872851198791366],[-73.91108439239629,40.872826382848444],[-73.9110556063183,40.87280083939599],[-73.9110364351832,40.872771656711436],[-73.91103934599356,40.87274832469693],[-73.91101247147321,40.872722053647436],[-73.91099234251048,40.87268995213586],[-73.91098084741257,40.87266004479456],[-73.91096742522559,40.87264399546635],[-73.91096169269252,40.87261701014678],[-73.91094440549769,40.87260824457542],[-73.91091466885949,40.872573946948584],[-73.91083211635896,40.87251773773574],[-73.91076303115126,40.87245206311475],[-73.91069663181793,40.872363273547016],[-73.9106688625046,40.87231808252778],[-73.91064877277744,40.87229624896337],[-73.91064402620886,40.87226205286507],[-73.91060004692929,40.87218492862963],[-73.91056469338133,40.87211653582056],[-73.91054082062277,40.872058327575104],[-73.91053797212396,40.87203359781741],[-73.91055333016209,40.87201833833708],[-73.910544749547,40.871986327947454],[-73.91051802379026,40.87190629880155],[-73.91049514192565,40.87182555244882],[-73.91048468158365,40.87176153752603],[-73.9104792010068,40.87172972503392],[-73.91047284244465,40.8716956848109],[-73.91046075952977,40.87164240583772],[-73.9104532583538,40.871576831892625],[-73.91044754306458,40.87150187101413],[-73.910442654861,40.87149037129699],[-73.91042644048507,40.87148543806223],[-73.91042903752812,40.871465953312345],[-73.91044420430079,40.87146367102522],[-73.91044955631057,40.87143622822732],[-73.9104510707769,40.87140665306762],[-73.91044615186593,40.8713937069339],[-73.91043363570449,40.87138081638443],[-73.91044770536611,40.87136628313336],[-73.91046468617837,40.87135678218188],[-73.91047292046964,40.8713322020722],[-73.91049367311835,40.87132051267553],[-73.91051165045894,40.871315333575694],[-73.91052094065151,40.87129867442896],[-73.91054357762047,40.87128624754082],[-73.91055942169079,40.87126161251279],[-73.91055064917796,40.87124436291592],[-73.9105580894439,40.87123204837866],[-73.91057828495444,40.871177092729596],[-73.91058957073513,40.8711683480677],[-73.91060159516293,40.87114301669651],[-73.91061845542372,40.87112414071184],[-73.91065000065666,40.87106549342621],[-73.91065177797206,40.87105538177946],[-73.91066110163463,40.87104233846109],[-73.91068192829887,40.87103640802238],[-73.91069406395991,40.87101973615374],[-73.91070326135413,40.87099586338321],[-73.91071625722165,40.87097197210791],[-73.91072355879896,40.8709488361422],[-73.91071412003852,40.87092254281954],[-73.91069983355028,40.870904243288464],[-73.91067793650103,40.87087279033161],[-73.91067907069404,40.87084726055001],[-73.91069072329385,40.870829069544534],[-73.91069182369068,40.87080865253585],[-73.91071594812257,40.87079341790742],[-73.91071898793236,40.8707693591105],[-73.91072680697492,40.87074968959323],[-73.91073765208677,40.87070961058633],[-73.91074561095417,40.87066878939702],[-73.91072557297346,40.8706475579565],[-73.91074991771993,40.87059950173034],[-73.91075287037893,40.870588566442464],[-73.91075680633539,40.870574726899925],[-73.91075212343644,40.87055792625738],[-73.91076090304617,40.87053680656399],[-73.91076400877421,40.87050471860955],[-73.91074892704977,40.870459427677055],[-73.91075573481265,40.870448515640675],[-73.91077222692824,40.870425231986],[-73.91075887769867,40.870409129410795],[-73.9107630768279,40.87035589169394],[-73.91076811226276,40.870321626427376],[-73.91076453224827,40.870282214224716],[-73.9107483141362,40.870264646619106],[-73.91076966625725,40.87023336096946],[-73.91077272650081,40.87020637522385],[-73.9107796756165,40.870174302300505],[-73.91078077308441,40.87015242130338],[-73.91080419957592,40.87009925758251],[-73.91080160534324,40.870054746575704],[-73.91080176628994,40.8700306761668],[-73.91080953728985,40.87001975884021],[-73.91080487714844,40.86999785697469],[-73.91081280366797,40.86996213766176],[-73.91081583350989,40.86993953295015],[-73.9108091403541,40.869935135828115],[-73.91082662573861,40.86990748326289],[-73.91083344968999,40.86989218196482],[-73.9108335617768,40.86987541032453],[-73.91085003458663,40.869855042545865],[-73.91085019100315,40.869831704040294],[-73.91084158440086,40.86982510452532],[-73.91084068977307,40.869814885437066],[-73.91085426331354,40.86979742478843],[-73.91086020406853,40.86977192233401],[-73.91087677451424,40.86973696940879],[-73.91086238292331,40.86973253384416],[-73.91087307742401,40.8697150704665],[-73.91088289148198,40.869685193795],[-73.91088400870697,40.86966039523057],[-73.9108533419753,40.86964860774677],[-73.91087643987264,40.86964285241267],[-73.91089674542107,40.8696239631288],[-73.9109094229351,40.86959629326765],[-73.9109239562781,40.869579566766674],[-73.91091538027257,40.8695685967742],[-73.91091647993143,40.86954816937182],[-73.91092519658253,40.869537997071056],[-73.91091855656165,40.86952410714037],[-73.91094089748808,40.869489175076254],[-73.91094691671447,40.86945199565651],[-73.91092491224234,40.8694365913543],[-73.9109558266559,40.869411177355445],[-73.91098662221378,40.86940546027073],[-73.9110086359316,40.869419400585265],[-73.91103936514624,40.86942170460198],[-73.9110577159244,40.86940865178965],[-73.91113245415124,40.86944176265601],[-73.91118903577511,40.86945876238803],[-73.91125611683213,40.869487471310606],[-73.91130402042972,40.86951027266768],[-73.91134621371631,40.86952428990742],[-73.91138177390292,40.8695229733527],[-73.91143962214097,40.86949474474736],[-73.9114637661276,40.86947660160851],[-73.91147448899112,40.869454757638515],[-73.9114718867,40.86941316354545],[-73.91146347606924,40.86937738223032],[-73.91142415779098,40.86936409797507],[-73.91141653489743,40.86935458502817],[-73.91140021862081,40.86935160432983],[-73.91139354527341,40.86934428130044],[-73.91135803466575,40.86933612363593],[-73.91135530830272,40.86931349656092],[-73.91112244509756,40.86921411419713],[-73.91111690871274,40.86917907552056],[-73.911096730675,40.86917899799289],[-73.91106125751293,40.86916719094533],[-73.91103057950258,40.86915540299616],[-73.91105489313914,40.869111718516216],[-73.91107529676344,40.869078242882715],[-73.91107925214632,40.86906147587667],[-73.91107553160974,40.8690432262405],[-73.91109290713959,40.86903162291652],[-73.91109202710106,40.86901921900546],[-73.91111871768759,40.86900617043013],[-73.9111336600876,40.86897269225431],[-73.91112035244564,40.86895220986054],[-73.91113932222595,40.86893376695684],[-73.91112890881764,40.86892004366418],[-73.91114259196213,40.8688950132029],[-73.91114869895938,40.86888021524056],[-73.9111652354321,40.868876855232315],[-73.91119985851088,40.86886445234718],[-73.91125094701938,40.86886122595813],[-73.91128256771995,40.86884767337414],[-73.91130374286968,40.8688249475711],[-73.91132817758825,40.86880243953597],[-73.91133483134591,40.868785349096754],[-73.91133742099743,40.86877427396489],[-73.9113297074864,40.86875863646909],[-73.91133402644391,40.86874039586564],[-73.911325479081,40.86871823739945],[-73.91133149891803,40.86870521125055],[-73.91132553554417,40.868675895507764],[-73.91133500160292,40.86865765936183],[-73.91135046077648,40.868646595290045],[-73.91134705123683,40.86862379245814],[-73.91135909150225,40.86860621531286],[-73.91136427055318,40.86858340919463],[-73.91139004972898,40.86856324012889],[-73.9114098549045,40.868513089406086],[-73.91141932680453,40.86849159309242],[-73.91144165907032,40.8684766253028],[-73.91148208144206,40.86840825517583],[-73.91149242138637,40.868375035257955],[-73.91149244825749,40.868354846413325],[-73.91150538755132,40.868303385066724],[-73.91151485871009,40.868281239257286],[-73.91152432337296,40.86826496612794],[-73.91153547484777,40.86826431698246],[-73.91154065941298,40.868245428719376],[-73.91158019244973,40.86820376706939],[-73.91160166210442,40.86818619712257],[-73.9116248556219,40.868174480740194],[-73.91165319817485,40.86815430486639],[-73.91166781354119,40.86813542431992],[-73.91171163038062,40.868100284558125],[-73.91172833168766,40.868074488910395],[-73.911731920643,40.8680606237672],[-73.91173006189783,40.86804016393451],[-73.91173383481922,40.86803017993716],[-73.9117256975957,40.86803017371246],[-73.91172571085212,40.868020187509266],[-73.91172510380613,40.86800353710169],[-73.9117364014255,40.86799117266283],[-73.91173516231122,40.86797738507484],[-73.91175522501952,40.86796598305705],[-73.9117527627056,40.86793505776855],[-73.91176907763847,40.86791318788775],[-73.91178038282345,40.86789560192577],[-73.91179668040857,40.86789561438459],[-73.91180859604,40.86788230457599],[-73.91179420262444,40.86786802111729],[-73.91179676558265,40.86783140003536],[-73.91180556034557,40.867810479616615],[-73.91182376049063,40.86778908927915],[-73.91184571092018,40.86777625586353],[-73.91187101089486,40.867759489719035],[-73.91188960227124,40.86774775284793],[-73.91189225260952,40.86772591741035],[-73.91191159865878,40.86770020567262],[-73.91184774646815,40.86767252047266],[-73.911992967857,40.86750583452574],[-73.91209755267185,40.867373191121324],[-73.91222962953464,40.86721546219426],[-73.91245215298926,40.86694055877071],[-73.91261754676016,40.86673955984194],[-73.9127317391952,40.86660521271149],[-73.91255219352705,40.86652862429236],[-73.91254775130282,40.86651494300449],[-73.91282859693645,40.86615711135729],[-73.9131201510073,40.86578124232271],[-73.91351997708153,40.86526747116973],[-73.91384485056732,40.864848338592246],[-73.9139186313324,40.86474558440378],[-73.91393526952015,40.86473928454517],[-73.91403866833014,40.86471050057727],[-73.91416821692972,40.864666401410396],[-73.91425257819598,40.86464572510968],[-73.91431200712508,40.864625022695996],[-73.91438922696749,40.86462417974652],[-73.91492387927869,40.864580378919314],[-73.91492863719179,40.86456956663382],[-73.9145403762602,40.86441235162355],[-73.91447397606235,40.86431128599512],[-73.91441113392682,40.86417362687317],[-73.9150440759955,40.86443672160788],[-73.91507404941315,40.864446504908784],[-73.91508583854333,40.86444814341747],[-73.91516833371693,40.864439253673915],[-73.91525511928828,40.86443362601692],[-73.9154318971828,40.86441830355384],[-73.91542869731134,40.86440772916087],[-73.91543408398833,40.86438740099799],[-73.91545872397433,40.864384168268366],[-73.91545342726539,40.86433373658399],[-73.91563236347669,40.86430947267704],[-73.9156387430054,40.86434851407685],[-73.91566444392173,40.864350153315684],[-73.91571159105568,40.8643428676769],[-73.91575872905163,40.86434209078718],[-73.91581658566602,40.864334812253844],[-73.91586052063037,40.86432590208445],[-73.9158991164586,40.864308037582674],[-73.915922708197,40.86428040140241],[-73.91593561439072,40.8642421842121],[-73.91593138049883,40.86420396458453],[-73.91592605810223,40.86417305587685],[-73.91589824230898,40.86414619254102],[-73.9158714806572,40.86412909053321],[-73.91585434906497,40.86412257697185],[-73.9158326451179,40.86411430895369],[-73.91579009737801,40.86410300762475],[-73.9157418999245,40.86409647019727],[-73.91572596025574,40.864095625296464],[-73.9156672828416,40.86408664892012],[-73.91561569079903,40.86407535683078],[-73.91558377690818,40.86407065104826],[-73.91553872985283,40.86406681852461],[-73.91549340827925,40.86406619395007],[-73.91543982630459,40.86407835657515],[-73.9154055421182,40.864081582230526],[-73.91538444080844,40.86408030145604],[-73.91537454216409,40.864079700829734],[-73.91535981968605,40.864077289723305],[-73.915345791037,40.864073129108576],[-73.9153328144197,40.86406732522134],[-73.91532122117442,40.86406002625606],[-73.9153113073186,40.86405141858206],[-73.91530571218352,40.86404293928352],[-73.91529828258449,40.864035315146985],[-73.91528923914939,40.86402877257671],[-73.91527885042993,40.86402350585899],[-73.91526742492674,40.86401967139273],[-73.91524067177396,40.86399606817494],[-73.91521584698324,40.86397595218874],[-73.91519574800158,40.863945224233476],[-73.915188031063,40.86389774351636],[-73.91518505954295,40.86387946053985],[-73.91518192994813,40.863860203635106],[-73.91518119486989,40.86384311506691],[-73.91517880018044,40.86378745190841],[-73.91517693846853,40.86374418702457],[-73.91517656557136,40.86373551943934],[-73.91517539779132,40.86370838569887],[-73.91517556429707,40.86368043375111],[-73.91520071079606,40.863652186226254],[-73.9152181857278,40.86364108139593],[-73.91525443919681,40.863618043780356],[-73.91529676393401,40.86359864401942],[-73.91530810246223,40.86359047369613],[-73.91534455813901,40.86356420568458],[-73.91536190015128,40.86354723256733],[-73.91537404288232,40.863528730671206],[-73.9154165736364,40.863447906317745],[-73.91542702548197,40.863429170989136],[-73.9154686342927,40.86336249762328],[-73.91547682444254,40.863346107296934],[-73.91548516464098,40.863300717820806],[-73.91547306854314,40.86328033060878],[-73.91545987478219,40.863257073925055],[-73.91545061536708,40.86323298451738],[-73.9154549655414,40.86320845729256],[-73.91542295700886,40.86319418063102],[-73.91541083335669,40.86319548646514],[-73.91534506689425,40.86316454227503],[-73.91541096127453,40.863094919070036],[-73.91538673051143,40.863084384200874],[-73.91544970533428,40.86300651049498],[-73.91549965939653,40.862938127791125],[-73.91552015328243,40.86291007496566],[-73.91556578044948,40.86293107187467],[-73.91557595266745,40.86291610425683],[-73.91556299694946,40.8629092511211],[-73.91557991520052,40.86289599834818],[-73.91558892372522,40.862901138685686],[-73.91559964505785,40.86289215924712],[-73.91559401542851,40.86288915679977],[-73.91560361016748,40.8628797533732],[-73.9156182725241,40.86287890822133],[-73.91567199779993,40.862902427878204],[-73.91568204906041,40.86289390578301],[-73.91569323361941,40.86287981889362],[-73.91571907457876,40.86285286453569],[-73.91578014796727,40.862789157360304],[-73.91581868929798,40.86275125154482],[-73.9158388384917,40.86273143418346],[-73.91585768842077,40.86271494020038],[-73.91586450572585,40.86270897498176],[-73.91586962339933,40.862704495961495],[-73.91593363168728,40.86264848769444],[-73.91595185469623,40.86263145532217],[-73.91595260030212,40.8626307569587],[-73.91610517927772,40.862488144808815],[-73.91616935439097,40.86244126034407],[-73.91620484946901,40.862421286040686],[-73.91622522141259,40.862405417795976],[-73.91627635012748,40.8623655914323],[-73.91639175003208,40.862275702276435],[-73.91640019183053,40.86226912657585],[-73.91642605482267,40.8622489805493],[-73.91649196679447,40.86219763870005],[-73.91652512043842,40.86218050396315],[-73.91653438522638,40.86217571565013],[-73.91656892746097,40.862157863900805],[-73.91659639029278,40.86214637960507],[-73.91660191778598,40.862141955293204],[-73.91661720458559,40.862129720063294],[-73.91663823024993,40.862112890466925],[-73.91664696334848,40.86210590050628],[-73.91666173979021,40.86209363474756],[-73.91672483714159,40.86204125761573],[-73.91673206785221,40.862034730435866],[-73.91674689045284,40.862021348660086],[-73.91675431445417,40.8620146453839],[-73.91676153411382,40.86200812807807],[-73.9167811300425,40.8619904378625],[-73.91678584948336,40.86198617595896],[-73.91679534822488,40.86197760126741],[-73.91685100780673,40.86196360881377],[-73.91687889367472,40.86195358002911],[-73.91692039865941,40.861931727040776],[-73.9170913596197,40.861860308239635],[-73.9171527875952,40.86181076064655],[-73.91723056919928,40.861736543731325],[-73.91727034392633,40.861694699672306],[-73.91729467741682,40.861679418230814],[-73.91734277917358,40.8616173280706],[-73.91737841920298,40.861570977485776],[-73.91740810709008,40.861532737116846],[-73.91740994469406,40.861486372203885],[-73.91746019820951,40.86142946988323],[-73.9174806139379,40.86139863408695],[-73.91750401182637,40.86136332486981],[-73.91751560442475,40.861349924769684],[-73.91753292728922,40.86133573604449],[-73.91754749618079,40.861323131290646],[-73.91756413342257,40.86130683529917],[-73.91757176600538,40.861292116971796],[-73.91759256564345,40.86127636471456],[-73.91761405307712,40.86126112556562],[-73.9176563633175,40.861221191772515],[-73.9176882562444,40.86119282169414],[-73.91772917654824,40.86114499922039],[-73.91778534143998,40.861093504263074],[-73.91780823442265,40.86106355285206],[-73.91782702380148,40.86104278280544],[-73.91782221945574,40.861024436599045],[-73.91783553765003,40.86099693592759],[-73.91782468139057,40.86098042213557],[-73.91782136420322,40.860948901791275],[-73.91784103780017,40.86093144631564],[-73.91786115746805,40.86090065580506],[-73.91786536368916,40.86088446784981],[-73.91787707054966,40.86088383607685],[-73.91788211332283,40.86087367385577],[-73.91790472454431,40.86084987200066],[-73.91790211673528,40.86083961320214],[-73.9179219058387,40.86082542617226],[-73.91792234646307,40.86081399922564],[-73.91788387387612,40.860802221270816],[-73.91792828566334,40.860749897682034],[-73.91795061771649,40.86073198523211],[-73.9180522105659,40.86062109843903],[-73.91826264968338,40.860404824311374],[-73.91843439251785,40.86022153339545],[-73.91836074527978,40.86019580904429],[-73.91837648027335,40.86017013803003],[-73.91838738720121,40.86013529689542],[-73.91839903543254,40.86009619700599],[-73.91839311217645,40.86008046942209],[-73.91841071714774,40.86004867742163],[-73.91842828384398,40.86005689261724],[-73.91843100240952,40.86004561218524],[-73.91843508111562,40.86001791560641],[-73.91845133777636,40.85999124584148],[-73.91846755096886,40.859992283212065],[-73.91849190290448,40.859970760616946],[-73.9185000296487,40.859950244762764],[-73.91852845077696,40.85991845921084],[-73.9185595395527,40.85990719830268],[-73.91858793825692,40.85989387310958],[-73.91861094928423,40.859863110804355],[-73.918604223591,40.859835407099126],[-73.91860966058996,40.85981180808441],[-73.91862051432193,40.85978206428501],[-73.91864215241512,40.859767716605965],[-73.9186665028499,40.8597390082307],[-73.91867866057473,40.85974824666045],[-73.91869488994594,40.8597349215739],[-73.91869354554879,40.85972877034611],[-73.91870302556352,40.85971645820552],[-73.91868681416331,40.85970516392426],[-73.91873839393091,40.859648307531685],[-73.91872079932342,40.85964222493375],[-73.91880140046707,40.859558095732844],[-73.91877796600097,40.85954675081412],[-73.91888577964981,40.85943916349742],[-73.91890338201657,40.859418041641916],[-73.91900350576377,40.85931346590123],[-73.91913611131909,40.85917299234018],[-73.9192321799137,40.8590766175034],[-73.9193377208542,40.85896383310189],[-73.91940131157715,40.85889924908157],[-73.91943853541449,40.858855421344174],[-73.91948096295053,40.85881393735861],[-73.91950213660927,40.85879113379065],[-73.9195234232406,40.8587836337147],[-73.91954564190209,40.85879161544406],[-73.91954627335295,40.85879857798345],[-73.91980771609529,40.858910812450084],[-73.92008353369317,40.8590245658313],[-73.92027570855234,40.85910140282135],[-73.92026652422767,40.85911033099197],[-73.92034495747804,40.85914325674776],[-73.92039805137149,40.85916150182806],[-73.92041299163446,40.859146551304],[-73.92043467150586,40.85912094659189],[-73.92044466588725,40.859124492579895],[-73.92046134307469,40.85910326112537],[-73.92032551794722,40.85904349211005],[-73.92026958923756,40.85901867159214],[-73.92024228428149,40.85901106140368],[-73.92020833439089,40.85899586467861],[-73.9201983463336,40.85898725863462],[-73.92009647993564,40.858945216186136],[-73.9200691729343,40.85893861494769],[-73.9199566565892,40.858886443576644],[-73.9199353497549,40.8588808636702],[-73.9199087158952,40.85886719354699],[-73.91984679689206,40.85884388206972],[-73.91977223409496,40.8588018582987],[-73.91977424610863,40.85879477229134],[-73.9198414912715,40.85882719172722],[-73.91991539174754,40.85885859854228],[-73.91996200375146,40.858878360268626],[-73.92007317233627,40.85892634395975],[-73.92047868273164,40.85910409209902],[-73.92043089498738,40.85915500079324],[-73.92044055434958,40.85916101282775],[-73.92043350742901,40.85917235515519],[-73.92050906689413,40.85920510375526],[-73.92050818037748,40.85921245071394],[-73.92061976769563,40.859259245083436],[-73.92065316209782,40.859263265996624],[-73.92067070680031,40.85928997791543],[-73.92069792257469,40.85932403533724],[-73.92069348890543,40.859351398048496],[-73.92074793277065,40.859398152496944],[-73.92081547121326,40.85952299882189],[-73.92082481039876,40.85953762397859],[-73.9209663898829,40.859759363327775],[-73.92107166676902,40.85993630055127],[-73.92120245201025,40.86009856883894],[-73.92127091296314,40.86018804281688],[-73.92132187073454,40.860214110517],[-73.92134032213029,40.86021678939735],[-73.92134560571338,40.860212785676595],[-73.92136406183823,40.86021146544225],[-73.92139397626869,40.86019080173561],[-73.92143091729884,40.860174806652566],[-73.9214590637499,40.86016281389921],[-73.92151623522292,40.86013081281611],[-73.92151624388411,40.860123473462444],[-73.92154265042426,40.86009880067801],[-73.92155671740977,40.86009947665015],[-73.92159014848228,40.860072800027055],[-73.92163335462689,40.859964040976806],[-73.92166068449616,40.8598906508615],[-73.92168799950892,40.8598399452159],[-73.92170654327624,40.85976520810088],[-73.92171803927076,40.85971182591426],[-73.92170136023321,40.859693795630655],[-73.921710175143,40.85967244240094],[-73.92173654090283,40.85967246028868],[-73.92173832622473,40.85964710317361],[-73.92172252011011,40.85963373783425],[-73.9217040673148,40.85963106018635],[-73.92168648450196,40.85963572198364],[-73.92169705737565,40.85961169543958],[-73.92168123846965,40.859609019072984],[-73.92166455789798,40.85959232159749],[-73.92167072779482,40.85958097977307],[-73.92166897017356,40.859572306404715],[-73.92164788416537,40.859570949890994],[-73.9216487848248,40.85955093348678],[-73.92169009920312,40.85954762061989],[-73.92173052181315,40.85955566202541],[-73.92171996443375,40.859567667283756],[-73.92175425140597,40.85956902335639],[-73.92174017250262,40.85957969408357],[-73.92175862854255,40.85957904019341],[-73.9217692081425,40.85955901979765],[-73.92180348498401,40.85955904303395],[-73.92180349832373,40.85954769753215],[-73.92181669341474,40.859542365833796],[-73.92181579426122,40.85956039357207],[-73.92183337804897,40.859555065348275],[-73.92183602852774,40.859540380214696],[-73.9218395729169,40.85952169724212],[-73.92182640001633,40.859508343081785],[-73.92180092710002,40.8594949717052],[-73.92178421372903,40.85949696897964],[-73.92178423413667,40.85947961643443],[-73.92178951542857,40.85947561218876],[-73.92179128111253,40.8594669330018],[-73.92178337916783,40.859460255362215],[-73.92177813999356,40.85943689270559],[-73.92175531523212,40.85941085366682],[-73.92174475909623,40.85941151174225],[-73.92172807855678,40.85939481544801],[-73.92173862702762,40.85939148118525],[-73.92174216515193,40.859378138851675],[-73.92178084462995,40.85937616585864],[-73.92180105814842,40.85938351774846],[-73.92181422123245,40.859394873855706],[-73.92184589125206,40.8593828817191],[-73.92182743857516,40.85937152320426],[-73.92179318314092,40.85935281461521],[-73.92180638758404,40.85932879922506],[-73.9218362834467,40.85932347934424],[-73.92184158900832,40.85930012450329],[-73.92185654400586,40.85929078717152],[-73.92185568980084,40.859270760194875],[-73.92186363617589,40.859240734188056],[-73.92187159464825,40.85920002858209],[-73.92186633783712,40.859181339647385],[-73.92184878326538,40.859162642382955],[-73.92181013137603,40.8591412563115],[-73.92182860052966,40.85912859049998],[-73.92181807326544,40.8591152381302],[-73.92179523134098,40.859103875462594],[-73.92175392059856,40.85909383425422],[-73.92171348569525,40.859096472454574],[-73.92170031211967,40.85908378468578],[-73.92168362346402,40.859074434775486],[-73.92167133304652,40.85906707886257],[-73.9216563779765,40.85907574909308],[-73.92164144199631,40.85906840076183],[-73.92162299102333,40.859055700018494],[-73.92157640358266,40.85905500195374],[-73.92156323476758,40.85903830684884],[-73.92153688128283,40.85902828444135],[-73.92151667805082,40.85901158404436],[-73.9214964754598,40.85900556492652],[-73.92148241816888,40.858996873803534],[-73.92145693841954,40.85898017097764],[-73.92143674687571,40.85896481260319],[-73.92141478438384,40.85895210943512],[-73.92140688831232,40.858939425226964],[-73.92139545451538,40.85894008384524],[-73.92138491884857,40.85893207207091],[-73.9213620792983,40.858919377006295],[-73.92134098678923,40.85891269034447],[-73.92132253891837,40.85890733762716],[-73.92130672674394,40.858899312866015],[-73.92129619437267,40.85887995389832],[-73.92131378782533,40.858875291664674],[-73.92134542016285,40.85888532760622],[-73.92137001739772,40.85889669038703],[-73.92138847158147,40.85889670296238],[-73.92137003870111,40.858878671433075],[-73.92133313153417,40.85886663385203],[-73.92130940178662,40.85886394316106],[-73.92127775129012,40.858869261708456],[-73.92125580136796,40.85884655352721],[-73.92123913926534,40.85881451204296],[-73.92123916377065,40.85879381925229],[-73.92124971927124,40.85878448837625],[-73.92125502240951,40.858763131608164],[-73.92126384154847,40.85873710468057],[-73.9212568347568,40.85871508298713],[-73.92123928232209,40.85869371179098],[-73.92121027761029,40.85868901775329],[-73.92118832732737,40.85866631123341],[-73.92117253002353,40.85864561584195],[-73.92113298285734,40.85863890715015],[-73.92110400043433,40.85861619463412],[-73.92110930043289,40.85859751288133],[-73.92112073232227,40.85858818328615],[-73.92110317429258,40.85857215153384],[-73.9210891142833,40.85856680177929],[-73.92108561693331,40.85855611977928],[-73.92107155243096,40.85855344452836],[-73.92110236769079,40.85851275393439],[-73.92111383643032,40.85847271718316],[-73.92112177944222,40.85844535685094],[-73.92109189655196,40.85844132909294],[-73.92108224017778,40.85843265148401],[-73.92106819230465,40.85841728803186],[-73.92106558355208,40.85839726855693],[-73.92105857633933,40.85837457173102],[-73.92107355499476,40.858345216322576],[-73.92107885124759,40.858329866102984],[-73.92105864446825,40.85831717344777],[-73.9210788726283,40.85831184831995],[-73.9210876764655,40.8582998412482],[-73.921063950884,40.85829381914144],[-73.9209971288288,40.85830377722367],[-73.9209874801556,40.85828975896999],[-73.92094165735575,40.85828441491422],[-73.92092950082893,40.8582550141231],[-73.92091459857728,40.85821896714043],[-73.92093869016952,40.85812067446167],[-73.92114396589061,40.85755122405781],[-73.92122323658648,40.85752233035397],[-73.9213047520937,40.85742065143335],[-73.92136378026868,40.8573999648615],[-73.92140169782748,40.857389597554075],[-73.92145963506647,40.85736725288193],[-73.92151967268634,40.85734890638022],[-73.9215555046349,40.85732175059643],[-73.92158397060004,40.85728979192784],[-73.92159242598987,40.857263415602816],[-73.92158614447962,40.85723223373993],[-73.921579852046,40.857211443842004],[-73.92155849622625,40.857152702523045],[-73.92155857155751,40.85708883062931],[-73.92159160704566,40.85706515423359],[-73.92161794209794,40.85705477965253],[-73.92164638409345,40.85704360657256],[-73.92166323981638,40.85703562380659],[-73.921703268055,40.857021261061654],[-73.92174434054147,40.85701329471589],[-73.92180121504491,40.856998943362385],[-73.92183702160173,40.85699257192164],[-73.92186334597855,40.85699179049942],[-73.92188651896566,40.85698461123271],[-73.92190021806371,40.856975027284825],[-73.92191814231161,40.856954253125096],[-73.92194132896716,40.856934283619566],[-73.9219697849263,40.8569111183131],[-73.92204492215852,40.85685416008693],[-73.92207464948137,40.85677949124122],[-73.92215747202285,40.856766247476585],[-73.92216865147306,40.85673844681904],[-73.92214637159925,40.856726340288766],[-73.9221097526092,40.85672027066086],[-73.92216714728863,40.856663482471376],[-73.92221972249551,40.85664175413661],[-73.92224682582777,40.8566139642053],[-73.92229299127169,40.856627294984946],[-73.92233282523728,40.85660797655024],[-73.92237695742354,40.856583569625016],[-73.92237142624975,40.85628034165393],[-73.92234465187754,40.85625312253764],[-73.92237468647139,40.856215053473306],[-73.92237580865435,40.85597834945566],[-73.92234459374129,40.85568233581504],[-73.92234217898556,40.85568546101287],[-73.9223363626243,40.85569298743945],[-73.92232971276334,40.855701593160056],[-73.92232888081071,40.855702671282764],[-73.92232785330076,40.855704001731496],[-73.92219572192126,40.85587499055063],[-73.9221787422939,40.85589696519651],[-73.92218117594757,40.855899953109116],[-73.9221829564415,40.855903194714],[-73.92218404128785,40.855906608733726],[-73.92218440300834,40.85591010854026],[-73.92218403221781,40.855913606680026],[-73.92218293740302,40.855917015376555],[-73.92218114624356,40.85592024904404],[-73.92217870362477,40.85592322545882],[-73.92217567339671,40.85592587095361],[-73.92217212888963,40.85592811806592],[-73.92216815974797,40.855929910400874],[-73.92216386729518,40.8559312041356],[-73.92215935791673,40.8559319663398],[-73.92215474438098,40.855932177321755],[-73.92215014297047,40.85593183112907],[-73.92206335132524,40.85605391178461],[-73.92207704565459,40.8560591353661],[-73.92195201468982,40.85623699044743],[-73.92187322153121,40.85634966205626],[-73.9218876011372,40.856355133723454],[-73.9218175009566,40.85645422436583],[-73.92183549330603,40.85646214131266],[-73.92176508454413,40.856565868590316],[-73.92177019744699,40.85656789439885],[-73.92169841904696,40.85667230185513],[-73.92151894059089,40.85660117062337],[-73.92159078705228,40.85649666113436],[-73.92159696512884,40.856499110335875],[-73.92167181691566,40.85639401600276],[-73.92168970374028,40.856400643473776],[-73.92175965629761,40.856304681808666],[-73.92182325044611,40.85632912586369],[-73.92202956731796,40.85604005504791],[-73.92204171700529,40.8560450542811],[-73.922129095313,40.85592262927459],[-73.92212701759897,40.85591940891123],[-73.9221256357995,40.85591597710057],[-73.92212498555787,40.85591241896854],[-73.92212508375181,40.855908829512245],[-73.9221259252049,40.85590529550531],[-73.92212749215768,40.85590190957614],[-73.92212974214688,40.85589875797053],[-73.92213261947896,40.85589592022446],[-73.92213604839013,40.85589346932697],[-73.92213994408353,40.855891467204316],[-73.92214420566864,40.85588996488308],[-73.9221487254294,40.855889001323426],[-73.92215338838699,40.85588859990104],[-73.9221580751638,40.85588877209442],[-73.92218505751363,40.855847415549896],[-73.92221895084695,40.85579546579668],[-73.92223557106612,40.855771186451165],[-73.92225931710539,40.855725615667595],[-73.92227219913906,40.85570089187093],[-73.92228113774074,40.855686931639106],[-73.92228832283226,40.85567571342019],[-73.92228837057604,40.855675639407025],[-73.9222961101451,40.855663835229386],[-73.92227873064483,40.85565498884393],[-73.92240035875284,40.85551005597454],[-73.92266929695293,40.85517977496091],[-73.92281985673772,40.854988676511404],[-73.92290114139594,40.85488550530889],[-73.92313298516514,40.85458947031793],[-73.92341584183623,40.85422580636232],[-73.92360595220678,40.85397719803483],[-73.92400939220512,40.8534369539181],[-73.9244406513995,40.85284047270458],[-73.92467021184014,40.85250663957802],[-73.92497396914042,40.85207090936974],[-73.92502191229718,40.8520217104242],[-73.92503326859803,40.85199378494478],[-73.92507294866866,40.85194222070466],[-73.92510980271015,40.85189281751117],[-73.9251466652887,40.85183695594695],[-73.92515518101455,40.85181547591915],[-73.92517217729039,40.851802592329484],[-73.92521754031061,40.851738137108654],[-73.9252770793833,40.85164791120254],[-73.92529694152806,40.851607086705016],[-73.9253479660684,40.851538348339005],[-73.92542451604866,40.85142233424457],[-73.92548973032311,40.85132673438938],[-73.92553224547362,40.85127303036436],[-73.92554359303259,40.85124295131144],[-73.92563999034626,40.851099016510176],[-73.92566267418448,40.851068937045206],[-73.92573638681272,40.85095507157304],[-73.92575544274995,40.85092631720966],[-73.92585363309088,40.85077814704265],[-73.92587970419682,40.85075274294564],[-73.9258946157337,40.850716021158924],[-73.92602877508632,40.850514127209514],[-73.92623817249398,40.85020717548002],[-73.92625607778913,40.85018092828908],[-73.92649455759538,40.8498392626863],[-73.92671439092585,40.84953289248664],[-73.92692303519834,40.84925053211084],[-73.92711679645468,40.84896816077009],[-73.92725466369208,40.848763440051044],[-73.92740369127668,40.848557312118245],[-73.92752293332548,40.84837941376717],[-73.92765334858244,40.84818740307542],[-73.92797377830446,40.84772713626894],[-73.92813798976536,40.84749163370063],[-73.92821693262147,40.84738013694416],[-73.92839151036594,40.84713222929993],[-73.92842200947668,40.84708268101544],[-73.92845501929,40.84703147328331],[-73.92848994827723,40.84698195788171],[-73.92852026524511,40.846938979229755],[-73.92928544019534,40.84585422120144],[-73.92932522842061,40.84579501208164],[-73.92938078797043,40.84571308802439],[-73.9294284591942,40.84564416145977],[-73.92961778841178,40.845371976856526],[-73.92967631216543,40.84528959996837],[-73.92971850477589,40.84523177776136],[-73.92976558965162,40.84515549858492],[-73.9298142904901,40.845077383642355],[-73.92986949219903,40.844983883071265],[-73.92992306713158,40.844894073705234],[-73.92998963816937,40.844769196937406],[-73.93004648072028,40.84466092972776],[-73.9300984461563,40.8445551176074],[-73.93015203635434,40.84444930594308],[-73.9302235221325,40.84428444159589],[-73.9302738909538,40.844163491488175],[-73.93031939529575,40.84404414061399],[-73.93039902075694,40.843828808693104],[-73.93045266598449,40.84368115988087],[-73.93049978822178,40.84355565022313],[-73.93054530049933,40.84342854608883],[-73.9305696689228,40.84337194730128],[-73.93057942780864,40.84333749991781],[-73.93062818153543,40.843205840884984],[-73.9306752990735,40.84308525801482],[-73.93069805828596,40.84302311939372],[-73.9307273630006,40.842939705503056],[-73.93077282921939,40.84281025121583],[-73.93078580763273,40.84279303321172],[-73.93080204561862,40.84276596475738],[-73.93081019415838,40.84271797293067],[-73.93089465201425,40.842538340142085],[-73.93097488039668,40.84240043256817],[-73.93122229886856,40.84193119781975],[-73.93135888954994,40.841688340119646],[-73.93152929686684,40.84138537504014],[-73.93183461490949,40.840836973049555],[-73.93216201657155,40.84025506805102],[-73.9327955579716,40.8391237495383],[-73.93295973246775,40.83878578135545],[-73.93309918150739,40.83854347529133],[-73.93316806379079,40.83842168134462],[-73.93326669730261,40.83825027144864],[-73.93335684361476,40.83808787018],[-73.93341807218596,40.83797188003906],[-73.93346654180988,40.83789132502099],[-73.93353117016969,40.83776630556697],[-73.93363830694624,40.83757942170154],[-73.9337751779351,40.83737128497376],[-73.93390952876399,40.83713285480022],[-73.93401498008339,40.83693436287642],[-73.93410258068505,40.83676616873645],[-73.93419823237814,40.83657279307655],[-73.93428447793899,40.83638384314653],[-73.93431245358867,40.836318503659875],[-73.93436132705641,40.83620077559362],[-73.93445239397371,40.83598096015007]]]]}}]}