{"type":"FeatureCollection","features":[{"type":"Feature","properties":{"district":"103"},"geometry":{"type":"MultiPolygon","coordinates":[[[[-73.98877931684075,40.73396539973867],[-73.98757195270184,40.73345699067873],[-73.98718049670539,40.733292147761865],[-73.98494550599996,40.732349672818195],[-73.98356052121288,40.731770224933925],[-73.98346644208236,40.73173108111869],[-73.98321467146559,40.73162416829126],[-73.9829644066345,40.7315208425478],[-73.9825562923175,40.73135013405208],[-73.98246876214023,40.7313148847333],[-73.98190911506126,40.73109512881427],[-73.98166657031133,40.73099854758146],[-73.98034007500252,40.73044246087398],[-73.97992109976283,40.73026220520887],[-73.97910803894669,40.7299105584782],[-73.97802697950854,40.72943305910755],[-73.97753843835038,40.72922624791733],[-73.97690436371674,40.728957824278204],[-73.97619632359181,40.728661976526695],[-73.9758124489941,40.728519767622686],[-73.97566782613242,40.728462532006915],[-73.97329796772085,40.727428008859945],[-73.9720501534717,40.726880946797536],[-73.97197685059938,40.72683035620182],[-73.97191244151819,40.726791008767556],[-73.97185671237712,40.72675868546629],[-73.97179601986961,40.72671367965678],[-73.97162697271727,40.726628452997026],[-73.9716697270118,40.72639232715454],[-73.97169587451597,40.72624182980508],[-73.97171894361507,40.72612199325969],[-73.97173843379365,40.72599966755568],[-73.97176755410239,40.72583330295222],[-73.97177410965313,40.72582128133725],[-73.9717914296149,40.725814221149236],[-73.97181650587754,40.725814966250084],[-73.97185935830902,40.72558296953304],[-73.97187437695217,40.72550311607998],[-73.97188490951483,40.72542440506596],[-73.9719112073207,40.725290370700094],[-73.97193374501076,40.7251762903514],[-73.97193975456322,40.72515803861019],[-73.97196154778587,40.72503997881097],[-73.97200511841187,40.72484149021098],[-73.97203666966882,40.72468407002025],[-73.97206595867414,40.72455915832883],[-73.97207196960349,40.72453635085828],[-73.97208098151926,40.72449756793053],[-73.97208400057288,40.72446790554588],[-73.97209751290906,40.72442341523486],[-73.97215609001728,40.724170178278285],[-73.97216585996622,40.724131963775896],[-73.972216923762,40.72393005464691],[-73.97223344676965,40.7238467799265],[-73.97226499868242,40.723714457333806],[-73.97232507731586,40.723463499327494],[-73.97236115744649,40.723312060476644],[-73.97239945748277,40.72314881636678],[-73.97251011180381,40.72269688600691],[-73.97288971396699,40.72108829721948],[-73.97298649726092,40.720670549499275],[-73.973090065749,40.72025374477536],[-73.97320040345137,40.719837946846035],[-73.97331749335301,40.71942321935436],[-73.97344131740637,40.7190096257784],[-73.97357185653419,40.71859722942143],[-73.97374101738176,40.71809467576952],[-73.97391750479419,40.717593583062374],[-73.97410129682518,40.717094013143104],[-73.97429237062839,40.71659602766552],[-73.97449070246041,40.716099688086445],[-73.97469626768377,40.71560505565835],[-73.97490904076994,40.715112191421525],[-73.97512899530274,40.71462115619685],[-73.97514977937124,40.71457942386365],[-73.97516360806188,40.714551905691344],[-73.97518850986306,40.7145031607241],[-73.97521387023663,40.714448498798625],[-73.97522549627958,40.71442343994211],[-73.97524666388625,40.714377806305656],[-73.97524670420732,40.71437772456117],[-73.9758031128397,40.71317812458937],[-73.97579532792433,40.71317002319181],[-73.97596844519694,40.71278957339103],[-73.97604981455508,40.71260419377806],[-73.9761236883879,40.71246032539851],[-73.9761653123832,40.712420197910994],[-73.97631127867197,40.71211864731031],[-73.97642872514528,40.711909032503854],[-73.97650540115391,40.71179878945266],[-73.9765500881422,40.71173453872846],[-73.97671221539667,40.711535765178574],[-73.97681883540048,40.71141956752392],[-73.97699076574627,40.71125666023073],[-73.97705659401753,40.71119762646699],[-73.9772221356257,40.71106873122849],[-73.97752668432639,40.710843072733326],[-73.97772119493068,40.71071007466089],[-73.97782091638246,40.710645444907165],[-73.97789949619445,40.71059986620255],[-73.97799674790384,40.71056101739179],[-73.97807974906621,40.7105322505774],[-73.97818190694284,40.71050686551781],[-73.97825557749212,40.71049790905545],[-73.97837148165257,40.71048970749174],[-73.97861560123998,40.71047378191105],[-73.97877613342084,40.710463315047406],[-73.97918894377005,40.71043492338845],[-73.9792072643461,40.7104336663933],[-73.9792901523712,40.7104281445671],[-73.98003642292834,40.71037840126683],[-73.98028344332177,40.7103618156112],[-73.98033652490473,40.71035920071487],[-73.98033090124429,40.710286938313715],[-73.98051046026364,40.710274751945846],[-73.98128647552558,40.71021834788182],[-73.98124579569945,40.70982621460142],[-73.98306019477401,40.70964791174828],[-73.98364234472633,40.70959187924491],[-73.98449647076764,40.709509663939606],[-73.98639828917548,40.7093265843858],[-73.98814626172096,40.70915916701502],[-73.9881554605141,40.70914914247345],[-73.98839064023267,40.70912694916282],[-73.98844653437385,40.70913382054716],[-73.98847967268775,40.70915584680608],[-73.9884972717388,40.709176305293354],[-73.9886365807185,40.70991206151646],[-73.98864533493685,40.709916933898725],[-73.98866750580943,40.7099200348309],[-73.98869610271332,40.709928449844725],[-73.98871771111247,40.70994709001644],[-73.98873681707525,40.70997074184526],[-73.98879717785803,40.70996660747239],[-73.98889845980884,40.709954735765194],[-73.98935765696677,40.70990098670803],[-73.98946067019428,40.70988928705146],[-73.98957449608717,40.709874081606685],[-73.98974515155741,40.70984876165581],[-73.99015825373382,40.709790372663925],[-73.99051420376698,40.70973388411898],[-73.9907891301856,40.70968950658886],[-73.99106783463007,40.7096572298428],[-73.9913510923706,40.7096203327035],[-73.99170260292523,40.70956526245363],[-73.99176779580132,40.709555055523886],[-73.9919054436645,40.70952539658242],[-73.99203926968346,40.70951691966548],[-73.99209131635969,40.70950822290395],[-73.9921486897015,40.709498609104266],[-73.9923611613991,40.709464368811595],[-73.99284846748647,40.709381877638926],[-73.99374012862228,40.70924612043552],[-73.99400820164045,40.70923747991919],[-73.99414063200345,40.70923326740011],[-73.99437823543936,40.7091926391991],[-73.99457899963724,40.70913097291024],[-73.99517577369836,40.70903429330791],[-73.99601898395763,40.70891622384763],[-73.9966640099659,40.70882690451789],[-73.99728287195578,40.708731619843086],[-73.99808351186999,40.70850961536731],[-73.99828602320592,40.708429931467776],[-73.99852758585311,40.70833152790845],[-73.99856114620616,40.70831528323372],[-73.99872197955064,40.70823745289637],[-73.99875396570859,40.708223651027375],[-73.99880846276643,40.708200134992836],[-73.99882158420984,40.708175481677664],[-73.9988813086388,40.70813663391996],[-73.99898340963244,40.70809265331633],[-73.9990527673855,40.70803254586652],[-73.99913434918952,40.707982396946115],[-73.99919451174895,40.70794737685425],[-73.99928731116864,40.70801660316896],[-73.99936195582275,40.708072286588504],[-73.99939955073677,40.70810033836033],[-73.99944281440469,40.708136556756756],[-73.9995627336694,40.70823648314776],[-73.9998119392456,40.70844261498347],[-73.99992936423627,40.70853681759008],[-74.00000765589327,40.70859961998657],[-74.00012359123079,40.7086845192809],[-74.00019103138898,40.70873391286489],[-74.00026566682727,40.70879294991984],[-74.00055004953066,40.709017917299676],[-74.00134439913731,40.70964629295911],[-74.0014714023208,40.70974655432343],[-74.00141934716292,40.7098147957721],[-74.00128258532506,40.70999405347307],[-74.00123476628733,40.71005533303578],[-74.00113646757461,40.71017596422549],[-74.00100325442945,40.71035402976383],[-74.00090633637271,40.7104778313565],[-74.00079637813212,40.71061828715173],[-74.00065774673965,40.71080077033941],[-74.00050986097234,40.71098426944842],[-74.00057195679267,40.711045954940744],[-74.00062881616601,40.71111049784543],[-74.00068021266488,40.71117764115478],[-74.00072594161287,40.71124711750582],[-74.0007658208999,40.71131865024449],[-74.00079969198939,40.71139195459113],[-74.00082741969965,40.71146673859666],[-74.00084889359738,40.711542704469196],[-74.00086402815117,40.71161954970954],[-74.00087276307242,40.71169696831581],[-74.00089166286934,40.71299925785362],[-74.00089354391562,40.713029950787984],[-74.0008450545922,40.713039620977646],[-74.00063383195948,40.71308117856864],[-74.00062461465946,40.71311189083325],[-74.0002210584419,40.714250626889495],[-74.0004546306596,40.71436504759906],[-74.00052734942693,40.715170059365484],[-74.00078955186169,40.7152909684016],[-74.00057839216119,40.71557090242185],[-74.00013820907833,40.716199730562494],[-73.9999309777797,40.716543914270694],[-73.99944838180335,40.7173297970985],[-73.99931241700145,40.71755024177758],[-73.99858925568033,40.7170995115373],[-73.99776285925766,40.7168139281217],[-73.99698375215492,40.71654054317223],[-73.99605872744375,40.716231640211106],[-73.99580912349239,40.71664465970815],[-73.9954287587875,40.717279243048054],[-73.99480779021309,40.71845742635051],[-73.99439866258628,40.719457108928],[-73.99423470916308,40.71985151456367],[-73.99416805982594,40.72001184625224],[-73.99407263221248,40.72024349090313],[-73.9940415520236,40.72032097982332],[-73.9938379218417,40.720832148621945],[-73.99379593869142,40.720937537465915],[-73.99352731367806,40.7216332613661],[-73.99336181506884,40.72208001783559],[-73.99333917242924,40.722141140172],[-73.99326016194931,40.72235442627813],[-73.9930919022704,40.722820084364145],[-73.99263254954295,40.724056865152576],[-73.99260322198438,40.72413644968358],[-73.99257987396696,40.724201554923425],[-73.99232767958787,40.7249060973922],[-73.99221516612971,40.72523259566832],[-73.99206108543514,40.72564461433449],[-73.99179396219462,40.72639179536178],[-73.99163853409182,40.72683325577507],[-73.99156762927869,40.72703464711637],[-73.99155207579066,40.72709433672403],[-73.99138898337311,40.72749770114233],[-73.99135288961898,40.72755739806033],[-73.99123439559044,40.72772680526254],[-73.99129790628726,40.727755248562374],[-73.99122943604792,40.72807261736077],[-73.9911431514612,40.728588157155606],[-73.99097394420761,40.729195707209264],[-73.99078461602444,40.729745748338665],[-73.99072530409872,40.729878687476614],[-73.9905055860359,40.73056495673792],[-73.99039010002672,40.73128852382765],[-73.99021190972442,40.73199633440502],[-73.99011350296756,40.73240050434395],[-73.99010225743841,40.73244537234058],[-73.99003455735858,40.73275415137419],[-73.98986852139565,40.73352711455507],[-73.98985121272044,40.73367835838752],[-73.98984312005862,40.73383004937338],[-73.98984426079987,40.733981862735476],[-73.9898546321718,40.73413347345728],[-73.98987421242556,40.734284556917956],[-73.98990295970059,40.73443478963449],[-73.98883935090079,40.73399047942893],[-73.98877931684075,40.73396539973867]]]]}}]}