{"type":"FeatureCollection","features":[{"type":"Feature","properties":{"district":"102"},"geometry":{"type":"MultiPolygon","coordinates":[[[[-74.00915345169425,40.74249618755625],[-74.00901826641196,40.74243747858323],[-74.0088933979832,40.74238416718943],[-74.00879080522749,40.74237514372377],[-74.0086990229636,40.742361723963505],[-74.0082040187844,40.742147518791064],[-74.00779116134794,40.74197084424423],[-74.00697077724404,40.74162712715832],[-74.00544214844913,40.74098214026187],[-74.00536222029363,40.74094950351815],[-74.00512553452248,40.740850213068576],[-74.00310733884224,40.73999752055912],[-74.00252381416747,40.739752643642305],[-73.99968423039347,40.73855247381623],[-73.99683993860417,40.737360889398374],[-73.993616883955,40.736004491616214],[-73.99171498773394,40.735215300666795],[-73.99119899334936,40.73501236858365],[-73.99075396816642,40.73483915457386],[-73.98990295970059,40.73443478963449],[-73.98987421242556,40.734284556917956],[-73.9898546321718,40.73413347345728],[-73.98984426079987,40.733981862735476],[-73.98984312005862,40.73383004937338],[-73.98985121272044,40.73367835838752],[-73.98986852139565,40.73352711455507],[-73.99003455735858,40.73275415137419],[-73.99010225743841,40.73244537234058],[-73.99011350296756,40.73240050434395],[-73.99021190972442,40.73199633440502],[-73.99039010002672,40.73128852382765],[-73.9905055860359,40.73056495673792],[-73.99072530409872,40.729878687476614],[-73.99078461602444,40.729745748338665],[-73.99097394420761,40.729195707209264],[-73.9911431514612,40.728588157155606],[-73.99122943604792,40.72807261736077],[-73.99129790628726,40.727755248562374],[-73.99123439559044,40.72772680526254],[-73.99135288961898,40.72755739806033],[-73.99138898337311,40.72749770114233],[-73.99155207579066,40.72709433672403],[-73.99156762927869,40.72703464711637],[-73.99163853409182,40.72683325577507],[-73.99179396219462,40.72639179536178],[-73.99206108543514,40.72564461433449],[-73.99221516612971,40.72523259566832],[-73.99232767958787,40.7249060973922],[-73.99257987396696,40.724201554923425],[-73.99260322198438,40.72413644968358],[-73.99263254954295,40.724056865152576],[-73.9930919022704,40.722820084364145],[-73.99326016194931,40.72235442627813],[-73.99333917242924,40.722141140172],[-73.99336181506884,40.72208001783559],[-73.99352731367806,40.7216332613661],[-73.99379593869142,40.720937537465915],[-73.9938379218417,40.720832148621945],[-73.9940415520236,40.72032097982332],[-73.99407263221248,40.72024349090313],[-73.99416805982594,40.72001184625224],[-73.99423470916308,40.71985151456367],[-73.99439866258628,40.719457108928],[-73.99480779021309,40.71845742635051],[-73.9954287587875,40.717279243048054],[-73.99580912349239,40.71664465970815],[-73.99605872744375,40.716231640211106],[-73.99698375215492,40.71654054317223],[-73.99776285925766,40.7168139281217],[-73.99858925568033,40.7170995115373],[-73.99931241700145,40.71755024177758],[-73.99995620864657,40.718017095087355],[-74.00053195521231,40.71843023901422],[-74.00127273340206,40.71896142644613],[-74.0014005568262,40.71905262019907],[-74.00188406309478,40.71939757028799],[-74.00260001909851,40.71990342582805],[-74.00325955049146,40.72037709575852],[-74.00351186439296,40.72055635239198],[-74.00392928293418,40.72085443506057],[-74.00463516244645,40.72135363324089],[-74.00522716174571,40.72174410256048],[-74.00530986129975,40.72182419181322],[-74.00591289877082,40.72225294916509],[-74.00629841710706,40.72254950366814],[-74.00762904152717,40.7234977035756],[-74.0079120604296,40.72369976726767],[-74.00807835289478,40.72382686326653],[-74.0083021626478,40.72397780901872],[-74.0085709097978,40.72416935528251],[-74.00864380566408,40.72422131745543],[-74.00931760445084,40.724701551389174],[-74.00973152280115,40.724990371531554],[-74.01005338591698,40.7252444513724],[-74.01081238260726,40.72578980255595],[-74.01092277258171,40.72579415134844],[-74.01102457951117,40.725793862211184],[-74.0111435335986,40.725814475973884],[-74.01129464114884,40.725954942917134],[-74.01147123249083,40.72606197969027],[-74.01158193997684,40.726171034832234],[-74.01175747477754,40.72618990533803],[-74.015170840198,40.72657939065785],[-74.01514325523314,40.726710526782114],[-74.01512356549473,40.7267939430673],[-74.01430671596631,40.726708121196886],[-74.01341677520723,40.7266210312136],[-74.01234454766033,40.72651943048265],[-74.01154201897596,40.72644734642468],[-74.01138323604756,40.728229272367344],[-74.01439069932388,40.728463047520314],[-74.01434461474166,40.72862218378165],[-74.0142192854302,40.729523427755694],[-74.0140774139114,40.730640409188055],[-74.01408693559918,40.73066317304047],[-74.01403796924798,40.73069421884407],[-74.01401552295431,40.73068283965627],[-74.01116195696476,40.730450676349214],[-74.01108971391913,40.73125256845363],[-74.01107170223513,40.7314524921764],[-74.01099350879153,40.73232041794078],[-74.01094118226749,40.73300776326952],[-74.01146083559178,40.73302841363854],[-74.01400220214607,40.73306800179563],[-74.01399957240966,40.73333227751791],[-74.01090389883285,40.73329761713975],[-74.0108984071244,40.73335120737616],[-74.01087119577758,40.7333526110264],[-74.01084459823936,40.73335720253515],[-74.01081925594468,40.73336487117211],[-74.01079578005711,40.7333754319979],[-74.01077473673004,40.73338863032412],[-74.0107566334533,40.73340414785528],[-74.01074330013905,40.73342264686807],[-74.01073424442943,40.7334425875551],[-74.01072972404017,40.733463402434396],[-74.01072986761922,40.73348449914529],[-74.01073467108485,40.733505277306],[-74.01074399774157,40.73352514559974],[-74.01075758216963,40.733543538602675],[-74.01077503777829,40.73355993287526],[-74.01080216592655,40.733578120481035],[-74.01083296877994,40.73359252910992],[-74.01086654686934,40.733602738017005],[-74.01083284563212,40.73400709401116],[-74.01201792010474,40.7340637444565],[-74.01200124222393,40.73433840116636],[-74.01081359479109,40.73428344364777],[-74.01078798331723,40.73454829384453],[-74.0107092291038,40.735362872140335],[-74.0106429201788,40.73604869770505],[-74.01067724659342,40.73605627995698],[-74.0106698675122,40.736101931929305],[-74.01068752603769,40.73611386772294],[-74.01070404345349,40.73612918443106],[-74.01071702975841,40.73614635650898],[-74.0107261323198,40.7361649176665],[-74.01073110396335,40.736184363893884],[-74.01073180968531,40.73620416714788],[-74.01072823031869,40.73622378968992],[-74.01072046305416,40.73624269868816],[-74.0107087188013,40.73626038068585],[-74.01069377899165,40.736275949166426],[-74.01067576028156,40.736289501447104],[-74.0106551258418,40.73630068916542],[-74.01065421033887,40.73634774474348],[-74.01061910077432,40.73634539072197],[-74.01056810573441,40.73697222014267],[-74.01051581576759,40.73759606495379],[-74.0104765981442,40.73806394059523],[-74.0110870663595,40.73809275008146],[-74.01106791934328,40.738304096174225],[-74.01108874587187,40.73831752469125],[-74.01110665714643,40.73833319829913],[-74.01112123961931,40.73835075511695],[-74.01113215659934,40.73836978978284],[-74.01113915602562,40.73838986281323],[-74.01111553678528,40.73839208561709],[-74.01109173778062,40.738392181488734],[-74.01106808891201,40.738390149099196],[-74.01105426715455,40.73838794795741],[-74.01105126196637,40.7383964257508],[-74.01045432864602,40.738364505725755],[-74.01042867884634,40.73870336465894],[-74.01039303134563,40.739174296561934],[-74.01049858988299,40.739173432770585],[-74.01055473996811,40.73918623904919],[-74.01074676135302,40.739175936679786],[-74.01138798406559,40.73921605608881],[-74.0114845673462,40.73926046209167],[-74.01158045502316,40.73926453611219],[-74.01158818724909,40.73927159539781],[-74.01158715816625,40.73947886983238],[-74.01163351895192,40.7395064860663],[-74.01162792311769,40.73956247360376],[-74.01155518156285,40.73955672622748],[-74.01152745020407,40.73987377094748],[-74.01151491736535,40.73997286369896],[-74.0114607395534,40.74058421475269],[-74.01215741913089,40.740605998131436],[-74.01215372624051,40.74067425662087],[-74.01265742489994,40.74069665223196],[-74.0126592820849,40.7407476384976],[-74.01257372996915,40.740741731845056],[-74.01257372874734,40.7407352576228],[-74.01147486918863,40.74068706027121],[-74.01137438820489,40.740723947641506],[-74.01071840609633,40.74068559392572],[-74.00963145571754,40.74064536737443],[-74.00949685520361,40.740727011785665],[-74.00949154621281,40.74074270943997],[-74.00951627358202,40.740773583673665],[-74.00951844195933,40.74080572291708],[-74.00950137905859,40.74082922374594],[-74.00946293860208,40.74090233724049],[-74.00941140266131,40.74115409331305],[-74.00953902448505,40.74125115861632],[-74.00966433364141,40.74129880035866],[-74.00961923440443,40.741363610514966],[-74.01020818993538,40.74160753792842],[-74.010383580722,40.74139785352676],[-74.01139609242074,40.741822813235274],[-74.01083987411933,40.742596734022634],[-74.01029100591903,40.742358524639805],[-74.01012563710833,40.742575831777195],[-74.00932113973238,40.74224424271675],[-74.00928105078988,40.74230524043315],[-74.00919185382803,40.742292631516854],[-74.00915345169425,40.74249618755625]],[[-74.00937125244927,40.742185150284826],[-74.0100880336451,40.74248815567386],[-74.01019827672162,40.74233375374003],[-74.0098223415751,40.74216605205829],[-74.01016559689417,40.74167234807372],[-74.00956912252538,40.741422703061644],[-74.00952151608975,40.741485607440026],[-74.00936174828294,40.74142362374203],[-74.00934576009128,40.74151041070398],[-74.00927792756075,40.74187861085631],[-74.0092377993956,40.74207162715807],[-74.00941384793754,40.742129870171],[-74.00937125244927,40.742185150284826]]]]}}]}