{"type":"FeatureCollection","features":[{"type":"Feature","properties":{"district":"106"},"geometry":{"type":"MultiPolygon","coordinates":[[[[-73.96128450722306,40.73015906220415],[-73.96128261942144,40.73006102501026],[-73.96134184244276,40.73006367758824],[-73.96140472395243,40.730061052264176],[-73.96140171917759,40.73011102611357],[-73.9616867065907,40.73008186880128],[-73.96191028747243,40.72996258061557],[-73.96188586360671,40.72995256566809],[-73.96195920452797,40.72985966844819],[-73.96202496266523,40.72988542223795],[-73.96197794944985,40.729944018749954],[-73.96221474459279,40.72991693577691],[-73.96241964278757,40.72980120811426],[-73.96248546579243,40.72971116761521],[-73.9625493395233,40.72974406784672],[-73.9624778771383,40.72983696605579],[-73.96245157418112,40.72982838012021],[-73.96226735368352,40.72993124823965],[-73.96225228876577,40.7299855669821],[-73.9621946350352,40.72997597375577],[-73.96220156915895,40.729954099237304],[-73.96194409928032,40.729986894374925],[-73.9617072421667,40.730121194792396],[-73.96135279077708,40.730151957053366],[-73.96128450722306,40.73015906220415]]],[[[-73.96197039369788,40.73157711168562],[-73.96197040783946,40.7315523326702],[-73.9617128941469,40.73156611384507],[-73.96169848245741,40.73153234139498],[-73.96167446706403,40.731481253552694],[-73.96199050226615,40.73146656570862],[-73.96199800352301,40.73149325315437],[-73.962900068031,40.73144780167759],[-73.96290258567535,40.73142874114966],[-73.96320076537572,40.73141740062488],[-73.96319829673003,40.731350686907916],[-73.96328098663882,40.73134308883662],[-73.9632809740348,40.73136596207113],[-73.96355911991348,40.731335553391766],[-73.96355164152972,40.73126311974466],[-73.9636593923288,40.73124981148223],[-73.96369938139063,40.7314366195574],[-73.96358410965732,40.73145755028242],[-73.96356661657303,40.73137177115247],[-73.96328095722949,40.73139645960533],[-73.96329343161838,40.73149557932865],[-73.96290754784937,40.73151642296405],[-73.96291505478298,40.731533580101036],[-73.96197039369788,40.73157711168562]]],[[[-73.96051732536267,40.744105341081145],[-73.96056856858495,40.74402966608301],[-73.96067204645489,40.744051215856366],[-73.96064863700752,40.74413031711164],[-73.96051732536267,40.744105341081145]]],[[[-73.96421230395704,40.74660431797426],[-73.96427364752464,40.746541844552596],[-73.96433729322393,40.746545726593354],[-73.96437765404313,40.74649508803904],[-73.96444522752651,40.746410425260784],[-73.96458318426947,40.74645440067351],[-73.96458702399427,40.746515898544786],[-73.96454518192589,40.74656415047313],[-73.96447543657699,40.746640833198015],[-73.96437443772187,40.74670453064321],[-73.96433758671752,40.74673484818156],[-73.9642725620221,40.746751308084235],[-73.96421616682368,40.74683700083118],[-73.9641598028843,40.74686554735975],[-73.96412514486175,40.74684576060551],[-73.96413382933497,40.7468127961656],[-73.96421192462765,40.74666667680318],[-73.96421230395704,40.74660431797426]]],[[[-73.96213559058086,40.75457323147347],[-73.96219381838414,40.754504315153426],[-73.96223125165591,40.75452213042204],[-73.96268703046536,40.754004373286804],[-73.96289729202545,40.753765517094486],[-73.96286896769232,40.753742509157064],[-73.96316074049744,40.75341220732832],[-73.96373572283169,40.752783775777196],[-73.96470952841109,40.751719415095934],[-73.96494444755467,40.751462643217145],[-73.96532405586477,40.75104771827219],[-73.96791272994395,40.747970935642314],[-73.96811893399276,40.74772582975005],[-73.96817376101073,40.747666753741925],[-73.96823574753464,40.7475912183927],[-73.96836519324148,40.74743349462028],[-73.96823171715788,40.74736847648939],[-73.96829622113238,40.74729565136723],[-73.96829811451529,40.74728339500301],[-73.96830191005901,40.74727329924477],[-73.9683161371577,40.74727402435948],[-73.96832610433424,40.747252034096405],[-73.96834696591318,40.74724121831021],[-73.96836118844783,40.74721814498392],[-73.96840008314163,40.7471669539644],[-73.96843139158786,40.747129456620435],[-73.96846363690706,40.74709412848581],[-73.96847691942939,40.74707250080586],[-73.96850064035854,40.747044384507376],[-73.9685148595502,40.747032843998234],[-73.96853479000781,40.74700039777971],[-73.968544278662,40.746988142312894],[-73.9685888522455,40.74694344358094],[-73.96859169569566,40.74693334705046],[-73.96860023472267,40.74692109131994],[-73.96860971997528,40.74691460310325],[-73.96861730876945,40.74689945527544],[-73.9686391246467,40.74687927414427],[-73.96866379796644,40.74684681981253],[-73.96867043421345,40.74683600998012],[-73.9686922519053,40.74680860795781],[-73.96870458089755,40.746800682796376],[-73.96871076544427,40.74678826391731],[-73.96875271240373,40.746742715216875],[-73.96894301109302,40.746518335696685],[-73.96896670537514,40.746530500297],[-73.96897366849493,40.74652900683407],[-73.968988992317,40.74650579149492],[-73.9689998159544,40.746501935275134],[-73.96900302810094,40.746490808379455],[-73.96901641754052,40.746481152086446],[-73.96901961115921,40.74647243890278],[-73.96907193333249,40.74641298300652],[-73.96913096118847,40.74634071530684],[-73.96921135921276,40.74624451530401],[-73.96923432172326,40.746222284011615],[-73.9692470758419,40.74620778199381],[-73.96925028881702,40.746196171442854],[-73.96932591437388,40.7461040877106],[-73.96933228026558,40.74610167233767],[-73.9693392445918,40.74609265608855],[-73.96938290644789,40.74603594902514],[-73.96940022327871,40.74602084326566],[-73.96940086652106,40.746014027130144],[-73.96941753399555,40.74599696633216],[-73.96943292389886,40.745976988728884],[-73.96946210038307,40.745944577633786],[-73.96952046125196,40.74586904111666],[-73.96955059658644,40.74583882769375],[-73.9695974026117,40.74578278411198],[-73.96962370583407,40.7457467167946],[-73.96963204180261,40.745743305646165],[-73.9696948777757,40.745666796891115],[-73.96969678845922,40.74565700029312],[-73.9698756140306,40.7454447891378],[-73.96990575265258,40.74545820514532],[-73.9699122797576,40.745451759436406],[-73.96993139614953,40.74546300192006],[-73.96992704959052,40.745467792035186],[-73.96997377026275,40.74549574743079],[-73.97004758904896,40.745402861299496],[-73.97009123175708,40.745351129151125],[-73.97012962576954,40.7453053665945],[-73.97021602288636,40.745200579033],[-73.97033931161249,40.74504963202264],[-73.97032571321422,40.745036949464584],[-73.97032571931103,40.74502326140034],[-73.97037811940515,40.74495230558344],[-73.9704425548898,40.74487037651231],[-73.97046063703624,40.7448647433909],[-73.97047240576438,40.744866241747815],[-73.97050560032659,40.74482376425946],[-73.9705687722909,40.74473186530626],[-73.97062381510653,40.74465642621021],[-73.9707883477664,40.7444062176905],[-73.97085704434353,40.74443263739735],[-73.97087688233857,40.74444557343115],[-73.97088963376717,40.744447729702074],[-73.97089742067709,40.74445473677991],[-73.9709094613216,40.74445635209429],[-73.97091724845437,40.7444633603435],[-73.97092858032359,40.74446336320436],[-73.97094062960419,40.74447144402558],[-73.97098222712366,40.744407634720076],[-73.97101392396074,40.74435861480527],[-73.97111438123977,40.74420436093265],[-73.97078276128684,40.74404724688703],[-73.97077757716114,40.7440466247195],[-73.97075833953681,40.74403919038248],[-73.97075084955141,40.74402980466494],[-73.97071823494039,40.744016927848335],[-73.97070578720823,40.74400256198694],[-73.97070317531687,40.74399049490893],[-73.97072277474861,40.7439695157214],[-73.97074257272034,40.7439483246602],[-73.97075061382013,40.7439486336107],[-73.97076123524714,40.74394210764184],[-73.97079209694716,40.743956009932695],[-73.97079892989305,40.74395279700395],[-73.9708358740414,40.74396967223827],[-73.97083595486517,40.743969703586124],[-73.97087357851338,40.74398767476958],[-73.97095964992808,40.74402569698725],[-73.97096300193468,40.744023672775015],[-73.97117346753164,40.74410753500842],[-73.97118193576082,40.74410323270803],[-73.97120616502984,40.744066029846785],[-73.97127362462311,40.74396474842377],[-73.97135752941868,40.743838455359636],[-73.9712342398151,40.743784646190406],[-73.97120546301967,40.74377151030149],[-73.97128101831679,40.74365194205151],[-73.97135563409175,40.74353964934961],[-73.97149421270419,40.74333467446526],[-73.97163772240417,40.74311720098483],[-73.97167921200818,40.74305446405994],[-73.97188888913065,40.74272481985312],[-73.97176261327057,40.74267267153485],[-73.97174059715825,40.74266358001168],[-73.9717750124804,40.74261591214474],[-73.97195955856255,40.742337921543836],[-73.97204926316714,40.741887753776396],[-73.97206949682797,40.74178890593495],[-73.97210163980682,40.74162320206111],[-73.97215263572176,40.74138858760137],[-73.97219804813784,40.74114466869194],[-73.97228618248496,40.740738273576525],[-73.97228992099217,40.740721039031946],[-73.97221282599375,40.740711663608444],[-73.97219567275302,40.740709579461566],[-73.972182685701,40.7407062799098],[-73.97216848387873,40.740693120300676],[-73.97216477368657,40.74067572212931],[-73.97216549760822,40.740672165050086],[-73.97221525425901,40.74042656351957],[-73.97222515614335,40.74041669693134],[-73.97223504317165,40.740413403402165],[-73.97223566211005,40.740405415225375],[-73.97219641647789,40.74040257925303],[-73.97221685422328,40.740307625061696],[-73.97226753642127,40.74031374327732],[-73.97227001334156,40.74030857434587],[-73.9722533231916,40.74030010555497],[-73.97224837803643,40.74029117185887],[-73.97229979590863,40.74003496274316],[-73.97231030439093,40.74001851267499],[-73.97233141721729,40.74001090819987],[-73.97243888981417,40.740021749973415],[-73.97265743803038,40.73922275427715],[-73.9726552896889,40.73917826848021],[-73.97265060379681,40.73905826571571],[-73.97264431062416,40.73901746233549],[-73.97264512721948,40.73895866831118],[-73.97264674830737,40.73884587151254],[-73.97263256455166,40.73878946955031],[-73.97263100998644,40.738740265008275],[-73.97262787457534,40.7387090614698],[-73.97262630543385,40.73866586408464],[-73.97262792189811,40.73859386916873],[-73.97262084766358,40.73852066549372],[-73.97261929656231,40.73846306804612],[-73.97262753952515,40.73840038598757],[-73.9726388480015,40.73839530977735],[-73.9726383333126,40.738379685976675],[-73.97262807328735,40.73836796724557],[-73.97262452608501,40.73824336345716],[-73.97263274644142,40.73823242426234],[-73.97263327107365,40.73822383329863],[-73.9726225471807,40.73821706821194],[-73.9726194686601,40.738044278245106],[-73.97261474017301,40.738029869348225],[-73.97260609997485,40.73793867228892],[-73.97261872947438,40.73791467680082],[-73.97261242656461,40.737897872571835],[-73.97260457307685,40.737822273075835],[-73.97261404225637,40.73779827633345],[-73.97260621196624,40.73766627757054],[-73.97259038224679,40.736769654842426],[-73.97258292456105,40.73674468459367],[-73.97257979798512,40.73669068907689],[-73.97257525871026,40.73664650893166],[-73.97255622610959,40.73646148552768],[-73.97256333684314,40.73644588163222],[-73.97248994174741,40.735803280107795],[-73.97251016786021,40.735787129859794],[-73.97286939178467,40.73577086128574],[-73.97441385816532,40.73641439385913],[-73.97445975070463,40.7362940197185],[-73.97441677354789,40.736277726106934],[-73.97441154346602,40.73628527904697],[-73.97439952343315,40.73628408358729],[-73.97402692104305,40.73612576724569],[-73.97404679254475,40.73609992943224],[-73.97442932366876,40.736260633491625],[-73.97442775474427,40.736266199041545],[-73.97446647047286,40.73627845683008],[-73.97450376013228,40.736064588444215],[-73.97447471755301,40.73606238071315],[-73.97444082924062,40.73605047915458],[-73.97443372879957,40.73605371636713],[-73.97414062018392,40.73595565666492],[-73.97415127634781,40.735933792668256],[-73.97444722336765,40.73603347295418],[-73.97444828612832,40.73603779235672],[-73.97447828183081,40.73604418545125],[-73.97450488285943,40.73604228103946],[-73.97451459772599,40.735894598411406],[-73.97450793938161,40.735796945772556],[-73.97448854079063,40.735875680246544],[-73.97445077717819,40.735869129966886],[-73.97446233335455,40.73583114456839],[-73.97424982468374,40.735797182020164],[-73.97424630658303,40.73578011045604],[-73.97425866775502,40.735766268164014],[-73.9744704050787,40.735797872255304],[-73.97446962023734,40.73578786807202],[-73.97447775431193,40.73578786166622],[-73.9744715494167,40.7357272237581],[-73.97446537767371,40.735666886063875],[-73.97439223918198,40.73566753456842],[-73.974391854932,40.7356719481348],[-73.97426375884302,40.73567147429338],[-73.97426474799444,40.73567587660696],[-73.97419233708438,40.73568012679825],[-73.9741895600019,40.73565991276949],[-73.97415747430529,40.73565784198292],[-73.97414616523469,40.73567162151051],[-73.97409287937954,40.73564072502899],[-73.97409007994668,40.73564465423467],[-73.97341869582557,40.735367737300315],[-73.97343881801847,40.735341217814224],[-73.9732803029099,40.7352733654282],[-73.97305698712047,40.73517745341573],[-73.97280661710461,40.735523918521324],[-73.97293673973685,40.735599249299824],[-73.97293031926458,40.73560761439685],[-73.97276308380353,40.73550508747374],[-73.97299695202484,40.735186506891296],[-73.97296395268094,40.7351690661775],[-73.9729318560978,40.73520531236917],[-73.97288512856933,40.73518020390205],[-73.97286403116163,40.7352122670154],[-73.97283745943461,40.73519971670459],[-73.97294520758682,40.735065170071294],[-73.97296719785798,40.735078430767],[-73.97294519031814,40.73510770051329],[-73.97299560236587,40.73512793798328],[-73.97297083635605,40.73515721697145],[-73.97300291199267,40.73517256003543],[-73.97303684713711,40.735127947647705],[-73.9732989504614,40.73524235507728],[-73.97332187458159,40.735201918664984],[-73.97331638345146,40.7351963427822],[-73.97329897672444,40.73517681588381],[-73.97327881634085,40.735147527414476],[-73.97327241144065,40.73511893385163],[-73.97327700851476,40.73507919579851],[-73.97329627362966,40.7350408566427],[-73.97332929043579,40.735010877894474],[-73.97336870942675,40.73498927476286],[-73.97341821248351,40.73497115816128],[-73.97345945915032,40.73496837685138],[-73.973522708343,40.73497536084711],[-73.97354472883961,40.73494432610164],[-73.97444065082591,40.73531677190073],[-73.97442616184162,40.73523421918374],[-73.97441126714118,40.73517824595467],[-73.97439063081423,40.73509213293327],[-73.97437417946838,40.73503063633963],[-73.97435054998022,40.734942312634],[-73.97431559737869,40.734803677193625],[-73.97427147926832,40.734630608981576],[-73.97425543467872,40.734566885863444],[-73.9742119222655,40.73440586894305],[-73.97418317281985,40.73430095691666],[-73.97416917978899,40.73423971229525],[-73.97415110840346,40.73416396616626],[-73.97410591714225,40.7339935435477],[-73.97406016216327,40.73381107244249],[-73.97402174588258,40.733663893934576],[-73.97399237089736,40.73355457475643],[-73.97395905029711,40.73342116553862],[-73.97394321924938,40.733403088863405],[-73.97393531356985,40.73336607678416],[-73.97390702695188,40.73334971660841],[-73.9739013771137,40.73332733730516],[-73.97389120382256,40.73330926190467],[-73.97386631865598,40.73331097608695],[-73.97386292958613,40.733291182396236],[-73.97385275193642,40.733282571401205],[-73.97384483854886,40.73326536111392],[-73.97386520802412,40.7332464280398],[-73.97385730036494,40.73321630363872],[-73.97384145962661,40.73321974036578],[-73.97384937381277,40.73323265510645],[-73.97383126846691,40.73324556510929],[-73.97380976846561,40.73324899937312],[-73.9737837578338,40.733227481208246],[-73.97380298847435,40.73321198753997],[-73.97378376867172,40.73319993432455],[-73.9737645264947,40.73321284338803],[-73.97374076899372,40.73320938893725],[-73.97372718707769,40.733219714351065],[-73.9737079516958,40.7332136852051],[-73.97368984982607,40.733218850603635],[-73.9736762757606,40.733205933888215],[-73.97369438098609,40.73319560901117],[-73.97369212859806,40.73317409625022],[-73.97371588914251,40.73316979674732],[-73.97372607356357,40.73315947055964],[-73.97373739762322,40.733143119372535],[-73.97375776032726,40.733139684863026],[-73.97377813922655,40.73312419146039],[-73.97380529755272,40.7331207579871],[-73.97381887171846,40.733099247654756],[-73.97384036797052,40.73310355629607],[-73.97387206174017,40.73309495480681],[-73.97386810776207,40.73306568719578],[-73.97377030826173,40.73268844617701],[-73.97367702799252,40.73231023074896],[-73.97364735766624,40.73217549326411],[-73.9736273640125,40.732107445607994],[-73.97360833346643,40.73204268972983],[-73.97353969289706,40.731764332823616],[-73.97352137914282,40.731690164781426],[-73.97341321730858,40.73128241642885],[-73.97338181410147,40.731236023919564],[-73.97336591000702,40.73122001994853],[-73.97334064688684,40.73118304166213],[-73.97331715426381,40.73115792717328],[-73.9732832111114,40.7311126759087],[-73.97323625417937,40.73105692674119],[-73.97320012915412,40.73101663239024],[-73.97314592791604,40.7309608809963],[-73.97309858148473,40.73091367989087],[-73.97305304853825,40.73086730325318],[-73.9730060597536,40.73082313241324],[-73.97291929100193,40.73075024150283],[-73.97283215562857,40.73068148080725],[-73.97274611643171,40.73060583194708],[-73.97264270492411,40.730523537807514],[-73.97255990007292,40.730458093618296],[-73.97247970053022,40.730400807363026],[-73.97245936471903,40.73038632937784],[-73.97233277439516,40.73029657246832],[-73.97224018578775,40.730230497638715],[-73.97223370120912,40.73022567784338],[-73.97208918590233,40.730118357041825],[-73.97205385214976,40.730086650432675],[-73.97201026033457,40.73004517148778],[-73.97196340301248,40.730000377217664],[-73.97190238512808,40.729930708644616],[-73.97185608949049,40.729875550267415],[-73.97182992841674,40.729845691972976],[-73.97174822357015,40.72974201454473],[-73.97174494790077,40.72973454858868],[-73.9717002903813,40.72966570245412],[-73.97162729998558,40.729557884146175],[-73.97157719441826,40.72946913613542],[-73.97151882628016,40.729351361740314],[-73.97150816031574,40.729323966492565],[-73.97147994907228,40.729249577196],[-73.97145716122309,40.72916940755814],[-73.97143981566717,40.72909584986463],[-73.97143221814216,40.72906361904436],[-73.97142139208238,40.7289958439724],[-73.97141235109775,40.72887985602181],[-73.9714065967207,40.7287944713059],[-73.97140617908519,40.72871876425123],[-73.97141946379276,40.72856882754421],[-73.9714271844355,40.72848582588513],[-73.97145269559661,40.7283414333133],[-73.9714566218295,40.72831923801447],[-73.97147343819987,40.7282092559282],[-73.9715104844795,40.72800276340419],[-73.97155553514953,40.7277031085983],[-73.97156931647098,40.7276937671986],[-73.97157278760145,40.72764591976786],[-73.97158965149985,40.72764003369343],[-73.97161872706997,40.72765055818597],[-73.97163586152148,40.7276479741215],[-73.97165160075588,40.72764321253479],[-73.97168514866583,40.72740588663671],[-73.97158604106329,40.72739693305286],[-73.97156114365914,40.727394688247806],[-73.97153686592743,40.72739296510097],[-73.97152076789627,40.72738616573731],[-73.97151282181258,40.7273743080787],[-73.97149260058237,40.727373123351526],[-73.97149039092855,40.7273500976075],[-73.97162697271727,40.726628452997026],[-73.97179601986961,40.72671367965678],[-73.97185671237712,40.72675868546629],[-73.97191244151819,40.726791008767556],[-73.97197685059938,40.72683035620182],[-73.9720501534717,40.726880946797536],[-73.97329796772085,40.727428008859945],[-73.97566782613242,40.728462532006915],[-73.9758124489941,40.728519767622686],[-73.97619632359181,40.728661976526695],[-73.97690436371674,40.728957824278204],[-73.97753843835038,40.72922624791733],[-73.97802697950854,40.72943305910755],[-73.97910803894669,40.7299105584782],[-73.97992109976283,40.73026220520887],[-73.98034007500252,40.73044246087398],[-73.98166657031133,40.73099854758146],[-73.98190911506126,40.73109512881427],[-73.98246876214023,40.7313148847333],[-73.9825562923175,40.73135013405208],[-73.9829644066345,40.7315208425478],[-73.98321467146559,40.73162416829126],[-73.98346644208236,40.73173108111869],[-73.98356052121288,40.731770224933925],[-73.98494550599996,40.732349672818195],[-73.98718049670539,40.733292147761865],[-73.98757195270184,40.73345699067873],[-73.98877931684075,40.73396539973867],[-73.98828600367436,40.73465900253083],[-73.98781645089197,40.73529228106006],[-73.98738718501711,40.73587893289785],[-73.98696115443187,40.736464342419055],[-73.986534999359,40.73705001047121],[-73.98760645326679,40.737497824647875],[-73.98717537220833,40.73808413340075],[-73.98728863746064,40.738130786477214],[-73.98685345269384,40.73871475166975],[-73.98722819939874,40.738870978507435],[-73.9873015480288,40.73890302603654],[-73.98703592721053,40.73926637854955],[-73.98696048217523,40.7392355272564],[-73.98664969677115,40.73910091152305],[-73.9864719504475,40.73936282142988],[-73.98523224611287,40.738840230795155],[-73.98474231002533,40.73951036016429],[-73.9842577192636,40.740168592910464],[-73.98381135584467,40.740789880671805],[-73.98335962279162,40.741412166173895],[-73.98327965910958,40.741521762868786],[-73.98291180101367,40.74202593992782],[-73.98245520730401,40.742646960084926],[-73.98200875374039,40.74326462089396],[-73.98155997085203,40.74388188384981],[-73.9811085987999,40.74449827930662],[-73.98065842557794,40.7451158253887],[-73.98020971212178,40.74573336237061],[-73.97972346503144,40.74640287583607],[-73.98125919886353,40.747045705257065],[-73.98131059307056,40.74706649305245],[-73.98134068727681,40.74707866368269],[-73.98139197345351,40.74710155119726],[-73.98143281943811,40.74711977793592],[-73.98295691021276,40.74776435318855],[-73.98247212047082,40.74843150191918],[-73.98202464507538,40.749049540406155],[-73.98157269672998,40.74966808901572],[-73.98112322865084,40.75028245877411],[-73.98067345249109,40.750905101457576],[-73.98022089903921,40.751521979626844],[-73.97870642107299,40.7508846466341],[-73.97860724068082,40.75084248489148],[-73.97848503318188,40.75078824180857],[-73.97698570662243,40.750156959255804],[-73.97653485321366,40.750775506991594],[-73.97604824862881,40.75144139337564],[-73.9755580081169,40.752116183058654],[-73.97510266099282,40.75274137954088],[-73.97464798076284,40.75336712262802],[-73.97418937108222,40.75399351131101],[-73.9737341050976,40.75461877360364],[-73.97327559804,40.755243538083576],[-73.9728196737917,40.75587055200472],[-73.97236275920474,40.75649772565879],[-73.9719067600844,40.757124673854],[-73.97145047977712,40.75774923203727],[-73.97099370598274,40.75837333055347],[-73.97053417531137,40.75900064986443],[-73.970081007617,40.75962490690172],[-73.96962500126692,40.76025144003987],[-73.96913247360474,40.76092919060751],[-73.96864226119885,40.76159996067633],[-73.96818687803611,40.76222682132609],[-73.96658338422257,40.76155093557674],[-73.96431353631321,40.76059923135073],[-73.96355618932155,40.76028081858233],[-73.963080735949,40.76008316374067],[-73.9619657361163,40.75961946078565],[-73.95972180418647,40.75866306368172],[-73.9590368100845,40.75838378260468],[-73.95893448513704,40.75833515544863],[-73.95886358869814,40.75830607043782],[-73.9588241029678,40.758289871651904],[-73.95877790822699,40.758270920848915],[-73.95905574721682,40.75792987282024],[-73.95917118465763,40.757864108601105],[-73.95918103286087,40.75785611105263],[-73.95965770876657,40.757260145123404],[-73.95966400300107,40.757211412187054],[-73.96003900990617,40.75672535023904],[-73.96036455140823,40.75626941113357],[-73.96065638180474,40.75592314955037],[-73.9607970991498,40.75580477274081],[-73.96079722985934,40.75580465585217],[-73.96102790867165,40.75561058457924],[-73.96162927534917,40.7551523842593],[-73.96176227368043,40.755000253229454],[-73.96213559058086,40.75457323147347]]]]}}]}