{"type":"FeatureCollection","features":[{"type":"Feature","properties":{"district":"12"},"geometry":{"type":"MultiPolygon","coordinates":[[[[-73.97139631688152,40.648257786114264],[-73.97121039098944,40.64762015448435],[-73.9708411379564,40.64637857157526],[-73.97076976083255,40.64611090734325],[-73.9705455439065,40.6453166681216],[-73.97031677051451,40.64453794134677],[-73.97008897793074,40.64374583950724],[-73.96988464671769,40.64303029756927],[-73.96968611807544,40.64235600977243],[-73.969484681379,40.64168989703424],[-73.96939903065599,40.641382446218465],[-73.96891461124393,40.639757159754495],[-73.96879099173343,40.63925593322158],[-73.9687221844786,40.63901853824941],[-73.96822343385395,40.637296906442096],[-73.96803868487798,40.63665098543654],[-73.96762736292794,40.63523862182281],[-73.96821999041681,40.63496595971144],[-73.96838127286762,40.63489175384879],[-73.96899922229902,40.63460743033033],[-73.96986869339572,40.63419467459834],[-73.97087567598653,40.6337195138169],[-73.97190427082279,40.63323009464013],[-73.97216145892976,40.633111621852265],[-73.97231129169526,40.633041914545515],[-73.97241481651272,40.63299383426854],[-73.9725572159544,40.63371337992711],[-73.97365399803127,40.633590850593045],[-73.97458256405362,40.63348830194175],[-73.97551015902606,40.63338567354695],[-73.97643342179832,40.63328912259085],[-73.97761642237326,40.63315364240398],[-73.97716511994669,40.63074665412951],[-73.97707098957537,40.63025228089268],[-73.97699848928177,40.62987149662815],[-73.9768496430902,40.62908858147858],[-73.97669604371897,40.62835456471154],[-73.97657775623188,40.627573186819006],[-73.97653344895622,40.627377605481804],[-73.97651462100198,40.62729448999149],[-73.97589962713805,40.627397958264986],[-73.97537184435511,40.62748250552674],[-73.97442122418256,40.627638806431655],[-73.97353152015046,40.62777175599794],[-73.97258165362265,40.62791796735944],[-73.97148625726308,40.62805487723802],[-73.97137314422005,40.62806901284072],[-73.97120750458247,40.62808971219776],[-73.9709595094521,40.62811668325541],[-73.97039187160205,40.62817841636118],[-73.96983762406146,40.628238681286646],[-73.96876090353545,40.62835188104027],[-73.96783415201227,40.628449034703884],[-73.96690629647465,40.62854822442894],[-73.96590686880008,40.62865448130853],[-73.96588564484011,40.628541333695324],[-73.96562565071174,40.627155222022054],[-73.96517258956042,40.62476548484598],[-73.96494557544207,40.623568552010866],[-73.96471983385558,40.62237296120548],[-73.96426798339365,40.61998380378813],[-73.96388935578909,40.618000549884506],[-73.96381145236617,40.617589401544976],[-73.96375418658926,40.61730243354313],[-73.96362245489206,40.61658973720416],[-73.96356470559202,40.61623872246744],[-73.96336094089213,40.615204428336575],[-73.96285973961484,40.612549485964635],[-73.9623854844826,40.60998599285033],[-73.96337092961164,40.60987865799269],[-73.96429649963927,40.609776426175635],[-73.96522378067694,40.60967440102234],[-73.96629835479908,40.60955521381429],[-73.96739979512793,40.60945960757399],[-73.96768635687866,40.60941778748273],[-73.96780676335973,40.60940315527968],[-73.96792168799611,40.609389189526304],[-73.96904086639492,40.609253193163376],[-73.9699656611014,40.60915047689355],[-73.97089538377742,40.60904971921056],[-73.97191518725322,40.608935921691035],[-73.97299433938896,40.60881414180244],[-73.97302656047295,40.60898247664067],[-73.97321774848459,40.60998138579153],[-73.97348373498829,40.61137106120137],[-73.97370603828792,40.61257237085663],[-73.97394709357968,40.61379592800394],[-73.97399319461375,40.6140298942427],[-73.97405679308974,40.614028494502655],[-73.97412253707182,40.61401317305552],[-73.97418240187262,40.61398321777292],[-73.9742285162174,40.61394146115351],[-73.9742562563154,40.61389353282495],[-73.97426560994198,40.61384556469095],[-73.97489295756635,40.61318636891679],[-73.97497264598458,40.61366811017186],[-73.97682678945127,40.61477640190379],[-73.97905795790841,40.61612583659526],[-73.9812863830633,40.617470905421165],[-73.98273635800953,40.61834597947213],[-73.98348872564605,40.61880002426253],[-73.98569357824172,40.620131514950366],[-73.9878509553418,40.62143503244081],[-73.99009356051286,40.622788953343225],[-73.99254973616581,40.62427426877941],[-73.9939819708341,40.625141399050705],[-73.9947348567926,40.62561474110618],[-73.99511839311529,40.625726750966315],[-73.99549402502971,40.62585596460063],[-73.99585979173715,40.62600184089762],[-73.99621378473473,40.626163696370796],[-73.99655425884932,40.62634065439817],[-73.99687957835846,40.62653171591357],[-73.99718175275436,40.62671015583646],[-73.99831417528807,40.62738822838101],[-73.99939526791151,40.628028727026205],[-74.00162696812829,40.6293467864135],[-74.00377316323129,40.63071164596764],[-74.00600564098906,40.632016803357196],[-74.00661914893834,40.63237545808709],[-74.00912271927952,40.63388828023947],[-74.00930768723725,40.63400051478155],[-74.00949706743778,40.63410839447156],[-74.00969068329697,40.634211818707236],[-74.00988835427822,40.63431069104082],[-74.01008989606079,40.6344049192689],[-74.0102951207119,40.6344944155186],[-74.0105038368618,40.63457909632956],[-74.01027592444945,40.634800356116095],[-74.0101605734606,40.63491233825149],[-74.00955708305906,40.63549296413139],[-74.00895274406129,40.6360750812268],[-74.00837574781073,40.63663655762908],[-74.00778794382022,40.63719552879023],[-74.00720591287717,40.63775458198973],[-74.00662259524054,40.638314801631246],[-74.00604152680452,40.63887733424158],[-74.0054578234326,40.63943513585008],[-74.00487632070713,40.63999546454977],[-74.00429409898884,40.640556240282116],[-74.00371245858135,40.641115851538316],[-74.00312513379367,40.64167454158158],[-74.00254486979036,40.64223575962091],[-74.00195978397325,40.64279873868586],[-74.00137990104463,40.643356753658516],[-74.00079787001887,40.64391754716082],[-74.00021421421059,40.64447829999145],[-73.99963885985323,40.645041887278815],[-73.99904773030764,40.64559734589585],[-73.99846577843914,40.6461592271117],[-73.99788285745254,40.64671852907926],[-73.9973004251067,40.6472720195274],[-73.99702216256632,40.64753779178646],[-73.9968137296386,40.64771042427891],[-73.99625314445768,40.64817497623408],[-73.99604565308663,40.64834065492914],[-73.99392923789003,40.647069311232435],[-73.99180823482305,40.645783969112216],[-73.98905872393608,40.64411924103938],[-73.98834986671028,40.64456224388744],[-73.98528412743582,40.64576793872965],[-73.98307340139965,40.64662513470518],[-73.98230939759495,40.64692740380854],[-73.98180533857207,40.647127799262464],[-73.98132887705177,40.64718167270774],[-73.98029115543184,40.647297161431545],[-73.97911821943032,40.647428061256434],[-73.9781907435932,40.647525991511316],[-73.97726311100377,40.64762733652312],[-73.97633535464323,40.64772614217141],[-73.97527213435491,40.64783060457004],[-73.97517314597343,40.64781762509718],[-73.97503525982486,40.64780339420956],[-73.97495873314375,40.64779549787862],[-73.9748640363946,40.64778572389041],[-73.97472847878824,40.64777370937571],[-73.97465714349822,40.64776437290626],[-73.97350396859792,40.64759568055644],[-73.97338805092986,40.6475809570363],[-73.9733878268144,40.64758092950979],[-73.97338760202814,40.64758092945778],[-73.9732670673364,40.64758307216717],[-73.97326689005877,40.64758307212597],[-73.9732667358651,40.647583098392076],[-73.97314769453953,40.64760290115232],[-73.97314760017498,40.64760291872078],[-73.973147506463,40.64760295438241],[-73.97303668748478,40.64763933687824],[-73.97303651018548,40.64763939011068],[-73.97303635530953,40.6476394713256],[-73.97293902131746,40.647689679648416],[-73.97229870705819,40.647942482036804],[-73.97139631688152,40.648257786114264]]]]}}]}