{"type":"FeatureCollection","features":[{"type":"Feature","properties":{"district":"108"},"geometry":{"type":"MultiPolygon","coordinates":[[[[-73.94180032729426,40.769046926624874],[-73.94256806142144,40.76850590573169],[-73.94285528620705,40.76830349440948],[-73.94321923520107,40.76789264385337],[-73.94381427322762,40.767220912050064],[-73.94422343089225,40.766664977889995],[-73.9448402665221,40.76582362839098],[-73.94623787959827,40.76428501454993],[-73.94657165080055,40.76391755826108],[-73.94662141408685,40.763862772081126],[-73.9468246022838,40.763617633234624],[-73.94708876929523,40.76329892108695],[-73.94788268389203,40.76236569759217],[-73.94792979664216,40.762310316259956],[-73.94832459591146,40.76184623000167],[-73.9487778940647,40.76131457086531],[-73.94914738541928,40.7608812159893],[-73.94943175563205,40.76054861736164],[-73.94971226700021,40.76032891738497],[-73.95008262637685,40.760047470463476],[-73.95033358814476,40.759856755553756],[-73.95126005908772,40.75881011637192],[-73.95148626283064,40.7586664553521],[-73.95171190411023,40.75846249420154],[-73.95177822025997,40.75840254987715],[-73.9520923302263,40.75799314034503],[-73.95217663423699,40.75783133644015],[-73.9522114634206,40.75758363983309],[-73.95254079336877,40.75709531453745],[-73.95312156546173,40.75652380482729],[-73.95322009963168,40.75642684181784],[-73.95326888610992,40.75638104410349],[-73.95330696035853,40.75634432712769],[-73.95334556462879,40.75631137566757],[-73.95340583051988,40.75625853187739],[-73.95409527736307,40.75565492894557],[-73.95507326928161,40.75479868255497],[-73.95519503183567,40.754774523476385],[-73.9557941523772,40.75416154740884],[-73.95692404304612,40.75296116039393],[-73.95721003531293,40.75271535683181],[-73.95791452493187,40.75210985452551],[-73.95860755756425,40.751613323987094],[-73.95868495443514,40.7515737774219],[-73.9590324860946,40.75138642277138],[-73.95902757442488,40.75129736985114],[-73.95955875930795,40.75081459776215],[-73.95990187081871,40.75055851535377],[-73.96039170572536,40.750256186117475],[-73.96081286928421,40.74990061693904],[-73.96083011440315,40.74988767837],[-73.96084435963932,40.74987277729055],[-73.96085522489496,40.74985631130017],[-73.96087762061714,40.749827570773746],[-73.96090586297596,40.74980198194594],[-73.9609392003413,40.749780225821276],[-73.96095994787893,40.74976641305419],[-73.96098341649387,40.74975540364507],[-73.96100895824021,40.74974750155263],[-73.96103586793579,40.74974292494553],[-73.96106340263144,40.74974180017923],[-73.9610908021226,40.74974415830736],[-73.96111730993758,40.749749934224404],[-73.96114219422249,40.74975896846325],[-73.96116476794676,40.749771011597744],[-73.96132845481047,40.74960095762467],[-73.96153855464473,40.749723119840674],[-73.96138656171422,40.74988050283607],[-73.96140909889691,40.74989974574011],[-73.96142702682998,40.74992161262421],[-73.96143982789111,40.749945472144844],[-73.96144713248036,40.7499706354261],[-73.96144427028229,40.74998853329439],[-73.96143797780489,40.75000591637867],[-73.96142839190829,40.75002240659329],[-73.96141572108549,40.750037645272336],[-73.96140024092799,40.7500513009709],[-73.96138044746658,40.750063516289515],[-73.96136340132804,40.750077929797804],[-73.96134951969928,40.75009418874145],[-73.96111060141877,40.7506004699009],[-73.96068557958185,40.75120193696811],[-73.96001132395902,40.751831517335226],[-73.9598906175869,40.75209747762284],[-73.95957156605824,40.7528047159003],[-73.95950079995129,40.75295638169334],[-73.9590161662748,40.753595059957576],[-73.95892671120951,40.753562492361596],[-73.95845836805675,40.753949236505065],[-73.95768072860075,40.75482196116583],[-73.9568947695998,40.75570399582663],[-73.95646348773006,40.75618798254583],[-73.95598563410063,40.75672422530528],[-73.95565513164131,40.757095105725995],[-73.95559286273466,40.75722280017375],[-73.95556724766547,40.75725766668642],[-73.95553464377036,40.75729603446851],[-73.95550425524475,40.75733345607273],[-73.95544904151345,40.75739555553165],[-73.95534193818226,40.75752113556847],[-73.95499406068451,40.75792901965761],[-73.95390795119141,40.75920087485093],[-73.95384294876447,40.75923894538794],[-73.95378145676383,40.759323082228555],[-73.95374760585473,40.75936393792611],[-73.95366241810713,40.75947973411368],[-73.95361272256534,40.759502149014324],[-73.95332321617923,40.75974596468759],[-73.95339140733955,40.75979676235788],[-73.95312451504947,40.76005275842971],[-73.9529778821611,40.75996210737449],[-73.95248457912031,40.760460110515474],[-73.95208632266514,40.76086215490759],[-73.95187667298384,40.76124558279821],[-73.9516250497398,40.76167886360593],[-73.95097191594412,40.76249450750771],[-73.95093734928088,40.762570495237995],[-73.95073068782703,40.76275822543396],[-73.95037548074446,40.76317384507802],[-73.94997191750257,40.763646030317226],[-73.94920376022777,40.76426964383294],[-73.94908628791565,40.76426402727513],[-73.94881315316405,40.764610754468876],[-73.94770109012802,40.76602239732533],[-73.94655273893119,40.76736820506423],[-73.94591458905606,40.768213939018864],[-73.94585112333094,40.768247750235716],[-73.9458445142382,40.76832122825158],[-73.94575361333564,40.76830167142723],[-73.94570357268658,40.768327934311664],[-73.94559658535877,40.768470865005284],[-73.94548114289289,40.76862477943799],[-73.9456272109345,40.768692953179055],[-73.94556302048748,40.76880177602729],[-73.94540491850024,40.76873217303875],[-73.9453820817897,40.768763203048],[-73.94524510341354,40.768773268310575],[-73.94515704221519,40.769118317751854],[-73.94509065794169,40.7692137208156],[-73.94472353220708,40.769734058381616],[-73.94472478497455,40.769786271535025],[-73.9446729328337,40.76981996805356],[-73.94456161517566,40.76988639592755],[-73.94427007063555,40.77014053525487],[-73.94400423956336,40.770293982151],[-73.94320414114229,40.7709923997488],[-73.94281710960279,40.77141086070245],[-73.94257830301011,40.771701856718664],[-73.94212674646828,40.7720347005096],[-73.94136990742406,40.772309150827894],[-73.94088707211625,40.772372516278764],[-73.94056957420625,40.77261475896431],[-73.94027460921222,40.77294743739572],[-73.94017959804104,40.77295931559457],[-73.94007665751654,40.77292618635813],[-73.94001157258354,40.772842360552765],[-73.94018451224514,40.77256490680435],[-73.94028207924197,40.7723014069914],[-73.94027766722355,40.77171314173969],[-73.94020021779653,40.77112830566291],[-73.94022870389077,40.77085226166454],[-73.94027985829325,40.77067071100996],[-73.9403553347751,40.770496574371236],[-73.940826053003,40.76991215676575],[-73.94111778718026,40.76941440857483],[-73.94121934173002,40.76933434312249],[-73.94125975382602,40.76930887939284],[-73.94180032729426,40.769046926624874]]],[[[-73.93804640603439,40.7808295442757],[-73.9379013362394,40.78074999617273],[-73.93779448726416,40.78078125875562],[-73.93779944179563,40.78103133979683],[-73.93764631821483,40.781001215893035],[-73.93765365963812,40.78079000755298],[-73.93759894622623,40.78046784086164],[-73.93779269036342,40.78035790421251],[-73.93823773509402,40.780259079465516],[-73.93839622591739,40.780262433391364],[-73.93861200821945,40.780338955869134],[-73.93923746178234,40.77973339405857],[-73.939318219876,40.77971800182705],[-73.93953015793254,40.779527620260666],[-73.93958378972476,40.77957647400733],[-73.93943238100775,40.779812200274776],[-73.93949329752056,40.7798736913156],[-73.93937515379676,40.7799787718494],[-73.9393052849678,40.779951224552285],[-73.9392178962528,40.78001352022164],[-73.93872802926595,40.780510743704774],[-73.93883951845037,40.78059924980004],[-73.9388286341011,40.78076345123038],[-73.93874423089275,40.78104387604242],[-73.93830097951646,40.78136208436519],[-73.93808213268714,40.78141843777737],[-73.93796757721645,40.78128933406044],[-73.93804948921756,40.78105580604264],[-73.93806723089932,40.78094470269827],[-73.93804640603439,40.7808295442757]]],[[[-73.94383256609905,40.782859089475124],[-73.94376005340628,40.78282893171762],[-73.94363201793948,40.78296232368589],[-73.94356979719893,40.782923078071036],[-73.9435442071252,40.78288052382281],[-73.94364823539011,40.78265616133344],[-73.94388068102455,40.781532043364535],[-73.94387075988708,40.781273026571775],[-73.94371468850565,40.78062981552904],[-73.94360047475412,40.780159099466346],[-73.94343876735986,40.77976324196603],[-73.94246425347032,40.78003250004437],[-73.94245164079229,40.78003430168433],[-73.94243881234526,40.78003457368873],[-73.94242608715956,40.780033309293096],[-73.94241378169747,40.78003053994164],[-73.94240220198307,40.78002633450528],[-73.94239163599177,40.780020797568895],[-73.94238234648849,40.78001406683028],[-73.94237456449305,40.780006309675954],[-73.94236848353493,40.77999771901812],[-73.94236425484041,40.77998850849729],[-73.9421202220567,40.77947255637259],[-73.94211585211751,40.77946438174761],[-73.94211320944687,40.779455789679886],[-73.94211235847256,40.77944698964448],[-73.94211331994062,40.77943819618646],[-73.94211607040975,40.77942962369055],[-73.94212054282282,40.77942148115429],[-73.94212662814175,40.77941396709273],[-73.942134178006,40.77940726469866],[-73.94214300834957,40.77940153737634],[-73.9427297339572,40.77925724765569],[-73.94271884616596,40.77920845248203],[-73.94271719257608,40.77915897634143],[-73.94272480674314,40.779109823845616],[-73.94274153404183,40.779061993032556],[-73.94276703480712,40.779016455101406],[-73.94280079138252,40.778974134422896],[-73.94284211823455,40.77893589059344],[-73.94289017621892,40.77890250014509],[-73.94294398952175,40.77887464106211],[-73.94300246547327,40.77885287901502],[-73.9426553074297,40.77812496557434],[-73.94245741056957,40.77740747334814],[-73.94229506198639,40.77733196248331],[-73.9422805004479,40.7773474382288],[-73.94231968904005,40.777452519267236],[-73.94236333715754,40.77744701092432],[-73.94245545698132,40.77774786433379],[-73.94242853953916,40.777752827567355],[-73.9424249119559,40.77774232006625],[-73.94238999173223,40.77774727878945],[-73.94235943486034,40.777753899191865],[-73.94236233471005,40.77776495916501],[-73.94233541821181,40.77776881637426],[-73.94224111393387,40.77747017411584],[-73.94228549380644,40.77746024282696],[-73.94224050534213,40.77733414682119],[-73.94225579604492,40.77731646027752],[-73.94211982454031,40.77725556641191],[-73.94218537013923,40.777163808762445],[-73.94230970713218,40.77721971988089],[-73.94229368333204,40.77724293624799],[-73.94243403895558,40.77730046148639],[-73.94242964535687,40.777288948951806],[-73.9423378939154,40.77724890117783],[-73.94238467141948,40.77717109710218],[-73.94232882921817,40.77715521622072],[-73.9422762272684,40.777133879410954],[-73.94222778317057,40.77710745887845],[-73.94218434199162,40.777076415510265],[-73.9421466615231,40.7770412908348],[-73.94211539906212,40.77700269757488],[-73.94209109994581,40.77696130895903],[-73.94207418803877,40.776917846977256],[-73.94200266722274,40.7761853173829],[-73.94208160457377,40.77595701631722],[-73.9424010094905,40.775726927526314],[-73.9425876964068,40.77521895652824],[-73.94293043781397,40.77467626803599],[-73.9433389475049,40.774211192590826],[-73.94366431814802,40.77384076417699],[-73.94396084370877,40.773530420092115],[-73.94436393440742,40.77310853879255],[-73.94487889596707,40.772569562007455],[-73.94561514012511,40.77194302658784],[-73.94640418919069,40.77126904561942],[-73.94690764133767,40.77073391172373],[-73.9474897545637,40.77011515401921],[-73.94808633406548,40.76947479321901],[-73.94866416477923,40.76885762389705],[-73.94908536768654,40.76827827079586],[-73.94937332131504,40.76788219105455],[-73.949579120714,40.76762893017974],[-73.950069793031,40.76702508788092],[-73.9506634515425,40.76638071134955],[-73.95122497666563,40.76577119897362],[-73.95176480900405,40.76516371184333],[-73.95230963181133,40.764554288606185],[-73.95336559963583,40.76336817091186],[-73.95441826078606,40.76218410495124],[-73.95573621640321,40.761024392847766],[-73.95587222339073,40.76090471211576],[-73.9563091763419,40.7605083675544],[-73.9563331896777,40.76048658556405],[-73.95697841727663,40.75989675394356],[-73.9573173758794,40.759592212256734],[-73.9575986944528,40.759342318257964],[-73.95763772742102,40.75930673989846],[-73.95800496616825,40.758971999629495],[-73.95818604432436,40.75881172025356],[-73.95824543566668,40.75875900865984],[-73.95833351948285,40.75868387955003],[-73.95835374983784,40.75866662516292],[-73.95842620189634,40.75860387250446],[-73.95845501743894,40.75858090219769],[-73.9584911954165,40.758545903830644],[-73.95854329679058,40.75849562293599],[-73.95877790822699,40.758270920848915],[-73.9588241029678,40.758289871651904],[-73.95886358869814,40.75830607043782],[-73.95893448513704,40.75833515544863],[-73.9590368100845,40.75838378260468],[-73.95972180418647,40.75866306368172],[-73.9619657361163,40.75961946078565],[-73.963080735949,40.76008316374067],[-73.96355618932155,40.76028081858233],[-73.96431353631321,40.76059923135073],[-73.96658338422257,40.76155093557674],[-73.96818687803611,40.76222682132609],[-73.96968801164796,40.76286596294343],[-73.96980028891755,40.76291351212802],[-73.9699048927902,40.76295804222647],[-73.97141141689832,40.763587473697456],[-73.97301487176121,40.76427887944539],[-73.97255352295763,40.764897731723536],[-73.97209852444364,40.765517251227706],[-73.97164774268217,40.766142468472715],[-73.97118520913487,40.766770290172396],[-73.97072777348474,40.767393722918754],[-73.9702816550227,40.76802503242986],[-73.96982455287815,40.768646008821015],[-73.96951605177428,40.76906520042466],[-73.96936484546562,40.7692706568231],[-73.96890454710338,40.76990083179129],[-73.96844155867278,40.770516326873036],[-73.96799327710906,40.77114723095265],[-73.96753398378264,40.771776183984],[-73.96703947579951,40.772461218816595],[-73.96653616947097,40.7731403685902],[-73.96607449041005,40.77377298910032],[-73.96560968621523,40.77440720144561],[-73.96514745374779,40.77504423208994],[-73.9646873584175,40.775677081715564],[-73.96422820174044,40.77631030918275],[-73.96376123785093,40.7769509699348],[-73.96372602608056,40.77700571789986],[-73.96322991911046,40.77767704736204],[-73.96313459803564,40.777808051278384],[-73.9627671555966,40.7783130408889],[-73.96230361413733,40.77894704120479],[-73.96183836839737,40.779584192196204],[-73.9613687269495,40.78022974904778],[-73.96091016072222,40.780857035524264],[-73.96041430653959,40.78152426780507],[-73.95992094220061,40.78221294400485],[-73.95946905991516,40.782833321664626],[-73.9590117668133,40.783461284635216],[-73.95856810077655,40.7840834440401],[-73.95810353444206,40.78471300473148],[-73.95763599389831,40.78534345782142],[-73.95716243390657,40.78597963825983],[-73.9567186299825,40.786600793824505],[-73.95626130919653,40.787222876280055],[-73.95577735912323,40.78791392447124],[-73.9541647699251,40.78722756357664],[-73.95371344994473,40.78703758552666],[-73.95341646690392,40.78691257113931],[-73.95266136728152,40.78659502012717],[-73.95255145469038,40.78654858066234],[-73.9524643016674,40.78651043142103],[-73.9522294760314,40.786411550232025],[-73.9512967085309,40.78602007486535],[-73.95092812788256,40.785865380172865],[-73.95033804130387,40.78561715001334],[-73.94933170560994,40.78519312605522],[-73.94877626223455,40.784958235926915],[-73.94784346036975,40.78456375556601],[-73.94708951916724,40.78424490579509],[-73.94644497283197,40.78397317857834],[-73.94592185993743,40.78375279835489],[-73.94472264526928,40.78324757264161],[-73.9446466599195,40.78321787380293],[-73.94405439380215,40.782964358046065],[-73.94395460163143,40.78291551965141],[-73.94389324605929,40.7828877273327],[-73.94383256609905,40.782859089475124]]]]}}]}