{"type":"FeatureCollection","features":[{"type":"Feature","properties":{"district":"17"},"geometry":{"type":"MultiPolygon","coordinates":[[[[-73.90755209573506,40.65118592573089],[-73.90849084284662,40.650586418622865],[-73.90914890023973,40.65017604273967],[-73.90922162770974,40.65013103856148],[-73.91006956767534,40.64955721032333],[-73.91081969418929,40.64907782771084],[-73.91136110205001,40.6487290613687],[-73.9114921263236,40.64863874956476],[-73.91223369066488,40.64815475848349],[-73.91278827610014,40.647807867918225],[-73.91293697549592,40.64770584439535],[-73.91372670686751,40.64719628662698],[-73.91458949317447,40.64663871714842],[-73.91525259516742,40.64621782821369],[-73.91593086243834,40.645774695238146],[-73.91776701505131,40.64432749455714],[-73.91859423162508,40.64367547673771],[-73.91973737048185,40.64277814784317],[-73.9202580235395,40.64236629856838],[-73.92154948087587,40.64134469189269],[-73.9232982444733,40.63992322116602],[-73.9237287626336,40.639601247004],[-73.92383547840977,40.63952658427257],[-73.92417359771856,40.639290021586376],[-73.92463204450304,40.63899009260667],[-73.92510335013449,40.63870196015556],[-73.92558673719881,40.63842609901888],[-73.92608134655461,40.638162946412585],[-73.92675515667787,40.63781217109635],[-73.92764015407583,40.63735144341359],[-73.9287811084919,40.63675744479599],[-73.92958456722086,40.63634177439411],[-73.93102776832177,40.63559510332656],[-73.93154812489313,40.635325877722195],[-73.93223554834401,40.6349633387564],[-73.9333791512903,40.63436759421485],[-73.93430510295937,40.63388557393137],[-73.93520993046488,40.63341406277532],[-73.93610411625623,40.63295895402752],[-73.93641197134207,40.63281029076521],[-73.93703669055436,40.632509250074165],[-73.93759273570485,40.63226785699933],[-73.93801453737316,40.63209046662803],[-73.9385171651273,40.631923213733565],[-73.93883188811063,40.63182834662471],[-73.93902772315619,40.63176911920424],[-73.93954518829926,40.6316284442442],[-73.93966969804319,40.631598310931835],[-73.9397372201333,40.63158164876273],[-73.94001702678737,40.63151260608496],[-73.94047742238963,40.63141247324634],[-73.94058075792665,40.6313929601884],[-73.9407095754807,40.63136863820393],[-73.94102889269985,40.63130958741556],[-73.94167156932946,40.63120879060193],[-73.94262391392503,40.631101784416124],[-73.94357308777073,40.630994155631576],[-73.94453642924181,40.63089479573046],[-73.9455109552195,40.63079148290151],[-73.94561754711685,40.63177743031242],[-73.9458677359317,40.63411754815999],[-73.94680515945916,40.63405883936474],[-73.94777330394353,40.633998156194906],[-73.94801466011313,40.636266952382535],[-73.94826499656885,40.638607189706995],[-73.94923295697032,40.63854767390111],[-73.95017090095527,40.6384850857479],[-73.9511598853806,40.63841789940738],[-73.95213661116466,40.638425841182524],[-73.95307885272828,40.63842797416122],[-73.95360004719379,40.638422347450195],[-73.95374853778434,40.63858633808825],[-73.95394172535894,40.638494724942056],[-73.95404358590126,40.6388775491904],[-73.95412641170893,40.639161299282826],[-73.95417718045795,40.63963229969406],[-73.95428061299627,40.64058938472024],[-73.95452484175644,40.64288758747898],[-73.95466563951264,40.6441967443031],[-73.95473024770416,40.64477257836185],[-73.95565196240852,40.64663041014475],[-73.95573651232912,40.64786899688712],[-73.95576232853121,40.648643289987184],[-73.95579083018555,40.649522989826764],[-73.9558251843973,40.65052980807902],[-73.9559067073487,40.651368833934974],[-73.95601055746941,40.652314272912236],[-73.95603783174761,40.65270122077141],[-73.95610825604494,40.65324474974631],[-73.95616409698486,40.653776519308146],[-73.95630035122711,40.65504828183134],[-73.95295919995513,40.65524930040045],[-73.95006664927287,40.65542299720076],[-73.94715896323054,40.65559378777378],[-73.94507909388349,40.65572204654112],[-73.94487284404424,40.65573476160182],[-73.94428788803422,40.65577005436381],[-73.94365193204968,40.65580978095562],[-73.94335488899219,40.6558283358871],[-73.94240147928623,40.6558848110927],[-73.94146260988943,40.655944248532585],[-73.94053214686076,40.65600153896532],[-73.93955925377138,40.65606275324829],[-73.9385934899821,40.65612237879505],[-73.9382040380815,40.65614801512509],[-73.93767482031006,40.656185167773],[-73.9371206387431,40.65621590309004],[-73.93668469506126,40.656241823301066],[-73.93617927816034,40.65627397257243],[-73.93571813327273,40.6563032967299],[-73.93478437377982,40.65636039508746],[-73.93381012074782,40.65642299267518],[-73.93284657358834,40.65647848205208],[-73.93190743894837,40.65653765254316],[-73.93090354932272,40.65661035598434],[-73.93108323098912,40.658295916036465],[-73.93132569780049,40.660593307024705],[-73.93140679378538,40.66133050833964],[-73.93147991420611,40.66205110995426],[-73.93155638854243,40.66275540392995],[-73.93160218672786,40.663230444400774],[-73.93068465493135,40.663620476270374],[-73.92987364827336,40.66399077252846],[-73.92940352909386,40.66419984576851],[-73.92916752203725,40.66429953215209],[-73.92905235465467,40.66435100704277],[-73.92872204594605,40.664495569685464],[-73.92822872379762,40.664709865186474],[-73.92771188941798,40.66493432799188],[-73.92739350021706,40.6650747161543],[-73.92637970549224,40.66551489264436],[-73.92592201549634,40.66571503520167],[-73.92546270195405,40.66591675199176],[-73.92439099384752,40.666381423278004],[-73.92434090930465,40.66630944999005],[-73.92428631415888,40.666239404445335],[-73.92422733607837,40.666171450424066],[-73.92416411290085,40.666105746819646],[-73.92409679254186,40.666042447258924],[-73.92402553241969,40.665981699747505],[-73.92318216244207,40.6652260197063],[-73.92287860200528,40.66495209942512],[-73.92209902558534,40.6642513320838],[-73.92165571659791,40.66384357516782],[-73.92105081749146,40.663313856038634],[-73.92077834190044,40.663075239081664],[-73.92011326171593,40.66245910456832],[-73.91973128815404,40.662123350770976],[-73.91959479824045,40.661995679790735],[-73.91945727792728,40.661880785292624],[-73.91920451043306,40.66165520014907],[-73.91893607368587,40.661416011176335],[-73.91860168163767,40.66111804860716],[-73.91818493104374,40.66072620891572],[-73.91741819283509,40.660051192101506],[-73.91707363502475,40.65974535396352],[-73.91572803769873,40.65855012827697],[-73.91556629612182,40.65839257171841],[-73.91441247690435,40.6573624197938],[-73.91402878145264,40.65700370958772],[-73.91377943741749,40.65678367971154],[-73.9131435625853,40.65622086404799],[-73.91236458896573,40.65551356524955],[-73.91218860289018,40.65533965935298],[-73.91189477077549,40.65507328622617],[-73.91105779342742,40.65431590053127],[-73.91097757827748,40.654227785788926],[-73.91093487182496,40.65417328041059],[-73.9108433063198,40.654102500481365],[-73.91067316848012,40.65400683246462],[-73.91014414233533,40.65352115917434],[-73.90960604860783,40.65304729591472],[-73.90933499313002,40.652808592144346],[-73.90855790522765,40.652095937794705],[-73.90804711498413,40.6516122768855],[-73.90755209573506,40.65118592573089]]]]}}]}