{"type":"FeatureCollection","features":[{"type":"Feature","properties":{"district":"10"},"geometry":{"type":"MultiPolygon","coordinates":[[[[-74.03231084300101,40.64403921448056],[-74.03200953327242,40.64385780804781],[-74.0260978912957,40.640270020325566],[-74.02572377067463,40.64063051910817],[-74.0246637094884,40.639983386446204],[-74.0246145327845,40.63995336466105],[-74.02457354910433,40.63992393499258],[-74.0235493915473,40.63932033369248],[-74.02351787245728,40.63944477391482],[-74.02348203738603,40.639533212808395],[-74.0234682183412,40.63956733547959],[-74.02340085362948,40.6396857318487],[-74.02331683024384,40.639797781725036],[-74.02321780213282,40.63990151460377],[-74.02310593208485,40.63999532592702],[-74.02297009390854,40.63993460447871],[-74.02261098612834,40.63970852832788],[-74.02192439742763,40.639284859693454],[-74.02175432566469,40.6391813932468],[-74.021649467277,40.63911769509415],[-74.02159810794657,40.63908649537246],[-74.02156036829443,40.63898284334307],[-74.02151645488833,40.638880612190235],[-74.02146645936627,40.63878001518331],[-74.02141048605306,40.63868126218163],[-74.02134865189356,40.63858455941548],[-74.02128108577594,40.638490108391736],[-74.02120792867426,40.63839810614532],[-74.02112933322414,40.63830874460187],[-74.0210873117535,40.63826358797869],[-74.02105298694697,40.638226691597914],[-74.02101610031087,40.638189603184756],[-74.02085878479735,40.638041788783816],[-74.02058750348559,40.6378151600774],[-74.02029291686243,40.637597352702905],[-74.02005721735024,40.637437238496176],[-74.01971293794588,40.63723148291321],[-74.01955318166183,40.6372013433339],[-74.01931103340429,40.637097805909235],[-74.01878323392015,40.63696028509305],[-74.01606790798363,40.6361384505924],[-74.01324489560533,40.635397474106256],[-74.01106909346672,40.63474106367144],[-74.0105038368618,40.63457909632956],[-74.0102951207119,40.6344944155186],[-74.01008989606079,40.6344049192689],[-74.00988835427822,40.63431069104082],[-74.00969068329697,40.634211818707236],[-74.00949706743778,40.63410839447156],[-74.00930768723725,40.63400051478155],[-74.00912271927952,40.63388828023947],[-74.00661914893834,40.63237545808709],[-74.00600564098906,40.632016803357196],[-74.00377316323129,40.63071164596764],[-74.00162696812829,40.6293467864135],[-73.99939526791151,40.628028727026205],[-73.99831417528807,40.62738822838101],[-73.99718175275436,40.62671015583646],[-73.99748785698755,40.62642500515775],[-73.99753573780049,40.626376711024456],[-73.99811614328407,40.62581570660978],[-73.99869695233636,40.625256591640685],[-73.99932090284946,40.62465524684672],[-73.99994664989222,40.62405062260497],[-74.0005298749299,40.62348993908324],[-74.00120222368227,40.62284271235216],[-74.00169380156665,40.62237242731982],[-74.00227586285989,40.62181427442718],[-74.00285701640152,40.62125364333965],[-74.0034355710265,40.62069540384782],[-74.00401906907375,40.620136189069214],[-74.00459906977372,40.61957685399833],[-74.005226659917,40.61897315402672],[-74.00585319934184,40.61837047726071],[-74.00643394992089,40.617814716902075],[-74.00701531620906,40.61725394643729],[-74.00759806889573,40.61669446086947],[-74.0081768755106,40.61613318070651],[-74.00876039994881,40.61557582344332],[-74.00934164498163,40.61501509604001],[-74.00992371993065,40.6144566426457],[-74.01050403587408,40.61389661149268],[-74.01108648104116,40.61333904420242],[-74.01171201555734,40.61273502918771],[-74.01348255916146,40.61103739791978],[-74.01522379433108,40.60935638411863],[-74.01701910154738,40.60765441697132],[-74.01623636729718,40.607233266100515],[-74.01549855009637,40.60684152427709],[-74.01640553068873,40.605975924814146],[-74.0167128387583,40.605682635356004],[-74.01728366756804,40.60513782469678],[-74.01746711446849,40.60496510432649],[-74.01750868597117,40.60485049723541],[-74.0180470260697,40.60436573512649],[-74.01811904973299,40.604315222826855],[-74.01817646660614,40.60425260881753],[-74.01821458630195,40.60418195778382],[-74.0182314505144,40.60410847250324],[-74.01866021768471,40.603641067592044],[-74.01869135774193,40.603607923939485],[-74.01871382289137,40.60358207590745],[-74.01894568802875,40.603367925699295],[-74.01915724480382,40.60317253077403],[-74.01916274038274,40.60316602520595],[-74.01923150391279,40.60310217424779],[-74.0193934357128,40.602911761281874],[-74.0194276088975,40.60287157834816],[-74.01974772844801,40.603084809264054],[-74.02010437562551,40.60325955247415],[-74.02024692223921,40.60332431782408],[-74.02039384996725,40.60338312117997],[-74.02054472997116,40.603435790907916],[-74.02069912187345,40.60348217327639],[-74.02085657504311,40.603522132905056],[-74.0210166299113,40.60355555315983],[-74.02117881931306,40.603582336493766],[-74.02134266985124,40.60360240473147],[-74.0215077032786,40.60361569929768],[-74.02514668248197,40.60408312423013],[-74.02930882862748,40.60459906406205],[-74.03005146547684,40.604759173812155],[-74.03088511216583,40.60518456425581],[-74.03101612271284,40.60525141411537],[-74.0314347165998,40.60552946630835],[-74.03179633794443,40.60578027459612],[-74.03186039997438,40.60581118472883],[-74.03213159551292,40.60590183576185],[-74.03270681479886,40.60633106603828],[-74.03359224082007,40.607082607439054],[-74.03378350679247,40.60725435038877],[-74.03427280539475,40.60771747873311],[-74.03435536039288,40.60782297440836],[-74.03443004629568,40.607931823169146],[-74.03449662936791,40.608043684421745],[-74.03453929685789,40.608140555354716],[-74.03459014037335,40.60823510640905],[-74.03464894467565,40.60832693725293],[-74.03471546081694,40.60841565907039],[-74.0347894071938,40.608500896207744],[-74.0348704707392,40.608582287764214],[-74.03495830824764,40.60865948912028],[-74.03505254782827,40.60873217339692],[-74.03515279047912,40.60880003283992],[-74.03525861177654,40.60886278012316],[-74.03530371251443,40.608888235268815],[-74.03535170243836,40.60891041067561],[-74.03540217219026,40.60892911718428],[-74.03547715433687,40.60894504876072],[-74.03554940978863,40.6089671168762],[-74.03561807676482,40.60899505832829],[-74.03568233628101,40.60902853986399],[-74.0357414219166,40.60906716215405],[-74.03579462895556,40.60911046455553],[-74.03603977777915,40.60929563900205],[-74.03608058166905,40.60934688638764],[-74.03611335501405,40.609394728909685],[-74.03621010285705,40.60960104112298],[-74.03629809448002,40.60980961795043],[-74.03637723876487,40.610020243599706],[-74.03644745374464,40.6102327001567],[-74.03650866668839,40.61044676781098],[-74.03656290095381,40.61058758657687],[-74.03662541023509,40.61072639886764],[-74.03669606747658,40.61086292242137],[-74.03677472905194,40.610996879628416],[-74.0368612350558,40.61112799809598],[-74.03695540962869,40.61125601120198],[-74.03705706131423,40.61138065863749],[-74.03716598344825,40.61150168693606],[-74.03728195457877,40.61161884998929],[-74.03740473891611,40.611731909547416],[-74.03753408681219,40.61184063570388],[-74.03882022560322,40.61295794088219],[-74.03902502184346,40.613158975948416],[-74.0398880374241,40.61434977869249],[-74.04013092584209,40.61479191116805],[-74.04023427278447,40.615028256649474],[-74.04038132338678,40.61534178232858],[-74.04047612021486,40.615625263161675],[-74.04072760517819,40.617050416395486],[-74.04086140769255,40.617630765787744],[-74.04101750654694,40.618307805524886],[-74.04112777288302,40.61878605611317],[-74.04137522891591,40.61999355296541],[-74.04143385992238,40.620083282106364],[-74.04148540016214,40.620175504177034],[-74.0415296679683,40.62026989417012],[-74.04156650730131,40.620366119436724],[-74.04159578829919,40.62046384085859],[-74.04161740773569,40.62056271404332],[-74.04162219765456,40.62066875807819],[-74.04162336891531,40.62077486115033],[-74.04161785573041,40.62094225903249],[-74.04160333811463,40.621109343823086],[-74.04157984042502,40.62127583441767],[-74.04159968131135,40.62146631518398],[-74.04167119741669,40.62209180591925],[-74.04174932346254,40.62245699566966],[-74.04169490179855,40.622802456228534],[-74.04170832517205,40.62324493419525],[-74.04171015812469,40.62330532061198],[-74.04175794012133,40.62342832085473],[-74.04179876819072,40.623552766844384],[-74.04183256744581,40.62367843044059],[-74.041859275884,40.623805081269595],[-74.0418788445011,40.623932487146405],[-74.0418912373814,40.62406041450054],[-74.04189643176389,40.62418862880417],[-74.04189660705046,40.62421743028191],[-74.04189435982956,40.624318218941575],[-74.04188766361109,40.62441889293938],[-74.04187652595631,40.62451933829408],[-74.0417566930148,40.62505506019905],[-74.04168321534904,40.625383542174745],[-74.04164207726858,40.626009358427524],[-74.0415662473388,40.62674359415538],[-74.04142918710279,40.62807066565972],[-74.04141650353665,40.62814996054564],[-74.04130076687973,40.629006053221694],[-74.04127299562555,40.629141064654505],[-74.04109062117605,40.629725700931424],[-74.04110317273762,40.62981900150345],[-74.04110684949171,40.629912749016704],[-74.04110163220801,40.63000645410166],[-74.04108754808394,40.630099627608224],[-74.04106467060343,40.630191783159184],[-74.04103311915418,40.63028243968916],[-74.04099305840504,40.63037112395602],[-74.0409446974472,40.63045737301123],[-74.04088828870334,40.63054073661686],[-74.04082412661039,40.63062077959594],[-74.04075254608313,40.63069708410433],[-74.04065885393268,40.630888752933956],[-74.04028911535318,40.631716304576464],[-74.04015481009853,40.63201690156323],[-74.0399179062505,40.63253444370729],[-74.039293886904,40.63388635429661],[-74.03843230568438,40.635685189142286],[-74.03816058598193,40.63624398058457],[-74.03783376084682,40.63691608333082],[-74.03745424937442,40.63769651530742],[-74.03716802527956,40.63828509656966],[-74.03680662048852,40.638984221545684],[-74.03876297920756,40.63958825898071],[-74.03868804690734,40.639738256029766],[-74.03672484374883,40.63914119020688],[-74.036606414452,40.639363018579594],[-74.03647949175358,40.639582104471636],[-74.03634418486253,40.63979825923023],[-74.0362006102107,40.64001129672472],[-74.03608560952007,40.640171591497776],[-74.03596592749608,40.640329885345935],[-74.03584162407432,40.640486098953524],[-74.0357127615073,40.640640154046686],[-74.03598039447263,40.640945949571226],[-74.03635055368811,40.64115438360957],[-74.03673986629568,40.64147636545892],[-74.03670307869112,40.64168561937159],[-74.03445193181336,40.643826786179915],[-74.03453829739405,40.64387638151022],[-74.03407329294261,40.644313932964096],[-74.03287507230115,40.643583315387204],[-74.03264128960302,40.64378731294187],[-74.03229711356379,40.643581313015154],[-74.03223524436778,40.643643370155544],[-74.03246968787248,40.643786126334234],[-74.03254173795645,40.64382548435212],[-74.03231084300101,40.64403921448056]]]]}}]}