{"type":"FeatureCollection","features":[{"type":"Feature","properties":{"district":"111"},"geometry":{"type":"MultiPolygon","coordinates":[[[[-73.92133752419339,40.800852106999784],[-73.92113594709151,40.800475459594175],[-73.92103317645142,40.800265281858245],[-73.92083898713115,40.80001259800685],[-73.92057878116594,40.79966814896303],[-73.92035479893677,40.79942285286332],[-73.9203146552123,40.799375459290175],[-73.91923785764357,40.798881067683],[-73.91914573748248,40.79883898734614],[-73.91906560282138,40.798802797319524],[-73.91899496843489,40.79877184270208],[-73.91898724457856,40.79876971222003],[-73.91891076100632,40.7987401378659],[-73.9179799205819,40.798380201927635],[-73.91790279810945,40.79836265323168],[-73.91662985247802,40.79785813943727],[-73.91639852914038,40.797684842039175],[-73.91545470966419,40.797063466031155],[-73.91443827233314,40.79566551786403],[-73.91380428276814,40.79451184645606],[-73.91378385370594,40.79383628548226],[-73.9145920846777,40.79277660195929],[-73.91514134426174,40.79201248249248],[-73.91535698910364,40.7918430495079],[-73.91552117846285,40.79178325024954],[-73.91630574681676,40.791117480334435],[-73.9161708792398,40.791014293373934],[-73.91686540584952,40.79036206296178],[-73.91707923528358,40.790456674222625],[-73.9171062231295,40.79046861673696],[-73.91784071922048,40.79017131993761],[-73.91812330871126,40.7900402399344],[-73.91843338465667,40.78980396433688],[-73.91856299774986,40.78969533382608],[-73.91859001366792,40.78947410390881],[-73.91850876959093,40.78942508976958],[-73.92189248128902,40.78570326964335],[-73.92199539273082,40.78575607781011],[-73.92219098057298,40.78551067157398],[-73.92243512114932,40.78478283756517],[-73.92285203280153,40.78355569341784],[-73.92306473139385,40.78334288477448],[-73.92401145782648,40.7826606898252],[-73.92401364738764,40.782657643982745],[-73.92406208829178,40.782590278452204],[-73.92412113996792,40.782523074010996],[-73.92423621875882,40.782496915086874],[-73.92424754901673,40.7824943391267],[-73.92431077958697,40.78245595655444],[-73.92448052280425,40.78232049064599],[-73.92467329671817,40.78224486050377],[-73.92488394771706,40.78222258277376],[-73.92506087908825,40.782216293973015],[-73.92514021519158,40.782243767595865],[-73.92515351840345,40.782248374808006],[-73.92524195308096,40.782274048848755],[-73.92538939088001,40.78227414439904],[-73.92571808678534,40.78217655794476],[-73.92713754068568,40.781194269126324],[-73.92732422574863,40.781090629324446],[-73.92754410768573,40.78105063489925],[-73.92760395474535,40.78103974834917],[-73.92769650616518,40.78101478553313],[-73.92778746495141,40.78098985883536],[-73.92810118987339,40.780920320042306],[-73.92849269561364,40.78100835348102],[-73.92917352790664,40.78141057854235],[-73.93030988129446,40.78207733579082],[-73.9306381969117,40.78226141304913],[-73.93105352807835,40.782396594069326],[-73.93267080610443,40.782693639624966],[-73.93502345134512,40.78300638202899],[-73.93540566284273,40.783394499268255],[-73.93581299798664,40.783710081035146],[-73.93598226006591,40.78394236810657],[-73.93607064617002,40.78421721562042],[-73.93605332741521,40.784512368153685],[-73.93600271240696,40.78467537131024],[-73.93591823840065,40.7848068799636],[-73.93579345348833,40.7852547813042],[-73.93576384812955,40.785446039292864],[-73.93571265997697,40.78568048949272],[-73.93312843469003,40.788710179485676],[-73.93269606086321,40.78917822366505],[-73.9324014551364,40.7897202906729],[-73.93224073284911,40.789694849235076],[-73.93210528957358,40.789833952107955],[-73.93147595329808,40.790479159258105],[-73.93084178739281,40.79099143000173],[-73.9307294050381,40.79095511443101],[-73.92978443008357,40.79134147522674],[-73.92972400781862,40.79136617884577],[-73.92966610542626,40.79135578645315],[-73.9287194892678,40.79094353251261],[-73.9285945984799,40.790966924304065],[-73.92807273575714,40.79082339078063],[-73.92737326898224,40.79081082533479],[-73.92692258257081,40.790788693506855],[-73.92680823694681,40.79076443986855],[-73.92666714346059,40.79073451378741],[-73.92641834043042,40.790693375884715],[-73.92625431448674,40.790694533017145],[-73.92610410186698,40.790731607117515],[-73.9260623804895,40.79082784851486],[-73.92606557868457,40.79093651775743],[-73.92608587705843,40.79100380853603],[-73.92608911503012,40.79109178040544],[-73.92604469896472,40.7911771108266],[-73.92604793689097,40.79126508219222],[-73.9260866061662,40.79135367669394],[-73.92611233766614,40.79141262702362],[-73.92615293373655,40.791547209554494],[-73.92615960449811,40.79161966107139],[-73.92615942249776,40.79171538899486],[-73.92627168524825,40.79175690841853],[-73.92644182323612,40.791795904564644],[-73.92654729742374,40.79182706516181],[-73.92656766339974,40.791858134781954],[-73.92651312185698,40.79189688476343],[-73.92627826425219,40.7918785186038],[-73.9261455569655,40.79184732540377],[-73.92592763081379,40.79187554738963],[-73.92576426220221,40.79185725726357],[-73.92563556907437,40.79182215820314],[-73.9255872987962,40.79182083090712],[-73.92558041174094,40.79185446650846],[-73.92560756026246,40.79189590746655],[-73.92616939779452,40.79189922320509],[-73.92642805950204,40.791956490544635],[-73.92662898423103,40.7919463977504],[-73.92666662369295,40.79194019060844],[-73.92673798846923,40.79192842329456],[-73.92670074590066,40.79183262165693],[-73.9266395461271,40.79179113499688],[-73.92657824809356,40.79179364418936],[-73.92650678778584,40.79177284965483],[-73.92636742573487,40.79166138883773],[-73.92633032267321,40.791503476054054],[-73.92634451567677,40.79124728911966],[-73.92642654337885,40.7911102344217],[-73.92648803030961,40.79102232430099],[-73.92656584815985,40.79097950171338],[-73.92670272262227,40.79096815927037],[-73.92673885588233,40.79097412067468],[-73.92682874565233,40.79098895215362],[-73.92694456117866,40.790999382025625],[-73.92701950679624,40.79099942950576],[-73.92711487726518,40.791015024460755],[-73.92716599667949,40.790996933404614],[-73.92724094273532,40.79099698074105],[-73.92731587858677,40.79100738442603],[-73.92738061590241,40.79099706882954],[-73.9274385682008,40.79096085724582],[-73.92751010805004,40.790960902262775],[-73.92756120566025,40.7909635238251],[-73.92765319078313,40.79095840272938],[-73.92778409928505,40.790941603654346],[-73.92786889241138,40.79095483813202],[-73.92789328730996,40.79097884617857],[-73.92790202719486,40.79100981883426],[-73.92791053566314,40.79103914658269],[-73.92789374498597,40.791091111421096],[-73.92765982806252,40.791348334028186],[-73.92757830229547,40.7914604747393],[-73.92732065708601,40.79174316045976],[-73.92727664424253,40.79176732700948],[-73.92723286052436,40.7917913683782],[-73.9271356372808,40.79192930660329],[-73.92780141472397,40.79199747926252],[-73.9280005357249,40.79213364090705],[-73.92826720296209,40.792328523445775],[-73.92833773179294,40.79285654927484],[-73.92834291137437,40.79291805807422],[-73.92834212709053,40.79297968982706],[-73.92833538316938,40.79304111098546],[-73.9283227160924,40.79310198914039],[-73.92829531042938,40.79316116875485],[-73.92826520921278,40.79321287506639],[-73.92735332146681,40.794461894610095],[-73.92726057303011,40.79472983329119],[-73.9272437665862,40.79477917622908],[-73.92709782821456,40.79510360496115],[-73.9270512285462,40.79517849252923],[-73.92701158641346,40.79525565925916],[-73.92697909335774,40.79533473234715],[-73.92695390638403,40.79541532977818],[-73.92693614720181,40.795497062171485],[-73.9269259016367,40.79557953466174],[-73.92692321921518,40.795662348806495],[-73.92690492728316,40.79598385153619],[-73.92689066961916,40.79623452422237],[-73.9268896782797,40.79625201136036],[-73.92695192356013,40.796708432284504],[-73.92703845671605,40.79698879591771],[-73.92711806944811,40.79720386123572],[-73.9271851477837,40.79734989678042],[-73.9273548544178,40.79731658078647],[-73.92734692252733,40.7972939021206],[-73.92767122620867,40.79721701426642],[-73.92770694127123,40.797298663379735],[-73.9273826362456,40.79737706307804],[-73.92736675660669,40.79734682034499],[-73.92720299704214,40.79738674779956],[-73.92721689257203,40.7974154334979],[-73.92727720268904,40.79740745314878],[-73.92743922185319,40.79771053821618],[-73.92747588603496,40.7981228996651],[-73.92726293291275,40.798918645122185],[-73.92691995615881,40.79983759047759],[-73.92690105444348,40.79988823684974],[-73.92688261754358,40.799940768503404],[-73.92685410172666,40.79998755904627],[-73.92680607643523,40.800035900537864],[-73.92669572629504,40.80014697765521],[-73.92724770789282,40.800392957369134],[-73.92711464230642,40.800563756229714],[-73.9270669662849,40.80054301212599],[-73.92716933022487,40.800405853696326],[-73.92666565480394,40.80018271403597],[-73.9265535165366,40.80031517292159],[-73.92674263892997,40.800403498972955],[-73.92673683953092,40.80041147148205],[-73.92672526216835,40.80040733882301],[-73.92672091168971,40.800414210943735],[-73.92653846390036,40.800333898308075],[-73.92650250275526,40.80037491730711],[-73.92668470621146,40.800454757256],[-73.92655241808427,40.80060482559504],[-73.92684528429615,40.800739646712984],[-73.92683162740748,40.80076552901485],[-73.9268690867946,40.80078367679943],[-73.92699531303133,40.80063617610446],[-73.92704640297909,40.800651743031466],[-73.92688606022001,40.80084064836908],[-73.92650954867304,40.800657031524715],[-73.92588046337772,40.801551741926296],[-73.92582494638731,40.80164248977841],[-73.92577551811746,40.801730600996464],[-73.925698261787,40.80181087135076],[-73.9254929349305,40.80195616865085],[-73.92527521020125,40.801998522743524],[-73.92436044107566,40.80198555341911],[-73.92263378594897,40.80186873814122],[-73.9221553889881,40.80162646997501],[-73.92191092229572,40.80150266625372],[-73.92133752419339,40.800852106999784]]],[[[-73.9338058988187,40.81651249324727],[-73.93382900884609,40.815585360187654],[-73.93394608825346,40.81558762473934],[-73.93394609933723,40.81557645756484],[-73.93394170146186,40.815565298920994],[-73.93394905857524,40.81555636955869],[-73.9339505415139,40.815542980010115],[-73.93394173470386,40.8155318089565],[-73.93394175021166,40.81551618546609],[-73.93395205657947,40.81549721821942],[-73.93395353730935,40.81548605238919],[-73.93393445709582,40.81547153450912],[-73.93394623227609,40.81544251797648],[-73.93393892276255,40.815415724280705],[-73.93394921255539,40.815401223226836],[-73.93394628434706,40.81539005487072],[-73.93395659090902,40.81537220417396],[-73.93394853112693,40.81534820201157],[-73.9339485543914,40.81532476149821],[-73.93394858430486,40.81529462168492],[-73.93395302092101,40.81526672687848],[-73.93395452158192,40.81523547202687],[-73.93394426378258,40.81520532581707],[-73.93394870283142,40.815175197910506],[-73.93394725313911,40.815155097995884],[-73.93396344530987,40.815129443023686],[-73.93396788302526,40.81510042295464],[-73.9339635051224,40.815069164065115],[-73.93396941358051,40.81503902711474],[-73.93398565957851,40.81494751042243],[-73.93398936930932,40.81491235703109],[-73.9339820368583,40.814895612781314],[-73.93398352753839,40.81487439749655],[-73.93397473519484,40.81484872821347],[-73.93398210661397,40.81482529307857],[-73.9339733264724,40.81478733186046],[-73.9339909751146,40.81477506811677],[-73.93397776416134,40.814758311119306],[-73.93398954202262,40.81473822765632],[-73.93399543936422,40.81471925787907],[-73.93398075656604,40.81470474252201],[-73.93398224834006,40.814682420570456],[-73.9339852396395,40.81462995914113],[-73.93397645065996,40.81460093082546],[-73.93396620950341,40.81456521125162],[-73.93399121978345,40.81452838643428],[-73.93401476726979,40.814483752624966],[-73.93385652638817,40.81448147441938],[-73.933862309728,40.814249296320675],[-73.93386391449283,40.81419273728364],[-73.93386510261902,40.8141531579558],[-73.93386927846697,40.81410117481674],[-73.93387232548962,40.814063264260895],[-73.93392984600194,40.81334769063394],[-73.93398178986824,40.812814635545415],[-73.93400770204939,40.81260849869744],[-73.93403843917879,40.81234088007115],[-73.93409306691922,40.81196840253093],[-73.93413711416069,40.81171237092468],[-73.93419558749171,40.81139317769306],[-73.93428227801395,40.81082305050881],[-73.93430417398038,40.81048166611533],[-73.93431440507302,40.81032226491143],[-73.93434080971474,40.80992758274973],[-73.93433864584739,40.80956221383153],[-73.9342139101698,40.80905917379285],[-73.93419639195773,40.809031851582596],[-73.93413532624055,40.808736390514376],[-73.93412073484298,40.80865645197758],[-73.93356119311481,40.80760067738683],[-73.93332852361837,40.80731894646314],[-73.9332590953999,40.807237245206835],[-73.93318395639815,40.80715619779724],[-73.93317413539492,40.807145390950076],[-73.93308471749714,40.80702691470224],[-73.93293288329292,40.80687102213401],[-73.93263088267577,40.806552933907],[-73.93239017119151,40.80629914096871],[-73.93154417434341,40.805397783326804],[-73.93149604258623,40.80535115370681],[-73.93147549592427,40.80532809293826],[-73.931467071884,40.80530596930319],[-73.93144891427833,40.80529764576185],[-73.9314319858802,40.80528195789071],[-73.93140904210999,40.80524691381163],[-73.93139090102109,40.80523306966027],[-73.93130511520239,40.80513160646008],[-73.93126947240583,40.80509055371263],[-73.93115949987327,40.804966940262624],[-73.93112688759328,40.80492267799747],[-73.93111408924702,40.804904350513034],[-73.93109790844383,40.80488117752967],[-73.93107375389322,40.804847051028474],[-73.93103390093928,40.804794482214525],[-73.93102787741594,40.80478249455943],[-73.93097654532366,40.80471563251219],[-73.93097535296523,40.80470549939794],[-73.93095843210783,40.80468704529124],[-73.93093429158857,40.80465291876809],[-73.9309093651686,40.80461939351762],[-73.93082801324279,40.80450996680598],[-73.93080628114511,40.80447400780642],[-73.93071630316507,40.80435549733273],[-73.93071028702624,40.804340744668195],[-73.93069577525876,40.80432598806884],[-73.93068733276408,40.80431031272557],[-73.93063902817006,40.804245752960604],[-73.93063179560949,40.80423007951373],[-73.93061004100669,40.80420701568167],[-73.93057261208959,40.804152604216256],[-73.93057263757188,40.804143391876444],[-73.93054243306774,40.80410741834063],[-73.93044280213003,40.80397415009952],[-73.93040536964523,40.803920665657586],[-73.93035345052832,40.803847804743484],[-73.93033292065563,40.80381921361456],[-73.93030876458775,40.803786015368274],[-73.93027860567483,40.80373437922584],[-73.93026171394962,40.80370579413708],[-73.93019175460354,40.803583165190574],[-73.9301832945256,40.80357394720855],[-73.93006020693849,40.80336164816068],[-73.93001261302967,40.803287498428915],[-73.92997373618591,40.803196467974274],[-73.92997862176946,40.80319024538511],[-73.93004460904999,40.803106111770866],[-73.93000931090445,40.80304013515741],[-73.9299828842777,40.802984752494396],[-73.92991008609842,40.802864551250174],[-73.92988948082969,40.80283035745922],[-73.92978668000154,40.80266074871767],[-73.92969251214595,40.802440285948116],[-73.92957693839507,40.80218002521583],[-73.9295204392848,40.80205347961572],[-73.929453663335,40.801907368836176],[-73.9294365411877,40.801861711857576],[-73.92935435998567,40.80167125043805],[-73.9293312697181,40.801598853991045],[-73.92930220396839,40.80149580134915],[-73.92927487688036,40.80137319023289],[-73.92920817595964,40.80114752061144],[-73.92911838814229,40.80111300322649],[-73.9290349024031,40.801080903852046],[-73.92902671406671,40.80096986031448],[-73.92902123584643,40.80089557256186],[-73.92901644642042,40.80083071554227],[-73.92900788120605,40.80077234912554],[-73.92899994866335,40.8007100976929],[-73.92898618762995,40.80060212311954],[-73.9289534865756,40.80030936848486],[-73.92893763668594,40.80017084377784],[-73.92890152344171,40.79985521466287],[-73.92891942515779,40.799458186491684],[-73.92894396946961,40.79891158893565],[-73.92897121002292,40.79825886108249],[-73.92903640179625,40.79676259410144],[-73.92905461028747,40.796694433867536],[-73.92927936741171,40.79585313952077],[-73.92930773275805,40.79581025795578],[-73.92953058056908,40.79550779834942],[-73.92968294251133,40.79529623376327],[-73.92974594691621,40.79520874823424],[-73.92987485778212,40.795035156728495],[-73.92984244753451,40.7950150378561],[-73.92985144395325,40.79500140042874],[-73.92980955349988,40.79498316629688],[-73.92983254042525,40.79494906114098],[-73.92988740651919,40.79496729260412],[-73.92990139788401,40.79494682436267],[-73.929916361206,40.79494911213721],[-73.92993735334552,40.79491878628461],[-73.929920395011,40.79490967233025],[-73.93006881035538,40.794700828605635],[-73.93010771028146,40.79471299106389],[-73.93019664392897,40.794593224352425],[-73.9304198047997,40.79447087234876],[-73.93111408045336,40.794096501344015],[-73.93142758557963,40.79392798838301],[-73.93165821105745,40.793801740439335],[-73.93179292520304,40.79372796179121],[-73.93187500171743,40.79368192184385],[-73.93201001457187,40.79360548617004],[-73.9320788602176,40.793566508834026],[-73.93235128869082,40.79341384515142],[-73.93250920949684,40.79333190154473],[-73.93253852654895,40.793316682135554],[-73.93267239130897,40.793248232773045],[-73.93287712655092,40.793130251368034],[-73.93310683207807,40.792995328209706],[-73.93324587394645,40.792914296029316],[-73.93327132021129,40.79289946335182],[-73.93348489644649,40.792774171332695],[-73.93372790503588,40.79260147837125],[-73.93388785265701,40.792489477017256],[-73.9340699772657,40.79235829377309],[-73.93427221714605,40.792217315798055],[-73.93434032786627,40.792167968054784],[-73.93451042548634,40.79205129464658],[-73.93473881584458,40.79190076870533],[-73.93505406057963,40.79168623135861],[-73.93510764491633,40.79164888869991],[-73.93517182451616,40.79160473956765],[-73.93526809778403,40.79152802580058],[-73.93526500788937,40.79152576348137],[-73.93519039296174,40.79147116012925],[-73.93546762088405,40.791263652057694],[-73.9355389669594,40.79131869365993],[-73.93583106788908,40.7910947048704],[-73.93602391823781,40.7908291281261],[-73.93632010870607,40.790425957648736],[-73.93669302210031,40.78991304915926],[-73.93706168747065,40.78941359021367],[-73.93705304578882,40.78940641675759],[-73.93708104382303,40.78936639571015],[-73.93707246262181,40.78934584238891],[-73.93701479686742,40.78932128118504],[-73.93614073314123,40.78894907341068],[-73.93612836235297,40.78893853005981],[-73.93612689279686,40.78892686798558],[-73.93621859869906,40.78880049807703],[-73.93622751295345,40.78879561295],[-73.93624303325052,40.78879577415221],[-73.93714965461105,40.78916844905963],[-73.93722890167295,40.78899630803729],[-73.9373978860931,40.78862171984363],[-73.93741675677441,40.788579761516466],[-73.93754989162579,40.78828374452899],[-73.93763482912287,40.78809424481492],[-73.93768669385376,40.78797356057918],[-73.9376956302226,40.78795729352065],[-73.93774122176191,40.787853904351046],[-73.93777363255116,40.78778335806276],[-73.93781722692913,40.78768846868105],[-73.9379476897699,40.7874772994294],[-73.93794590851273,40.787469158755485],[-73.9379593077519,40.787456279930176],[-73.93797181801395,40.78743187338266],[-73.93811570089727,40.78718476275656],[-73.9381335619299,40.78716579039861],[-73.9381942962532,40.78709733029992],[-73.9382451995141,40.78704106810826],[-73.93853937331656,40.78671077700028],[-73.93926642644514,40.78588875306729],[-73.9398261969646,40.78525655241565],[-73.93983453997923,40.78525397235928],[-73.93984282390909,40.78525141036418],[-73.93985267603381,40.78524393165033],[-73.93988045560658,40.7852323755103],[-73.93988852061746,40.78522352734721],[-73.9399100328247,40.785211966758155],[-73.93992974399461,40.78520176553147],[-73.93995483679336,40.78518952279463],[-73.93998978018995,40.785170477792924],[-73.94001308386727,40.78515687380655],[-73.94002473252537,40.78515347642594],[-73.94004982707584,40.785138514231605],[-73.94006415729082,40.78513102962023],[-73.94011434323869,40.78510382464484],[-73.94014947276264,40.78508725537963],[-73.94018512931055,40.785066202060825],[-73.94020230181297,40.78505918714049],[-73.94022475284152,40.785045151291165],[-73.94023795768312,40.78503713468422],[-73.94026700995516,40.78502210145362],[-73.94036209351331,40.78497198408246],[-73.94045320748488,40.78492287308366],[-73.94053377198219,40.784878771606074],[-73.94055093807765,40.78486674159377],[-73.94058130200904,40.78485370870941],[-73.94059054968372,40.78484668914228],[-73.9406235705766,40.78482965041186],[-73.9406737440216,40.784803597926825],[-73.94071732676319,40.78478054106723],[-73.94072128361506,40.78478054310259],[-73.94074901720526,40.78476751820233],[-73.94076750825941,40.78475749512147],[-73.940788680061,40.7847474487888],[-73.94083088142585,40.78472742455654],[-73.94102499731886,40.78463522248653],[-73.94108573710648,40.784609166516866],[-73.94111082838862,40.78459714868065],[-73.94113723613098,40.78458311400442],[-73.94117288854783,40.78456607696269],[-73.94144612018938,40.7844314738518],[-73.94152576810184,40.78439090097005],[-73.94167454195745,40.784313830632094],[-73.94185448592205,40.784220746677605],[-73.94201431753095,40.78413758489759],[-73.94217918595561,40.78405136339501],[-73.94231388874321,40.783981165766605],[-73.94239128520968,40.78394072618282],[-73.94243451137065,40.78391783032254],[-73.94246970444772,40.7838964609472],[-73.94257225524878,40.78382472415554],[-73.94260442723565,40.78380183093091],[-73.94267379818284,40.78375374314733],[-73.94278137533362,40.7836781900967],[-73.9428678379267,40.78361865580272],[-73.94293520531137,40.7835721060898],[-73.94301663136936,40.78351486545866],[-73.94311516211302,40.78344617062981],[-73.94316141910497,40.783411830494934],[-73.9432056553694,40.78336984298786],[-73.94323985739751,40.783327851694516],[-73.94327003035673,40.783288154676924],[-73.94331027382033,40.783233180946574],[-73.94334749366392,40.78318203299868],[-73.94339679077287,40.78310950284659],[-73.94344105526419,40.78304918212828],[-73.94355143839468,40.78290350848851],[-73.9435442071252,40.78288052382281],[-73.94356979719893,40.782923078071036],[-73.94363201793948,40.78296232368589],[-73.94376005340628,40.78282893171762],[-73.94383256609905,40.782859089475124],[-73.94389324605929,40.7828877273327],[-73.94395460163143,40.78291551965141],[-73.94405439380215,40.782964358046065],[-73.9446466599195,40.78321787380293],[-73.94472264526928,40.78324757264161],[-73.94592185993743,40.78375279835489],[-73.94644497283197,40.78397317857834],[-73.94708951916724,40.78424490579509],[-73.94784346036975,40.78456375556601],[-73.94877626223455,40.784958235926915],[-73.94933170560994,40.78519312605522],[-73.95033804130387,40.78561715001334],[-73.95092812788256,40.785865380172865],[-73.9512967085309,40.78602007486535],[-73.9522294760314,40.786411550232025],[-73.9524643016674,40.78651043142103],[-73.95255145469038,40.78654858066234],[-73.95266136728152,40.78659502012717],[-73.95341646690392,40.78691257113931],[-73.95371344994473,40.78703758552666],[-73.9541647699251,40.78722756357664],[-73.95577735912323,40.78791392447124],[-73.95528233480856,40.78858445548841],[-73.95510417014535,40.788822071753245],[-73.95481723816654,40.78920474437029],[-73.95439919191298,40.789774908667894],[-73.9538891708097,40.790470498554505],[-73.95343683861161,40.79108514137197],[-73.9531604499487,40.79146688138404],[-73.95309827606809,40.79155275291276],[-73.95297740619696,40.79171969316852],[-73.95252222704883,40.79234762222566],[-73.95207127078662,40.79298117198359],[-73.9516026543104,40.793607805614265],[-73.95111102372414,40.794285035322076],[-73.95062885475737,40.794959591376575],[-73.95015821226993,40.79558773150459],[-73.94968682996507,40.796216985381015],[-73.94942287815631,40.796606384160924],[-73.94923327082499,40.79687199990559],[-73.94906517858907,40.7971004941063],[-73.94878702811162,40.7974828390053],[-73.94831125454382,40.79812921756699],[-73.94820641538013,40.79827285109851],[-73.94815384324836,40.79834487657857],[-73.94810109026562,40.798417148381596],[-73.94805130202991,40.798485359854475],[-73.9478467911888,40.79876554270099],[-73.94781663052815,40.79880686297214],[-73.94775716468848,40.79888833204101],[-73.94771055979315,40.798952180613625],[-73.94741996235193,40.79935029529585],[-73.94737599844727,40.79941052421812],[-73.9473277151459,40.79947667147879],[-73.9472801829742,40.79954178928672],[-73.94697366807029,40.799961702910394],[-73.94646133852031,40.800665305882454],[-73.94596789749369,40.801342395172625],[-73.945508639182,40.80197023123981],[-73.94505127984516,40.802598598717665],[-73.9447597648013,40.8030030414929],[-73.94459915296271,40.80322504784043],[-73.94470926112729,40.8032719273997],[-73.94561836464182,40.80365897755223],[-73.94620045835062,40.80390652243253],[-73.94573321306062,40.804532032854006],[-73.94527043859708,40.80516836906152],[-73.94480743101809,40.80578880916403],[-73.94435587110912,40.80641358740952],[-73.94377476846415,40.80617059265507],[-73.94315770385602,40.805912805239444],[-73.94285550220789,40.80578655445356],[-73.94275367228194,40.805744012794804],[-73.94226311155003,40.80641573774527],[-73.94177140170031,40.80708900034986],[-73.94131742369481,40.80771334638121],[-73.94086063175601,40.80833426759945],[-73.94040344902201,40.80895809564576],[-73.93994875977052,40.80958141803279],[-73.93949397539919,40.81020880953369],[-73.93901753314597,40.810856556874654],[-73.93874394503719,40.811230820566976],[-73.93863753326659,40.811376388569855],[-73.93838748529839,40.81171844357906],[-73.93830925043024,40.81182546401142],[-73.93820642688317,40.81196760479817],[-73.93813552407511,40.81206561923254],[-73.93761714951803,40.812740364329],[-73.93714398424214,40.813421041444734],[-73.93708163694987,40.81350614105278],[-73.9366885481666,40.814041630220515],[-73.93622962354567,40.81464739096784],[-73.93613554397098,40.814788127142435],[-73.93605076578125,40.8149080151168],[-73.93599371417274,40.81498869357064],[-73.93575548210784,40.815325584297284],[-73.93487343834983,40.8165278475178],[-73.93463790272718,40.81690804847538],[-73.93445400072773,40.81718852855861],[-73.93423519549512,40.81755488121545],[-73.93412816761165,40.817733963016686],[-73.9340746397773,40.81782651394871],[-73.93400917966379,40.81794383806788],[-73.93392004308207,40.81811599338831],[-73.93380019473047,40.81834975887414],[-73.93379334625779,40.81777660857989],[-73.93378997399208,40.81715137370182],[-73.9338058988187,40.81651249324727]]]]}}]}