{"type":"FeatureCollection","features":[{"type":"Feature","properties":{"district":"14"},"geometry":{"type":"MultiPolygon","coordinates":[[[[-73.95630035122711,40.65504828183134],[-73.95616409698486,40.653776519308146],[-73.95610825604494,40.65324474974631],[-73.95603783174761,40.65270122077141],[-73.95601055746941,40.652314272912236],[-73.9559067073487,40.651368833934974],[-73.9558251843973,40.65052980807902],[-73.95579083018555,40.649522989826764],[-73.95576232853121,40.648643289987184],[-73.95573651232912,40.64786899688712],[-73.95565196240852,40.64663041014475],[-73.95473024770416,40.64477257836185],[-73.95466563951264,40.6441967443031],[-73.95452484175644,40.64288758747898],[-73.95428061299627,40.64058938472024],[-73.95417718045795,40.63963229969406],[-73.95412641170893,40.639161299282826],[-73.95404358590126,40.6388775491904],[-73.95394172535894,40.638494724942056],[-73.95374853778434,40.63858633808825],[-73.95360004719379,40.638422347450195],[-73.95307885272828,40.63842797416122],[-73.95213661116466,40.638425841182524],[-73.9511598853806,40.63841789940738],[-73.95017090095527,40.6384850857479],[-73.94923295697032,40.63854767390111],[-73.94826499656885,40.638607189706995],[-73.94801466011313,40.636266952382535],[-73.94777330394353,40.633998156194906],[-73.94680515945916,40.63405883936474],[-73.9458677359317,40.63411754815999],[-73.94561754711685,40.63177743031242],[-73.9455109552195,40.63079148290151],[-73.94544878082058,40.6307327133549],[-73.94480816070815,40.63012716666326],[-73.94453995035914,40.629866563210825],[-73.94415535255825,40.62950828520816],[-73.94446784116487,40.62948005151136],[-73.94540053213083,40.62937781235579],[-73.94632622234421,40.629276642758754],[-73.94732672226584,40.62916656670734],[-73.94687439946696,40.62677366863128],[-73.94642265998357,40.624385567286296],[-73.94596849755868,40.621994815456745],[-73.94551663574784,40.61960561195189],[-73.94506642808075,40.61721268720931],[-73.94486012342752,40.61620515698292],[-73.94482770996294,40.61604620910957],[-73.9457369197798,40.61536340675711],[-73.94657366828139,40.6147891311377],[-73.94742608780807,40.61422460055384],[-73.94764057322082,40.61407771041329],[-73.94824834423737,40.613635357956575],[-73.9491197021277,40.61305321766795],[-73.94996296695327,40.61231572784955],[-73.95076938075914,40.61159024476765],[-73.95090278892654,40.61157864633622],[-73.9510101005332,40.611530138115626],[-73.95112026086306,40.611485492454584],[-73.95123303070568,40.61144480629788],[-73.95134816532786,40.611408167740755],[-73.9514654145938,40.611375656597275],[-73.95158452390383,40.611347343462626],[-73.9516677687291,40.61131318600034],[-73.95258786948973,40.61111223958921],[-73.95359888852906,40.61094986560658],[-73.95479552709989,40.610820766155335],[-73.9557406698918,40.61071482695379],[-73.95670471406346,40.61061187782908],[-73.95766801379435,40.61050371521915],[-73.95804731927223,40.610462762444406],[-73.95859278495766,40.610403030935245],[-73.95952069633742,40.61030205333979],[-73.96044361881509,40.61020150730531],[-73.9613726837953,40.61009887471202],[-73.9623854844826,40.60998599285033],[-73.96285973961484,40.612549485964635],[-73.96336094089213,40.615204428336575],[-73.96356470559202,40.61623872246744],[-73.96362245489206,40.61658973720416],[-73.96375418658926,40.61730243354313],[-73.96381145236617,40.617589401544976],[-73.96388935578909,40.618000549884506],[-73.96426798339365,40.61998380378813],[-73.96471983385558,40.62237296120548],[-73.96494557544207,40.623568552010866],[-73.96517258956042,40.62476548484598],[-73.96562565071174,40.627155222022054],[-73.96588564484011,40.628541333695324],[-73.96590686880008,40.62865448130853],[-73.96690629647465,40.62854822442894],[-73.96783415201227,40.628449034703884],[-73.96876090353545,40.62835188104027],[-73.96983762406146,40.628238681286646],[-73.97039187160205,40.62817841636118],[-73.9709595094521,40.62811668325541],[-73.97120750458247,40.62808971219776],[-73.97137314422005,40.62806901284072],[-73.97148625726308,40.62805487723802],[-73.97258165362265,40.62791796735944],[-73.97353152015046,40.62777175599794],[-73.97442122418256,40.627638806431655],[-73.97537184435511,40.62748250552674],[-73.97589962713805,40.627397958264986],[-73.97651462100198,40.62729448999149],[-73.97653344895622,40.627377605481804],[-73.97657775623188,40.627573186819006],[-73.97669604371897,40.62835456471154],[-73.9768496430902,40.62908858147858],[-73.97699848928177,40.62987149662815],[-73.97707098957537,40.63025228089268],[-73.97716511994669,40.63074665412951],[-73.97761642237326,40.63315364240398],[-73.97643342179832,40.63328912259085],[-73.97551015902606,40.63338567354695],[-73.97458256405362,40.63348830194175],[-73.97365399803127,40.633590850593045],[-73.9725572159544,40.63371337992711],[-73.97241481651272,40.63299383426854],[-73.97231129169526,40.633041914545515],[-73.97216145892976,40.633111621852265],[-73.97190427082279,40.63323009464013],[-73.97087567598653,40.6337195138169],[-73.96986869339572,40.63419467459834],[-73.96899922229902,40.63460743033033],[-73.96838127286762,40.63489175384879],[-73.96821999041681,40.63496595971144],[-73.96762736292794,40.63523862182281],[-73.96803868487798,40.63665098543654],[-73.96822343385395,40.637296906442096],[-73.9687221844786,40.63901853824941],[-73.96879099173343,40.63925593322158],[-73.96891461124393,40.639757159754495],[-73.96939903065599,40.641382446218465],[-73.969484681379,40.64168989703424],[-73.96968611807544,40.64235600977243],[-73.96988464671769,40.64303029756927],[-73.97008897793074,40.64374583950724],[-73.97031677051451,40.64453794134677],[-73.9705455439065,40.6453166681216],[-73.97076976083255,40.64611090734325],[-73.9708411379564,40.64637857157526],[-73.97121039098944,40.64762015448435],[-73.97139631688152,40.648257786114264],[-73.97155930418761,40.648822828757844],[-73.971908903778,40.65005140988464],[-73.97203584994654,40.65048562765548],[-73.97208846173392,40.65065690875413],[-73.9722222860573,40.651046951765906],[-73.97170570708818,40.651109906422995],[-73.97145620308532,40.651140312462566],[-73.96621322025264,40.65318940454694],[-73.9641466633954,40.65399497235061],[-73.96188086439798,40.654881192052414],[-73.96156461488322,40.65500411715331],[-73.96139352887583,40.6550706169553],[-73.96069809379583,40.65534092417816],[-73.95986103179125,40.65563478893716],[-73.9596966586306,40.65483921472639],[-73.95630035122711,40.65504828183134]]]]}}]}