{"type":"FeatureCollection","features":[{"type":"Feature","properties":{"district":"109"},"geometry":{"type":"MultiPolygon","coordinates":[[[[-73.9401413121009,40.8303719888809],[-73.93962569930143,40.83015583738815],[-73.93966626084378,40.83013930734199],[-73.939703465925,40.83011872003464],[-73.93973661573347,40.83009446215306],[-73.93976508791334,40.8300669889243],[-73.9397883473306,40.83003681674065],[-73.9398059571174,40.83000451231785],[-73.93980747391284,40.82998379568549],[-73.93980591365747,40.82996308091535],[-73.93980129601728,40.82994263038796],[-73.93979367965298,40.82992270407887],[-73.93975755363806,40.829867082296296],[-73.93972746318948,40.82980942500719],[-73.93970360510362,40.8297501093299],[-73.9396861354115,40.82968952322875],[-73.93967516835876,40.829628062976354],[-73.93967077564987,40.82956613065391],[-73.93967298599662,40.8295041312447],[-73.93968178492364,40.82944247026201],[-73.93969711486262,40.82938155100452],[-73.93971887552937,40.829321771918515],[-73.93989495326792,40.82907350887216],[-73.94020103654076,40.828653302311245],[-73.94153619785082,40.82682025367737],[-73.94244334976526,40.82557259387338],[-73.94384275680827,40.8236478015426],[-73.9429236691258,40.82326058725062],[-73.9432358197176,40.822921335033975],[-73.94350594529534,40.822627752777315],[-73.9440498636813,40.822051592105204],[-73.94460364603806,40.82146198118838],[-73.94516004895817,40.82087904347649],[-73.94607828740423,40.821263215559846],[-73.94640289913836,40.82057204268785],[-73.94671832033765,40.81989426803404],[-73.9470362320686,40.81920837150568],[-73.94734953979726,40.818534997721166],[-73.94766641318697,40.81785550999208],[-73.9480073293346,40.8171165088998],[-73.94835601585378,40.81637430561938],[-73.94867681807548,40.815692286017594],[-73.94883939487177,40.81535682606749],[-73.94901859728103,40.81502575432272],[-73.94921410439053,40.81469977098506],[-73.9494255284926,40.81437958359335],[-73.94963674911568,40.8140866660152],[-73.94963688442273,40.81408647844689],[-73.94963702104795,40.814086297245076],[-73.94986218985589,40.81379998043694],[-73.95035019275227,40.813159389290284],[-73.95092865738916,40.81257507153165],[-73.9509820339399,40.81252162928733],[-73.95150537330727,40.81200768513981],[-73.9521012521537,40.81144285350171],[-73.95259125776435,40.81076533306694],[-73.95307869995439,40.810094084907256],[-73.95327654949362,40.80987960428317],[-73.95357577810366,40.80947669765984],[-73.95496657172467,40.81006455470393],[-73.95542974856458,40.809429153406874],[-73.95588417616406,40.8088022490492],[-73.95634493679748,40.80817335404058],[-73.95636990731084,40.80813931963859],[-73.95645088503701,40.8080289513496],[-73.95647969804114,40.80798968088402],[-73.95680543877322,40.807545709279914],[-73.95726581554518,40.80691617138719],[-73.95728508649418,40.80688974799385],[-73.95769641356537,40.806325744052636],[-73.95772176015927,40.8062909886275],[-73.95818962261227,40.80560880369093],[-73.95822725039243,40.8055374971114],[-73.95825646047756,40.805463947995214],[-73.9582770255324,40.8053887288288],[-73.95828878544336,40.80531242493172],[-73.95829164875688,40.80523563039723],[-73.95828559321673,40.805158942967125],[-73.95825482580135,40.80471387844162],[-73.95824272452381,40.8045224810713],[-73.95823477449437,40.80439673194525],[-73.95820300807164,40.80389427099901],[-73.95824878329815,40.80310648647131],[-73.95868839367515,40.80246979436618],[-73.95914741137354,40.80184376013737],[-73.95964685423152,40.80115642325664],[-73.96107794002128,40.801800357720595],[-73.96386126291169,40.80297203835353],[-73.96434277748811,40.80317456140505],[-73.96542640500708,40.803630317775536],[-73.96556498704618,40.80368860124575],[-73.9660350145065,40.803886498631314],[-73.96617495177576,40.80394550480163],[-73.96659750442795,40.80412367716175],[-73.96670106890302,40.8041684769373],[-73.96680327257147,40.80420756112116],[-73.96804849327083,40.80468370013378],[-73.96849506726129,40.80483227038455],[-73.96855913351783,40.80485358412031],[-73.96860707406111,40.8048709498983],[-73.96978722003337,40.805300497384785],[-73.9706932647336,40.80563026844936],[-73.97076362366846,40.80565737288],[-73.97084148354809,40.80568534376002],[-73.97098768003514,40.80574290292936],[-73.97110765852304,40.80579013967689],[-73.97046512144398,40.80662431761259],[-73.97021400799224,40.80693570615354],[-73.96988290614696,40.80736478848145],[-73.96977288943359,40.80752528214136],[-73.96955934797353,40.80779550099915],[-73.9691117356584,40.80840637006915],[-73.96909103244393,40.808430164575995],[-73.96891678484035,40.80863078055999],[-73.96885218645325,40.80875198611473],[-73.96866264764937,40.808963292678364],[-73.96855747771224,40.809072893821174],[-73.96854420633784,40.80914510989036],[-73.96846348611663,40.809318714020115],[-73.96842473507036,40.8093940603332],[-73.9682395273212,40.809662684397146],[-73.9681533751206,40.809765881408886],[-73.96811675018665,40.80980683624069],[-73.9681318659272,40.809844489225185],[-73.96796065311774,40.81010000956689],[-73.96788312497561,40.81020156467978],[-73.96788099174022,40.810244147324674],[-73.96779484834467,40.81036699687162],[-73.96772160095225,40.810434161111075],[-73.96770439052301,40.810488199884574],[-73.96766778940896,40.810550445943065],[-73.96762038824613,40.81058485039453],[-73.9676204142262,40.810630701037496],[-73.96754397270513,40.81077319972429],[-73.96740185312369,40.81102215539729],[-73.96713048758595,40.8113874200741],[-73.9670411118029,40.81152009962701],[-73.96700232144049,40.81154794802986],[-73.96692265508437,40.811690446533845],[-73.96688175014945,40.8117739764284],[-73.96674930787978,40.811981985012],[-73.9666330076011,40.81215397028562],[-73.96652962321875,40.81228501552499],[-73.96639177720881,40.812473373162064],[-73.96627762716805,40.812638812000415],[-73.96615809223947,40.812815702791454],[-73.96610639539487,40.81286320693645],[-73.9658824094512,40.81320062634876],[-73.96579194974646,40.81332838170021],[-73.9656584016126,40.81349873149261],[-73.96548975012963,40.81374707236805],[-73.96548932424875,40.81374769425897],[-73.96534706551702,40.8139396518969],[-73.96510784267457,40.814275476029906],[-73.96509511906348,40.81431957215671],[-73.9643248339137,40.815512737010835],[-73.96414082888299,40.81577165745409],[-73.96340395102307,40.81668419743787],[-73.9631270240379,40.81695509533659],[-73.96308529694105,40.81700611343333],[-73.9627191339208,40.81736849075751],[-73.9620310579599,40.81808633097936],[-73.96187917035327,40.81825856409021],[-73.96131833180573,40.81889452355756],[-73.96094889843974,40.8193112888729],[-73.96044728492032,40.81987715679118],[-73.95999892229345,40.82038294480247],[-73.95981462674555,40.82029787470156],[-73.95939068797934,40.82085517835602],[-73.95932566265209,40.8209462762536],[-73.95928300647289,40.82099497441386],[-73.95913061580629,40.82116895377493],[-73.95920767709246,40.82120790934967],[-73.95926255403742,40.821235655358755],[-73.95930263598677,40.821189897523226],[-73.95942624349648,40.821252381738134],[-73.95914685715192,40.82157132855115],[-73.95903294155774,40.82151374622867],[-73.95923467193995,40.82127782527061],[-73.95917712794261,40.821249429985286],[-73.9590896024009,40.821206247056104],[-73.95881892233997,40.82151852484693],[-73.9589417294171,40.821569364009754],[-73.95885403985397,40.82167475024741],[-73.958745236605,40.82180551197381],[-73.95896360094639,40.822373794142294],[-73.95900018289892,40.822409728374524],[-73.95911304024106,40.822454964645736],[-73.95922976213465,40.8222869101325],[-73.95990999444398,40.82257111982217],[-73.9596033246028,40.8229946867835],[-73.95892614718302,40.822711755441524],[-73.95904953331708,40.82254133536842],[-73.9589172176045,40.82248605137161],[-73.95886745433307,40.82245023922823],[-73.95883849863237,40.822405042078024],[-73.95865126011921,40.821918436573505],[-73.95864585147658,40.821904369631945],[-73.95852731524258,40.82184375665232],[-73.95820019354012,40.82228313691829],[-73.95816805363593,40.82245810099137],[-73.95813063305563,40.82253109095855],[-73.9580746794387,40.82261135846504],[-73.95793904909121,40.822774353547466],[-73.95822838183035,40.822887867101066],[-73.95820639539103,40.82292213191243],[-73.95814312769203,40.823020722271615],[-73.9591645863233,40.82345179548355],[-73.95918196037644,40.823459122945785],[-73.95943846744422,40.82356239229311],[-73.95946454189175,40.82357113567189],[-73.95948269766957,40.82357865266578],[-73.95949747410954,40.823586816286074],[-73.95950361164489,40.82359118579793],[-73.95950897939188,40.82359578890296],[-73.95953101411841,40.82361918218078],[-73.95953800225297,40.82362933408751],[-73.95954284439085,40.82363916845262],[-73.9595447255249,40.823644941829464],[-73.95954522180324,40.823647337599816],[-73.95953351105084,40.823685018397434],[-73.95955575493863,40.823693797768954],[-73.95914038269946,40.82431759020535],[-73.95901612941898,40.82450418849946],[-73.95899582803376,40.82449642742526],[-73.95743708511746,40.82684854794987],[-73.95725896977147,40.82711730987327],[-73.95694866420469,40.82700055393517],[-73.9563178451031,40.827944215388754],[-73.95620054528383,40.82790122659767],[-73.95620373779566,40.82789698610002],[-73.9562239436024,40.82787008739158],[-73.95503912978396,40.82741343191204],[-73.954697366195,40.82791838551438],[-73.95454188062128,40.8278614763657],[-73.95446469977234,40.82797416969897],[-73.95446458034701,40.82797433215019],[-73.95444120044071,40.828006635298856],[-73.95436068010206,40.828117883015345],[-73.95427220906049,40.828236543142644],[-73.95421653625765,40.828307470855655],[-73.95416950644204,40.828360869240356],[-73.95413649135831,40.82839340956286],[-73.95406111804249,40.82846213245167],[-73.95403271717639,40.828490423490805],[-73.9540210667868,40.82850298030467],[-73.95398614911781,40.82854351625182],[-73.95395406407458,40.82858535816427],[-73.95359128626792,40.829097720648925],[-73.95297619362618,40.830090203271205],[-73.95218597296554,40.83127711791929],[-73.95191404057142,40.83161971741848],[-73.95180892345962,40.83182432051819],[-73.95165656369011,40.831976994571676],[-73.95155293475376,40.832134199987244],[-73.95131742037594,40.83247957294809],[-73.95119183012206,40.832639151280034],[-73.951147921668,40.832783592961725],[-73.95105224571276,40.83292243813658],[-73.95104109555929,40.833022488596455],[-73.95100838567062,40.833140649958224],[-73.95095307083005,40.83328357982997],[-73.950865127052,40.833434120627786],[-73.95080734993236,40.83351414932603],[-73.9507269874008,40.83359226360008],[-73.95068177244163,40.83365133130841],[-73.95056874248017,40.833788518529694],[-73.95051346128379,40.83388570376954],[-73.9504833022592,40.8339447790292],[-73.95044809740803,40.834041971680485],[-73.9504179493977,40.83408579839571],[-73.95034009355558,40.83416772531017],[-73.95028481740769,40.83425728558524],[-73.95021218560015,40.83430311995851],[-73.94996243957746,40.83443703067702],[-73.94985590482112,40.834459286866434],[-73.9497761628448,40.83445596451177],[-73.94970807851816,40.83444929000664],[-73.9496411974838,40.83443433008615],[-73.94957431780912,40.83441936191872],[-73.94955175283296,40.83441071669508],[-73.94941570556861,40.834358589832966],[-73.94919448891591,40.834210658595595],[-73.94890543220085,40.83406529887669],[-73.9482767685721,40.83386545559568],[-73.94592558162041,40.832806489702506],[-73.94582395086611,40.83276546128719],[-73.94571933698654,40.83272141326611],[-73.94297966199173,40.83156798036222],[-73.94136799581425,40.830890838083185],[-73.94107546980639,40.83076685137365],[-73.94034643247527,40.83045784284966],[-73.9401413121009,40.8303719888809]]]]}}]}