{"type":"FeatureCollection","features":[{"type":"Feature","properties":{"district":"107"},"geometry":{"type":"MultiPolygon","coordinates":[[[[-73.95964685423152,40.80115642325664],[-73.95883381389868,40.80081750460027],[-73.95848111476114,40.80067047808877],[-73.95817297103875,40.80058254095497],[-73.95833304956655,40.80036505351128],[-73.95861879322837,40.7999770261549],[-73.95907669072292,40.79935223392784],[-73.95953658934332,40.79871852552099],[-73.9600301843709,40.798038107897085],[-73.96052271735704,40.79736846896019],[-73.96074785024219,40.79705597565527],[-73.96097971807933,40.7967386440455],[-73.96144060655736,40.79611082718414],[-73.9618998546095,40.79547927006131],[-73.96235980150668,40.79485206056085],[-73.96282149737728,40.79423723569145],[-73.96297579484633,40.79401618149655],[-73.96307931092772,40.79386787632828],[-73.96321832744927,40.79367857327847],[-73.96371100656353,40.793009028044985],[-73.96380601043512,40.79287990130599],[-73.96417598587449,40.79236204502814],[-73.96468540739478,40.79166402679901],[-73.96517705565138,40.79099034109971],[-73.96562799538655,40.790366117129196],[-73.96609500572444,40.78973438976685],[-73.96655226678918,40.78910715282573],[-73.967009770734,40.78847679074239],[-73.9674490837313,40.78786072109323],[-73.96792696354466,40.78722157112621],[-73.96838479379785,40.78659569652432],[-73.96885036883977,40.785974052988365],[-73.96908608679962,40.785639695912195],[-73.96910950503637,40.785603280699846],[-73.96933573318947,40.785293279557244],[-73.9698322562294,40.78461091058657],[-73.97030068228266,40.78397541344626],[-73.97076013116738,40.78334013705122],[-73.97122292220953,40.78270625558762],[-73.97172305555839,40.782021476462404],[-73.97357117489403,40.77947786162146],[-73.97406668257638,40.77880541672174],[-73.97429294862518,40.77849798895385],[-73.97453231488409,40.778167785025886],[-73.97475424146451,40.77786469242986],[-73.97500111964057,40.777527779916866],[-73.97545932499851,40.77689872272705],[-73.97595517295024,40.77621975462633],[-73.97645777399887,40.775532537252126],[-73.97691168226288,40.774909124027175],[-73.9773708499307,40.77428100721405],[-73.97782639298856,40.77365619192188],[-73.97828220102313,40.77303187873831],[-73.97872246726034,40.77241889828524],[-73.97919214511967,40.771781266001526],[-73.97965233402236,40.77115532754274],[-73.98011181561736,40.770528368678576],[-73.98056370666846,40.76990532456616],[-73.98102290050332,40.76927283355986],[-73.98167943639396,40.76839013093633],[-73.98173834910156,40.768403641511796],[-73.98179863402325,40.76841302186542],[-73.98185979131854,40.7684181942218],[-73.98192131420718,40.76841911574051],[-73.98198269229637,40.76841577871561],[-73.9820434166812,40.768408210815444],[-73.98207036457542,40.768531121716116],[-73.98209271243385,40.76889229892992],[-73.98221619514828,40.76896042326036],[-73.98320661413719,40.7693793797668],[-73.98431491307137,40.76984818321356],[-73.98476369263244,40.76922640070409],[-73.98498582366271,40.76932070122881],[-73.98761512142401,40.77041544313308],[-73.9903917700522,40.771586321830746],[-73.99045325386554,40.77161224834088],[-73.99051654694486,40.77163911897364],[-73.99175793844428,40.7721661445153],[-73.99320347182804,40.7727798103926],[-73.99332519843281,40.77283147953773],[-73.99341045453508,40.77287889534579],[-73.99349046414066,40.772928905262205],[-73.99362822724505,40.7729936503591],[-73.99369639420198,40.773034832220574],[-73.99393694248319,40.773179510967104],[-73.9938629532914,40.77326952907245],[-73.99382334505351,40.77338176688285],[-73.99376791399207,40.773483994507956],[-73.99369930927804,40.773562152155684],[-73.99362279521324,40.77363229021255],[-73.99352782764133,40.77371444646875],[-73.99344341917197,40.77377054967849],[-73.99341175671518,40.773802612424106],[-73.99335894150748,40.77392688015482],[-73.99262266386542,40.77497405603712],[-73.9925778427661,40.774956016359596],[-73.99252774395154,40.775002110440035],[-73.99246974581534,40.77502415955196],[-73.99240383719187,40.77501814039085],[-73.99226708903541,40.77511603385873],[-73.9920590849371,40.775497598695026],[-73.99212537239492,40.775509075053535],[-73.99222686779699,40.775482211026315],[-73.9923293466088,40.77546890095871],[-73.99236175680113,40.775501899766816],[-73.99238604296033,40.775557179922245],[-73.99208768471269,40.77598397082155],[-73.99201877991071,40.77607334073558],[-73.99142953190217,40.77687956054547],[-73.99092717414969,40.77756687876315],[-73.99073041339479,40.777560550242754],[-73.99039616003651,40.77758506567923],[-73.99010126597662,40.7779964575168],[-73.9896488729282,40.77862756000916],[-73.9892009588643,40.77925239865175],[-73.98920068089922,40.77925278678201],[-73.98917577843804,40.779287524015956],[-73.9890851947859,40.77940759766221],[-73.98886861740003,40.77969292291159],[-73.98887187449976,40.77971373825319],[-73.98921902288048,40.779697895712154],[-73.98927785904425,40.77972343927124],[-73.98940905418013,40.77973770647215],[-73.98949861492703,40.77972504438994],[-73.98959649338822,40.77969814668358],[-73.9896798129025,40.77967756865823],[-73.98975270293786,40.77967124471432],[-73.9898422478065,40.779680752670835],[-73.98994430227148,40.77969659276877],[-73.99004010212055,40.779707677195844],[-73.99013797752482,40.77969976970497],[-73.9902233684564,40.77968236171395],[-73.99033584033221,40.779661794395174],[-73.99043059869709,40.779664972553114],[-73.99050764615505,40.77966813912405],[-73.99062219939678,40.77967606441193],[-73.9907450695054,40.77967132868682],[-73.99087211428218,40.77964600764407],[-73.99096167222429,40.77963968425452],[-73.99105747282952,40.77965235262594],[-73.99115742949704,40.77966977560665],[-73.99124281740437,40.779671367587284],[-73.99125531828965,40.77965078301924],[-73.99129488712012,40.77963020920907],[-73.99132196764988,40.77963179604157],[-73.99135945556947,40.779585882834986],[-73.99155105922745,40.77957482093496],[-73.99141982585964,40.77975528028724],[-73.98888614411696,40.77987889853291],[-73.98893965670626,40.7799561784406],[-73.98892610353074,40.780059292516405],[-73.98891168026461,40.78009603764939],[-73.98891166067366,40.7801223662678],[-73.98891926146842,40.78022609434386],[-73.98838105020263,40.78098107404599],[-73.98823241384697,40.781233144215754],[-73.98821042083165,40.78122548254226],[-73.98814418135409,40.78136567132738],[-73.98813788174478,40.78137928127419],[-73.98812746168686,40.78140179694506],[-73.98804128806725,40.78158596085139],[-73.98810029382462,40.78160287830547],[-73.98807644914505,40.78165093500181],[-73.98801805997222,40.78163418881061],[-73.98796079284213,40.78177098703173],[-73.98791968459238,40.78183347821599],[-73.9878772872501,40.78189205133493],[-73.98647480368594,40.78391657371892],[-73.98625187003545,40.78423876424563],[-73.98611372725296,40.784438911877544],[-73.98561580396368,40.785141862595225],[-73.98546581197026,40.78536070057562],[-73.98617270496545,40.786068452258874],[-73.98645586240198,40.78591921908159],[-73.98707234561559,40.785189638820306],[-73.98711901394266,40.78521031850171],[-73.98649778102359,40.785951202887425],[-73.98616462880626,40.7861218824485],[-73.98612842248589,40.78623900133132],[-73.98607113521973,40.78624070602679],[-73.98602727478912,40.786228964236905],[-73.98609763784941,40.786058225698135],[-73.98542932126942,40.78541394218482],[-73.98508113773205,40.78592193511063],[-73.98519883325449,40.785966552197955],[-73.98517050238989,40.786013334158355],[-73.98521621867364,40.786030501816604],[-73.98525509797992,40.78597620551176],[-73.98524273937656,40.785972572150925],[-73.98524962933016,40.78596313985603],[-73.98528177918674,40.785978620950246],[-73.98524003288452,40.78603585813697],[-73.98568388524217,40.78622212391986],[-73.98571752900456,40.78617599466898],[-73.98576566029752,40.78619627485881],[-73.98568287192252,40.78630978621333],[-73.98563627093054,40.78629015014688],[-73.98567072256466,40.786242911993995],[-73.98561523764435,40.78621964571548],[-73.98520511880037,40.78604766921296],[-73.98521103560748,40.78603955488388],[-73.98516263994709,40.786020999267365],[-73.98513163631205,40.78606029702015],[-73.98501696406484,40.7860142376984],[-73.98493597820354,40.78613072065117],[-73.98465507883023,40.786534741808154],[-73.98574378790103,40.78657008285492],[-73.98589227228327,40.78642652901978],[-73.98594285499497,40.786452847880525],[-73.98594956155668,40.786487113464126],[-73.98581237352651,40.786616865357274],[-73.98513520970326,40.78658761839311],[-73.9846194285841,40.786586016350014],[-73.98369521623664,40.787915281312905],[-73.98234664147552,40.78985478127541],[-73.98188645946547,40.7905165804327],[-73.98139174468552,40.79122824600533],[-73.98128937370952,40.791375509433216],[-73.98094708354064,40.7918678937827],[-73.980537679464,40.79245681262518],[-73.98043434256005,40.79259428309694],[-73.98013222578648,40.79299376588592],[-73.98004684397988,40.79311352566668],[-73.9792882208298,40.79417763216351],[-73.97828949152756,40.79558676046106],[-73.97779475503206,40.7962846297721],[-73.97685207845194,40.797631348393374],[-73.97639951930557,40.7982732106927],[-73.97628527884254,40.79843523541025],[-73.97583055785236,40.799092280913435],[-73.97578169321191,40.799156256780485],[-73.97579140130196,40.79920962788639],[-73.97576219486481,40.79926017354946],[-73.97554385822,40.79952825114008],[-73.97526783234454,40.79993284953191],[-73.97508668067891,40.80018953363319],[-73.97496436808184,40.80036963419408],[-73.97483924436003,40.80055824326287],[-73.97466556722725,40.800813514734344],[-73.97448722520987,40.801057428896996],[-73.97414361823468,40.801516895341344],[-73.9739409836669,40.80180902586418],[-73.97389989052462,40.80188986353137],[-73.9737747724601,40.802045845948754],[-73.97372060455763,40.80216781528042],[-73.97361322463902,40.80229685988735],[-73.9735422772157,40.802356411250486],[-73.97336671067802,40.802630113346645],[-73.97320518045738,40.80283005827647],[-73.97312859120993,40.80297471550882],[-73.97307070537943,40.80305554844759],[-73.97303522902074,40.80307397374209],[-73.97292317001968,40.80324982284404],[-73.97286807262154,40.80332073417621],[-73.9728717908152,40.80335618764548],[-73.97255429829629,40.80379863465031],[-73.97217237241797,40.80431907695924],[-73.97205095521868,40.80453037601023],[-73.97195292438504,40.80461970955434],[-73.97181849483565,40.80471754270211],[-73.97179980150743,40.804785615486196],[-73.97171200727094,40.80493169127671],[-73.97162049569336,40.80504229439955],[-73.9716111339144,40.80509618747454],[-73.97144210961521,40.80533442683998],[-73.9712908330033,40.80552870753339],[-73.97110765852304,40.80579013967689],[-73.97098768003514,40.80574290292936],[-73.97084148354809,40.80568534376002],[-73.97076362366846,40.80565737288],[-73.9706932647336,40.80563026844936],[-73.96978722003337,40.805300497384785],[-73.96860707406111,40.8048709498983],[-73.96855913351783,40.80485358412031],[-73.96849506726129,40.80483227038455],[-73.96804849327083,40.80468370013378],[-73.96680327257147,40.80420756112116],[-73.96670106890302,40.8041684769373],[-73.96659750442795,40.80412367716175],[-73.96617495177576,40.80394550480163],[-73.9660350145065,40.803886498631314],[-73.96556498704618,40.80368860124575],[-73.96542640500708,40.803630317775536],[-73.96434277748811,40.80317456140505],[-73.96386126291169,40.80297203835353],[-73.96107794002128,40.801800357720595],[-73.95964685423152,40.80115642325664]]]]}}]}