{"type":"FeatureCollection","features":[{"type":"Feature","properties":{"district":"104"},"geometry":{"type":"MultiPolygon","coordinates":[[[[-73.99393694248319,40.773179510967104],[-73.99369639420198,40.773034832220574],[-73.99362822724505,40.7729936503591],[-73.99349046414066,40.772928905262205],[-73.99341045453508,40.77287889534579],[-73.99332519843281,40.77283147953773],[-73.99320347182804,40.7727798103926],[-73.99175793844428,40.7721661445153],[-73.99051654694486,40.77163911897364],[-73.99045325386554,40.77161224834088],[-73.9903917700522,40.771586321830746],[-73.98761512142401,40.77041544313308],[-73.98498582366271,40.76932070122881],[-73.98476369263244,40.76922640070409],[-73.98431491307137,40.76984818321356],[-73.98320661413719,40.7693793797668],[-73.98221619514828,40.76896042326036],[-73.98209271243385,40.76889229892992],[-73.98207036457542,40.768531121716116],[-73.9820434166812,40.768408210815444],[-73.98198269229637,40.76841577871561],[-73.98192131420718,40.76841911574051],[-73.98185979131854,40.7684181942218],[-73.98179863402325,40.76841302186542],[-73.98173834910156,40.768403641511796],[-73.98167943639396,40.76839013093633],[-73.98163149508558,40.76836792832163],[-73.98158722705399,40.768341684459784],[-73.98154721875821,40.7683117470299],[-73.98151200070666,40.768278512095364],[-73.98148203905497,40.76824242054146],[-73.98145773072422,40.76820395050654],[-73.98144254439356,40.768163969679264],[-73.98143283543772,40.76812301497626],[-73.98142870638894,40.76808151894593],[-73.9814302008462,40.76803991985312],[-73.98143730301403,40.76799865692522],[-73.98144993789009,40.767958166088086],[-73.98146797202055,40.76791887498779],[-73.98149121492801,40.76788119859859],[-73.98152818469129,40.767842239448434],[-73.9815712096729,40.76780705678128],[-73.98161962886334,40.76777619111477],[-73.98167269832351,40.76775011636323],[-73.98172960284076,40.767729233388586],[-73.98178946818103,40.76771386301852],[-73.98184374413894,40.767707205347996],[-73.98189866359165,40.76770527993014],[-73.98195351509243,40.767708111707556],[-73.98200758757885,40.76771566310004],[-73.98206018120919,40.76772783711398],[-73.98211061467009,40.76774447604383],[-73.98236353955855,40.76738807367075],[-73.98287713455196,40.76671559514089],[-73.98313166741198,40.76636698305537],[-73.98336657834079,40.766045241866294],[-73.98382185703375,40.76541847469765],[-73.98428230080653,40.76479181459929],[-73.98473393779601,40.76416910487761],[-73.98519152225465,40.763543674647984],[-73.9856467772461,40.76291487448308],[-73.98610406084957,40.76228995260437],[-73.98656138533343,40.76166012236265],[-73.98701514555319,40.761037367478025],[-73.98747524633461,40.76040478688609],[-73.98792640693839,40.75979027715798],[-73.98839044575156,40.75916418617793],[-73.98884253802557,40.75853349905822],[-73.98929727543882,40.757906637649825],[-73.98979085401604,40.757233131919044],[-73.99027621412581,40.75656756504979],[-73.99072636339713,40.755950405564995],[-73.99117738092278,40.75532984858147],[-73.9916327131064,40.754706805009775],[-73.99207900011059,40.75409111586552],[-73.99252855991885,40.75347391289287],[-73.99297937844118,40.75285340289921],[-73.99346417736238,40.752190055267846],[-73.99394825659856,40.75152222166022],[-73.99437946790309,40.75093038980298],[-73.99484363830837,40.750293308963045],[-73.99529821460949,40.74967168260023],[-73.99574855507053,40.74905219622111],[-73.99619655466972,40.74843932774481],[-73.99664704439097,40.747822729082976],[-73.99709902854308,40.747205102042415],[-73.99501433132748,40.74632232718021],[-73.99426258628625,40.746003981358065],[-73.99141858494617,40.74480268249635],[-73.99187102433551,40.74418557094647],[-73.99206647165177,40.74391620270646],[-73.99232182344697,40.743568093422006],[-73.99280340949005,40.742910020203496],[-73.99328973329938,40.74223428154997],[-73.9937335385752,40.7416222013169],[-73.9939707175459,40.74129843873175],[-73.99416078337212,40.74102882229362],[-73.99459264910554,40.74044198090856],[-73.99501798542454,40.73986001125012],[-73.99544725767048,40.73926838458007],[-73.99587409458948,40.73868594566557],[-73.99634236965908,40.738045232056756],[-73.99683993860417,40.737360889398374],[-73.99968423039347,40.73855247381623],[-74.00252381416747,40.739752643642305],[-74.00310733884224,40.73999752055912],[-74.00512553452248,40.740850213068576],[-74.00536222029363,40.74094950351815],[-74.00544214844913,40.74098214026187],[-74.00697077724404,40.74162712715832],[-74.00779116134794,40.74197084424423],[-74.0082040187844,40.742147518791064],[-74.0086990229636,40.742361723963505],[-74.00879080522749,40.74237514372377],[-74.0088933979832,40.74238416718943],[-74.00901826641196,40.74243747858323],[-74.00915345169425,40.74249618755625],[-74.00909156846193,40.742886149072554],[-74.00924013575025,40.74289951841009],[-74.00924074160112,40.74291316086358],[-74.00962015348912,40.74295124838993],[-74.00956843411765,40.74325778472655],[-74.00958464345703,40.74326352048325],[-74.0121194002866,40.74351661218273],[-74.01213726936176,40.74353192705941],[-74.01214813183593,40.74355930154771],[-74.0120900828903,40.743897637649034],[-74.01206903486668,40.7439224935485],[-74.01202085006399,40.743939770208996],[-74.01197763342873,40.74393556042114],[-74.00951201767367,40.74367609376045],[-74.00948868364232,40.743695681682276],[-74.00943800870864,40.743971255473234],[-74.0093942693211,40.74396871683835],[-74.0090420750423,40.74393387125523],[-74.00890032962842,40.7439179270962],[-74.00880283523887,40.744439347624365],[-74.00872780058874,40.7448582329102],[-74.00872986359421,40.74488153782985],[-74.00893975844275,40.74490921733261],[-74.00957440612908,40.74499290866298],[-74.00961227924414,40.74499790315071],[-74.00955832929749,40.74528882529887],[-74.00991660813456,40.74532725500723],[-74.00993436677696,40.745317078102005],[-74.00993796184932,40.745296701410595],[-74.00994341816717,40.74526576973655],[-74.00995048769146,40.745225690321085],[-74.00995852601345,40.74518011964677],[-74.00996759959419,40.74512868110861],[-74.0099735068339,40.7450951941159],[-74.00998135739343,40.745050682388644],[-74.00998917273142,40.7450063842596],[-74.00999822601715,40.74495505930228],[-74.00998685784818,40.744944164215354],[-74.00986948474728,40.744933917707314],[-74.0098721108548,40.74491650212594],[-74.01016790535392,40.744942329709765],[-74.0101646519737,40.74496392462993],[-74.01005375656217,40.74495423493008],[-74.01003848384612,40.74496345807833],[-74.0100236125255,40.745046345318194],[-74.01001404323709,40.74509967661572],[-74.01000814033458,40.74513257676576],[-74.00999930170606,40.745181839791215],[-74.0099925052406,40.74521971906441],[-74.00998320132659,40.745271573088864],[-74.00997743638767,40.74530370360911],[-74.0099739502192,40.745323135109416],[-74.00999095379996,40.74533668617151],[-74.01046920011868,40.74538676602916],[-74.01048835594965,40.745375715094845],[-74.01049187417472,40.745355167013976],[-74.01049693441198,40.74532561543098],[-74.01050332781192,40.745288270909015],[-74.01051171655331,40.74523927525849],[-74.01052083436335,40.74518602135901],[-74.01052681665284,40.74515108070628],[-74.01052968455846,40.74513433251278],[-74.0105504475589,40.74501305720761],[-74.01053188168761,40.74500298237196],[-74.01041700660257,40.74499358270352],[-74.01041937209388,40.74497682417123],[-74.01076419780692,40.745005032020956],[-74.01076156046138,40.74502372618368],[-74.0106062154019,40.74501101647447],[-74.01058579200931,40.74502044656174],[-74.01056801091906,40.74513793282657],[-74.01056370849734,40.74516636225337],[-74.01055056928827,40.74525318207801],[-74.01053978205329,40.74532445541953],[-74.01053373534738,40.74536440745716],[-74.01053106537704,40.745382050389644],[-74.01054520392155,40.7453921350118],[-74.01110359804885,40.745447670244126],[-74.01111624163289,40.74543612462561],[-74.0111246622997,40.74537776220261],[-74.01113010029034,40.74534322832571],[-74.01113887006922,40.74528754863202],[-74.01114545795528,40.745245720718714],[-74.01115627315944,40.74517704715629],[-74.01116113418436,40.74514617646117],[-74.01117183119825,40.74507825828352],[-74.01115328709841,40.74506864307043],[-74.01104281748226,40.74506096342376],[-74.01104459150831,40.74504621240219],[-74.01138769974182,40.74507311268278],[-74.01138567845325,40.74508800814163],[-74.0112303805723,40.74507583066286],[-74.01121085294055,40.74517080418534],[-74.0112059244744,40.745194770630945],[-74.01118816871943,40.74528112609186],[-74.01118102964986,40.74531584944158],[-74.01116675082788,40.74538529798206],[-74.0111541917691,40.74544637808411],[-74.01116709976122,40.74546035254014],[-74.01173958552815,40.745519918190354],[-74.01179527645735,40.74515466698517],[-74.01178273500794,40.74513495612853],[-74.01166900853472,40.74512733119157],[-74.01167067583798,40.74511397733999],[-74.01183642872417,40.74512596367891],[-74.01177458786391,40.74552484642155],[-74.01177025765053,40.74555278403776],[-74.01176635449525,40.745577980043656],[-74.0117827582809,40.74560157225559],[-74.01171897530912,40.74593984499795],[-74.01171123496545,40.74596125915188],[-74.01167885505596,40.74597946181612],[-74.01163451251732,40.7459783948063],[-74.01055524902243,40.74587110442307],[-74.01055133475727,40.74590288399986],[-74.01012821388646,40.745857238929176],[-74.01012821162075,40.74584233546322],[-74.00994668462282,40.74581951444579],[-74.0099480791384,40.74580017091213],[-74.00946389855972,40.74575014365962],[-74.00945236676583,40.745817473388485],[-74.00944165126164,40.745880035252895],[-74.00943562211822,40.745915242718674],[-74.00942443646915,40.74598054836323],[-74.00941900727406,40.74601224727732],[-74.00940745668301,40.74607969560925],[-74.009401558017,40.74611413662922],[-74.00939067734767,40.746177655911936],[-74.00938523645611,40.74620942686076],[-74.0093804226021,40.74623753680819],[-74.00937637598555,40.74626116385942],[-74.0093636273423,40.74633560197741],[-74.01153382764763,40.74656775471247],[-74.011567829226,40.74657945216911],[-74.01159123434022,40.74660150547614],[-74.01158846879171,40.746628074402345],[-74.01153307246702,40.746966826948174],[-74.01151183018257,40.74698460360064],[-74.01148373087554,40.74699058876545],[-74.01144491250467,40.74698628502863],[-74.00924314658675,40.7467627907539],[-74.00913736259926,40.74735976280317],[-74.00956047962374,40.74740279960471],[-74.00956103476231,40.747387733595396],[-74.00956765300357,40.74738787745338],[-74.00956826626557,40.74737108340675],[-74.00955039867242,40.74737070611299],[-74.00955155415365,40.74733934176806],[-74.00996384996873,40.747377803012704],[-74.00995838445456,40.74741167208301],[-74.00990669970037,40.74740684960861],[-74.00990158912964,40.74743848434909],[-74.01135675337726,40.747592418347],[-74.01139477623487,40.74761090210883],[-74.0114067393552,40.74763055006822],[-74.01134693158474,40.74797620599535],[-74.01133174441692,40.74800057534217],[-74.0113035299375,40.748014571909074],[-74.01126611253964,40.74801371918134],[-74.00905847901343,40.74778564533301],[-74.00894606502322,40.74841189316889],[-74.00897918405973,40.748412709627104],[-74.00897918237624,40.74840021938065],[-74.00907100927556,40.74840976720658],[-74.00907390770351,40.748395061701],[-74.00941511636567,40.74842958691745],[-74.00941607672534,40.7484369350381],[-74.00952336741516,40.74844795680843],[-74.0095188236012,40.74847354043612],[-74.01116687561544,40.74864504676633],[-74.01119472751151,40.74865681411407],[-74.01121561813416,40.74867799224373],[-74.01121562130412,40.748696821175976],[-74.01114914281891,40.74902574726506],[-74.01113289942985,40.74904163383118],[-74.01110891182985,40.749049875919766],[-74.01107797059215,40.749051643117426],[-74.0099481793803,40.74893198800587],[-74.00956174747358,40.7499699751995],[-74.00925340917918,40.749985205722105],[-74.00910453215725,40.750371069730505],[-74.01067737532614,40.751022674477085],[-74.01056463476439,40.75132146210147],[-74.00900098259454,40.75064818378276],[-74.00870618650585,40.75142680500349],[-74.00873137829981,40.75146589496991],[-74.0086672907182,40.75162819722093],[-74.00862089839437,40.75165257792264],[-74.00853256925024,40.7518836093045],[-74.00876004993508,40.75194801420727],[-74.00914082120002,40.75209759409922],[-74.00912661123245,40.75211689573511],[-74.00874567715042,40.75196439532719],[-74.0086511593681,40.75193951261581],[-74.0086431823763,40.751956502032115],[-74.00896912527918,40.75207679147891],[-74.00895742294804,40.75209022513113],[-74.0090389596997,40.752125155650056],[-74.00904909796247,40.75211834944319],[-74.00910757975159,40.75213971211202],[-74.00910596820009,40.752142124949636],[-74.00905774009662,40.75221435124337],[-74.00899734911651,40.75218910594731],[-74.0090076280833,40.75217684223697],[-74.00892887650475,40.75214400187035],[-74.00891472422606,40.752163628476005],[-74.00867223768388,40.752062250000904],[-74.00859053101699,40.75202810543455],[-74.00858095760466,40.75204388241179],[-74.00866456561995,40.75207286787702],[-74.0093408924528,40.752355609545724],[-74.00932795206229,40.75237350304632],[-74.008478955728,40.75201857192007],[-74.00842636447226,40.75215785023945],[-74.00881779819426,40.75232434585436],[-74.00880273703076,40.7523448540374],[-74.0088394166214,40.752358816534866],[-74.00885173565307,40.75234228177313],[-74.00986566961524,40.75276341313944],[-74.00984627922618,40.752785441959595],[-74.00988922619958,40.75280368102833],[-74.00990631519599,40.75278041119854],[-74.0099905581975,40.75281618714928],[-74.00992010631792,40.75291212551456],[-74.00997058797022,40.75293356415334],[-74.00991916275493,40.753003591459375],[-74.00978913116427,40.75294837008787],[-74.00988774868318,40.75281407765349],[-74.00983854674402,40.752794967983235],[-74.00983056913984,40.75280346424475],[-74.00882994505393,40.75238001600731],[-74.00883632714998,40.752371521109716],[-74.00879210090847,40.7523521383797],[-74.00868792219572,40.752493998628566],[-74.00835352838843,40.75235073934249],[-74.00801152240531,40.75325645210968],[-74.00790245613032,40.753542611512046],[-74.00773872468986,40.75397215781875],[-74.00761949611852,40.75428184177427],[-74.00774404830214,40.754336801931885],[-74.00759618989146,40.75453055073434],[-74.00747157990921,40.754477019921445],[-74.00729394650313,40.754723184451045],[-74.00728499944323,40.75473556820334],[-74.00741362036906,40.754789302669614],[-74.00727181174769,40.7549855945354],[-74.00714468360972,40.754932481173604],[-74.00695917416678,40.75518079484957],[-74.00680635763683,40.75539177564048],[-74.00670291840636,40.755532367491114],[-74.00657767658517,40.75570687143413],[-74.00647435577088,40.75584955345522],[-74.00620548925967,40.7562208434686],[-74.00610422181595,40.7563605196208],[-74.00596691029224,40.75655814243305],[-74.00592383847429,40.756620235634394],[-74.00580938168251,40.756789341981126],[-74.00541885841005,40.75732314034936],[-74.00521187705773,40.75723199854007],[-74.00480392560185,40.75780984316488],[-74.00496777078658,40.75788416444813],[-74.00527894797891,40.75802855492844],[-74.0050310513664,40.758357016473305],[-74.0069642874931,40.75916005756179],[-74.00699375268466,40.75917614764281],[-74.00701038304962,40.759203720386836],[-74.00700358904015,40.75923187034123],[-74.00652959987842,40.759874751241384],[-74.00650687640183,40.75989203231737],[-74.00647588371956,40.7598936012682],[-74.0064435290131,40.75989046046477],[-74.00631515935251,40.75984282204481],[-74.00450483093914,40.75908499655288],[-74.00420629125391,40.759501707688564],[-74.00390742032769,40.75937569218368],[-74.00380657835007,40.759510731466186],[-74.0040798895684,40.759626044742895],[-74.00424697128062,40.759699214171576],[-74.0042024743225,40.759761071881954],[-74.00414863814689,40.759835914170964],[-74.00424487588262,40.75988657316676],[-74.00425967856717,40.759875307678705],[-74.00431889425076,40.75991068576361],[-74.00426869650673,40.75995927951609],[-74.00421059345653,40.75992456661018],[-74.00422266067,40.75991310304382],[-74.00413171622799,40.759861642396196],[-74.00411162007795,40.75989300730739],[-74.00366891453541,40.75970596957674],[-74.00357251040076,40.75984655897331],[-74.00392854933564,40.76000301972061],[-74.003825595952,40.76013313666701],[-74.003588009112,40.76045170695143],[-74.0033848822989,40.76072887070651],[-74.00313338991401,40.76107834509648],[-74.00278691552613,40.76092896970349],[-74.00233528130057,40.7615437270018],[-74.00454520983433,40.76249280194501],[-74.00455814361389,40.76250787607552],[-74.00455641560922,40.76252426502523],[-74.00444951527277,40.76266456720016],[-74.00442709659245,40.76267570735653],[-74.00439976203518,40.76267135909899],[-74.0022008207327,40.76172843222664],[-74.00178824022314,40.76229452014182],[-74.00153309066981,40.76264459812778],[-74.00375735037694,40.76358224164074],[-74.00361214794175,40.7637770439099],[-74.001386036986,40.762850095002065],[-74.00097308022016,40.76342027172584],[-74.00314976988994,40.76433288868739],[-74.00294809515722,40.764616835931506],[-74.00306161234066,40.764665782653594],[-74.00313458336224,40.76464959820689],[-74.00316194577044,40.764612610454805],[-74.00322275585363,40.764638037670395],[-74.00315587058185,40.76473050988013],[-74.00314652966799,40.76473628138387],[-74.00313606019273,40.764740796432726],[-74.00312475154531,40.76474393022517],[-74.00311291631085,40.76474559613918],[-74.00310088163013,40.76474574812681],[-74.0030889801569,40.76474438198694],[-74.00106364220511,40.76388820826305],[-74.00073105253733,40.76375528636159],[-73.99992712367728,40.763406528479514],[-73.99963853555371,40.763569070990975],[-73.99962263458187,40.76355908121064],[-73.99951767096823,40.76370627918046],[-73.99944642217315,40.763806194578656],[-73.99943330724619,40.76382391019716],[-73.99915098087908,40.76420525958287],[-74.00227436642373,40.76552518109975],[-74.00228802371481,40.76556154379539],[-74.00205713831564,40.76587739041879],[-74.00202454330335,40.765893266570565],[-73.99919997246741,40.76470191498269],[-73.99910832564545,40.76466249985771],[-73.99888473174988,40.76456937704867],[-73.99857638530538,40.76499860727096],[-73.99859978707626,40.76507334028612],[-73.99863487876344,40.765085794737914],[-73.9986653047344,40.765104480747354],[-73.99868637477219,40.765137394267924],[-73.998695730373,40.76517476567974],[-73.99868870694561,40.76520857045002],[-73.99866764711378,40.7652370353431],[-73.99863371556073,40.76526016874142],[-73.99858924105146,40.76527617880701],[-73.99848276468684,40.765297536984576],[-73.99843830371466,40.76531621383403],[-73.99840202518251,40.765350909087715],[-73.99835829733873,40.765418048763934],[-73.99829119846429,40.76552107275892],[-73.9982709030835,40.76555223341343],[-73.9982816070953,40.76556777493493],[-74.00154217871203,40.76694470253285],[-74.00157335385268,40.76697719221087],[-74.0015618057548,40.76699649936847],[-74.00139437159497,40.76723004773319],[-74.00136434612979,40.76724936397127],[-74.00131469636004,40.76725112005011],[-74.00129391014994,40.767241458241756],[-73.9981567843898,40.76589403537427],[-73.99814818647367,40.76590560707514],[-73.99806675905354,40.76587188113588],[-73.99772134825697,40.76634912055595],[-73.99737808447966,40.76682338587715],[-74.00062837395305,40.76820311105888],[-74.000650167862,40.768220373786825],[-74.00064950530418,40.76824523610574],[-74.00045489336716,40.768504195680194],[-74.00041765393195,40.7685124799646],[-74.00038586489076,40.76850419593204],[-73.99715588949212,40.76712869617297],[-73.99681598463503,40.76760062185933],[-73.9964571540504,40.76809881579582],[-73.999728191901,40.76947350663387],[-73.99973590247853,40.7695061773317],[-73.99955518930786,40.76975080774024],[-73.99951552161613,40.76976756583799],[-73.99947253734024,40.76976421547192],[-73.99707176039311,40.76873264357703],[-73.99702628821073,40.76879551562402],[-73.99715035477146,40.76884738771358],[-73.99701071413826,40.769028790653806],[-73.99689311312369,40.76897962932219],[-73.99657126439577,40.769424568274005],[-73.99902682832902,40.77046327298224],[-73.99876206914315,40.77082505670939],[-73.99631327022085,40.76979883633659],[-73.99588004351685,40.770400579515005],[-73.99601693196199,40.77045484888637],[-73.99590077425034,40.77061312350113],[-73.99576733283618,40.77055459595407],[-73.99542474436302,40.771031615168134],[-73.99575648212901,40.771160668465974],[-73.9957085906995,40.77122581253311],[-73.99579774020454,40.77128256276425],[-73.99581687579044,40.771256516415725],[-73.99591283603844,40.77129785562394],[-73.99592803670673,40.77127510283781],[-73.99600175749052,40.77130746533072],[-73.99589990100937,40.77145029858229],[-73.99589260894886,40.77144708702481],[-73.99585437252811,40.77149918074863],[-73.99579117748779,40.77147551882058],[-73.99582805886243,40.77142166722259],[-73.99572993314408,40.7713788187939],[-73.99575123412828,40.771354282277386],[-73.99562982240307,40.77132529262824],[-73.99562306904366,40.771336957513036],[-73.99530566365357,40.77119600490969],[-73.99512395556886,40.77145073826726],[-73.99499014482076,40.771440709806654],[-73.99495733353699,40.771449190697886],[-73.99493501659009,40.77146814607559],[-73.99492385794417,40.771485605937656],[-73.99492582120637,40.77151604240567],[-73.99500915438725,40.77160733994432],[-73.99497830771196,40.771645249473465],[-73.9949768849473,40.771658774923495],[-73.99707328169315,40.77254286890211],[-73.9968729144914,40.77281748122877],[-73.99477407930823,40.77192954753038],[-73.99444501293384,40.77237712658849],[-73.9954551499559,40.772802675029276],[-73.99622972001936,40.773128975045495],[-73.99612087994667,40.773275391093186],[-73.99434191991621,40.77252478194361],[-73.99424979228651,40.77252648513829],[-73.99416328456306,40.772487191021455],[-73.99383108203092,40.77293178785083],[-73.9938875450246,40.77295574416407],[-73.99389125243704,40.77295519487691],[-73.99396258551457,40.77294465390911],[-73.99401262480514,40.77288284612953],[-73.99412205808243,40.77292405852363],[-73.99413665258861,40.77290187017444],[-73.99430134239114,40.77297002866411],[-73.99428153513446,40.77299380156694],[-73.99437655275096,40.773039551101554],[-73.99431863468713,40.773121440270394],[-73.99429402982382,40.77315624399199],[-73.99502327586075,40.77348119657636],[-73.99507108796963,40.773414138666006],[-73.99508939189286,40.773388475039326],[-73.99501396371679,40.77335803492454],[-73.99505028469918,40.773297153190036],[-73.9962406518988,40.77378979139785],[-73.99619583747098,40.773852356184264],[-73.99610846880843,40.77381631601527],[-73.99610778142996,40.77381737760125],[-73.99606316808179,40.77388688661024],[-73.99612697773726,40.773913354621016],[-73.99612850482784,40.77391398490333],[-73.99612636140223,40.77391671365438],[-73.99609880736975,40.773951805299276],[-73.99611835102779,40.773960323961546],[-73.99617945997379,40.77398695435169],[-73.99609524522621,40.774086186437806],[-73.99605125275335,40.77406889580338],[-73.99557226516114,40.77387073139446],[-73.99393694248319,40.773179510967104]]]]}}]}