{"type":"FeatureCollection","features":[{"type":"Feature","properties":{"district":"211"},"geometry":{"type":"MultiPolygon","coordinates":[[[[-73.8283434743151,40.86089202617244],[-73.82842679678187,40.86078903758225],[-73.82872856883553,40.86041332810496],[-73.82959409223251,40.85935976430038],[-73.83052916302705,40.85822149830169],[-73.83072266720518,40.8579945866421],[-73.83089043259321,40.857793239547625],[-73.83111449155481,40.85752432962308],[-73.83128338487245,40.857349962423704],[-73.83193393765507,40.856693517036796],[-73.83213712264228,40.85654369113229],[-73.83238468542342,40.85635221095643],[-73.83268903342015,40.85613238352449],[-73.83276219928993,40.85607953976191],[-73.83283502256519,40.8560358452587],[-73.83289066027622,40.85599217088177],[-73.83289262209288,40.85599062513546],[-73.8328931204011,40.855990230166555],[-73.83304234623013,40.85587308037106],[-73.83338272545622,40.8556058608905],[-73.83351847221597,40.85548793899292],[-73.8337795278909,40.855261165652315],[-73.8339302371213,40.85513024388278],[-73.83458321716229,40.85443233683157],[-73.8347353750812,40.85424717963192],[-73.83494462566206,40.853936290330424],[-73.83536217184884,40.85331592224552],[-73.83551904674769,40.8530195775614],[-73.83570477511141,40.85264086131812],[-73.83577576916663,40.852475749056346],[-73.83585597013898,40.852246831033824],[-73.83599087755574,40.85179628151691],[-73.83614279002084,40.851041758573515],[-73.83629180653082,40.84970887998036],[-73.8363372576998,40.848640608087585],[-73.836470550498,40.847149372783036],[-73.83663806910552,40.84638333419499],[-73.83671179690661,40.846057369668024],[-73.8369114823119,40.84539281848087],[-73.83715189445692,40.84459269988868],[-73.8372258397222,40.84438427637913],[-73.83753625749348,40.84350678887878],[-73.83775409554885,40.84288590955697],[-73.83780368339026,40.84273284348443],[-73.8378427094752,40.842607107138065],[-73.83798416201626,40.84215134993816],[-73.8382477523711,40.84130205287852],[-73.83839056225074,40.840676814134376],[-73.83849424734122,40.84069922011957],[-73.838657882502,40.84073457271279],[-73.8388081325931,40.840767034169666],[-73.83936794250651,40.84088297348197],[-73.84124053003696,40.84060145432203],[-73.84127127840377,40.84065091135951],[-73.8414166785508,40.84088477699879],[-73.84146102037418,40.84095609562082],[-73.84187977473343,40.841528088335814],[-73.84239309005383,40.84226986154711],[-73.8428366829414,40.84290554048006],[-73.84327655860383,40.84354180594527],[-73.84377570733761,40.84411862820683],[-73.84429152966905,40.844682548627176],[-73.84491034255328,40.845427460749114],[-73.84554187387901,40.84498023191845],[-73.84623480005452,40.84449021730177],[-73.84749010563391,40.84356161070956],[-73.84781023397423,40.843290548002024],[-73.84801856040045,40.84311415064125],[-73.84806345327982,40.84306799865136],[-73.84854530560368,40.84300722495372],[-73.84939158357136,40.84291857105721],[-73.84999194342619,40.842851628163544],[-73.85052278082752,40.84278948980173],[-73.85088863318735,40.84275300688598],[-73.8512089676086,40.84271512190187],[-73.85179886625357,40.842647632933854],[-73.85231153208414,40.84258699399412],[-73.85333524942047,40.84247015515494],[-73.853497466347,40.84245166764601],[-73.8542074583179,40.84237073917797],[-73.8551967539752,40.842257993058865],[-73.8555357982913,40.84221949049579],[-73.85618402154988,40.842145917750415],[-73.8571924801879,40.84202764844591],[-73.85752599455085,40.84198505180285],[-73.85835669096838,40.84189928661627],[-73.85919593618577,40.84180403347789],[-73.85972452366104,40.8417440199691],[-73.86018491948425,40.84168909068517],[-73.86045627359847,40.84166166593843],[-73.86162833369181,40.84152785968456],[-73.86176166505352,40.84151272060434],[-73.86347232379067,40.841305932707414],[-73.86358014047163,40.84127795713543],[-73.8636393815745,40.84126527526662],[-73.86436922143719,40.84110901812886],[-73.86448011717788,40.84108779738702],[-73.86546450190856,40.84085689196487],[-73.86636130790102,40.8405926850231],[-73.86724818955624,40.84034380437121],[-73.86740207044747,40.840290276055875],[-73.86782258115176,40.8401664990163],[-73.86830846924825,40.839995213956236],[-73.86874073484628,40.839824576641014],[-73.86920766882209,40.83960004671199],[-73.86955862089135,40.83959565346207],[-73.8700652511302,40.839613882663905],[-73.87018178222267,40.839618075497924],[-73.87027638565249,40.839621478807594],[-73.87034786960044,40.83962556652296],[-73.87120605859423,40.83967462244253],[-73.87272718491766,40.8397489448009],[-73.87277204658531,40.8397512823362],[-73.87267805874693,40.84013719710692],[-73.872527839146,40.84075398300699],[-73.87239558060885,40.841336375432014],[-73.8723636518317,40.84147696098281],[-73.87234056327031,40.84158362618964],[-73.87231748546176,40.84169028202056],[-73.87213357912808,40.842497795052445],[-73.87196432156817,40.84323825377405],[-73.87191691451008,40.84345374314856],[-73.8718461029101,40.843760777855984],[-73.87179038486074,40.843802814335966],[-73.87096254074736,40.844333660002405],[-73.86941208460316,40.84724549093982],[-73.86889243274607,40.84811232212591],[-73.86956259014313,40.8480187132387],[-73.86952362951791,40.84868697708541],[-73.86920944569869,40.84923837287265],[-73.86832194783206,40.85076372014852],[-73.86825077740679,40.850959586229564],[-73.86854755448319,40.85178561105263],[-73.86846906797379,40.85197065424528],[-73.86853163755039,40.852038596140574],[-73.86858653558909,40.85211025979786],[-73.86863338040834,40.852185147004676],[-73.86867184646577,40.852262736608004],[-73.86870166621294,40.85234248973057],[-73.86872263230673,40.852423851915574],[-73.86916668734237,40.85368604602772],[-73.86937675396226,40.854265722609924],[-73.86981576187041,40.855483774853816],[-73.86985960421015,40.8555767281426],[-73.86988939546755,40.85567386169519],[-73.86990421502472,40.85577329269315],[-73.86990379512369,40.85587302161535],[-73.86988842220666,40.85597106765234],[-73.86939125611116,40.85655189517634],[-73.86927391244505,40.85668898256506],[-73.86907624640511,40.85694556061971],[-73.86887858965144,40.857202138336355],[-73.86876752921249,40.85734077991896],[-73.86841539629742,40.8577803581431],[-73.86818830558734,40.85806383431104],[-73.86828907633121,40.85808506538457],[-73.86839376937198,40.85809555823884],[-73.86849936431551,40.85809484203042],[-73.86860278452933,40.85808310054421],[-73.86872540334575,40.857953433785276],[-73.86889622788394,40.857772772945246],[-73.86954868104695,40.85772602968],[-73.87084887444581,40.85729081724891],[-73.87087754120729,40.85727822426877],[-73.87088962477316,40.85727291641062],[-73.87088983832453,40.85727281781079],[-73.87089011088595,40.85727278193073],[-73.87094366184884,40.85726605195429],[-73.87094413634868,40.85726598932874],[-73.87094462202346,40.85726608050217],[-73.87100173105794,40.85727674273903],[-73.87100227673024,40.85727684269053],[-73.87100272741756,40.85727711273962],[-73.87104905861847,40.85730460336038],[-73.87104944936107,40.857304837659804],[-73.87104967424494,40.85730515302269],[-73.87107580428581,40.85734126459009],[-73.87107594555307,40.857341462928154],[-73.87107598135401,40.85734166114837],[-73.87108262512788,40.85737704013537],[-73.87103268807411,40.857807797394216],[-73.87097845158797,40.85819941465345],[-73.87088409248919,40.85889518076057],[-73.87057937590284,40.86140455392729],[-73.87044483720364,40.86327040002456],[-73.87042112154062,40.86361854533537],[-73.87040531728131,40.86396694933747],[-73.87039742925018,40.86431550841693],[-73.87039745976213,40.86466411923758],[-73.87040540909548,40.86501267779757],[-73.8704212750105,40.865361080432216],[-73.87045509057094,40.86663286876325],[-73.8704918698942,40.86795083099329],[-73.87049783392372,40.868176654963904],[-73.8704995802517,40.86824277610927],[-73.87051057057843,40.86865883536722],[-73.87051473333172,40.86881643234393],[-73.8705162978047,40.8688756652313],[-73.8705262159971,40.86925117679402],[-73.87052897258344,40.869355533349115],[-73.87053320083079,40.869515580235905],[-73.87053494722683,40.86958170253747],[-73.87053738586192,40.8696740314124],[-73.86990570904021,40.869675664975794],[-73.86985071540245,40.869675807173856],[-73.86962113649045,40.86967639885997],[-73.86927751280761,40.86967728528747],[-73.86911766896942,40.86967825029248],[-73.86903978617536,40.869678721289276],[-73.8686229317931,40.86968123639584],[-73.86854501280122,40.86968170651492],[-73.86838472955667,40.869682673857156],[-73.86822921023524,40.869683611237036],[-73.86784862281397,40.86968774318951],[-73.86777525870416,40.869688539649346],[-73.86752840871861,40.869691217500964],[-73.86722064568133,40.86969426232053],[-73.86653818875742,40.86969815578737],[-73.86620523233438,40.86969329534192],[-73.86526483320355,40.86967442528213],[-73.86432616559905,40.86965632371785],[-73.86338621197271,40.869640771072056],[-73.86244745166893,40.869621430525925],[-73.86179554913944,40.86960987919542],[-73.8617944760017,40.86960986032022],[-73.86143383786286,40.869603468024586],[-73.8604220182369,40.86958500476365],[-73.85948361308526,40.869567116579155],[-73.8585412426463,40.869550945745175],[-73.85760787709096,40.869534381297015],[-73.85745013526693,40.86953252052369],[-73.85666245264409,40.870361185739995],[-73.856501878474,40.87056636475634],[-73.85603037260063,40.871233520154234],[-73.8555490916087,40.87181316756395],[-73.85454351090921,40.872604352794696],[-73.8536363872702,40.87330059920912],[-73.85265751852012,40.87299218740452],[-73.85162521226748,40.87265922965924],[-73.85104551826832,40.87247998809069],[-73.85078983242634,40.87239629245444],[-73.8498764519222,40.8721018813923],[-73.84893754864451,40.87178559018943],[-73.84859676002684,40.87167078513566],[-73.84792614069238,40.87134223307809],[-73.84725144839929,40.87098705245442],[-73.84699273623592,40.87085288875593],[-73.84640766343159,40.87055430068546],[-73.84608957133447,40.87038977190835],[-73.84578147387943,40.87022769624925],[-73.8455826602319,40.87012549993537],[-73.84517256696682,40.86991469820478],[-73.84487737431041,40.86976050699218],[-73.84442133679848,40.86952229868019],[-73.84423146966066,40.86942035096946],[-73.8435858145072,40.86908763737358],[-73.84315715427394,40.86886326654649],[-73.84280443533898,40.86868075257254],[-73.84240629372896,40.868474744020126],[-73.84185186483901,40.868191925378795],[-73.84158826688832,40.86805187996158],[-73.84122362597952,40.86785815085005],[-73.8406436476823,40.86755417506739],[-73.83974233401746,40.86708793062012],[-73.83954475735611,40.86698673838362],[-73.83922085407514,40.86682084024325],[-73.83875223454797,40.86657277746428],[-73.83784380102976,40.866099188022446],[-73.83697021063762,40.865643136401054],[-73.83678824263419,40.86554590612957],[-73.83618601310341,40.86522409938175],[-73.83600943382932,40.865132616377515],[-73.83578436657693,40.86501601149721],[-73.83159620031942,40.86264470442457],[-73.83151964220622,40.862597669192475],[-73.8308932972779,40.862212849093076],[-73.83012016100677,40.86204928183391],[-73.82972614837759,40.86195274513814],[-73.82950892691989,40.86184121394937],[-73.82924089576228,40.8616318676337],[-73.82911929069469,40.86150997697199],[-73.82841963441662,40.86093193984371],[-73.8283434743151,40.86089202617244]]]]}}]}