{"type":"FeatureCollection","features":[{"type":"Feature","properties":{"district":"209"},"geometry":{"type":"MultiPolygon","coordinates":[[[[-73.83979488496121,40.835619206989506],[-73.83967394092726,40.835601209166825],[-73.83961487238459,40.835610568868496],[-73.83961491790714,40.83559168527569],[-73.83969886642254,40.8355752799167],[-73.83968659420832,40.835509173412625],[-73.83959955569516,40.83551849472761],[-73.83959649407481,40.8354996074833],[-73.83966798761821,40.8354926259821],[-73.83966494873134,40.835464297948036],[-73.83957792735124,40.835466536852266],[-73.83957796718862,40.835450015341536],[-73.8396649999268,40.835443054450025],[-73.83965271639248,40.83538166892301],[-73.83956877446232,40.83539571434511],[-73.83955638989335,40.83537681396304],[-73.83963722333968,40.83536276422787],[-73.83963111649639,40.83531791035997],[-73.83954719172154,40.83532487387445],[-73.83954412443104,40.83530834753805],[-73.83961561208264,40.8353037271465],[-73.83960332928416,40.83524234044102],[-73.83953492605772,40.835256407447545],[-73.83953185811174,40.83523988110971],[-73.83961890698464,40.83522584053743],[-73.83960659574592,40.8351762555334],[-73.83951955832002,40.835185576286875],[-73.83951337120295,40.83517376593617],[-73.8396035341357,40.835157369795915],[-73.83958501303323,40.835105416239855],[-73.83951040641416,40.83511475377295],[-73.8395073334473,40.83510058834498],[-73.83959437645343,40.835088907695734],[-73.83957586742359,40.83503223265354],[-73.83949815155427,40.835041566356374],[-73.83949818571932,40.83502740424678],[-73.83945777532715,40.835032068331266],[-73.83945783797584,40.83500610569212],[-73.83950134474907,40.8350061662448],[-73.83950138460924,40.83498964305759],[-73.83956666840034,40.834980293232306],[-73.83955747137695,40.83492835364515],[-73.83948288137582,40.83493060976981],[-73.83948290984922,40.83491880806744],[-73.83955130704713,40.83490710149846],[-73.83954830741938,40.83486225194524],[-73.83947681388194,40.834869232199416],[-73.83946132669122,40.834847968244155],[-73.8396198628735,40.83482930565534],[-73.83961993115035,40.83480098193759],[-73.83947693916859,40.83481730507682],[-73.83947386622219,40.83480313981475],[-73.83961377382477,40.834777369890666],[-73.83960141648419,40.83474666897953],[-73.83947085592494,40.83476301006961],[-73.83946467367065,40.834748838636585],[-73.83960456408784,40.834730151286294],[-73.8395953097228,40.8347018146025],[-73.83946474201348,40.834720514918516],[-73.83944316529467,40.83464731568794],[-73.83941519123566,40.83464963665418],[-73.83941220244705,40.834600065106656],[-73.83948681004387,40.83459072881109],[-73.83948374126233,40.83457420079362],[-73.83959266755038,40.83456047564572],[-73.839580277828,40.83449172408347],[-73.83953085101905,40.83436891823503],[-73.83956886221506,40.834230491946],[-73.83959108452291,40.83404168809076],[-73.83975991111961,40.83371789749508],[-73.83978358725672,40.8336672430955],[-73.83992048478677,40.83332079479963],[-73.8401815169901,40.83304342547392],[-73.84074229191089,40.83260077901729],[-73.84112675262178,40.83228698273929],[-73.84181725912111,40.831726193654816],[-73.84221334664694,40.83155050727734],[-73.84234527426432,40.83130044852206],[-73.84253111710069,40.83112048820849],[-73.84262745681545,40.83100012051891],[-73.8427588429378,40.830818484142995],[-73.84270324854316,40.83074502667007],[-73.842937312376,40.83012140168762],[-73.84305256297338,40.830101567081726],[-73.8430940865235,40.830020970022886],[-73.84309950959597,40.82996001179533],[-73.84302116297873,40.8299615871207],[-73.8430534532797,40.82976209003958],[-73.84310691599906,40.829794139320036],[-73.84303612708152,40.8293069823435],[-73.84303394542385,40.82893498494027],[-73.84299484136871,40.82882746670165],[-73.84294598405383,40.8287029156993],[-73.84291548074185,40.828622468676315],[-73.84289527507717,40.82856917662453],[-73.84287450812506,40.828527571808785],[-73.84276131434113,40.828327724503296],[-73.84272187785834,40.828275620914646],[-73.84266998835984,40.82804005329722],[-73.84265027487103,40.827908985843024],[-73.84260103680268,40.827805730352004],[-73.84256508338191,40.827739260717095],[-73.84253934488183,40.8275998377754],[-73.84253325730944,40.827527304148624],[-73.84248198442698,40.82747757169676],[-73.8424632238886,40.82737496051731],[-73.84231712480319,40.827184684680454],[-73.84207620647236,40.826537735367694],[-73.842027270661,40.82654744774521],[-73.84170466295855,40.825767381987255],[-73.84175457615963,40.82575542039687],[-73.84138206178073,40.825147433399145],[-73.8413610674426,40.82508503349919],[-73.84127392633428,40.82490899785556],[-73.84120250732009,40.82481685808517],[-73.84107400387136,40.824526113427794],[-73.8410237668876,40.82434116587382],[-73.84100637880962,40.82424102710974],[-73.84086821945748,40.82415350720841],[-73.840581564588,40.8235948361564],[-73.84044970316309,40.82334556649682],[-73.84042044446505,40.82326852505669],[-73.84043234895758,40.82311304379527],[-73.84046603526154,40.82308002358396],[-73.84041765401979,40.82299802945683],[-73.84012785556982,40.82242142701484],[-73.840112537299,40.82229940621918],[-73.84001752995842,40.822190242623094],[-73.84002656012719,40.82206773291311],[-73.83995959459855,40.82199986024],[-73.83998726019148,40.82192193255433],[-73.83992345125995,40.82173953844169],[-73.83982926241693,40.821571501496216],[-73.83983703184644,40.82143133110805],[-73.83990886675215,40.82115479859548],[-73.8398581371862,40.8210099819194],[-73.83988142932407,40.8208968675146],[-73.83998460083197,40.82079477636283],[-73.83999403392811,40.820682561067926],[-73.84005150923348,40.82061444541441],[-73.84005351039052,40.82051207996271],[-73.84010069135861,40.82032276172785],[-73.8400605997814,40.82023007174004],[-73.83996730528736,40.82017908200414],[-73.83999860407302,40.81993494731582],[-73.84014625733079,40.81981924905517],[-73.84024605965787,40.81982602352296],[-73.84028911944895,40.81980770455402],[-73.84023155497647,40.81973553077122],[-73.84028066974189,40.81967849755766],[-73.84028506253644,40.819626266126555],[-73.84036528525614,40.819577750024415],[-73.84052340849306,40.81953879722494],[-73.8406188149607,40.81954950077863],[-73.84070339531267,40.81947762296225],[-73.84081344956947,40.81944469119052],[-73.84084352269794,40.819355043389834],[-73.84091856215326,40.819342124921015],[-73.84104454654549,40.81923016959929],[-73.84117574214486,40.81918308181398],[-73.84124966376419,40.81916101508214],[-73.84128974603104,40.8191565095702],[-73.84131111727883,40.81913614403764],[-73.84134926355503,40.81912297414897],[-73.84142475199268,40.81904188082897],[-73.84156703725515,40.81894043221182],[-73.84170330169803,40.818904212247396],[-73.84188441800468,40.81885001810434],[-73.84192413895833,40.81883237292204],[-73.84194908907311,40.81880494783203],[-73.84198684834045,40.81877437390833],[-73.84212585817627,40.81845822191343],[-73.8421373384481,40.81825903377887],[-73.84209366311855,40.81805954295175],[-73.84237534420502,40.817489847080786],[-73.84279875811092,40.81693700864954],[-73.84289216450946,40.816730453929004],[-73.84306379033737,40.816558645026895],[-73.84304301763848,40.81637731955158],[-73.84315283461214,40.816273427965655],[-73.84316992763719,40.81605105501356],[-73.84344776972225,40.815698065257905],[-73.84358001433822,40.8154683465974],[-73.8437405300036,40.81532169954218],[-73.84377226782007,40.81513907077702],[-73.84400686519574,40.81470612263085],[-73.84411020155801,40.814513576646696],[-73.84418399427835,40.81433099237037],[-73.84417920712869,40.814186670559145],[-73.84438736896745,40.81364513082731],[-73.84451791368556,40.81342515289278],[-73.84464128726023,40.81320279884572],[-73.84475741490783,40.812978203597254],[-73.84486622624331,40.812751503417005],[-73.84496132120745,40.81253768005613],[-73.84504990735483,40.81232224900349],[-73.84513193772814,40.81210532460792],[-73.84520736885109,40.8118870220097],[-73.84528019236559,40.81177811674581],[-73.84536842801636,40.811751438360695],[-73.84546538675916,40.81176496766448],[-73.84576561702227,40.81158227884215],[-73.84585412185105,40.81142947153457],[-73.84591166916606,40.81133011244624],[-73.84602600366073,40.81102371442176],[-73.84617302872054,40.8106766644306],[-73.84688871208347,40.81052132517851],[-73.84719684509648,40.810580487614345],[-73.84746772168272,40.81090394285442],[-73.8475828339988,40.81128174975299],[-73.84763099298799,40.81135174127152],[-73.84770256622515,40.81145576486613],[-73.84821486515708,40.81246290899589],[-73.84876286855344,40.81290468611973],[-73.84938556147976,40.81323686534521],[-73.8500504981515,40.81348902434015],[-73.85020486696233,40.813534295519354],[-73.85041066820003,40.813584024391226],[-73.85052470545155,40.81383031534672],[-73.85060246203962,40.813930199539655],[-73.85159325007994,40.81430438675043],[-73.85179200511247,40.81430017452741],[-73.85198125577338,40.814340561920716],[-73.8521883239583,40.814288973652566],[-73.85243707672895,40.81430267449521],[-73.8523905801646,40.81442137590929],[-73.85224956470866,40.814471377139924],[-73.85225832249284,40.81449313256411],[-73.8524345347244,40.81445655925275],[-73.85253127228512,40.814516900609426],[-73.85261932751693,40.814522030565506],[-73.85280004243604,40.81444029947168],[-73.85294505767723,40.8145726276566],[-73.85301328287127,40.814584423623714],[-73.85289463496585,40.81447554727775],[-73.85284208707412,40.81434333708369],[-73.85265496045065,40.8143380795577],[-73.85267278380908,40.81424275833712],[-73.85264651277087,40.81417581774808],[-73.85267306892712,40.814113961361976],[-73.85261815190952,40.81405869212329],[-73.85265799208833,40.81396339954503],[-73.85297962704787,40.81387348449555],[-73.85295105743779,40.81385003062104],[-73.85296870810245,40.813833325622475],[-73.85295131614691,40.8137329415705],[-73.85288090585435,40.8137144521741],[-73.852913985456,40.81368940370177],[-73.85297995235655,40.813673822100974],[-73.8533685786882,40.813593903136464],[-73.85374358027232,40.81364583315416],[-73.85434655584972,40.81386385791429],[-73.85484235409916,40.81409151801257],[-73.85495504001265,40.81419341717104],[-73.85514695315328,40.81436899479914],[-73.85531511789829,40.814412141687434],[-73.85538030243687,40.814288882082884],[-73.8553196589575,40.81416156715037],[-73.85504860133688,40.81407318962312],[-73.8547100821091,40.81384440141559],[-73.85443075596599,40.81371791906994],[-73.85411268734813,40.8136351468259],[-73.85385011057149,40.8135714122101],[-73.85346774058634,40.81347771110623],[-73.85335258745025,40.81349036017986],[-73.85323900921857,40.81350954198753],[-73.85312764697966,40.813535148258374],[-73.85301912931574,40.813567034458785],[-73.85291406875538,40.813605020608215],[-73.85284793045395,40.8136326572109],[-73.85278364056272,40.813662706288184],[-73.85274828340684,40.81368364637424],[-73.852710001515,40.81370137108904],[-73.85266133386878,40.81371795413425],[-73.85261014676334,40.81372934610692],[-73.85255739434929,40.81373533465535],[-73.85251652128387,40.81373619350988],[-73.8524757539389,40.81373380190739],[-73.85206357413064,40.813726060663534],[-73.8519141729744,40.81367205792298],[-73.85171353554058,40.813646744048796],[-73.8514812422842,40.813590682107176],[-73.85136357625568,40.81355006169726],[-73.85119997725185,40.81355314437632],[-73.85104839749899,40.81349188083851],[-73.85089493587269,40.81343338440304],[-73.85072811301475,40.81332722281344],[-73.85056668355524,40.81321635270703],[-73.85041087755909,40.81310093211158],[-73.85034923468683,40.81306335794459],[-73.85028418150799,40.81302926391309],[-73.85021605770045,40.81299882803797],[-73.85014521897378,40.81297220923891],[-73.85009783305266,40.81295700273292],[-73.84997954066174,40.81291414444752],[-73.84986516852912,40.81286553030967],[-73.84975520117888,40.81281136627117],[-73.84965010447105,40.81275188179518],[-73.84955032362802,40.81268732888401],[-73.84945628134818,40.81261798101141],[-73.84936837601522,40.81254413196357],[-73.84928698001052,40.812466094594726],[-73.84921243813571,40.812384199501274],[-73.84914506615208,40.812298793621224],[-73.84908514944331,40.81221023876424],[-73.84903294180677,40.81211891007871],[-73.84903822877398,40.812048716252626],[-73.84904536052218,40.811986324291404],[-73.84906301850043,40.811905358232195],[-73.84908240942393,40.811831033946866],[-73.84911051614043,40.811766012993516],[-73.84914037531507,40.81169834023084],[-73.84917019428885,40.81164925528593],[-73.84920883946312,40.81156035034904],[-73.84924043533319,40.81149799036529],[-73.84927896005827,40.811462192945626],[-73.84934201516826,40.811397218787874],[-73.84937358980308,40.81134415234325],[-73.84938420255824,40.81128707476776],[-73.84937559536057,40.811229973757406],[-73.84929711666233,40.811160830886486],[-73.84924827523386,40.811122263471184],[-73.84921346822944,40.81105981664491],[-73.84919088767839,40.811000041571646],[-73.84917358424852,40.810924340784176],[-73.84919469827574,40.81086063912475],[-73.84924905110825,40.810779720513004],[-73.84930338063886,40.81070942442423],[-73.84935768132699,40.81065240511447],[-73.84941898714335,40.810587427448816],[-73.84945411997748,40.81050648413509],[-73.8494787747934,40.81042154456303],[-73.84949990037589,40.810352532991914],[-73.84952977419134,40.81027822112516],[-73.84957706330725,40.81023048616382],[-73.8496435606484,40.81018808677159],[-73.84971355923835,40.810143036636674],[-73.84976960468839,40.810086018230436],[-73.84979804522021,40.810032877885234],[-73.84980999337276,40.809998443815466],[-73.84981189671988,40.809929405967516],[-73.84983485578128,40.80982189365166],[-73.84987171574231,40.80974891825675],[-73.8499089230631,40.80966012208959],[-73.84976705103755,40.80966912000883],[-73.84976011634078,40.80964521322063],[-73.84978633908528,40.809639936350614],[-73.84979155453442,40.80965189202159],[-73.84988767869744,40.80964405091274],[-73.84988421698615,40.80962944226117],[-73.84991938701836,40.80962666592703],[-73.85002012324544,40.80925403953022],[-73.84984833932593,40.80926693630347],[-73.84984662518079,40.80925232875319],[-73.85003001109654,40.80923510332385],[-73.85004241612907,40.80921540848781],[-73.85004422604003,40.8091875293484],[-73.85004255373181,40.809154334639516],[-73.85002340188676,40.80912377296411],[-73.85000535107224,40.80909363437785],[-73.84999554852995,40.8090772685191],[-73.84997993834945,40.80902546728397],[-73.84997477933604,40.80898828546794],[-73.84996962763658,40.80894844839217],[-73.8499673290538,40.8088755124546],[-73.84974778878424,40.80891363965215],[-73.84972865358641,40.80887511163899],[-73.84995749465203,40.80883006842527],[-73.8499511693801,40.808714720172375],[-73.84955595679374,40.808744772035574],[-73.84955076934942,40.80872086751106],[-73.84995355606381,40.80869340607654],[-73.84995975669723,40.80867625909922],[-73.84997030101273,40.80864971862496],[-73.84997211370988,40.80862051218833],[-73.84996696802705,40.808578019346385],[-73.84994260631795,40.80853284622493],[-73.84990773115473,40.80850093609082],[-73.84988093264316,40.80847625242883],[-73.84990019134231,40.808409655381716],[-73.84986663269072,40.80833700976077],[-73.84978989800267,40.808307340830694],[-73.84975944944871,40.80826933667003],[-73.84975452880205,40.808249803224264],[-73.84974410135973,40.80822456273525],[-73.84973191508699,40.80820463166351],[-73.84970227028309,40.80817803949085],[-73.84968135249567,40.808155441760924],[-73.84964993901424,40.808138140877915],[-73.84961166420388,40.808124185051376],[-73.8491657211891,40.80822513593631],[-73.84917093986465,40.8082357643431],[-73.84876007745984,40.80833745779323],[-73.84870962479235,40.80824047041919],[-73.84912748807838,40.80813347459911],[-73.849132699398,40.80814675876988],[-73.84952218256849,40.80805527721782],[-73.84945431152308,40.808023680196],[-73.84944503360258,40.80794920746287],[-73.84938838508384,40.807877532836436],[-73.84927625554124,40.80783167612593],[-73.84910255923049,40.807769287459195],[-73.84895557083156,40.807708983862],[-73.8487773786149,40.80763587827688],[-73.84864795874442,40.807543510282734],[-73.84852426767463,40.80746381873851],[-73.8484164096165,40.807368775795496],[-73.84836776547792,40.80721805149471],[-73.8483289188505,40.80703150497582],[-73.84828024018296,40.80685240504789],[-73.84834937076198,40.80667345962477],[-73.84839879797016,40.80652432778442],[-73.84837953721414,40.80636018633473],[-73.84828163452264,40.80624069971074],[-73.84811499148918,40.80612858267575],[-73.8479863058122,40.80610305062389],[-73.84785003790948,40.806076014266516],[-73.84763420691263,40.806008590411636],[-73.84753621975597,40.80592640279534],[-73.84751706251517,40.80571750200667],[-73.8474882264191,40.805448909149334],[-73.84752776906161,40.80532960478863],[-73.84766805165862,40.805166449227485],[-73.84790298652742,40.80500217939745],[-73.84807624599382,40.80491964114931],[-73.84825364831518,40.80490100697136],[-73.84840272883373,40.80485807682826],[-73.84855540464788,40.8047935880728],[-73.84860518188765,40.804742441744466],[-73.84864784606214,40.80469937148052],[-73.84870097964965,40.804731786277415],[-73.8487028953815,40.804832908365306],[-73.84870423878404,40.80485847292936],[-73.84874317212855,40.804896259686295],[-73.84879992124705,40.804899029440655],[-73.84883551481973,40.80484516792817],[-73.84883560644,40.80480482502284],[-73.84883562500313,40.804796651169376],[-73.84887115183402,40.80477243929773],[-73.84890663580983,40.80476709519257],[-73.84894604005996,40.8047621689949],[-73.84898109667134,40.80478067047966],[-73.84903071942027,40.80479690682741],[-73.84908379915271,40.8048535798279],[-73.8491052157553,40.80489775186155],[-73.84911910597022,40.804926401397175],[-73.84916510390548,40.80497767329922],[-73.84921466578403,40.80502086441976],[-73.84933382307936,40.80505121826194],[-73.84931788941785,40.804661465703305],[-73.84941036337717,40.80466797627579],[-73.8494285272771,40.805059828140756],[-73.84952672182332,40.805064398445374],[-73.84961180552068,40.80508607261322],[-73.84970756101633,40.805094282914425],[-73.84982107183848,40.805094430843624],[-73.84997722709183,40.80505959498203],[-73.85006279732194,40.80486563853738],[-73.85008420001904,40.804779331549526],[-73.85011291203031,40.80466355067288],[-73.85012150751835,40.8046333281165],[-73.85013436531706,40.804588107229996],[-73.85014867564311,40.80453421881311],[-73.85019839036417,40.80451002497411],[-73.85033560101465,40.804515843590515],[-73.850362470885,40.804512563990436],[-73.85064954616101,40.804477517135524],[-73.8509207057749,40.80447786811742],[-73.85118552925952,40.80449258610174],[-73.85126338998977,40.80453037668618],[-73.85132411180265,40.80455984994918],[-73.85147537230506,40.80459837832569],[-73.85177807522747,40.80459397671211],[-73.85204922599488,40.804599116241185],[-73.85234565390326,40.8045803292649],[-73.85257375622835,40.80455088870441],[-73.85399349144959,40.80446191315923],[-73.85407120427061,40.804457462419606],[-73.85412473375561,40.80446566836309],[-73.8542184149609,40.80448002866823],[-73.85435087482374,40.80451376525167],[-73.85460114248119,40.80454765033019],[-73.85479986369117,40.80454781955042],[-73.85503542725006,40.80452005491437],[-73.85516058150945,40.80449779001939],[-73.8551760519167,40.80449552810093],[-73.85538879311191,40.804464427294405],[-73.8556095879817,40.80447020507335],[-73.85585446335388,40.80451464613971],[-73.85605162931236,40.80458742958434],[-73.85624606304467,40.804664340296796],[-73.85643761495854,40.80474531910764],[-73.85662613767713,40.80483030371757],[-73.8566181343632,40.80486557116394],[-73.8565778014845,40.80493285143998],[-73.85649692048496,40.80494901326889],[-73.856397852059,40.80494683571352],[-73.85626807997804,40.80488299357156],[-73.85616620309841,40.80483052836618],[-73.85604559311696,40.804774063139554],[-73.85592942720594,40.80472486973419],[-73.85580840784401,40.80467915750726],[-73.85569047098377,40.80467656557571],[-73.85561389738058,40.80470358377313],[-73.85556358433823,40.80478499633251],[-73.85557877130975,40.80488219624014],[-73.85558479360415,40.80497202177538],[-73.85560497039725,40.80506215703507],[-73.85572072708754,40.80512210417985],[-73.85589835705186,40.80516906028163],[-73.85605117167552,40.80524776024781],[-73.85612542563311,40.80528168125097],[-73.85630011224413,40.80528193146569],[-73.85638598293737,40.8052587039267],[-73.85651604096793,40.80524122047616],[-73.85652361926944,40.80523993226016],[-73.85663854274242,40.805263893425206],[-73.85675792659517,40.80527331081347],[-73.85687753955742,40.80529359252111],[-73.85694865178851,40.80527461477449],[-73.85704443304994,40.80529518503119],[-73.85712145614184,40.80533047515892],[-73.85720240525752,40.80532586934826],[-73.85724491988569,40.80530723811626],[-73.85721963864646,40.805238717594314],[-73.85712793760422,40.80518549456146],[-73.85700302458385,40.8051399188193],[-73.85692623129778,40.80511549372523],[-73.85682514934707,40.80506962889863],[-73.8567529717633,40.805037903491545],[-73.85667579658389,40.804995370320974],[-73.85667488240544,40.80495191070488],[-73.8567271583775,40.804944030314],[-73.85683421024453,40.80490927071551],[-73.85792402908696,40.80539103423734],[-73.85812705699773,40.805466520049464],[-73.85828137401838,40.805558732297165],[-73.85842317678669,40.80564458329251],[-73.85855664853813,40.805720903450215],[-73.85873606356644,40.80579410683751],[-73.85889037502379,40.80588949067536],[-73.85891121201274,40.8059127557351],[-73.85891177250494,40.80595412602415],[-73.85887206504354,40.805979689129956],[-73.8588264323911,40.80599319272269],[-73.85878284424719,40.805978073487886],[-73.85874722613617,40.80594488505056],[-73.85870561157773,40.805934288361385],[-73.8586660234084,40.80590260124907],[-73.85862247210315,40.805870909932906],[-73.85857294496422,40.80585126334549],[-73.85854325565357,40.80582712226373],[-73.85850560039155,40.80581954279294],[-73.85848171481501,40.805863204135406],[-73.85845580763149,40.805924941775],[-73.85844385359609,40.80595204619511],[-73.85841209142458,40.805970085638954],[-73.8583624971698,40.80598207729609],[-73.8583148770697,40.805998591514935],[-73.85831481613621,40.80602721675412],[-73.85831274962034,40.8060663847178],[-73.85834636354222,40.806110117188425],[-73.85838196938258,40.80614933143664],[-73.85838583154187,40.80619754682941],[-73.85839959570858,40.80625180008739],[-73.85839752923314,40.806290969223845],[-73.85839347795317,40.80633164113315],[-73.8583933657708,40.806384370961176],[-73.85839331448695,40.80640847622152],[-73.85841908323422,40.80641152164409],[-73.85846091890636,40.80640804276368],[-73.85850311702903,40.806424269762566],[-73.85851230178717,40.80648936177238],[-73.8585053317683,40.80654401390647],[-73.85851021651342,40.80659247479822],[-73.85851704174493,40.806637883757325],[-73.85856148901696,40.806667730083966],[-73.85861191901094,40.80669751353793],[-73.85867176437237,40.80669687493832],[-73.85874759605815,40.80669758101793],[-73.85880946373936,40.80669843629868],[-73.8588890885491,40.80668849033825],[-73.8589347172643,40.806674358666065],[-73.85899195070049,40.80664039516857],[-73.85901926254428,40.80660675020784],[-73.85905039378453,40.80656396774258],[-73.85906531435401,40.80650771471197],[-73.85908475852669,40.80648021816366],[-73.85909209311983,40.80644527088439],[-73.85908344078166,40.806408978271975],[-73.85905716576897,40.806366174535896],[-73.85904704593523,40.806343237052715],[-73.85900263278415,40.80629280767328],[-73.8589743130598,40.806236236064045],[-73.85895808201715,40.806182707752725],[-73.85892775532675,40.806129198878445],[-73.85889742868723,40.80607568899059],[-73.85885706633593,40.80603596399048],[-73.85885297633581,40.80600842995209],[-73.85887709403082,40.80598850860351],[-73.85890929141027,40.8059808155669],[-73.85893141325228,40.805968545641655],[-73.85897232007956,40.80596606723804],[-73.85900823999059,40.806005882924424],[-73.85912733403728,40.80615718170332],[-73.85919545024477,40.806269877829884],[-73.85925939022815,40.80641158161239],[-73.85931057819514,40.80654041242732],[-73.8593660233232,40.80667568320798],[-73.85936631205558,40.80680135854247],[-73.85936662423343,40.806936703103396],[-73.85938405578939,40.80713969481311],[-73.85940991782151,40.80732012030734],[-73.85939749996622,40.80745225764822],[-73.85940191920201,40.80752959133741],[-73.85937656357511,40.8075682951728],[-73.85931295377833,40.807571601734224],[-73.85925775276075,40.80754267300794],[-73.85925759821457,40.80747500048477],[-73.85925309049084,40.807358998426196],[-73.85922737652771,40.8072430237454],[-73.85922290557039,40.80714313208967],[-73.8592226524774,40.80703356951405],[-73.85920549594736,40.80694980690185],[-73.8591586814882,40.806878974649344],[-73.85908225488016,40.806840406822225],[-73.8589804571145,40.80683409682336],[-73.85882779743031,40.80684074432769],[-73.85866505169193,40.806832751495776],[-73.85857242494633,40.80731467797319],[-73.85841832709596,40.808112040631705],[-73.85838996228814,40.80825880914896],[-73.85861930569968,40.80884683607403],[-73.85877452654532,40.809233975135704],[-73.85895141221778,40.8102714175867],[-73.85900066509521,40.8101976370985],[-73.8590049367417,40.81010470912226],[-73.85903336121959,40.810046091276085],[-73.85907662566417,40.80997555810229],[-73.85915209523837,40.80995076988121],[-73.85931976564537,40.80994146254353],[-73.85947161492855,40.80990511426528],[-73.85954809610507,40.80981825020492],[-73.85966616558636,40.80980656472333],[-73.85983152493277,40.8097334773084],[-73.86012695235584,40.80960549989145],[-73.86011826350317,40.809569961528666],[-73.86008049117339,40.80955908337183],[-73.86003529913411,40.80951393486134],[-73.8600317284643,40.80949032159177],[-73.86000881658936,40.80948747650832],[-73.85995984693429,40.80948139736701],[-73.85992715349192,40.80944118855369],[-73.85992341159549,40.80940215340946],[-73.85987123219716,40.809384883359265],[-73.85977839204605,40.80928675741206],[-73.85974669043343,40.809277881916536],[-73.8597192807567,40.809239285698325],[-73.85972355427508,40.809218402397754],[-73.85967072961769,40.80919825389738],[-73.85967606941476,40.809172552207606],[-73.85962537388161,40.809145978015756],[-73.85954059862482,40.809019702446506],[-73.85947393164224,40.80901119905608],[-73.85940643254926,40.809008396408984],[-73.85933894305339,40.80901132945393],[-73.85933329773367,40.80900422808596],[-73.85932919264883,40.80899654046333],[-73.85932672998239,40.808988457946896],[-73.85932597103458,40.808980181727044],[-73.8593269346965,40.808971917815896],[-73.85932959698005,40.808963871919005],[-73.85933389161495,40.808956244315084],[-73.85935693269482,40.80892403559464],[-73.85938367275885,40.808893521763764],[-73.85941389747045,40.80886494740227],[-73.85938167926302,40.80873458515122],[-73.85935578233403,40.808603411976264],[-73.85933624157006,40.80847160477458],[-73.8593230832854,40.808339341297454],[-73.85931632518671,40.8082067999103],[-73.85931927042316,40.80819873990113],[-73.85932383779982,40.808191128851476],[-73.85932991499679,40.808184153929695],[-73.8593373525653,40.808177986660695],[-73.85934596760293,40.80817277870775],[-73.8593555482515,40.808168658142975],[-73.85936585890705,40.80816572629783],[-73.85937189322395,40.80816462665984],[-73.85937803177195,40.80816393623394],[-73.85938982010826,40.808163768732584],[-73.85940147908336,40.80816510260248],[-73.85941267983777,40.80816790021981],[-73.85942310643678,40.808172082673366],[-73.8594324647817,40.808177531990545],[-73.85944049090556,40.808184094464885],[-73.85944695841847,40.80819158499147],[-73.85947507162862,40.80834065588445],[-73.85951217998625,40.8084885863623],[-73.85955820498708,40.80863506323395],[-73.85961304924707,40.80877977638383],[-73.85965403865738,40.80886700965498],[-73.85970273340921,40.8089519254401],[-73.85975890850733,40.809034131333256],[-73.85982230438606,40.809113247449886],[-73.85989262810851,40.80918890818237],[-73.85996955471984,40.809260763889746],[-73.86005272874871,40.80932848251357],[-73.86014176584976,40.80939175111277],[-73.86023625457965,40.8094502773097],[-73.86033575829839,40.80950379064177],[-73.86043981718716,40.80955204381124],[-73.86054795037333,40.8095948138284],[-73.860659658153,40.80963190304205],[-73.86077442430027,40.809663140053196],[-73.86089171845339,40.80968838050714],[-73.86228604582757,40.809945911227516],[-73.86264680664829,40.81001254001549],[-73.86440333379524,40.81027598643777],[-73.86765646284466,40.810583761937345],[-73.86868890960875,40.81185427245671],[-73.86976955850037,40.81342369975734],[-73.87077804885936,40.814486895487974],[-73.87129421599977,40.814729536037994],[-73.8717160645012,40.814922335490365],[-73.8765199603363,40.81613106342433],[-73.87663459963709,40.81571150809934],[-73.87806283262127,40.81618263244426],[-73.88098029593267,40.81823562312743],[-73.8824477955298,40.81926832200912],[-73.88265922924028,40.81968883261969],[-73.88378786126482,40.821933413771454],[-73.88424971750176,40.82264220908275],[-73.88429488211209,40.82271820526817],[-73.88433212381717,40.822810142979925],[-73.8843612859193,40.82287380133209],[-73.884385041061,40.8229513694986],[-73.88439891827069,40.82299752431074],[-73.8846445070049,40.82381427370176],[-73.88462165868273,40.82495620633517],[-73.88461335944156,40.825276503821655],[-73.88460938858499,40.825303536426695],[-73.88438705287568,40.82681728353236],[-73.88378414134571,40.82827429246255],[-73.88390069905054,40.828270154415435],[-73.88407572105892,40.82826344071708],[-73.88471733910303,40.82824098499671],[-73.88502638846101,40.82818715774442],[-73.88533977068231,40.828047646844],[-73.88541501010079,40.82801415145017],[-73.885566158875,40.82793989062859],[-73.88569200524749,40.82787730358479],[-73.8857942629577,40.82782357551426],[-73.88578042105681,40.827914371324056],[-73.88573195923023,40.82821218053027],[-73.88562800641554,40.82885099149857],[-73.8855923603726,40.82907003774239],[-73.8854678426454,40.83011190444483],[-73.88534739293085,40.83056485768047],[-73.88533682934144,40.830598264726845],[-73.88533670008219,40.83059865760998],[-73.8852801048696,40.83077050287349],[-73.88527528424758,40.83078316106025],[-73.88524199283552,40.83087063115557],[-73.88523268191389,40.83089507337804],[-73.88522821263348,40.83090682627673],[-73.88522516641967,40.83091483893996],[-73.88522302974593,40.830920435470084],[-73.8852208945712,40.830926057800376],[-73.88521904547228,40.83093090260077],[-73.88521659593495,40.83093733426225],[-73.88521476497482,40.830942147753625],[-73.88521355037912,40.83094534742835],[-73.88521232562746,40.830948553123825],[-73.88521071176456,40.830952812996436],[-73.88521003006072,40.830954586566016],[-73.88520997199826,40.830954747331376],[-73.885209288412,40.83095633360709],[-73.8852086796872,40.830957737691065],[-73.8852058417634,40.83096429092325],[-73.88520364246392,40.83096936756326],[-73.88515878496555,40.83107296170775],[-73.88512412844338,40.83116108257711],[-73.8845210008472,40.832254827153754],[-73.88427060135761,40.83259636065728],[-73.88401943463381,40.83288145161984],[-73.88322460554224,40.83379975999931],[-73.88301245536506,40.83405346070631],[-73.88201063607023,40.835340644710605],[-73.88199466572877,40.83536519409348],[-73.8819801731024,40.83538916803342],[-73.88193588957122,40.835462124985725],[-73.88181717018793,40.83564379727091],[-73.88180252997944,40.83567429308108],[-73.88165512232176,40.835946343971294],[-73.88153215810436,40.83618677532664],[-73.88133356072946,40.83656702133037],[-73.88121020973776,40.83678435472044],[-73.88103880093455,40.83706245782421],[-73.880742078211,40.83748642795449],[-73.88072081514191,40.83752126502248],[-73.8806788952402,40.83750512931073],[-73.88055953520944,40.83745917958672],[-73.88026737835567,40.837344299656166],[-73.88017347832766,40.83731058443493],[-73.88009144095088,40.83728112736538],[-73.87994630754007,40.83722627763432],[-73.87965182350769,40.83712602643202],[-73.87935236329746,40.83703491624662],[-73.8790502000957,40.83695757886031],[-73.8787463507016,40.83688415190753],[-73.8784409028284,40.83681465658355],[-73.87813394469438,40.83674911269645],[-73.87782556485834,40.836687539417404],[-73.87751585233877,40.83662995451991],[-73.87722762552289,40.83658318227397],[-73.87694351479227,40.83656084439327],[-73.87615142816733,40.83649857489439],[-73.87507837210686,40.836423098970585],[-73.87425833253933,40.83637900274664],[-73.87389295864384,40.83636341241572],[-73.87383696489887,40.83636111808387],[-73.8737730873982,40.83635875194031],[-73.8737582282926,40.83639819478519],[-73.87361760595988,40.836818778993404],[-73.87359053263786,40.83689652569053],[-73.8735176630578,40.837114428190375],[-73.87334834236059,40.83759200906018],[-73.87332746697363,40.83765194933238],[-73.87317603928548,40.83816583089309],[-73.87314714674747,40.838263899475855],[-73.87312728092515,40.83833509641537],[-73.87298042939128,40.838952485185885],[-73.87277204658531,40.8397512823362],[-73.87272718491766,40.8397489448009],[-73.87120605859423,40.83967462244253],[-73.87034786960044,40.83962556652296],[-73.87027638565249,40.839621478807594],[-73.87018178222267,40.839618075497924],[-73.8700652511302,40.839613882663905],[-73.86955862089135,40.83959565346207],[-73.86920766882209,40.83960004671199],[-73.86874073484628,40.839824576641014],[-73.86830846924825,40.839995213956236],[-73.86782258115176,40.8401664990163],[-73.86740207044747,40.840290276055875],[-73.86724818955624,40.84034380437121],[-73.86636130790102,40.8405926850231],[-73.86546450190856,40.84085689196487],[-73.86448011717788,40.84108779738702],[-73.86436922143719,40.84110901812886],[-73.8636393815745,40.84126527526662],[-73.86358014047163,40.84127795713543],[-73.86347232379067,40.841305932707414],[-73.86176166505352,40.84151272060434],[-73.86162833369181,40.84152785968456],[-73.86045627359847,40.84166166593843],[-73.86018491948425,40.84168909068517],[-73.85972452366104,40.8417440199691],[-73.85919593618577,40.84180403347789],[-73.85835669096838,40.84189928661627],[-73.85752599455085,40.84198505180285],[-73.8571924801879,40.84202764844591],[-73.85618402154988,40.842145917750415],[-73.8555357982913,40.84221949049579],[-73.8551967539752,40.842257993058865],[-73.8542074583179,40.84237073917797],[-73.853497466347,40.84245166764601],[-73.85333524942047,40.84247015515494],[-73.85326804147208,40.8420726882376],[-73.85309460207026,40.84104696072222],[-73.85303510230462,40.84073545824912],[-73.85292044030803,40.84012150598941],[-73.85286997857979,40.839851304370946],[-73.85266480473528,40.83878008387858],[-73.8524793893949,40.83778428714107],[-73.85233148669103,40.83701052711213],[-73.85220720948385,40.83634749529944],[-73.85207005930688,40.83562530305248],[-73.85185868702173,40.83477774706691],[-73.85168459747828,40.83420105235049],[-73.85016535925543,40.834355487481915],[-73.84955890636878,40.83440887095954],[-73.84848615273937,40.83452449583452],[-73.84542723206613,40.83493648292765],[-73.84422773294513,40.83509270831933],[-73.8432267235367,40.83523044761235],[-73.84218236579895,40.835374142409854],[-73.84000276416182,40.83566166691094],[-73.83979488496121,40.835619206989506]]]]}}]}