{"type":"FeatureCollection","features":[{"type":"Feature","properties":{"district":"201"},"geometry":{"type":"MultiPolygon","coordinates":[[[[-73.90129277627106,40.820475442111785],[-73.90160121247388,40.81969485875819],[-73.90166319343292,40.819550426854505],[-73.90183195256088,40.81915336456082],[-73.90210743306962,40.81850519210074],[-73.9025785907422,40.81736979443104],[-73.90300983214291,40.81631779245746],[-73.90306443783543,40.816106761023086],[-73.90346997183792,40.81507578848405],[-73.90380412291606,40.814131842797636],[-73.9041833769559,40.81308645548036],[-73.90446551476737,40.81228195991385],[-73.9041803643575,40.81212482006493],[-73.90341720373648,40.81150688285582],[-73.9032427350223,40.810712884532585],[-73.90308946596544,40.80985639920042],[-73.90304837236235,40.809663145371545],[-73.90302018060598,40.809623428529754],[-73.90300877917171,40.80955007277893],[-73.90299767005645,40.80945558286018],[-73.9029879543749,40.80936430053397],[-73.90297929643036,40.80931063994813],[-73.90293929171293,40.80906270105467],[-73.90285585250248,40.80860293226731],[-73.90224620466348,40.805071502455604],[-73.90222284765609,40.80494811319028],[-73.90223410893283,40.804938797305105],[-73.90223923415454,40.80493413508042],[-73.90223822449458,40.80492402259416],[-73.90222993422921,40.80491593567428],[-73.90221178650371,40.80488273495671],[-73.90220455203652,40.80485230899423],[-73.90219185700563,40.804823260645534],[-73.9021937275346,40.8047886934872],[-73.9022265330585,40.80475415307247],[-73.90225572751248,40.804700252261554],[-73.9023195673461,40.80459798455931],[-73.9023169760326,40.80459644917644],[-73.90230320334425,40.80458829177843],[-73.90229048802293,40.80457307075332],[-73.90229231992772,40.804564776141866],[-73.9024453913696,40.80441695405469],[-73.9025229838462,40.80446378809817],[-73.90275593595216,40.804328534821714],[-73.9029277033109,40.804197291709286],[-73.90287760566825,40.80415758214631],[-73.90271278211219,40.804176887939526],[-73.90270973102545,40.804163663467385],[-73.90290469388515,40.8041390539353],[-73.90305966733715,40.80401743485056],[-73.9029731194502,40.80393677187117],[-73.9030028317108,40.80391735277021],[-73.90308609846478,40.803997087897],[-73.90321268928753,40.80389963951428],[-73.90325563881446,40.80392767617006],[-73.90333865195447,40.80385541243544],[-73.9033172735504,40.80377528245478],[-73.90333877055149,40.80377374417631],[-73.90335633787758,40.80386112361081],[-73.90339901556949,40.803874907139885],[-73.90355158434646,40.803835368189965],[-73.90356583811916,40.8038310231286],[-73.90363555376408,40.80380977075986],[-73.90368265932014,40.803795033096186],[-73.90373284515546,40.80377329611741],[-73.90374201335611,40.803767808791044],[-73.90366539253372,40.80370246203212],[-73.90368997946437,40.80368770504235],[-73.90376599453884,40.80375345467921],[-73.9037717752447,40.803749995761216],[-73.90379945054791,40.80372279607337],[-73.90382200372179,40.80369870354432],[-73.90385991710882,40.80366995724998],[-73.90389269713361,40.80365209611323],[-73.9039273277045,40.8036343907998],[-73.90385084368992,40.803574282778634],[-73.90387236083156,40.80355874470136],[-73.90394842440602,40.80362130994749],[-73.90396748173777,40.80360782449518],[-73.904002323964,40.8035790755952],[-73.90407055303479,40.80352097714835],[-73.90401680971797,40.80347097616903],[-73.90409774980012,40.80341659862832],[-73.90414898900939,40.803455652587495],[-73.90437865610397,40.803274598021325],[-73.90445884046349,40.80321138584598],[-73.90448088623977,40.80319169531898],[-73.90449983818158,40.803183433450556],[-73.90452954095734,40.803170235652054],[-73.90455004089955,40.80315003003278],[-73.90457566709493,40.803123607450345],[-73.90462487687957,40.8030692032671],[-73.90467203828258,40.80301479669845],[-73.90476931117227,40.80291284189406],[-73.9047986455895,40.802886243910535],[-73.90485211299665,40.802835228989586],[-73.90495358976557,40.80272461344605],[-73.90500098005245,40.80266796125817],[-73.90503014241523,40.80263479995142],[-73.90504498708673,40.802600333384795],[-73.90505752846572,40.80257121666853],[-73.90506666976965,40.80254080436135],[-73.90508491686404,40.80250486787993],[-73.90511408808591,40.80246479364467],[-73.90515780873865,40.80243026086655],[-73.9051869582197,40.8024053961777],[-73.9052452798711,40.802340456207894],[-73.90531233974633,40.802274729988106],[-73.90539107059982,40.80218571009493],[-73.90543844595949,40.802140119545975],[-73.90546395589014,40.80211525129795],[-73.90549128546067,40.802090384536015],[-73.90550588373294,40.80206135891345],[-73.90552153174559,40.80201995489818],[-73.90576051583803,40.80179988176582],[-73.90601427821801,40.80155293109606],[-73.90606336502242,40.801583391449775],[-73.90620386757755,40.80149299299685],[-73.90652042213173,40.80117551051993],[-73.90638976887551,40.801090791686526],[-73.9064517112552,40.80103691520185],[-73.90658587833883,40.80110747844613],[-73.9067289367694,40.8009699675519],[-73.90681401688889,40.80089063960636],[-73.90675009147215,40.80085059452268],[-73.90670130044873,40.80082002982648],[-73.9067685009218,40.80074671046334],[-73.90676873024105,40.80074541735648],[-73.90717872796299,40.800322633558395],[-73.90726298774273,40.80023744844505],[-73.90734272101798,40.80015683842207],[-73.90739374176488,40.80010433539581],[-73.90743384206748,40.800054589749344],[-73.90745262874302,40.80002824445113],[-73.90747030502895,40.80000345791558],[-73.90749762913997,40.799981356168125],[-73.90752658038464,40.799963219694426],[-73.9075395149187,40.799955117842735],[-73.90757045986986,40.79994684581999],[-73.90760867251461,40.799945494205886],[-73.90763052690517,40.79993168488247],[-73.90764146516834,40.799916482885635],[-73.90764331354349,40.79989574410972],[-73.90775808108168,40.79979904428617],[-73.90790019803981,40.799660885687004],[-73.90793663556693,40.79962772927632],[-73.90795847743303,40.79962221554767],[-73.90799121559904,40.79963192127481],[-73.90802032355593,40.79963609292499],[-73.90807397321797,40.799572819167935],[-73.90802770464768,40.79956143060295],[-73.90795130591903,40.79954477778293],[-73.90787127570744,40.79952258966611],[-73.90779307559542,40.79949348953814],[-73.9077348873292,40.79946578930015],[-73.90765852994667,40.799420098214725],[-73.90768222800894,40.799388313925455],[-73.90778950706776,40.79944232607315],[-73.90784951426151,40.799470028240364],[-73.90793317784106,40.799496367694736],[-73.90799501744837,40.79951439232831],[-73.90805140706368,40.799526881913],[-73.90810209968173,40.79953964635996],[-73.90816794820408,40.79946198619443],[-73.90813152469872,40.79943130077664],[-73.90796076476143,40.79928344926807],[-73.90802633276712,40.799237872162315],[-73.90816814086368,40.79932233068433],[-73.90825177066266,40.79937217631166],[-73.90832086917685,40.79940541664058],[-73.90842190768005,40.79944209244511],[-73.90847556128568,40.799383415387254],[-73.90855026676263,40.79930742538916],[-73.90848846163395,40.799264511396025],[-73.90837756070343,40.799198052427805],[-73.90829031194328,40.799132995090716],[-73.9082557956647,40.79909286818128],[-73.90825513733579,40.79909100008913],[-73.90824310773928,40.799056907059445],[-73.90824133266204,40.799025103043995],[-73.90830303608291,40.79895913541825],[-73.90915659660244,40.798309427921694],[-73.90963900027427,40.79794222580093],[-73.90967334768548,40.79796124955172],[-73.90967455591453,40.797961919090724],[-73.90974077854902,40.797912143674154],[-73.90979388517727,40.79786849523346],[-73.90984607769178,40.79790059833768],[-73.90991082881769,40.79785886052601],[-73.90994644280865,40.7978343059065],[-73.90996589145395,40.7978048229649],[-73.91004369252178,40.79767951655208],[-73.91013438705265,40.79758863462853],[-73.9103254478974,40.79742900177461],[-73.9104679045932,40.79733078539316],[-73.91060709552245,40.79725714741233],[-73.91071392073572,40.797195775673465],[-73.91079168499049,40.79709750926247],[-73.91089222265344,40.79701779503648],[-73.91090501284451,40.797011560093786],[-73.91095679669981,40.79698947591869],[-73.9109859346481,40.79696983299878],[-73.91105069334647,40.79692071992949],[-73.91109827481908,40.796888070833596],[-73.91126755502741,40.796815184825824],[-73.91141643968191,40.7967464708542],[-73.91149413374454,40.796699824564094],[-73.91162285866275,40.79664107849684],[-73.91168831175064,40.796623769888456],[-73.9117465332404,40.79662627324512],[-73.91178857279279,40.79663367937351],[-73.91182091990513,40.79663370412378],[-73.91188561236636,40.79663375359571],[-73.91195998841951,40.796648559497605],[-73.91203438228918,40.79665107506015],[-73.91208612911784,40.796656030895804],[-73.91214700535701,40.796678118073345],[-73.91215402455855,40.796680664442356],[-73.91223808526867,40.79671022611179],[-73.91234481901341,40.79671768244891],[-73.91266826025971,40.79673513462014],[-73.91300786097732,40.796762431965824],[-73.91317604910037,40.79677239148851],[-73.91344774544469,40.79678242853552],[-73.91372255973579,40.796789438758864],[-73.91512767444794,40.797362948508336],[-73.91616947198918,40.79783071892756],[-73.91880394070586,40.79887972972247],[-73.91889092663729,40.79891589459715],[-73.91895581706169,40.79894691727497],[-73.91903182039289,40.798984946244296],[-73.91912380270183,40.799032455052405],[-73.92024068158875,40.799613687870476],[-73.92044066980385,40.79980415649081],[-73.92078133924316,40.80027500995213],[-73.92095645330515,40.800598814225346],[-73.92132730778515,40.801284591631585],[-73.9216882697391,40.801585723804344],[-73.92203765969164,40.80187719757284],[-73.92259611000287,40.80218820133191],[-73.92292710065784,40.802373294643054],[-73.92358699112033,40.80251572532451],[-73.92422706841215,40.80254501085572],[-73.92665794788489,40.802409803914856],[-73.92762788658847,40.80269566548173],[-73.92750834950365,40.80293323371172],[-73.92731248424305,40.80321177098343],[-73.9274368990251,40.803277441693915],[-73.92728271943602,40.80350826441722],[-73.92764500352577,40.80398863284625],[-73.9279317402624,40.803999462513914],[-73.92810959635482,40.804012934337955],[-73.92820591748358,40.8040480802544],[-73.92834056185593,40.80423989028156],[-73.92872607489883,40.80410362472488],[-73.93005458890526,40.80590234732335],[-73.93031950058686,40.80619014569923],[-73.93053645059727,40.80647027694312],[-73.93051758839178,40.80659056356698],[-73.93116268129305,40.80712829577704],[-73.93176476876167,40.80776969347375],[-73.9318105081344,40.80781841795107],[-73.93184564493095,40.807855844979024],[-73.93188710097729,40.807894024397484],[-73.93191956757568,40.80793713360196],[-73.93228261916647,40.80836397362277],[-73.93252708785978,40.80882328177552],[-73.93264257181461,40.80938286452689],[-73.9326209528879,40.80977074177401],[-73.93259434647264,40.81005355736954],[-73.93282288760696,40.8101136173337],[-73.93283250567346,40.81011615255926],[-73.9328639708333,40.8101244368861],[-73.93287412001965,40.81041404342915],[-73.93278688085368,40.810494460199294],[-73.93269089766918,40.81058293308179],[-73.93267921899456,40.81079913518726],[-73.93256503302071,40.810885975189855],[-73.93261684657162,40.81146749589096],[-73.93263229255248,40.81190462176082],[-73.93247701797105,40.813423607835155],[-73.9324311938161,40.81401683338755],[-73.932428399467,40.81406068631601],[-73.93242632001915,40.81411751895935],[-73.93242307595013,40.8141517151758],[-73.93241767276521,40.81420870619097],[-73.93237568884683,40.81465157480307],[-73.93234245530482,40.81468568423336],[-73.93233241713585,40.81496427407916],[-73.93236564182625,40.815032964874895],[-73.93236209265766,40.81534211832835],[-73.9323406284524,40.81721181980221],[-73.9323358226825,40.81763040437958],[-73.93238745042837,40.81942438714841],[-73.93238847621996,40.81946002788769],[-73.93238971325029,40.819502847336956],[-73.9323304638715,40.81949667214264],[-73.93219247133239,40.81948498147081],[-73.93076360383652,40.81936390865645],[-73.93073225421048,40.81936080319157],[-73.93069731497171,40.81935734024156],[-73.9306150566943,40.81935324723657],[-73.9305914070116,40.819351428095466],[-73.93057603494873,40.819350532302245],[-73.93031505030454,40.819316881054796],[-73.9300999320032,40.81927435042967],[-73.92937565287646,40.81909706901719],[-73.92921997638732,40.819058882370356],[-73.92827657614322,40.81881004234395],[-73.92806684159319,40.818755615027456],[-73.92781481231783,40.81869021112928],[-73.92740113850473,40.81858285742349],[-73.92731653132658,40.81855963432516],[-73.92724662740987,40.81854298572387],[-73.9263585911154,40.818320692048296],[-73.926322806654,40.81831135466393],[-73.92582070670059,40.81818033740074],[-73.92538538497378,40.81806541454122],[-73.92527548677948,40.81803551263531],[-73.9251848646356,40.818012668875106],[-73.92454726079411,40.81871262351052],[-73.92402557241968,40.8192853301109],[-73.92265261239704,40.82049431528124],[-73.92194764145448,40.82103154495959],[-73.92114409038741,40.82156300206222],[-73.92066539198451,40.8218368935903],[-73.92054347006884,40.82193385748179],[-73.92048603277112,40.82197953661395],[-73.92040163802683,40.82206121718346],[-73.91993471712303,40.82235220244096],[-73.91980424620856,40.82243697456032],[-73.91944303601353,40.822671667902],[-73.91938041791644,40.822712352478284],[-73.91894597229081,40.8229926728811],[-73.9188883685595,40.82302977385055],[-73.91875570608504,40.8231152185247],[-73.91833825897201,40.82338338717334],[-73.91788272099345,40.82367877684707],[-73.91782151659692,40.82371837133018],[-73.91756599443012,40.82388367243262],[-73.91621588627122,40.82346793022605],[-73.91450553698635,40.82294185675911],[-73.91287633392768,40.822441348394],[-73.91189154987826,40.822141481777976],[-73.91181615756736,40.82203502241264],[-73.91180780642131,40.822039769863565],[-73.91179936008987,40.822044455257036],[-73.9117908307274,40.8220490593371],[-73.9117822077248,40.822053600188205],[-73.91177350081996,40.822058051516485],[-73.91176469917394,40.82206243844226],[-73.9117558270768,40.822066736525564],[-73.91174685958784,40.82207096199715],[-73.91173782141792,40.82207510566205],[-73.91172870021487,40.822079169688635],[-73.91171949686456,40.82208315122963],[-73.91171023364929,40.82208704326609],[-73.91170088807563,40.8220908457807],[-73.91169147093903,40.822094566487905],[-73.91168198267928,40.82209820639313],[-73.9116724358909,40.822101746910825],[-73.91166281754994,40.82210519791494],[-73.91165314022781,40.82210855824237],[-73.91164340436472,40.8221118285636],[-73.911633619664,40.82211500871846],[-73.91162376562916,40.822118089477456],[-73.91161386385912,40.82212108023845],[-73.91160391480679,40.822123972123016],[-73.91159391801868,40.8221267745121],[-73.9115838737285,40.822129477522],[-73.91157378325941,40.822132081153676],[-73.91156365675492,40.82213458591748],[-73.91155348274935,40.822136990631925],[-73.91154328505691,40.822139297158074],[-73.91153305198988,40.822141505486925],[-73.91152278377125,40.82214361377588],[-73.91151249252903,40.82214562270431],[-73.91150216525163,40.822147532764816],[-73.91149182510735,40.82214933409126],[-73.91148146346853,40.82215104711493],[-73.91147107727667,40.82215265022287],[-73.9114606790861,40.82215415515143],[-73.91145027022155,40.82215556072891],[-73.91143985995535,40.822156859256346],[-73.91142942732839,40.82215805775365],[-73.91141899417082,40.822159157577744],[-73.91140856114538,40.822160157891574],[-73.91139811744533,40.82216105952444],[-73.91138768469479,40.822161852944056],[-73.91137726441316,40.82216255641173],[-73.9113668319261,40.822163151648404],[-73.91135642272624,40.822163647560096],[-73.91107298590528,40.82224294273217],[-73.91069998844192,40.82232411384603],[-73.90990894138001,40.822551107615],[-73.90945760883142,40.82243240237056],[-73.90841854183009,40.822181270653495],[-73.90742681740177,40.82194506199515],[-73.90645722210436,40.82171536453385],[-73.9056589031397,40.821556532635135],[-73.90552466303072,40.82152381327528],[-73.90545592263682,40.82150705860961],[-73.90532770288434,40.82147580577353],[-73.90525022632457,40.82145692161356],[-73.90489653151106,40.821370710380855],[-73.90478103796069,40.82134144522382],[-73.90379310181581,40.8210911006588],[-73.90288702095783,40.820859174236794],[-73.90266819241167,40.82080315938477],[-73.90129277627106,40.820475442111785]]]]}}]}