{"type":"FeatureCollection","features":[{"type":"Feature","properties":{"district":"205"},"geometry":{"type":"MultiPolygon","coordinates":[[[[-73.89138023380255,40.86170058826325],[-73.89141802357852,40.861662983792044],[-73.89256392566516,40.86052272891608],[-73.89321520757804,40.859874206155865],[-73.89381026072412,40.8589865656348],[-73.89394893012894,40.85877969702708],[-73.8952629043713,40.85674336475886],[-73.89539788921988,40.85653184154762],[-73.89553445002251,40.856317844440376],[-73.8955807657565,40.85624526699402],[-73.8957558500555,40.85597881035181],[-73.89600716111786,40.8555963443681],[-73.8960552493299,40.855519935552785],[-73.89644052500095,40.85490775915523],[-73.89758656337197,40.85311542548881],[-73.89810477590386,40.852307792810024],[-73.89836535832444,40.85191325506511],[-73.89913587831909,40.85072799464667],[-73.89930727259147,40.85045751747038],[-73.89952567994783,40.85010378743706],[-73.90009696041189,40.84920904118059],[-73.90049032763741,40.84851854138054],[-73.90053231345733,40.84845152761137],[-73.90060864121027,40.848319199834684],[-73.900859797189,40.84788377936004],[-73.90096123351158,40.847700853308],[-73.90141303147941,40.84686319330488],[-73.90209691866144,40.845641879135876],[-73.90246674487486,40.84497270211282],[-73.90266352238045,40.84462857378861],[-73.90268810050183,40.84458147228557],[-73.90338651245882,40.844655295872684],[-73.90410107358707,40.84473082215302],[-73.90483122036325,40.84480034209371],[-73.90550582760643,40.84484343582367],[-73.90611824714732,40.8448825583067],[-73.90664675559502,40.84491631456994],[-73.90754488910746,40.84495849619253],[-73.90845073280434,40.84500744104415],[-73.90935924844655,40.84505652361054],[-73.910254353069,40.84510417384912],[-73.91080579409861,40.84513352586738],[-73.91104096409533,40.84514117316353],[-73.91128097415717,40.84514648172197],[-73.91141636581267,40.845148693725726],[-73.91194670359711,40.845157302072906],[-73.91258405544745,40.8451705876541],[-73.91324970701017,40.84518445857013],[-73.91338293971454,40.845187232536766],[-73.91351826521738,40.84518597495376],[-73.9137952358397,40.84518322832877],[-73.9141607633367,40.845177755693626],[-73.91477436695696,40.84516543415178],[-73.915588228261,40.84514715384787],[-73.91697152437614,40.8451152461267],[-73.91728719417236,40.845104086160184],[-73.91838705999714,40.845054140232605],[-73.91877179199446,40.8450344670995],[-73.91934882434502,40.8449924261886],[-73.92043298027828,40.84494079480323],[-73.92150714605984,40.84487357343173],[-73.92246983660144,40.84481268753066],[-73.9226280853107,40.844800910829676],[-73.92271164442458,40.844797717725726],[-73.92354002011571,40.84475894360996],[-73.92360955153364,40.844792739664584],[-73.92425326002137,40.845112334751626],[-73.92445346275787,40.84516618216657],[-73.924549099801,40.84525547237934],[-73.92468448466038,40.84531608329426],[-73.92553784599905,40.845698131857375],[-73.9258737624033,40.84584994285317],[-73.92609207207065,40.84595200380416],[-73.92615627850576,40.84597860043377],[-73.92622443852184,40.846010881789816],[-73.92635966559298,40.846072516039854],[-73.92649747618232,40.84613615150621],[-73.92680515932815,40.84627678889734],[-73.9271498069637,40.84643640762812],[-73.92730194432448,40.84650686737587],[-73.92727797997364,40.84654803610576],[-73.92722479611916,40.84658965680614],[-73.92715519824225,40.84665083018855],[-73.9270196138203,40.84681765779803],[-73.92693545954475,40.84692414467355],[-73.92687934828867,40.84703950657248],[-73.92688167671432,40.84710340204756],[-73.9268591233201,40.84719293647763],[-73.92685127536308,40.8472240910556],[-73.92683023216802,40.84728976018874],[-73.92677400548408,40.84732556266264],[-73.92675776970866,40.84733590162702],[-73.92669933467506,40.84735187055058],[-73.92662687440173,40.84739268650051],[-73.9265660882078,40.847509823192325],[-73.9265169973967,40.847564840848165],[-73.92645855327979,40.8476482548017],[-73.92641413270643,40.84773167046753],[-73.9263042593026,40.84787010144161],[-73.92619439250454,40.84796061152686],[-73.92611024061627,40.84802094989959],[-73.92603310172092,40.848072415298844],[-73.92597932956909,40.848162928631524],[-73.92593957895801,40.84827119285786],[-73.92586477100211,40.84836170519123],[-73.92577127033289,40.84842204283277],[-73.92521955529766,40.84908224724038],[-73.92465379864144,40.84978504351282],[-73.92445273249693,40.8500920774228],[-73.92422405090663,40.85056887705404],[-73.92408865819102,40.85073735017466],[-73.92384778879637,40.851182608715725],[-73.92394789501428,40.85122178511928],[-73.92351769305398,40.851835820474236],[-73.92331810341263,40.85212978796224],[-73.92256178946477,40.853188912030106],[-73.92174035403008,40.8542212378407],[-73.92154261803914,40.85411688338193],[-73.92134207683857,40.854317435657876],[-73.92148991153954,40.85449021828878],[-73.92151543705522,40.85451006389157],[-73.92080070289325,40.85538081439473],[-73.92037235451427,40.855172965136866],[-73.92030027213424,40.85524637134164],[-73.92056655954352,40.85551389831383],[-73.92055014989616,40.85561817968168],[-73.92052653132843,40.855686668401994],[-73.92044141417726,40.85574613631015],[-73.92035024788375,40.85578536382891],[-73.9202939290944,40.85584511451745],[-73.92030620609954,40.85592711981126],[-73.92002002142839,40.85627072103333],[-73.9195662094468,40.85684018368834],[-73.91902369125211,40.857396538413894],[-73.91829123397552,40.85815501541365],[-73.91811187549494,40.858313729633714],[-73.91776041251106,40.85870809795846],[-73.91720664646986,40.85892892323731],[-73.91691308641683,40.859270212209424],[-73.91580528008534,40.86046973585627],[-73.91576213210926,40.86064463729312],[-73.91542583417959,40.860353127034195],[-73.91512979320844,40.86009194733389],[-73.91508794555172,40.86005651754541],[-73.91504631333794,40.86002105339036],[-73.91494263053842,40.85993529456389],[-73.91483345125872,40.8598444814302],[-73.91467480711997,40.85971240616232],[-73.91455701993507,40.85974011780047],[-73.91444366419654,40.85978015913189],[-73.91433803843748,40.8598317683774],[-73.91424307338976,40.85989349866036],[-73.91416104998,40.85996340608893],[-73.91403607887653,40.85994195332958],[-73.91333762455604,40.85971865875059],[-73.91328437051338,40.859618601833326],[-73.91177795980613,40.85908973457123],[-73.91088488442962,40.85877618293723],[-73.91072104322669,40.858706232234326],[-73.91056799272924,40.85862059373631],[-73.91042952728348,40.85852085687673],[-73.91030880851136,40.858409326605184],[-73.91020818094408,40.85828878887102],[-73.90987022136859,40.85766971421946],[-73.90966747830903,40.85748494865335],[-73.90777484290884,40.859609519622246],[-73.90725786188271,40.85935343792007],[-73.90707003883068,40.859361849239114],[-73.9067973494214,40.859373588931454],[-73.90614548569751,40.85914274163879],[-73.9058710064276,40.859045536797545],[-73.90572262484145,40.85899298906783],[-73.90486847215521,40.858693224709015],[-73.90390816669436,40.858367585816104],[-73.90369122088475,40.85870908795084],[-73.9035183791539,40.85900307070994],[-73.90311010892798,40.859652396561515],[-73.90254479392584,40.8605782553365],[-73.90233887221443,40.860954971469404],[-73.90211720284293,40.86132694802316],[-73.9018800734944,40.8616936246201],[-73.90162785087746,40.86205443458026],[-73.90136090363171,40.862408864662406],[-73.90107967017714,40.86275638342318],[-73.90028368104377,40.86247183759087],[-73.89996177630951,40.862350280528574],[-73.89964261685998,40.862210436947876],[-73.89943670840402,40.86211691206576],[-73.89841038406634,40.8622969666798],[-73.8979809936995,40.86240254037257],[-73.89737274791528,40.86243236454289],[-73.8972824265643,40.86243737503246],[-73.89714379809807,40.86244506515272],[-73.89698372199749,40.86244339570353],[-73.89693899685126,40.86244292975122],[-73.8958838746736,40.86225834337013],[-73.89482463320695,40.862065074247916],[-73.89372490761934,40.86194419280105],[-73.89355914341357,40.86192596776189],[-73.89285169155302,40.86183219349595],[-73.89206679300874,40.86186092574377],[-73.89198297881087,40.86186399054703],[-73.89177188799188,40.86187171675027],[-73.89138023380255,40.86170058826325]]]]}}]}