{"type":"FeatureCollection","features":[{"type":"Feature","properties":{"district":"207"},"geometry":{"type":"MultiPolygon","coordinates":[[[[-73.87518850162698,40.87157575630971],[-73.87619257550195,40.87047695670125],[-73.87694351958872,40.86995468157159],[-73.87772753018506,40.869555338157205],[-73.87964436243318,40.86850825855881],[-73.87981206238713,40.86841664797085],[-73.87989454424574,40.868371738330836],[-73.88133855509096,40.86759008825957],[-73.88309382372141,40.86660218502387],[-73.8850526033036,40.86550270973447],[-73.88677865131301,40.86456140408183],[-73.88801469388342,40.86388894909877],[-73.88894653979948,40.86320951062673],[-73.88923397901216,40.86295122626558],[-73.88927273655,40.862916399710755],[-73.88949336630277,40.86270220950789],[-73.88958453511663,40.862613700633815],[-73.8897622995044,40.86242698506875],[-73.88988124760586,40.86230204625979],[-73.89016219476159,40.86198207231004],[-73.89042680821197,40.8616545002161],[-73.89064453601213,40.86136056160792],[-73.89067451693647,40.861320072680854],[-73.89082169828696,40.86139939609384],[-73.89106280679233,40.86152941211742],[-73.89138023380261,40.86170058826325],[-73.89177188799202,40.86187171675027],[-73.89198297881099,40.86186399054703],[-73.89206679300885,40.86186092574377],[-73.89285169155296,40.86183219349595],[-73.89355914341357,40.86192596776189],[-73.89372490761929,40.861944192801],[-73.89482463320695,40.862065074247916],[-73.8958838746736,40.86225834337013],[-73.89693899685136,40.86244292975122],[-73.89698372199759,40.862443395703494],[-73.89714379809807,40.86244506515267],[-73.89728242656435,40.86243737503242],[-73.89737274791533,40.862432364542855],[-73.89798099369945,40.862402540372564],[-73.89841038406634,40.86229696667976],[-73.89943670840407,40.862116912065716],[-73.89964261686002,40.862210436947834],[-73.89996177630957,40.862350280528574],[-73.90028368104372,40.86247183759082],[-73.90107967017725,40.86275638342314],[-73.90136090363181,40.862408864662406],[-73.90162785087742,40.86205443458021],[-73.90188007349445,40.8616936246201],[-73.9021172028431,40.86132694802316],[-73.90233887221454,40.860954971469404],[-73.90254479392594,40.86057825533645],[-73.90311010892802,40.85965239656147],[-73.90351837915395,40.85900307070994],[-73.90369122088481,40.85870908795084],[-73.90390816669436,40.858367585816104],[-73.90486847215521,40.858693224709015],[-73.90572262484145,40.85899298906783],[-73.90587100642772,40.85904553679755],[-73.90614548569762,40.85914274163879],[-73.90679734942145,40.859373588931454],[-73.90707003883072,40.859361849239114],[-73.90725786188281,40.85935343792003],[-73.90777484290884,40.859609519622246],[-73.90966747830913,40.85748494865335],[-73.90987022136869,40.85766971421941],[-73.91020818094408,40.85828878887098],[-73.91030880851136,40.858409326605155],[-73.9104295272836,40.85852085687668],[-73.9105679927293,40.85862059373627],[-73.91072104322669,40.85870623223429],[-73.91088488442972,40.85877618293723],[-73.91177795980617,40.85908973457117],[-73.91328437051338,40.859618601833326],[-73.91333762455604,40.859718658750545],[-73.91403607887659,40.85994195332954],[-73.91416104998015,40.85996340608893],[-73.9142430733899,40.859893498660334],[-73.91433803843752,40.85983176837736],[-73.91444366419671,40.85978015913185],[-73.91455701993503,40.85974011780047],[-73.91467480712001,40.85971240616232],[-73.91483345125883,40.8598444814302],[-73.91494263053842,40.85993529456389],[-73.91504631333794,40.86002105339032],[-73.91508794555172,40.860056517545374],[-73.91512979320844,40.86009194733386],[-73.91542583417959,40.86035312703416],[-73.91576213210938,40.86064463729312],[-73.91487470201929,40.86169169998643],[-73.91480934325483,40.86171418964591],[-73.91472330855282,40.861853182389304],[-73.91481817405302,40.86189908898309],[-73.91477109608921,40.86194630814886],[-73.91474323818487,40.861933589478504],[-73.91470028443379,40.86195311254361],[-73.91467162929153,40.861981337605144],[-73.91463437531989,40.862020419337846],[-73.91461143815322,40.86205299399802],[-73.91461141304474,40.86207254946158],[-73.91462116355156,40.86209669073492],[-73.91429082589174,40.86242801704818],[-73.91422918001562,40.86248855665937],[-73.91341462193655,40.86336749370088],[-73.91276271995461,40.86302917415775],[-73.91227278976977,40.86363214899687],[-73.91274397646832,40.86389256817318],[-73.91276050612291,40.86387691391004],[-73.91279762128941,40.86389887543301],[-73.91275216216495,40.86394505684303],[-73.91271607314991,40.86392622943427],[-73.91273054020901,40.863909790277134],[-73.91252604516806,40.86379522383795],[-73.91267634020384,40.8640211116026],[-73.9109129241202,40.86593794598779],[-73.91055668613824,40.86642194872333],[-73.9105128707747,40.866453462298175],[-73.9104747099412,40.86648896226589],[-73.91044282741956,40.866527868348236],[-73.91041774436985,40.86656954459007],[-73.91039987081109,40.86661330975416],[-73.9103758989753,40.86665464468962],[-73.91035861622774,40.86669786057092],[-73.91034827104518,40.86674233610952],[-73.91034501216832,40.866787431906246],[-73.91034888646267,40.8668324996436],[-73.91035983824388,40.866876891406186],[-73.9101746817974,40.867191215116115],[-73.90986176493799,40.8679433156171],[-73.90966694781588,40.86841703958974],[-73.90949664378522,40.86883115664108],[-73.9092746410747,40.869554132383314],[-73.90893714929898,40.87101984030901],[-73.90864943111376,40.871385783802936],[-73.9089323517538,40.87215734797027],[-73.90897851320419,40.872224353837446],[-73.90901544810349,40.87228958705503],[-73.90905980394565,40.87234132879053],[-73.90908937917226,40.87237507562022],[-73.90909972110751,40.87239419176071],[-73.90909969344666,40.8724144256537],[-73.90913961660377,40.87246279498065],[-73.90917513323629,40.87248081439296],[-73.9091913763908,40.872513425953215],[-73.9092105586831,40.87256514664374],[-73.9092460462364,40.87260452584618],[-73.90926526038342,40.872633761465664],[-73.90927114033464,40.87266299598027],[-73.90935540961115,40.87277097707929],[-73.90943966198336,40.87288233452432],[-73.90951136328019,40.87297738359861],[-73.90954388271699,40.87301787624847],[-73.90957936374171,40.87306286601498],[-73.90958973103706,40.87306400005879],[-73.90960006621941,40.87308761849065],[-73.90963706332191,40.87310788137894],[-73.90965332846542,40.87312475143561],[-73.90967403404798,40.87314725272815],[-73.90970952896157,40.87318212994778],[-73.90971690072658,40.87320461141777],[-73.90974797505899,40.87321812483146],[-73.90978644269444,40.873247384798006],[-73.90984559623513,40.87331376152751],[-73.90990769889419,40.87338349885853],[-73.90996168309127,40.873431320682045],[-73.91001640952275,40.873481944207946],[-73.9100755691892,40.87353595596085],[-73.91009482086632,40.87353708750052],[-73.91010961440479,40.87355396572618],[-73.91010367455512,40.87356070590354],[-73.91016876229082,40.87361696401607],[-73.91017913402386,40.873614720917445],[-73.9101835541743,40.8736270887153],[-73.91018946365077,40.87364283409467],[-73.91027378161117,40.87370809437596],[-73.91035514009809,40.87377785530936],[-73.91044539519896,40.873838628118314],[-73.91050606585377,40.8738802682535],[-73.9105889769954,40.873933748680706],[-73.91065439249631,40.87397594306073],[-73.91053787781752,40.874060742302106],[-73.91045947298804,40.87412245419238],[-73.91026971088718,40.87427181454431],[-73.90973487229863,40.8746381440672],[-73.90967117888468,40.8745887681464],[-73.908555795888,40.8737754439231],[-73.90746489794311,40.87354735423658],[-73.906699847351,40.87339676274357],[-73.90662887006803,40.87338037872837],[-73.9063631648442,40.87331904792158],[-73.90624664740899,40.87328737559766],[-73.90614668858372,40.87326020472856],[-73.90607917978043,40.873242420191595],[-73.90601809296982,40.873226989180594],[-73.90591126339011,40.8731958174264],[-73.90586616712044,40.87318266042714],[-73.90571425362508,40.87313832210195],[-73.9046772820841,40.872619878995984],[-73.90459203181607,40.87256455397367],[-73.90459194935461,40.87256450013065],[-73.90459189006576,40.87256444630679],[-73.90452088300438,40.87249539194228],[-73.90452070516585,40.87249521120548],[-73.90452057544907,40.872495022802426],[-73.90446908610004,40.872415628957846],[-73.90446901453096,40.872415520678814],[-73.90446896770429,40.8724153949979],[-73.90444010831442,40.8723304996568],[-73.90444008525793,40.872330418891686],[-73.90444007325019,40.87233032825184],[-73.90443428798581,40.87224530878093],[-73.90448860489711,40.870578548547854],[-73.90442003209795,40.870361276001304],[-73.90403592643038,40.86994916335905],[-73.90374975893964,40.869595627140264],[-73.90318667465827,40.86914899149131],[-73.90235804780234,40.86869612095305],[-73.9021518600227,40.868611831193704],[-73.90194154999007,40.868533630847736],[-73.901727429628,40.868461635893816],[-73.90150981664199,40.86839595301227],[-73.90128903364155,40.86833667970743],[-73.90106540807363,40.86828390388665],[-73.89996575648385,40.868017301510505],[-73.89965220274117,40.86855457878173],[-73.89960300360639,40.86872820825647],[-73.89953404306789,40.868899613888665],[-73.89944561611446,40.86906684207965],[-73.8993385117239,40.869228028104935],[-73.89921387694793,40.86938138678502],[-73.89907327253478,40.86952535560184],[-73.89891854298266,40.869658574486834],[-73.89778962270478,40.87085664339871],[-73.89732721180813,40.87144523364542],[-73.89407272848405,40.875587745514515],[-73.8923132139066,40.877823434002295],[-73.89212875531868,40.878057802282314],[-73.8914069633233,40.87896944624657],[-73.89123608184025,40.879160719391855],[-73.89123591512697,40.8791608998242],[-73.89123573693743,40.87916107974317],[-73.89104834042296,40.879343855365406],[-73.89084539415754,40.87951709683053],[-73.89062844096051,40.879679564343945],[-73.89040066488894,40.87985696117639],[-73.89040058179684,40.87985702358343],[-73.89040049846747,40.879857096041626],[-73.89018269932566,40.880041713764626],[-73.88997537554076,40.880233131422344],[-73.88836487605003,40.882267541862035],[-73.8881888660738,40.88233711399586],[-73.88800298095533,40.88239450207535],[-73.88780946589172,40.88243858214861],[-73.88761087167485,40.882468572823065],[-73.88740986965328,40.88248407211154],[-73.88720918989044,40.88248507395821],[-73.88706962783775,40.88247689606632],[-73.88716505199065,40.88257651139499],[-73.8871447083457,40.88274364690046],[-73.88712850662549,40.88281542504598],[-73.88712235430057,40.88305920193281],[-73.88709592654182,40.88383302604275],[-73.88704304005198,40.8840402323779],[-73.88704833400232,40.88423552061737],[-73.88705142602338,40.8843495758468],[-73.88692889734062,40.884355714854074],[-73.88683486674701,40.884342026065504],[-73.88662413039556,40.884267303210045],[-73.88516495834311,40.88363161165548],[-73.88452615159204,40.883312147835305],[-73.88437922315174,40.88324772332821],[-73.88437905750997,40.88324765179766],[-73.88437887837325,40.88324759784346],[-73.88421696443181,40.88319772805865],[-73.88421683360389,40.88319769174253],[-73.88421671489873,40.88319766532239],[-73.88404353376018,40.883165001962766],[-73.88404341592286,40.8831649842545],[-73.8840432857114,40.883164974239826],[-73.88386391400829,40.883151394931],[-73.88386374759683,40.88315138538228],[-73.88386358115262,40.88315139459608],[-73.88368347561763,40.88315761543949],[-73.88368336856524,40.88315761533159],[-73.88368327384276,40.88315763282602],[-73.8835081045761,40.883183147592526],[-73.88350787893003,40.883183183549654],[-73.88350764087515,40.88318324696798],[-73.88334258673252,40.88322637446417],[-73.88334234867733,40.88322643788215],[-73.88334213509192,40.88322651891472],[-73.88319088703153,40.883284834511755],[-73.88274833294655,40.883397386801185],[-73.88208623674451,40.88313222191138],[-73.88124422541554,40.882709633005746],[-73.87995798752779,40.88439062896629],[-73.87936283259528,40.88521823997498],[-73.87876041687119,40.886040199861576],[-73.87814944634516,40.88687380736496],[-73.87813129190306,40.88691279731958],[-73.87803562426485,40.88711832175634],[-73.87801627977585,40.88722739279687],[-73.87800480045983,40.887337175404554],[-73.87800124881178,40.887447195726615],[-73.87792123897215,40.887410157180625],[-73.87787068112135,40.887254058345476],[-73.87783857001065,40.887094521176536],[-73.87783125904194,40.8867727601816],[-73.87760676546273,40.88452304361992],[-73.87772817661512,40.88345419508468],[-73.8781257522779,40.88215368497465],[-73.8771700595189,40.88199391281],[-73.87625890139915,40.881832039706005],[-73.87533699431133,40.8816718323974],[-73.87470255556498,40.88155382355682],[-73.87479240731997,40.880075128387986],[-73.8749458975559,40.879947668792916],[-73.87406751205181,40.88003890629155],[-73.87307334600929,40.8801343853584],[-73.87191661824268,40.88023817801644],[-73.871871006937,40.88032812042552],[-73.87083567840251,40.88045411427935],[-73.87068264599677,40.880458756006824],[-73.87015318597265,40.880350827058166],[-73.87094414681857,40.87850969541344],[-73.87160718695047,40.876921572510135],[-73.87255250900334,40.875175183326085],[-73.87436750762465,40.872701009199204],[-73.87518850162698,40.87157575630971]]]]}}]}