{"type":"FeatureCollection","features":[{"type":"Feature","properties":{"district":"203"},"geometry":{"type":"MultiPolygon","coordinates":[[[[-73.88072081514191,40.83752126502248],[-73.880742078211,40.83748642795449],[-73.88103880093455,40.83706245782421],[-73.88121020973776,40.83678435472044],[-73.88133356072946,40.83656702133037],[-73.88153215810436,40.83618677532664],[-73.88165512232176,40.835946343971294],[-73.88180252997944,40.83567429308108],[-73.88181717018793,40.83564379727091],[-73.88193588957122,40.835462124985725],[-73.8819801731024,40.83538916803342],[-73.88199466572877,40.83536519409348],[-73.88201063607023,40.835340644710605],[-73.88301245536506,40.83405346070631],[-73.88322460554224,40.83379975999931],[-73.88401943463381,40.83288145161984],[-73.88427060135761,40.83259636065728],[-73.8845210008472,40.832254827153754],[-73.88512412844338,40.83116108257711],[-73.88515878496555,40.83107296170775],[-73.88520364246392,40.83096936756326],[-73.8852058417634,40.83096429092325],[-73.8852086796872,40.830957737691065],[-73.885209288412,40.83095633360709],[-73.88520997199826,40.830954747331376],[-73.88521003006072,40.830954586566016],[-73.88521071176456,40.830952812996436],[-73.88521232562746,40.830948553123825],[-73.88521355037912,40.83094534742835],[-73.88521476497482,40.830942147753625],[-73.88521659593495,40.83093733426225],[-73.88521904547228,40.83093090260077],[-73.8852208945712,40.830926057800376],[-73.88522302974593,40.830920435470084],[-73.88522516641967,40.83091483893996],[-73.88522821263348,40.83090682627673],[-73.88523268191389,40.83089507337804],[-73.88524199283552,40.83087063115557],[-73.88527528424758,40.83078316106025],[-73.8852801048696,40.83077050287349],[-73.88533670008219,40.83059865760998],[-73.88533682934144,40.830598264726845],[-73.88534739293085,40.83056485768047],[-73.8854678426454,40.83011190444483],[-73.8855923603726,40.82907003774239],[-73.88562800641554,40.82885099149857],[-73.88573195923023,40.82821218053027],[-73.88578042105681,40.827914371324056],[-73.8857942629577,40.82782357551426],[-73.88587215795792,40.82777731476024],[-73.88594999637772,40.827733634943094],[-73.88609624167161,40.827655777358125],[-73.88639957228067,40.82750337973952],[-73.88789510901422,40.82674318529673],[-73.88885046203677,40.826768595244204],[-73.88963895316236,40.826797510007545],[-73.88969004961375,40.82679938357002],[-73.88980564172405,40.826803621043176],[-73.88983599170022,40.826804734257394],[-73.8899794248792,40.82680999223839],[-73.89090560062786,40.82678778412005],[-73.89191271858492,40.82679445025084],[-73.89293226101144,40.82678703602998],[-73.89385454186649,40.82734003674578],[-73.8951102086074,40.828036899455086],[-73.89529156500156,40.82814234986807],[-73.89548522764592,40.82824854138511],[-73.89639572973998,40.82876287952082],[-73.8975695875859,40.82942300083108],[-73.89794497769336,40.82852174826488],[-73.89820469327977,40.827889109985016],[-73.89845229963016,40.82728876124003],[-73.89847432433822,40.827235359173116],[-73.89865417379038,40.826799286328885],[-73.89867710042624,40.82674369630787],[-73.89883617377862,40.82635799349838],[-73.89886230612774,40.82629743613997],[-73.89899555853616,40.825988650968924],[-73.89912145036169,40.82569691918977],[-73.89979919974103,40.8240579415117],[-73.90003829961036,40.823481696233095],[-73.90016669386945,40.82317413214295],[-73.9002097407531,40.82307101462912],[-73.90061141080828,40.82210880792972],[-73.90084561232217,40.82154141761467],[-73.90129277627106,40.820475442111785],[-73.90266819241167,40.82080315938477],[-73.90288702095783,40.820859174236794],[-73.90379310181581,40.8210911006588],[-73.90478103796069,40.82134144522382],[-73.90489653151106,40.821370710380855],[-73.90525022632457,40.82145692161356],[-73.90532770288434,40.82147580577353],[-73.90545592263682,40.82150705860961],[-73.90552466303072,40.82152381327528],[-73.9056589031397,40.821556532635135],[-73.90645722210436,40.82171536453385],[-73.90742681740177,40.82194506199515],[-73.90841854183009,40.822181270653495],[-73.90945760883142,40.82243240237056],[-73.90990894138001,40.822551107615],[-73.91069998844192,40.82232411384603],[-73.91107298590528,40.82224294273217],[-73.91135642272624,40.822163647560096],[-73.9113668319261,40.822163151648404],[-73.91137726441316,40.82216255641173],[-73.91138768469479,40.822161852944056],[-73.91139811744533,40.82216105952444],[-73.91140856114538,40.822160157891574],[-73.91141899417082,40.822159157577744],[-73.91142942732839,40.82215805775365],[-73.91143985995535,40.822156859256346],[-73.91145027022155,40.82215556072891],[-73.9114606790861,40.82215415515143],[-73.91147107727667,40.82215265022287],[-73.91148146346853,40.82215104711493],[-73.91149182510735,40.82214933409126],[-73.91150216525163,40.822147532764816],[-73.91151249252903,40.82214562270431],[-73.91152278377125,40.82214361377588],[-73.91153305198988,40.822141505486925],[-73.91154328505691,40.822139297158074],[-73.91155348274935,40.822136990631925],[-73.91156365675492,40.82213458591748],[-73.91157378325941,40.822132081153676],[-73.9115838737285,40.822129477522],[-73.91159391801868,40.8221267745121],[-73.91160391480679,40.822123972123016],[-73.91161386385912,40.82212108023845],[-73.91162376562916,40.822118089477456],[-73.911633619664,40.82211500871846],[-73.91164340436472,40.8221118285636],[-73.91165314022781,40.82210855824237],[-73.91166281754994,40.82210519791494],[-73.9116724358909,40.822101746910825],[-73.91168198267928,40.82209820639313],[-73.91169147093903,40.822094566487905],[-73.91170088807563,40.8220908457807],[-73.91171023364929,40.82208704326609],[-73.91171949686456,40.82208315122963],[-73.91172870021487,40.822079169688635],[-73.91173782141792,40.82207510566205],[-73.91174685958784,40.82207096199715],[-73.9117558270768,40.822066736525564],[-73.91176469917394,40.82206243844226],[-73.91177350081996,40.822058051516485],[-73.9117822077248,40.822053600188205],[-73.9117908307274,40.8220490593371],[-73.91179936008987,40.822044455257036],[-73.91180780642131,40.822039769863565],[-73.91181615756736,40.82203502241264],[-73.91189154987826,40.822141481777976],[-73.91287633392768,40.822441348394],[-73.91450553698635,40.82294185675911],[-73.91621588627122,40.82346793022605],[-73.91756599443012,40.82388367243262],[-73.9174677276598,40.82394610695283],[-73.91740459049653,40.82398622200302],[-73.91731782392043,40.82404135052217],[-73.91725010296895,40.824084377625184],[-73.91719007440187,40.82412251733157],[-73.91712693756625,40.82416263155892],[-73.9168919579486,40.824311926077925],[-73.91677400585868,40.82438708737385],[-73.91608782857901,40.8248378518315],[-73.9161528164556,40.824856940913385],[-73.91630917515708,40.82490286651317],[-73.91656969021287,40.8249793858641],[-73.91661368442395,40.82499230850759],[-73.91642451895771,40.825114913218655],[-73.91636661659085,40.82515244089312],[-73.91630387940626,40.82519310275813],[-73.91624748129507,40.825229655468014],[-73.91618778453508,40.82526834671231],[-73.91613011850747,40.82530572132191],[-73.91592284988864,40.82544005649018],[-73.91545061497109,40.82574777987915],[-73.91541108235481,40.825773909123356],[-73.91461051704944,40.82629450785467],[-73.91363149059003,40.82692436914125],[-73.91216982578263,40.8279022214858],[-73.91165950962518,40.82874899964093],[-73.91152370269968,40.828959782448315],[-73.91138918214662,40.82913818450133],[-73.91049010681593,40.830737373032896],[-73.90962130677094,40.83228142227328],[-73.90951895735986,40.83246377704005],[-73.90946039510555,40.83256811580965],[-73.9094225763066,40.83263549627702],[-73.90937415299817,40.832721771810355],[-73.9092835491321,40.83288319625424],[-73.90923681509284,40.83296646097339],[-73.90917778101246,40.83307163968802],[-73.90910597826577,40.83319956644596],[-73.90889804116549,40.833570034682175],[-73.90882575998248,40.83369881173224],[-73.90869131229387,40.83393834677474],[-73.90857548044929,40.834144441701476],[-73.90852151707209,40.834240456162576],[-73.90837655995173,40.83449837108667],[-73.90823980175557,40.83474169363234],[-73.90810870209742,40.8349749496443],[-73.90797135223387,40.835219322762576],[-73.90783293139204,40.835465599599495],[-73.9077182166099,40.83566969628322],[-73.9076266601747,40.83583258978447],[-73.90757269383766,40.835928604276546],[-73.90740200530823,40.83623228341872],[-73.90733307028911,40.836342427139186],[-73.90727112553847,40.83644139940788],[-73.90721294157713,40.83653436441147],[-73.90713954460962,40.83665163457467],[-73.90697550488224,40.83691372891706],[-73.90690203965129,40.83703110708763],[-73.90679854833475,40.8371955167406],[-73.90668146422031,40.83738352595098],[-73.90652353994078,40.837635843015846],[-73.90646169624262,40.837734650235916],[-73.90635674697023,40.837902326683235],[-73.90625475338351,40.838065280254355],[-73.90597940441727,40.838505195802746],[-73.90538358073498,40.83976898397279],[-73.90486565502496,40.84069683159033],[-73.90476517673551,40.84087682906258],[-73.9041548191641,40.84197025236034],[-73.90357555533544,40.843004067656274],[-73.9029161550487,40.844181331700376],[-73.9027845818396,40.844415745876745],[-73.90271291709685,40.844542789546814],[-73.90268810050183,40.844581472285505],[-73.90134404574151,40.84442875076993],[-73.90116330115103,40.844409847457655],[-73.90093999492345,40.8443849831776],[-73.90096319903205,40.8443458394083],[-73.90104032973608,40.8442060775787],[-73.90129698355402,40.84374956799716],[-73.90140853507634,40.84355115011648],[-73.90151151995714,40.843367968965545],[-73.90033330350118,40.84298938001632],[-73.89973273319822,40.84405581790519],[-73.89965510314585,40.84419484065741],[-73.89963749556614,40.844233825531575],[-73.8985614219234,40.844115873950884],[-73.89751786933684,40.843997248513325],[-73.89658720140822,40.8438870560626],[-73.89555718061136,40.84376508910627],[-73.8952735691077,40.84373382834062],[-73.89481942627528,40.843683770969],[-73.8948475875661,40.84364636329518],[-73.89537836180654,40.84293877945931],[-73.8952778489258,40.84287986143922],[-73.89509807274223,40.84277448075632],[-73.89501415718256,40.84272529112866],[-73.89493579884501,40.84267935897555],[-73.89484862728897,40.84262826034266],[-73.89410150522176,40.8421903028971],[-73.89317098935291,40.84163734367715],[-73.89216815621225,40.84104963973972],[-73.89017468576408,40.83987366761577],[-73.88941724869116,40.83942273388297],[-73.88869040830879,40.83915802646817],[-73.88813752159338,40.839862002384926],[-73.887542517144,40.83964065848035],[-73.88659802345121,40.83927905010867],[-73.88618432100424,40.84010504497363],[-73.88611972327759,40.84042352148137],[-73.88610978780346,40.840470994635076],[-73.88574685916367,40.84026024365528],[-73.88510997133797,40.83990463915508],[-73.88412724483935,40.8393559193064],[-73.88351820405951,40.839022366326496],[-73.88313873954034,40.838810672004925],[-73.88274769857809,40.838592341766194],[-73.8823302550298,40.838354767425294],[-73.88212410010814,40.83823512408173],[-73.8817724944618,40.83803107251757],[-73.88169674941977,40.83798711346107],[-73.88164290924414,40.83795968414165],[-73.88076574914588,40.83754298590076],[-73.88072081514191,40.83752126502248]]]]}}]}