{"type":"FeatureCollection","features":[{"type":"Feature","properties":{"district":"204"},"geometry":{"type":"MultiPolygon","coordinates":[[[[-73.90268810050183,40.844581472285505],[-73.90271291709685,40.844542789546814],[-73.9027845818396,40.844415745876745],[-73.9029161550487,40.844181331700376],[-73.90357555533544,40.843004067656274],[-73.9041548191641,40.84197025236034],[-73.90476517673551,40.84087682906258],[-73.90486565502496,40.84069683159033],[-73.90538358073498,40.83976898397279],[-73.90597940441727,40.838505195802746],[-73.90625475338351,40.838065280254355],[-73.90635674697023,40.837902326683235],[-73.90646169624262,40.837734650235916],[-73.90652353994078,40.837635843015846],[-73.90668146422031,40.83738352595098],[-73.90679854833475,40.8371955167406],[-73.90690203965129,40.83703110708763],[-73.90697550488224,40.83691372891706],[-73.90713954460962,40.83665163457467],[-73.90721294157713,40.83653436441147],[-73.90727112553847,40.83644139940788],[-73.90733307028911,40.836342427139186],[-73.90740200530823,40.83623228341872],[-73.90757269383766,40.835928604276546],[-73.9076266601747,40.83583258978447],[-73.9077182166099,40.83566969628322],[-73.90783293139204,40.835465599599495],[-73.90797135223387,40.835219322762576],[-73.90810870209742,40.8349749496443],[-73.90823980175557,40.83474169363234],[-73.90837655995173,40.83449837108667],[-73.90852151707209,40.834240456162576],[-73.90857548044929,40.834144441701476],[-73.90869131229387,40.83393834677474],[-73.90882575998248,40.83369881173224],[-73.90889804116549,40.833570034682175],[-73.90910597826577,40.83319956644596],[-73.90917778101246,40.83307163968802],[-73.90923681509284,40.83296646097339],[-73.9092835491321,40.83288319625424],[-73.90937415299817,40.832721771810355],[-73.9094225763066,40.83263549627702],[-73.90946039510555,40.83256811580965],[-73.90951895735986,40.83246377704005],[-73.90962130677094,40.83228142227328],[-73.91049010681593,40.830737373032896],[-73.91138918214662,40.82913818450133],[-73.91152370269968,40.828959782448315],[-73.91165950962518,40.82874899964093],[-73.91216982578263,40.8279022214858],[-73.91363149059003,40.82692436914125],[-73.91461051704944,40.82629450785467],[-73.91541108235481,40.825773909123356],[-73.91545061497109,40.82574777987915],[-73.91592284988864,40.82544005649018],[-73.91613011850747,40.82530572132191],[-73.91618778453508,40.82526834671231],[-73.91624748129507,40.825229655468014],[-73.91630387940626,40.82519310275813],[-73.91636661659085,40.82515244089312],[-73.91642451895771,40.825114913218655],[-73.91661368442395,40.82499230850759],[-73.91656969021287,40.8249793858641],[-73.91630917515708,40.82490286651317],[-73.9161528164556,40.824856940913385],[-73.91608782857901,40.8248378518315],[-73.91677400585868,40.82438708737385],[-73.9168919579486,40.824311926077925],[-73.91712693756625,40.82416263155892],[-73.91719007440187,40.82412251733157],[-73.91725010296895,40.824084377625184],[-73.91731782392043,40.82404135052217],[-73.91740459049653,40.82398622200302],[-73.9174677276598,40.82394610695283],[-73.91756599443012,40.82388367243262],[-73.91782151659692,40.82371837133018],[-73.91788272099345,40.82367877684707],[-73.91833825897201,40.82338338717334],[-73.91875570608504,40.8231152185247],[-73.9188883685595,40.82302977385055],[-73.91894597229081,40.8229926728811],[-73.91938041791644,40.822712352478284],[-73.91944303601353,40.822671667902],[-73.91980424620856,40.82243697456032],[-73.91993471712303,40.82235220244096],[-73.92040163802683,40.82206121718346],[-73.92048603277112,40.82197953661395],[-73.92054347006884,40.82193385748179],[-73.92066539198451,40.8218368935903],[-73.92114409038741,40.82156300206222],[-73.92194764145448,40.82103154495959],[-73.92265261239704,40.82049431528124],[-73.92402557241968,40.8192853301109],[-73.92454726079411,40.81871262351052],[-73.9251848646356,40.818012668875106],[-73.92527548677948,40.81803551263531],[-73.92538538497378,40.81806541454122],[-73.92582070670059,40.81818033740074],[-73.926322806654,40.81831135466393],[-73.9263585911154,40.818320692048296],[-73.92724662740987,40.81854298572387],[-73.92731653132658,40.81855963432516],[-73.92740113850473,40.81858285742349],[-73.92781481231783,40.81869021112928],[-73.92806684159319,40.818755615027456],[-73.92827657614322,40.81881004234395],[-73.92921997638732,40.819058882370356],[-73.92937565287646,40.81909706901719],[-73.9300999320032,40.81927435042967],[-73.93031505030454,40.819316881054796],[-73.93057603494873,40.819350532302245],[-73.9305914070116,40.819351428095466],[-73.9306150566943,40.81935324723657],[-73.93069731497171,40.81935734024156],[-73.93073225421048,40.81936080319157],[-73.93076360383652,40.81936390865645],[-73.93219247133239,40.81948498147081],[-73.9323304638715,40.81949667214264],[-73.93238971325029,40.819502847336956],[-73.9323818170235,40.81955319684345],[-73.93237498504206,40.819590697184886],[-73.9324287473727,40.820447140797995],[-73.93245923880339,40.82112061214128],[-73.9323998255854,40.82114556692739],[-73.93242470247588,40.8215741230966],[-73.93246603585042,40.821577434976355],[-73.93251180889138,40.82213881642057],[-73.93246475655079,40.82215460182496],[-73.93249873238376,40.8225834646111],[-73.93254883578308,40.822599216753076],[-73.9325786278701,40.82304071104604],[-73.9325395002976,40.823072521457206],[-73.93257360450518,40.82348270812479],[-73.93261139068629,40.82348761957585],[-73.93266867628272,40.824078351385694],[-73.93262264679737,40.82409256891806],[-73.93266003600995,40.82454522647443],[-73.93270505627297,40.82455972450318],[-73.93272841961672,40.824912542957414],[-73.93273054155617,40.824984348253864],[-73.93273844041256,40.82512551143712],[-73.93274693841838,40.825216783076215],[-73.93275761662524,40.8253222704128],[-73.93276594581164,40.82545822718517],[-73.93277433404916,40.8256121693853],[-73.9329594037359,40.82692344776977],[-73.93298275135794,40.82722440674669],[-73.9330076056631,40.827535713204576],[-73.93305881749963,40.828086243812315],[-73.93307251134269,40.828156152539364],[-73.93308540348288,40.8282256743206],[-73.93332562839956,40.83002868376579],[-73.93341936721271,40.830774350969065],[-73.93347556906211,40.83122141057527],[-73.93354606746993,40.83150945350162],[-73.93360592036706,40.83278953052097],[-73.93357044802292,40.83289219258114],[-73.93356395741964,40.83294273602143],[-73.9335639085739,40.832991653331085],[-73.9335380799096,40.83305849207682],[-73.93351358092677,40.83314875478512],[-73.93348671120863,40.83327147568966],[-73.9334691837515,40.83339516764057],[-73.93346105669666,40.8335194207009],[-73.93346235703143,40.833643823071874],[-73.93319931381774,40.834770396377],[-73.93317633707268,40.83494357433019],[-73.9331430670921,40.83519412811921],[-73.93299639001609,40.83567878918886],[-73.9326562035398,40.836473476526095],[-73.93235564152509,40.83699333562818],[-73.9318666017278,40.83764005625053],[-73.93150395434222,40.83832068951022],[-73.93095819832959,40.83925414741615],[-73.93086414417793,40.83935336886819],[-73.93081468528432,40.83942834564935],[-73.93076945055623,40.8395701776614],[-73.93075007959844,40.83961582263365],[-73.93071570388959,40.83963863028991],[-73.93065980124585,40.83971523229926],[-73.93059094800807,40.83985868154767],[-73.93055441727198,40.83988801039692],[-73.9305157238608,40.839933642686965],[-73.93050705627856,40.84001027406952],[-73.93043184038572,40.840231705388085],[-73.93048324520994,40.84046006106985],[-73.93039907687995,40.84061025903116],[-73.93036686159226,40.840620022807705],[-73.92985714744408,40.84156744895823],[-73.92958939441911,40.84208354907947],[-73.92957870884518,40.842276669602626],[-73.92938012588215,40.84246714562457],[-73.92919408007184,40.84281841573973],[-73.92918458606921,40.84320375764744],[-73.92861574822354,40.844676865030145],[-73.92827454640613,40.84497576115672],[-73.92811925283057,40.845317203818226],[-73.92808209373634,40.845391597336295],[-73.9280474833566,40.845464595954304],[-73.92786869810769,40.84559772170278],[-73.92767073280388,40.84603348248393],[-73.92763424726976,40.84601878419677],[-73.92759209751692,40.84605233651555],[-73.9275482844683,40.8460872150637],[-73.9274601310171,40.846194776329156],[-73.92742141536043,40.84625508392994],[-73.9273912595109,40.846341483681776],[-73.92736757060926,40.84640506089751],[-73.9273614912852,40.84641890356568],[-73.9273418451992,40.84646364143859],[-73.92730194432448,40.84650686737587],[-73.9271498069637,40.84643640762812],[-73.9268051593282,40.84627678889734],[-73.92649747618242,40.84613615150621],[-73.9263596655931,40.846072516039854],[-73.92622443852184,40.84601088178977],[-73.92615627850587,40.84597860043377],[-73.92609207207065,40.84595200380416],[-73.9258737624033,40.845849942853135],[-73.92553784599905,40.845698131857375],[-73.92468448466053,40.84531608329426],[-73.924549099801,40.84525547237934],[-73.92445346275787,40.84516618216657],[-73.92425326002137,40.845112334751626],[-73.9236095515337,40.844792739664584],[-73.92354002011587,40.844758943609925],[-73.92271164442458,40.844797717725726],[-73.9226280853107,40.84480091082964],[-73.9224698366015,40.84481268753066],[-73.92150714605994,40.84487357343173],[-73.92043298027828,40.84494079480323],[-73.91934882434506,40.84499242618855],[-73.91877179199452,40.8450344670995],[-73.9183870599972,40.845054140232556],[-73.91728719417246,40.84510408616014],[-73.91697152437618,40.84511524612672],[-73.91558822826106,40.84514715384784],[-73.914774366957,40.84516543415173],[-73.91416076333664,40.845177755693626],[-73.91379523583981,40.84518322832877],[-73.91351826521732,40.84518597495376],[-73.91338293971448,40.84518723253673],[-73.91324970701017,40.84518445857009],[-73.91258405544762,40.8451705876541],[-73.91194670359717,40.845157302072906],[-73.91141636581263,40.8451486937257],[-73.91128097415717,40.84514648172197],[-73.91104096409533,40.84514117316353],[-73.91080579409861,40.84513352586738],[-73.910254353069,40.84510417384909],[-73.90935924844655,40.84505652361051],[-73.90845073280427,40.84500744104415],[-73.90754488910746,40.84495849619253],[-73.90664675559496,40.84491631456994],[-73.90611824714742,40.8448825583067],[-73.90550582760643,40.84484343582367],[-73.90483122036319,40.844800342093656],[-73.90410107358719,40.84473082215302],[-73.90338651245882,40.84465529587264],[-73.90268810050183,40.844581472285505]]]]}}]}