{"type":"FeatureCollection","features":[{"type":"Feature","properties":{"district":"202"},"geometry":{"type":"MultiPolygon","coordinates":[[[[-73.89680883223774,40.795808445159985],[-73.89693872998792,40.79563587285375],[-73.89723603843939,40.79572003753727],[-73.89796839783742,40.79564483916218],[-73.89857332665558,40.79606914025978],[-73.89895261832527,40.796227852579825],[-73.89919434249981,40.796502456018395],[-73.89852052071471,40.796936194189975],[-73.89788253240107,40.797116532649795],[-73.89713149795642,40.79679807772849],[-73.89678526341234,40.79632916648729],[-73.89680883223774,40.795808445159985]]],[[[-73.8983303627048,40.80241282144278],[-73.89646668834571,40.800790470891506],[-73.89798486686917,40.79960428081994],[-73.89864038714919,40.7991011651241],[-73.89902455567228,40.79917219984014],[-73.9002100499307,40.79926415639873],[-73.89978738800922,40.799509553872134],[-73.89971563817444,40.80079880850296],[-73.90003735815742,40.80090874205037],[-73.89948919423671,40.80090111592974],[-73.8993874857105,40.80193566507047],[-73.8983303627048,40.80241282144278]]],[[[-73.89385454186649,40.82734003674578],[-73.89293226101144,40.82678703602998],[-73.89191271858492,40.82679445025084],[-73.89090560062786,40.82678778412005],[-73.8899794248792,40.82680999223839],[-73.88983599170022,40.826804734257394],[-73.88980564172405,40.826803621043176],[-73.88969004961375,40.82679938357002],[-73.88963895316236,40.826797510007545],[-73.88885046203677,40.826768595244204],[-73.88789510901422,40.82674318529673],[-73.88639957228067,40.82750337973952],[-73.88609624167161,40.827655777358125],[-73.88594999637772,40.827733634943094],[-73.88587215795792,40.82777731476024],[-73.8857942629577,40.82782357551426],[-73.88569200524749,40.82787730358479],[-73.885566158875,40.82793989062859],[-73.88541501010079,40.82801415145017],[-73.88533977068231,40.828047646844],[-73.88502638846101,40.82818715774442],[-73.88471733910303,40.82824098499671],[-73.88407572105892,40.82826344071708],[-73.88390069905054,40.828270154415435],[-73.88378414134571,40.82827429246255],[-73.88438705287568,40.82681728353236],[-73.88460938858499,40.825303536426695],[-73.88461335944156,40.825276503821655],[-73.88462165868273,40.82495620633517],[-73.8846445070049,40.82381427370176],[-73.88439891827069,40.82299752431074],[-73.884385041061,40.8229513694986],[-73.8843612859193,40.82287380133209],[-73.88433212381717,40.822810142979925],[-73.88429488211209,40.82271820526817],[-73.88424971750176,40.82264220908275],[-73.88378786126482,40.821933413771454],[-73.88265922924028,40.81968883261969],[-73.8824477955298,40.81926832200912],[-73.88098029593267,40.81823562312743],[-73.87806283262127,40.81618263244426],[-73.87663459963709,40.81571150809934],[-73.87673185506817,40.81538649648675],[-73.8752053909248,40.814878744500426],[-73.87446381927738,40.8146452318618],[-73.87250110885971,40.813888128234254],[-73.87239437900091,40.81397433560603],[-73.87232977097997,40.813921823341474],[-73.87243667235077,40.813850934001785],[-73.87218961012046,40.813673670767336],[-73.87209716961003,40.81373802152119],[-73.87203687539935,40.813685513372846],[-73.87212931147361,40.813621168692784],[-73.87208038785029,40.81358405461966],[-73.87180463640202,40.813314890539395],[-73.87165777683398,40.81325426197617],[-73.87095753684099,40.812146180609645],[-73.87056806927933,40.81208731762259],[-73.87047093165317,40.81145829499181],[-73.87055342191634,40.811243380723106],[-73.8681121914008,40.80675183283201],[-73.86846346959145,40.80593654893923],[-73.8697896801756,40.80412510586398],[-73.87151855030297,40.80187414888833],[-73.8716114259257,40.80191439620717],[-73.87169881930807,40.80180527192062],[-73.87160336192531,40.80175181144664],[-73.8717450937392,40.80154736611633],[-73.87238060453699,40.8012901146329],[-73.87243864684848,40.80127061279647],[-73.87264765331877,40.80119011594844],[-73.872705037586,40.80116717681076],[-73.87317223327199,40.80099783970615],[-73.87355096572506,40.800853302772026],[-73.87467716314059,40.800979422864366],[-73.87473060452699,40.801256637628775],[-73.87526517037323,40.801398152548636],[-73.8758578858133,40.80145598758658],[-73.87592998071607,40.801084223091316],[-73.87814218819923,40.801319290306644],[-73.87807685486544,40.801666644035215],[-73.877986295094,40.80165671550709],[-73.87796880375375,40.80171111512834],[-73.8780330023647,40.80205990686098],[-73.8780629485342,40.80219431934518],[-73.87811438894295,40.80236808487942],[-73.87816581140062,40.80255168424769],[-73.878234649218,40.80264680576837],[-73.8784329551354,40.80270273419249],[-73.87874344166555,40.8027391142431],[-73.8789245383548,40.80277208050836],[-73.87921348407686,40.802795326835266],[-73.87934292184536,40.802772519178795],[-73.87950995961044,40.80276949081534],[-73.87962764836531,40.80274331871963],[-73.8797430082038,40.80274343912117],[-73.87975704576837,40.80274345376437],[-73.87991660603453,40.80276000771132],[-73.88005462984879,40.80276015140779],[-73.88017115118794,40.80272421955104],[-73.88027898796526,40.80272105380324],[-73.88041836510065,40.802667940286696],[-73.88056943638324,40.80263284747938],[-73.88077149808495,40.802587426709486],[-73.88092030545262,40.802558543427494],[-73.8810691031168,40.80253588232166],[-73.8811796566723,40.80252977344631],[-73.88132025761243,40.80251125198704],[-73.88143082957599,40.802494772761904],[-73.88153320765754,40.80248139645075],[-73.88170931957758,40.80244735497592],[-73.88182125479861,40.802431914257106],[-73.8819386393324,40.80242166390715],[-73.88203490143367,40.80240779338906],[-73.88206013127402,40.80240415828248],[-73.88206539258181,40.80240288628768],[-73.88219256706583,40.80237214533432],[-73.88232088798665,40.80235153497312],[-73.88237010115644,40.80235384745836],[-73.88239465208332,40.80235499995076],[-73.88244775081948,40.80235121209361],[-73.8824302177404,40.80226557239017],[-73.88251894912051,40.802252181284565],[-73.88254113402199,40.80233568156305],[-73.88259526944297,40.80232570632351],[-73.88276028400804,40.802306208851334],[-73.88288323972418,40.80228912718348],[-73.88297059068702,40.80228429954233],[-73.88307091642805,40.802259819580506],[-73.88320360331392,40.80222799770911],[-73.88354011849323,40.80217917463196],[-73.88369542422477,40.80216212360307],[-73.883809410282,40.80212219573677],[-73.8838384999311,40.80210718449804],[-73.88385182690106,40.80209553165811],[-73.8838774507143,40.802075334868725],[-73.88389999312497,40.80206135734868],[-73.88391536772123,40.80204892757269],[-73.88393791667497,40.802031061295544],[-73.88396462519613,40.80196514886241],[-73.88378353970131,40.80192901592491],[-73.88377737963167,40.80193989917011],[-73.88373845737085,40.80195619376995],[-73.88369036996541,40.80194525580531],[-73.8836689308896,40.80191334546557],[-73.88368024716245,40.80188069019271],[-73.88372326665923,40.801862843941215],[-73.88377442409538,40.801873784987706],[-73.88379279040663,40.8019072480145],[-73.88378457957894,40.80191968382414],[-73.88396774707857,40.80195744535537],[-73.88398945322632,40.80190387966137],[-73.88505172336708,40.80213090679819],[-73.88514576973337,40.80225958948747],[-73.88526714505261,40.80228439481713],[-73.88527262213975,40.80227402896798],[-73.88531087058676,40.802253326772764],[-73.8853654459887,40.802260639744844],[-73.88539676408837,40.80230215307025],[-73.88538033197318,40.80233428526747],[-73.88533116885955,40.802352902670314],[-73.88528342105941,40.80234248553911],[-73.88525755169505,40.80230823696417],[-73.8852616650514,40.80229683395154],[-73.88515517126673,40.80227245354405],[-73.88525553670252,40.80240978102561],[-73.8855997811227,40.80256549733356],[-73.88578073880988,40.80268039213679],[-73.88591424672529,40.802798517495745],[-73.88600887424704,40.802952656788655],[-73.8860777124662,40.80305432969518],[-73.88609972664479,40.803085372871465],[-73.88616377056563,40.803175684977],[-73.88627576454378,40.803264289368656],[-73.88642435552946,40.80334516275601],[-73.88648691823556,40.803379212832624],[-73.88672389248721,40.803530214982544],[-73.88684879825256,40.803635219116885],[-73.88708573531684,40.803809163680405],[-73.88727097347119,40.80394700233685],[-73.88738095624217,40.804110681284065],[-73.88724738458335,40.80418614061698],[-73.88733552633225,40.804293189910766],[-73.88740234683179,40.80437434258955],[-73.88752886022138,40.80440172674055],[-73.88771124600449,40.804614781220295],[-73.88763129537647,40.804671325376084],[-73.88795897223955,40.80499792592084],[-73.88859217706403,40.80478927509799],[-73.88876053714002,40.80486317859811],[-73.88889364219018,40.80495622746193],[-73.88906442026072,40.80502191240217],[-73.88915674193909,40.805128026168475],[-73.8892741877571,40.80521033760609],[-73.88936640376936,40.80538078029835],[-73.88933783805425,40.80558803687505],[-73.8892232300483,40.80568442093199],[-73.88919794140908,40.80580709967945],[-73.88922416091154,40.805845351192175],[-73.88955634301644,40.805431606518916],[-73.88955664501945,40.805431231887674],[-73.88997434034975,40.80491313038325],[-73.88999598170852,40.80488628625035],[-73.89014756243863,40.804960609786804],[-73.88937439253695,40.80592527311545],[-73.88954478026055,40.80580707619296],[-73.88965874963529,40.80584774526973],[-73.8897533298726,40.805875490586395],[-73.88981346825868,40.80587739135782],[-73.88981398349785,40.805877391850274],[-73.88985041274157,40.805857146444545],[-73.88987229258508,40.80583135646505],[-73.88989905762267,40.80578529092795],[-73.88992823364863,40.80574844674457],[-73.88996089070008,40.80571476991765],[-73.8899913911536,40.8057042598732],[-73.89005932692429,40.80570432468147],[-73.89013594081204,40.80571469094764],[-73.89023295689192,40.805736907528434],[-73.89033596715241,40.80576663601406],[-73.89035259769872,40.80577143583912],[-73.89043667322538,40.80579363876666],[-73.89051422588408,40.80584779297391],[-73.89058213079713,40.80586752284725],[-73.89072122618872,40.8058750287228],[-73.89086354177184,40.805892371352954],[-73.89101234323621,40.805899886065376],[-73.89127112984046,40.8059124218944],[-73.89149717186734,40.80592719896955],[-73.89149903730078,40.80593123824068],[-73.8914410427721,40.805661899067516],[-73.89178618135604,40.805622892086355],[-73.89197929534274,40.806384708976395],[-73.89245494636056,40.80637010660546],[-73.89270641330674,40.80634398993952],[-73.89270681066431,40.80634394859565],[-73.89253177139425,40.80565655156851],[-73.89227315843533,40.805702433124985],[-73.89216364547643,40.80530259256561],[-73.89181312009514,40.80518695546625],[-73.89180973582809,40.805193784957794],[-73.89167604184019,40.80515095314272],[-73.89168699312522,40.80513011010947],[-73.89156417608577,40.805093939956414],[-73.89156004966475,40.80509998053834],[-73.8914999793814,40.80508158808926],[-73.89150751395873,40.805070311042854],[-73.89130372999026,40.80500678832584],[-73.89129856973773,40.805016498225264],[-73.8912671062289,40.805010489424305],[-73.89128402413922,40.80497628189934],[-73.89131376917379,40.804984938313304],[-73.891311187901,40.80498982140639],[-73.89146488860877,40.80504398694363],[-73.89150645665761,40.805057693082674],[-73.89169561834656,40.805115843422335],[-73.89173240995615,40.80504936342049],[-73.89186610809391,40.80509048742681],[-73.89182888997553,40.805166472094264],[-73.89219739671562,40.80528468791955],[-73.89230020327578,40.80566060567035],[-73.89233730507785,40.80565637011855],[-73.89233507004721,40.80564867947991],[-73.89239803509005,40.805638488931976],[-73.8924002723912,40.80564532485995],[-73.89256667738412,40.805620710004824],[-73.89274814037404,40.80634026130218],[-73.89289770901865,40.8063269187965],[-73.89304654394515,40.80631476551225],[-73.89315654170535,40.80631240992126],[-73.89330516489152,40.806343998338114],[-73.89337655119155,40.80629786456446],[-73.89345420126818,40.80629302000564],[-73.89354804655925,40.806275898888686],[-73.89362245442142,40.806275967572766],[-73.89371954313471,40.8062539341316],[-73.89383602227235,40.80624420875593],[-73.89395248091257,40.80624677353269],[-73.89403658607411,40.80625176721967],[-73.89410449503043,40.80626903743063],[-73.89422096374231,40.80626668559527],[-73.89452510142175,40.80624238250875],[-73.89462863918344,40.80623264499382],[-73.89463252351014,40.80623233242484],[-73.89457393913416,40.80604577300738],[-73.8947260190962,40.80602624658368],[-73.89477679721044,40.806213633742814],[-73.89480337371344,40.80620822282283],[-73.89485360535876,40.806214908158886],[-73.8947297052668,40.805741101461834],[-73.89484295983632,40.80572399701232],[-73.8949690952872,40.806231130494105],[-73.89509836487318,40.8068636396763],[-73.89528550564228,40.80684271107156],[-73.89537269057821,40.806703517335016],[-73.89545911867944,40.80660308388965],[-73.89550633968567,40.806595305303816],[-73.89541794877958,40.806267777688475],[-73.89539221099781,40.80617680177734],[-73.89530206142915,40.8059014041619],[-73.89531181635864,40.805869456157446],[-73.8952796287401,40.80576618406808],[-73.89531197487528,40.80576867103516],[-73.89534416707076,40.80586948553073],[-73.89540549061032,40.80596049374936],[-73.89546655698204,40.80621620001558],[-73.89551163917186,40.80634898300506],[-73.89559109091823,40.80658134334765],[-73.89572273778765,40.80655965730841],[-73.89569912530925,40.80644502168986],[-73.89567025138759,40.80629013045711],[-73.89574790898858,40.80628036801035],[-73.89583174887825,40.806454974302675],[-73.895838380731,40.806540607572096],[-73.8959779468775,40.80651761583978],[-73.89594184174581,40.80639116118056],[-73.89593553363191,40.80628791146824],[-73.89587766345042,40.80605679059523],[-73.89579066958083,40.80583055920926],[-73.8958748159932,40.805808511582576],[-73.89594888835505,40.80602244045207],[-73.89601320589153,40.8062683161561],[-73.89610824517882,40.8064961509514],[-73.89622424119065,40.80647704184243],[-73.8962070824305,40.80641584533924],[-73.89619572352196,40.80632406352686],[-73.89619585301477,40.806241031322735],[-73.89623040737018,40.80621047190233],[-73.89627642502967,40.806206142593346],[-73.89635118493798,40.80621058055478],[-73.8967868232375,40.806159258515095],[-73.8970874830768,40.806123837656905],[-73.89711438014332,40.80611086592916],[-73.89715079498724,40.806093303628714],[-73.8971738740818,40.80604525364772],[-73.89726014999147,40.80604095984743],[-73.8973129614691,40.80608152729486],[-73.89738639439203,40.806224617136884],[-73.8974968195382,40.80621440070525],[-73.89747588735368,40.80599922682164],[-73.89741472698572,40.80580005947825],[-73.89748591740921,40.80578783251681],[-73.89754706596727,40.805994373750934],[-73.89763818741152,40.806201320838994],[-73.89776126648749,40.80618993350169],[-73.89775065693247,40.8061371293255],[-73.8977282725107,40.805967494137455],[-73.89779945195386,40.80596264091166],[-73.89786715835076,40.80611264967462],[-73.89787360835057,40.80617953949257],[-73.89801340896237,40.8061666038594],[-73.89800306596382,40.80609064751392],[-73.89799037051537,40.80593085364826],[-73.89787127990657,40.805534981759784],[-73.89793600296255,40.80552029002899],[-73.89806803798798,40.805913715708634],[-73.898161107527,40.806138070100076],[-73.89822085495237,40.80611999115431],[-73.89829494887951,40.80609757069851],[-73.898281719951,40.80605096183943],[-73.89827305836836,40.80591733491572],[-73.89826275488723,40.80589093849058],[-73.8982576122462,40.80587128446642],[-73.89827239228514,40.80586961338287],[-73.89827462411776,40.80585950975409],[-73.89824438081496,40.80582635922328],[-73.89819342379798,40.8058111555853],[-73.89811666687602,40.805755506565504],[-73.89813300760623,40.805699378755364],[-73.89812758027394,40.80569328283051],[-73.89812348826939,40.805686612029994],[-73.89812083433156,40.80567953383989],[-73.89811968509336,40.80567222597485],[-73.89812006940858,40.805664871915845],[-73.89812197762757,40.80565765630369],[-73.89812536183962,40.80565076030306],[-73.89813013707578,40.80564435705404],[-73.89817522313247,40.80563429078489],[-73.89818927544395,40.80562419826757],[-73.89819077474205,40.805610725739434],[-73.89822827832396,40.80557127543617],[-73.8982085961973,40.8055529144281],[-73.89824555840784,40.80553947270416],[-73.89827734404702,40.80554272142007],[-73.89828988371777,40.8055440038299],[-73.89852656516604,40.805434309098096],[-73.89958950658978,40.80522840281072],[-73.89970489842125,40.80521541856737],[-73.89973764677022,40.80519451198123],[-73.89973674855305,40.80518267590731],[-73.89973595797929,40.80517226723836],[-73.90007193060234,40.80510113508908],[-73.90026555019038,40.80506088890765],[-73.90052559486197,40.80500683488158],[-73.90078578431067,40.80491748944868],[-73.90084088110773,40.80491364592235],[-73.90091131597178,40.804899332354175],[-73.90097298881535,40.80487609789133],[-73.90125734119644,40.80488188184789],[-73.90130652153375,40.80487443024251],[-73.90152331419789,40.80484158292822],[-73.90153096032176,40.80484017370736],[-73.9018027093367,40.80479008691618],[-73.90204952277965,40.80478414052171],[-73.9020724544782,40.80479064356556],[-73.90209394229657,40.804799549829625],[-73.90212682830997,40.80482530956604],[-73.90214184468523,40.80484890997523],[-73.90215215586461,40.80487250571866],[-73.90216778045422,40.80491865682032],[-73.90216911888905,40.80492636987867],[-73.90216913679309,40.80493414968744],[-73.90216783386668,40.804941866255504],[-73.90218021957048,40.804953828320905],[-73.90220621473199,40.804950343243945],[-73.90222284765609,40.80494811319028],[-73.90224620466348,40.805071502455604],[-73.90285585250248,40.80860293226731],[-73.90293929171293,40.80906270105467],[-73.90297929643036,40.80931063994813],[-73.9029879543749,40.80936430053397],[-73.90299767005645,40.80945558286018],[-73.90300877917171,40.80955007277893],[-73.90302018060598,40.809623428529754],[-73.90304837236235,40.809663145371545],[-73.90308946596544,40.80985639920042],[-73.9032427350223,40.810712884532585],[-73.90341720373648,40.81150688285582],[-73.9041803643575,40.81212482006493],[-73.90446551476737,40.81228195991385],[-73.9041833769559,40.81308645548036],[-73.90380412291606,40.814131842797636],[-73.90346997183792,40.81507578848405],[-73.90306443783543,40.816106761023086],[-73.90300983214291,40.81631779245746],[-73.9025785907422,40.81736979443104],[-73.90210743306962,40.81850519210074],[-73.90183195256088,40.81915336456082],[-73.90166319343292,40.819550426854505],[-73.90160121247388,40.81969485875819],[-73.90129277627106,40.820475442111785],[-73.90084561232217,40.82154141761467],[-73.90061141080828,40.82210880792972],[-73.9002097407531,40.82307101462912],[-73.90016669386945,40.82317413214295],[-73.90003829961036,40.823481696233095],[-73.89979919974103,40.8240579415117],[-73.89912145036169,40.82569691918977],[-73.89899555853616,40.825988650968924],[-73.89886230612774,40.82629743613997],[-73.89883617377862,40.82635799349838],[-73.89867710042624,40.82674369630787],[-73.89865417379038,40.826799286328885],[-73.89847432433822,40.827235359173116],[-73.89845229963016,40.82728876124003],[-73.89820469327977,40.827889109985016],[-73.89794497769336,40.82852174826488],[-73.8975695875859,40.82942300083108],[-73.89639572973998,40.82876287952082],[-73.89548522764592,40.82824854138511],[-73.89529156500156,40.82814234986807],[-73.8951102086074,40.828036899455086],[-73.89385454186649,40.82734003674578]]]]}}]}