{"type":"FeatureCollection","features":[{"type":"Feature","properties":{"district":"307"},"geometry":{"type":"MultiPolygon","coordinates":[[[[-73.98017161103716,40.66115465847807],[-73.98020628569738,40.661105955001354],[-73.98020645076346,40.66110571244916],[-73.98020654587482,40.66110546050331],[-73.98022710352416,40.66104812773339],[-73.98022716252734,40.66104797462292],[-73.98022716256479,40.66104784830681],[-73.98022901355274,40.66098557845059],[-73.9802290259468,40.660985326490504],[-73.98022894309035,40.660985055750984],[-73.98021012345234,40.6609235563195],[-73.98021005290443,40.66092332243819],[-73.98020992250562,40.66092313361164],[-73.98017209842457,40.66086788020116],[-73.98017201552554,40.660867753870676],[-73.98017186201164,40.660867618816646],[-73.98012012783269,40.660823124656886],[-73.98011991537741,40.66082293581606],[-73.98011964285162,40.66082279135977],[-73.98006025439237,40.66079075826128],[-73.98000138679602,40.6607576992808],[-73.9800011389068,40.660757564210144],[-73.98000089033867,40.66075749229736],[-73.97992682383985,40.66073473226995],[-73.97992670549559,40.660734696565896],[-73.97992656294443,40.660734686656824],[-73.97984261884451,40.66072744113162],[-73.97984227632678,40.66072741476965],[-73.97984197998849,40.66072745040119],[-73.97975708396483,40.66073846671199],[-73.97975683536438,40.66073850235176],[-73.97975657508506,40.66073860165009],[-73.97968049571494,40.66076659440283],[-73.97968032982281,40.660766656861476],[-73.97968019934353,40.66076673808953],[-73.97962025716214,40.6608068638554],[-73.97962004438669,40.660807008226875],[-73.97961986701071,40.66080721458996],[-73.9795787009563,40.660853242154154],[-73.97751171405983,40.65986275641664],[-73.97515738099992,40.65872279411515],[-73.97448234034688,40.65833944977887],[-73.97436701292499,40.6581879035124],[-73.97426735561804,40.658028787191135],[-73.97418457591435,40.657863577886744],[-73.97418455218438,40.65786350534169],[-73.97411953458278,40.65769375242168],[-73.97407283549506,40.65752119347551],[-73.97407281177895,40.65752108591711],[-73.9740727874031,40.65752097835854],[-73.97404458313936,40.657347252543225],[-73.97379189966364,40.65639232394671],[-73.97355493959195,40.655643939075546],[-73.97326628133229,40.65464926133228],[-73.97305103665832,40.65391250677204],[-73.97268288583602,40.65263927798759],[-73.97242905632795,40.651750258745274],[-73.9723690104416,40.65153994899656],[-73.97232846288082,40.651397928580465],[-73.97222228605726,40.651046951765906],[-73.9720884617338,40.65065690875413],[-73.97203584994644,40.650485627655506],[-73.971908903778,40.65005140988464],[-73.97155930418761,40.648822828757844],[-73.97139631688148,40.648257786114314],[-73.97229870705809,40.647942482036804],[-73.97293902131736,40.647689679648416],[-73.97303635530949,40.64763947132564],[-73.97303651018544,40.64763939011072],[-73.97303668748462,40.647639336878285],[-73.97314750646295,40.64760295438241],[-73.97314760017494,40.647602918720814],[-73.97314769453953,40.64760290115237],[-73.97326673586504,40.647583098392076],[-73.97326689005867,40.64758307212597],[-73.9732670673364,40.64758307216717],[-73.97338760202808,40.64758092945778],[-73.97338782681435,40.64758092950979],[-73.97338805092974,40.647580957036354],[-73.97350396859792,40.64759568055649],[-73.97465714349812,40.64776437290626],[-73.97472847878824,40.64777370937571],[-73.9748640363946,40.64778572389041],[-73.97495873314375,40.64779549787868],[-73.9750352598248,40.6478033942096],[-73.97517314597349,40.64781762509721],[-73.97527213435485,40.64783060457004],[-73.97633535464317,40.64772614217141],[-73.97726311100364,40.64762733652315],[-73.97819074359315,40.647525991511316],[-73.97911821943028,40.647428061256434],[-73.98029115543191,40.647297161431545],[-73.98132887705172,40.64718167270774],[-73.98180533857207,40.647127799262464],[-73.98230939759485,40.64692740380854],[-73.9830734013995,40.64662513470523],[-73.98528412743582,40.64576793872965],[-73.98834986671018,40.64456224388744],[-73.98905872393603,40.64411924103943],[-73.991808234823,40.645783969112216],[-73.99392923788992,40.647069311232435],[-73.99604565308651,40.64834065492914],[-73.99625314445768,40.64817497623408],[-73.9968137296385,40.64771042427897],[-73.99702216256622,40.64753779178652],[-73.99730042510666,40.64727201952743],[-73.99788285745238,40.64671852907926],[-73.9984657784391,40.64615922711174],[-73.9990477303075,40.64559734589585],[-73.99963885985323,40.64504188727886],[-74.00021421421059,40.6444782999915],[-74.00079787001887,40.64391754716082],[-74.00137990104457,40.64335675365855],[-74.00195978397325,40.6427987386859],[-74.00254486979031,40.64223575962097],[-74.00312513379362,40.64167454158158],[-74.00371245858128,40.641115851538316],[-74.00429409898878,40.640556240282116],[-74.00487632070713,40.63999546454977],[-74.0054578234326,40.63943513585008],[-74.00604152680447,40.63887733424163],[-74.0066225952405,40.638314801631246],[-74.00720591287711,40.637754581989775],[-74.00778794382016,40.63719552879023],[-74.00837574781073,40.63663655762911],[-74.00895274406129,40.63607508122684],[-74.00955708305906,40.63549296413139],[-74.0101605734606,40.63491233825149],[-74.01027592444945,40.634800356116095],[-74.0105038368618,40.6345790963296],[-74.01106909346672,40.63474106367144],[-74.01324489560527,40.63539747410629],[-74.01606790798357,40.63613845059243],[-74.0187832339201,40.63696028509305],[-74.01931103340425,40.637097805909235],[-74.01955318166179,40.6372013433339],[-74.01971293794584,40.63723148291324],[-74.02005721735024,40.637437238496204],[-74.02029291686237,40.63759735270297],[-74.02058750348559,40.6378151600774],[-74.02085878479735,40.63804178878386],[-74.02101610031087,40.63818960318481],[-74.02105298694691,40.638226691597914],[-74.02108731175345,40.63826358797869],[-74.02112933322408,40.638308744601915],[-74.02120792867423,40.638398106145345],[-74.02128108577594,40.638490108391736],[-74.02134865189352,40.638584559415456],[-74.021410486053,40.63868126218163],[-74.02146645936624,40.63878001518329],[-74.0215164548883,40.638880612190256],[-74.02156036829436,40.63898284334312],[-74.0215981079465,40.63908649537252],[-74.021649467277,40.63911769509415],[-74.02175432566469,40.639181393246844],[-74.02192439742763,40.639284859693454],[-74.02261098612834,40.639708528327915],[-74.02297009390848,40.63993460447874],[-74.02310593208479,40.63999532592702],[-74.02321780213278,40.63990151460377],[-74.0233168302438,40.63979778172508],[-74.02340085362948,40.6396857318487],[-74.02346821834115,40.63956733547959],[-74.02348203738603,40.639533212808445],[-74.02351787245728,40.63944477391485],[-74.0235493915473,40.63932033369252],[-74.02457354910433,40.639923934992616],[-74.0246145327845,40.63995336466108],[-74.0246637094884,40.639983386446204],[-74.02572377067457,40.64063051910817],[-74.0260978912957,40.640270020325616],[-74.03200953327236,40.64385780804787],[-74.03231084300101,40.6440392144806],[-74.03226870865824,40.64407437929279],[-74.03220689841643,40.64402992889307],[-74.031978571573,40.64389338025608],[-74.03189708494334,40.643889349369985],[-74.03159762607343,40.64420223984999],[-74.0305183086339,40.64527442470666],[-74.02908090885776,40.64440359693058],[-74.02899762468769,40.64447196149313],[-74.0291541899453,40.64458144541976],[-74.02886241127055,40.644866024225784],[-74.02882159751957,40.644842125652104],[-74.02909142239668,40.64460058802823],[-74.0290865428924,40.64458300179983],[-74.02896958211079,40.644497461017],[-74.02850116250606,40.64417756470286],[-74.02842543290458,40.64425072482513],[-74.02823134309659,40.64443822883794],[-74.02819053049342,40.64441433070909],[-74.02845721095775,40.64415605924836],[-74.02820569545007,40.64401598289046],[-74.02775298186884,40.64450627702209],[-74.02703434223355,40.645197820983604],[-74.02604948400315,40.646261350326384],[-74.02954714502852,40.648369331183595],[-74.02974078211047,40.648486025708],[-74.02938990486598,40.64880405461148],[-74.02919183069376,40.64868601671478],[-74.02571758804807,40.64661549229113],[-74.02538149265294,40.64691234622674],[-74.0250711143008,40.64672561637863],[-74.02483957406781,40.646944424765586],[-74.02467396344866,40.647094518878895],[-74.02461487103105,40.64715112511899],[-74.02435496936715,40.647399278153685],[-74.02414566050564,40.64761510126002],[-74.02512911955235,40.648323181457464],[-74.02496792117137,40.64860596226772],[-74.02553864578044,40.64978215934824],[-74.02484436363444,40.65059963805721],[-74.02520581187575,40.650818467899576],[-74.02541553929463,40.6506186970827],[-74.02605133196793,40.6509943007433],[-74.02587113764648,40.65116053579756],[-74.02592807625277,40.65119665312045],[-74.02577633161954,40.651333977958764],[-74.02569093920535,40.65131954641456],[-74.02552971543649,40.65147855069301],[-74.02491122849014,40.6511062852909],[-74.02508999105069,40.65092400267932],[-74.02507739284502,40.6509144129273],[-74.0251025719024,40.65089330557706],[-74.02477160495674,40.65068770743557],[-74.0245232805539,40.65093755347296],[-74.02448801174862,40.650918377161176],[-74.0244607759947,40.650944609335625],[-74.02428919364958,40.65111207358994],[-74.02427173047946,40.65110251124669],[-74.02424021347524,40.651133516313614],[-74.02550139045745,40.651839851034374],[-74.02541604028593,40.65193380685529],[-74.02417752973396,40.651191773212396],[-74.02382347395064,40.65135378491331],[-74.02365443141966,40.651256181836516],[-74.02359400295185,40.65131566325391],[-74.02305991047025,40.65097430413495],[-74.02302464837881,40.6510027378939],[-74.02302012112835,40.65100638823534],[-74.02285141795983,40.651169195161955],[-74.02536890150519,40.652721436927436],[-74.02522662972656,40.65282985695983],[-74.02272372795781,40.65129732276897],[-74.02262161936135,40.65131155867364],[-74.02154138319224,40.65067162291142],[-74.02134461287903,40.65085186118495],[-74.02128163421031,40.6508173424371],[-74.0212465237341,40.650834972564496],[-74.02127564873976,40.65086157837154],[-74.02127560550268,40.65089153494191],[-74.02139188210673,40.65096775798857],[-74.02135959921641,40.650997278611065],[-74.02124332438409,40.650925974830976],[-74.02118521368604,40.65097763467343],[-74.0211270778384,40.65094321261822],[-74.02105230392215,40.65109828292791],[-74.02134474360487,40.651260470908625],[-74.0223373466683,40.65191060538179],[-74.02225173199704,40.651981601506975],[-74.02126416505614,40.651325710104175],[-74.02098261225858,40.65115682265789],[-74.02089862870834,40.65124727521847],[-74.02091967477422,40.651260282807684],[-74.02380703903121,40.65304472851167],[-74.02359434497556,40.65321636896198],[-74.02353430165594,40.653096426047505],[-74.02333174650832,40.65294224018349],[-74.0230992368154,40.652919438445835],[-74.0229417228345,40.65287948450839],[-74.02288920245815,40.652822373885904],[-74.02285167504515,40.65274241159172],[-74.02195900090592,40.652222781970984],[-74.02186900073937,40.652222799118995],[-74.02171151888278,40.652274238170826],[-74.02162153367613,40.652319951290764],[-74.02123165456221,40.652697024715984],[-74.02118670027885,40.65283983689552],[-74.02320464727141,40.654096116818046],[-74.02306219089226,40.65423323629213],[-74.02210195162463,40.653587954310396],[-74.02193694561608,40.65357656098016],[-74.02187693558206,40.653548012371814],[-74.02162946295498,40.653645165216226],[-74.02128455998411,40.65396510854662],[-74.02123961069387,40.6541307688883],[-74.02114963484493,40.65421075521175],[-74.02182479745494,40.65465617578563],[-74.0216448641537,40.654878982880085],[-74.0208946979759,40.6544335754137],[-74.0206396915899,40.654439333329705],[-74.02060218183942,40.65441077951661],[-74.02060214479553,40.65429082432455],[-74.0204746182018,40.65421658922738],[-74.02024211371031,40.654222343426994],[-74.02002459222682,40.65416525925311],[-74.01961958177243,40.654165329052454],[-74.01941702844238,40.65399971256723],[-74.01925203374113,40.654034012212925],[-74.01919203025416,40.65402259849431],[-74.01924450754497,40.65394261998123],[-74.01917698964472,40.65388550950923],[-74.0190494830419,40.65386839457514],[-74.01896698068865,40.65386840820985],[-74.01892195088296,40.65376559771679],[-74.01885441729473,40.6536513654738],[-74.01877188306467,40.65353713681155],[-74.01872686588685,40.65347431052462],[-74.01862238308564,40.65349134902315],[-74.01811897876486,40.65388527160806],[-74.02025589052923,40.65511826288136],[-74.02005182454292,40.6553359488747],[-74.01787407223816,40.65406150233106],[-74.01715319581021,40.65477510436232],[-74.01746633453733,40.65492680089634],[-74.01741891331385,40.65499184067719],[-74.01980081651999,40.65648721058484],[-74.01970596410233,40.65658116375125],[-74.01726715936582,40.6551941879867],[-74.01691617851066,40.65548327495794],[-74.01665047959762,40.6553387965724],[-74.01639437533773,40.655620642850984],[-74.01910843803118,40.65736888430367],[-74.01890923625237,40.657549564464325],[-74.01860569460999,40.65784587402304],[-74.0158537005681,40.65621324005304],[-74.01543632269644,40.656632396759846],[-74.01774232727489,40.658098916725166],[-74.01766644409521,40.658185638771734],[-74.01786573109679,40.658308447298715],[-74.01768549175469,40.6584529927614],[-74.01748620434715,40.658337409243444],[-74.01750516410576,40.65827237429779],[-74.0150473822185,40.656950386693595],[-74.01493645894159,40.65706690238451],[-74.01442130484548,40.65760802195157],[-74.01745803087898,40.6594501973869],[-74.01667636656447,40.65998378656743],[-74.01554165389007,40.66075835547633],[-74.01400428392415,40.65981196344029],[-74.01366273992599,40.66002878063704],[-74.01246851441822,40.65931636814552],[-74.01183862056553,40.658912837274904],[-74.01142219567042,40.659328694961886],[-74.0111075041031,40.659706274580806],[-74.01402247678024,40.661529747440255],[-74.0131555493881,40.661981597726125],[-74.0126535881149,40.66198165403776],[-74.01023484431792,40.66046118705385],[-74.00859956968283,40.659520923098476],[-74.00857262378989,40.659545427765366],[-74.00778095960338,40.66026532833976],[-74.00745858163896,40.66055847621014],[-74.01037201297223,40.662398879730176],[-74.01046331724494,40.66264211979029],[-74.00955074142036,40.66326769413059],[-74.00868371591297,40.663372012840405],[-74.00616141136321,40.66184506899067],[-74.00568594756886,40.66227474036075],[-74.00553501251856,40.66218385874701],[-74.00428358250124,40.661444894101464],[-74.00418545737621,40.661528306067574],[-74.00414624892207,40.66156163568152],[-74.00424788611218,40.66162323856326],[-74.0042541535357,40.66162703769977],[-74.00426187385494,40.661631717812114],[-74.00426191059573,40.66163174629047],[-74.0042788006124,40.66164197660017],[-74.0043958054613,40.66171289450907],[-74.00451173232295,40.66178315797611],[-74.00470164001472,40.661893441105846],[-74.0047227489117,40.66190549639539],[-74.00475221025457,40.661922320188935],[-74.00476182862161,40.66192817874874],[-74.00476870023624,40.66193236482184],[-74.00495172594644,40.66204178153452],[-74.00512364857583,40.662144558309116],[-74.00512658939378,40.662149228189136],[-74.00512674648978,40.66214947846905],[-74.00512747767237,40.66215126964604],[-74.00514101962989,40.662184440259416],[-74.00526589544614,40.66227016556582],[-74.00562039670662,40.6624939268495],[-74.00578486636618,40.66258252895207],[-74.0058271433905,40.6625901089685],[-74.00585740199432,40.66257517029925],[-74.00585795416244,40.662574896865415],[-74.00585857414502,40.66257525534375],[-74.00603815112544,40.66267887134583],[-74.00620046233028,40.66277252611284],[-74.00622698247925,40.66278782786119],[-74.00622684103372,40.66278796674954],[-74.006225013901,40.66278975705268],[-74.0060895834048,40.662922401919516],[-74.00592904571474,40.663102158135736],[-74.00592802062332,40.66310330659298],[-74.00592360503035,40.66310825073926],[-74.00545775556647,40.66286136665882],[-74.0046014637946,40.66238266851952],[-74.00422549172734,40.662176961221],[-74.00391334571952,40.66197752730754],[-74.00389812942463,40.66196780583806],[-74.00383146963534,40.66192521625572],[-74.0038081547088,40.661907945728395],[-74.0034880110065,40.66224055612868],[-74.00389334189984,40.662469174469386],[-74.00423930501739,40.662657963459935],[-74.00436556756058,40.662735676655736],[-74.00438799951004,40.662714321342165],[-74.00446593631078,40.662761952418776],[-74.00455498488712,40.66281637291295],[-74.00455523060684,40.66281611491005],[-74.00455892564399,40.66281225893913],[-74.00455948505812,40.66281167474679],[-74.00455994636013,40.662811191075114],[-74.00456179244867,40.66280926644021],[-74.00460158473533,40.66276772310308],[-74.00458994364877,40.662733732805606],[-74.00460574305602,40.66271888517202],[-74.00454367850804,40.66268014611824],[-74.00473298121777,40.662496503996884],[-74.00523840365581,40.662799535401355],[-74.00535812864251,40.6628691297319],[-74.00515599719314,40.66304741406153],[-74.00506160816845,40.66299204120235],[-74.0049801050689,40.663060997442415],[-74.00497993436086,40.66306114236151],[-74.00497850424127,40.66306235348338],[-74.00497796703885,40.66306280801005],[-74.00497510679921,40.663065227908234],[-74.00497157758612,40.663068213242305],[-74.00519233775087,40.663201553096805],[-74.0051928192948,40.66320112051777],[-74.00519747590563,40.66319692959459],[-74.00519907606538,40.663195487943824],[-74.00520010976778,40.663194559121884],[-74.00520105129699,40.66319371088508],[-74.00524384971571,40.66315519090452],[-74.00523151018434,40.6631184696639],[-74.00524863034876,40.663105620491585],[-74.00518629798088,40.66306960144809],[-74.00538014413925,40.66288392695557],[-74.00565964975691,40.66305585356381],[-74.00599748682693,40.66325861082871],[-74.00579501836195,40.66343615129363],[-74.0056996374778,40.66337678866115],[-74.00562415155498,40.663448288466164],[-74.00562218007458,40.66345015549445],[-74.00562053152801,40.6634517162658],[-74.00561348681744,40.66345839025494],[-74.0059083596535,40.6636382836303],[-74.00591638354516,40.663641193849244],[-74.00591778279261,40.6636417020572],[-74.00591847405607,40.6636419523084],[-74.00592011069159,40.66364254627848],[-74.00630567322514,40.66386341177651],[-74.0067283501605,40.66411875442089],[-74.00743251429036,40.664542447129065],[-74.00766379098464,40.664683528366574],[-74.00772133506703,40.66471863301997],[-74.00772545192977,40.66474271539169],[-74.00767434594506,40.664791109265984],[-74.00763877534806,40.66479598033124],[-74.00730516126835,40.66459759075276],[-74.00725742631741,40.66464295951108],[-74.00726610280036,40.664673048829584],[-74.00725283559042,40.66469032364325],[-74.00731878365985,40.66472986075793],[-74.0071253264674,40.66491521847451],[-74.00652469600111,40.6645472271606],[-74.00670685940631,40.66436298985691],[-74.00679912430273,40.6644183065338],[-74.00688215307306,40.66434037294312],[-74.00662937859565,40.66418793012463],[-74.00653579559383,40.664257403636434],[-74.00664155766744,40.664320211356305],[-74.00644979980794,40.664506206799246],[-74.0058415763248,40.664138020674756],[-74.00602870773491,40.663959136535404],[-74.00611934710179,40.66401056669343],[-74.0062030658537,40.66393016821067],[-74.00604608518974,40.66384000563571],[-74.00599262641796,40.66389076321413],[-74.005921387034,40.663849598576085],[-74.00589826436895,40.66387569107503],[-74.00580999359885,40.663874002026745],[-74.00575781045487,40.6639227568018],[-74.00577974295794,40.66398776309317],[-74.00574809232232,40.66401194231753],[-74.00582327521114,40.66405456385343],[-74.00575753791415,40.66411439291218],[-74.00589272459429,40.664190318123445],[-74.00574908832147,40.66432651039234],[-74.00574145525125,40.66438182951634],[-74.00577046133877,40.66439749528125],[-74.00574463033598,40.66441763946763],[-74.00583499448767,40.66446958031844],[-74.00580832976831,40.66447828424355],[-74.00584924770605,40.6645032986199],[-74.00582211847083,40.66452876005974],[-74.00564140754473,40.6645314913934],[-74.0056502595958,40.66390033784394],[-74.00564925172901,40.66389985155969],[-74.00564311080404,40.66389689080401],[-74.00564213395887,40.6638964204333],[-74.00556312932862,40.66384904217356],[-74.00430053267472,40.663091861902295],[-74.00429508002968,40.66309558022249],[-74.00426622473461,40.66311526298833],[-74.00426374481532,40.6631137836405],[-74.00362862508561,40.662734847534786],[-74.00340348595624,40.66298572609586],[-74.00459238636749,40.663735199833035],[-74.00432294897372,40.66405231997546],[-74.00528132177341,40.664657003524155],[-74.00486193792659,40.665064821938365],[-74.00113519509655,40.66290172355275],[-74.0009442426561,40.663076391984085],[-74.00091723430246,40.66305925274793],[-74.00083401108444,40.663006442189314],[-74.00074785689014,40.66308446140946],[-74.00049413361153,40.66331422709351],[-74.00053780692811,40.66333347770715],[-74.00023141373393,40.66362799562301],[-74.00003024177389,40.663821369387435],[-74.0000772896699,40.66384525383033],[-74.00009913667097,40.66385634550642],[-73.99984301565587,40.66410559994087],[-73.99971008269921,40.664230166954276],[-73.99953152609916,40.664397485937094],[-74.00292463516382,40.6664623121636],[-74.00224030991373,40.66679383514536],[-74.00203289059175,40.6667872586683],[-74.00204667064888,40.666769770351095],[-74.00161950021086,40.66676627917465],[-74.00120611348305,40.66701810720303],[-74.00146470932704,40.66716956870778],[-74.00068774868765,40.667545951899],[-73.99998149339123,40.66745027490887],[-73.99954541498883,40.66790034997133],[-73.99902600998384,40.668442972127195],[-73.9990537218269,40.66885179921349],[-73.99894520195357,40.66897377448525],[-73.99902633264173,40.669007888400905],[-73.99905044103012,40.668921687297114],[-73.99903627811007,40.66891715219954],[-73.99904324792305,40.66888022023279],[-73.999063681498,40.66887346818942],[-73.99909039181547,40.66873147779741],[-73.99917543024283,40.66831962518597],[-73.99917988320549,40.66829663988778],[-73.99918971480969,40.66829820450048],[-73.9992404910503,40.66830628656016],[-73.99915332740866,40.6686698811208],[-73.99907935327965,40.669038271861766],[-73.99896950024642,40.66916224424294],[-73.998655806916,40.66951479554816],[-73.99880972556291,40.66959618094372],[-73.99891160167881,40.66964857863971],[-73.99890126537383,40.6697272729155],[-73.99891684838755,40.669804563217966],[-73.9988920731521,40.669938436175045],[-73.99874991491649,40.670533373220174],[-73.99871255131343,40.67068973677089],[-73.9985582446838,40.671335501670185],[-73.99871360475827,40.67153537812394],[-73.99876941058922,40.67160204710525],[-73.99868108236406,40.67173915760382],[-73.99861887970057,40.67183017256491],[-73.99854128054417,40.67170468865696],[-73.99845678080484,40.67156804322797],[-73.99834388719201,40.67139010012664],[-73.9982251010497,40.67120286840644],[-73.99798931584861,40.67084208175772],[-73.99787130022749,40.67066149969138],[-73.99771474276974,40.67041544836314],[-73.99764837108138,40.67031143752357],[-73.99761846622799,40.67026414228635],[-73.99757732200003,40.670199484385186],[-73.99711624688483,40.66947331064312],[-73.99696465059323,40.669234549029184],[-73.99692988574586,40.669174847033865],[-73.99684490483776,40.66903132477127],[-73.99675243792547,40.66906050136716],[-73.99659299188623,40.66909319417758],[-73.99640281104523,40.669008413751186],[-73.99403554705295,40.66784825355523],[-73.991794990939,40.66676621759866],[-73.99173365210994,40.666736595442295],[-73.99166282836197,40.666704262801794],[-73.98931273086802,40.66556633781365],[-73.98695101815666,40.66442521280717],[-73.98459157289206,40.663283741423335],[-73.98223034213153,40.66214149279386],[-73.98017161103716,40.66115465847807]]]]}}]}