{"type":"FeatureCollection","features":[{"type":"Feature","properties":{"district":"315"},"geometry":{"type":"MultiPolygon","coordinates":[[[[-73.91809256480836,40.586570335004915],[-73.91812533369662,40.58650737449933],[-73.91805568585306,40.58643654567648],[-73.91808349653132,40.586432208401746],[-73.91811489256264,40.58645405366665],[-73.91813973414868,40.58644567881347],[-73.9181712548569,40.586419415396186],[-73.91817590459837,40.58639509376963],[-73.91820329129601,40.58638704237161],[-73.91823846026819,40.586407906053324],[-73.91826250403695,40.586404286263715],[-73.91831216167827,40.586386605508906],[-73.91837910371446,40.586344401824796],[-73.9184218037061,40.58630997771203],[-73.91846569496713,40.58629367290401],[-73.91852958293047,40.586278553122916],[-73.9185647597762,40.586245782666275],[-73.91861692714427,40.58622900989259],[-73.91871030551859,40.586191673206095],[-73.91877052073922,40.58616732869996],[-73.91881005548656,40.58615924470008],[-73.91884807293592,40.58614768187152],[-73.91888988807577,40.58613479655352],[-73.9189408508247,40.58610718413072],[-73.91896974793102,40.58609561600002],[-73.9190001740967,40.58607709412315],[-73.91904637464808,40.58605874083097],[-73.91917204255653,40.585955087874495],[-73.91922053405614,40.58599630221887],[-73.91926279587518,40.58599859809371],[-73.91931380120143,40.585999734591056],[-73.91938929304774,40.586070656717055],[-73.91942087702232,40.58610359120067],[-73.91949267878105,40.586126139060056],[-73.91950214936082,40.586106628516845],[-73.91960004700488,40.58616493297184],[-73.91972493675264,40.58613316021766],[-73.91983267256666,40.586099804939536],[-73.91989300129303,40.58609162249376],[-73.91997613293833,40.58605923516521],[-73.92005215131573,40.58605001667074],[-73.92013922923807,40.586056945263714],[-73.92013970735722,40.586025009293195],[-73.92018236154173,40.586025038931865],[-73.92018236611416,40.58602121323296],[-73.92018863964584,40.58602026183547],[-73.92018491195523,40.58599060988741],[-73.92004940419433,40.586006774240474],[-73.92004691580856,40.58598860025649],[-73.92017489750637,40.585972430677955],[-73.92017117347488,40.58593990878516],[-73.920206300527,40.58593897692711],[-73.9202112911836,40.58596193460544],[-73.92025268900598,40.58596291960358],[-73.92025517678756,40.585981093582674],[-73.92020248303375,40.58598392644309],[-73.92020745883688,40.5860193174754],[-73.92021749158332,40.58602219388634],[-73.92021874083113,40.58602697738396],[-73.92027770472488,40.58602606138277],[-73.92027733491786,40.58606377752933],[-73.92029535641583,40.58606525189388],[-73.92036072067836,40.586067614317386],[-73.92040498231103,40.58608977964587],[-73.92046635878661,40.58603281422774],[-73.92054456930516,40.58600636401011],[-73.92061732511642,40.585990387428836],[-73.92070507747277,40.58597394905408],[-73.92081091615161,40.58598413713921],[-73.92081823441409,40.585949389710194],[-73.92086842926197,40.58592108032123],[-73.92075867676215,40.58581296160053],[-73.92076503207032,40.58580973752366],[-73.92072837493501,40.5857779707722],[-73.92069730257859,40.58579731724068],[-73.9206698086596,40.58577362651982],[-73.92073901660137,40.58573009669374],[-73.92076368725986,40.585753785451196],[-73.92073896679761,40.58577205976701],[-73.92077774028736,40.58580382847693],[-73.92078197880032,40.58580060360969],[-73.92089145806845,40.585903061803215],[-73.92092948644265,40.5858733062726],[-73.92090217579442,40.58583040647398],[-73.92097520370778,40.58577830497918],[-73.92098905633152,40.58576904862044],[-73.92091104290725,40.58565005223235],[-73.92087843027376,40.58559946336457],[-73.92090603836387,40.58559058153379],[-73.92094410567557,40.585648993583376],[-73.92101218266103,40.58575359585841],[-73.92101224379712,40.58575355586088],[-73.92103757896908,40.585736626332455],[-73.9210816733067,40.585728544684414],[-73.92110266358986,40.585741450322054],[-73.92117707765675,40.58574646780571],[-73.92128230739006,40.585749542744765],[-73.92147080849857,40.5857461951622],[-73.92151428021792,40.585781337526555],[-73.9215328862022,40.58576690098852],[-73.92176261356066,40.58579970544549],[-73.92178240271298,40.585776540216656],[-73.9217580921534,40.58576609277962],[-73.92178148758451,40.58573348620496],[-73.92181131953899,40.58574758568293],[-73.9218097857828,40.58575917432532],[-73.92183560839655,40.58577657642415],[-73.9218995512202,40.585693175673676],[-73.92194817438856,40.58571175204443],[-73.92184819107773,40.58583842143657],[-73.92186698755127,40.58583203777877],[-73.92189928556125,40.58584461338769],[-73.9218890270277,40.5858211256567],[-73.92211851289862,40.585810514153216],[-73.92216035285362,40.585856117211954],[-73.9223046001212,40.585992566207445],[-73.92230200146545,40.58601802574007],[-73.92235337377299,40.58602393656254],[-73.92246128010449,40.58601617525415],[-73.92255248710735,40.586009381296456],[-73.92256267742549,40.586008729941625],[-73.92262827740278,40.58600453564002],[-73.92271691647164,40.58599676161823],[-73.9228235815672,40.585950807451326],[-73.92284926622341,40.58595572141814],[-73.92296409826362,40.58589445706395],[-73.92302013749716,40.58592645722707],[-73.92313312983309,40.58596276647325],[-73.92334118079799,40.58599522055564],[-73.92353515890872,40.58597772387233],[-73.92369833045602,40.58594159924958],[-73.92385770220561,40.58585846613554],[-73.92389501884087,40.585800713812496],[-73.92392584582923,40.58580073422705],[-73.92397204036713,40.585841894617595],[-73.92401693919697,40.58589284589244],[-73.92404262147112,40.58589971834494],[-73.92406317839455,40.58589483571787],[-73.92406705274973,40.58587721116721],[-73.92404909560503,40.58585467597233],[-73.92400933327511,40.58580470631143],[-73.92401064509498,40.58578022576871],[-73.92402182009504,40.58577353533232],[-73.92423749639762,40.5856905985645],[-73.92462665352703,40.58563307595515],[-73.92472354175024,40.58562837393065],[-73.92482119886904,40.58563379847638],[-73.92492960627713,40.58566758431913],[-73.92497454221336,40.58568800752957],[-73.92499331426545,40.58571284597149],[-73.92507664964346,40.58575987157368],[-73.92520361514248,40.58580627115561],[-73.92522694757398,40.58583982456028],[-73.92522254459416,40.58587904435386],[-73.92528378572602,40.58589815289549],[-73.9253061802693,40.58592196434045],[-73.92547713584675,40.586078799122525],[-73.92543995495855,40.58618236665062],[-73.92556400047988,40.58617214519201],[-73.92562142866232,40.58622880883289],[-73.9256817555075,40.58630767749584],[-73.92574988172329,40.58637211398433],[-73.92575369290398,40.58643702772935],[-73.92583822065652,40.58642971638522],[-73.92597727564072,40.58654878276251],[-73.92604348601344,40.58660564551147],[-73.92602306506667,40.58665434438985],[-73.9261135786813,40.58666278412642],[-73.92616020025453,40.586711007952346],[-73.92623086736644,40.58677905688191],[-73.9262950832707,40.58684472137162],[-73.92628231953502,40.586886258466],[-73.92630373489652,40.586902117469926],[-73.92637018571112,40.586871420938415],[-73.92647284761269,40.58696201521472],[-73.92657322890149,40.58704912584228],[-73.92649781833163,40.587096082356865],[-73.92653260420076,40.587120911017784],[-73.92658537503533,40.58713308560293],[-73.92670333122675,40.587204091014705],[-73.92673977671532,40.58718850671624],[-73.92684232736035,40.587289689953955],[-73.92677874563459,40.587330385065044],[-73.92683150549894,40.58737362299835],[-73.92687946572487,40.58740958238628],[-73.92695782460437,40.58745196857905],[-73.92700073232179,40.58750153462467],[-73.92706884928579,40.5875666615427],[-73.92708799146799,40.587556402631456],[-73.92709462919936,40.587560457033945],[-73.9271278583307,40.58754022531694],[-73.92694208311515,40.587368969533635],[-73.92696733834302,40.587353795865894],[-73.92718761078173,40.58755950378054],[-73.92717032872183,40.5875716445724],[-73.92714112938138,40.587551373264894],[-73.92710524303513,40.58757160329997],[-73.92711984469268,40.587579713613856],[-73.92709935625724,40.5875910371632],[-73.92711083019418,40.58761769150026],[-73.92715928733517,40.58766114718827],[-73.92720774188903,40.587722759186924],[-73.92726896501755,40.58769832526273],[-73.92731129012746,40.58767218144191],[-73.92736592128178,40.58763203054629],[-73.92765146660287,40.58745909654162],[-73.92766228678137,40.58747011271585],[-73.92738458871546,40.58764991923919],[-73.92737211818081,40.587656729971265],[-73.92734994138557,40.587669704840394],[-73.92731622693992,40.587689430710675],[-73.92728686139324,40.58773231071248],[-73.9272493769958,40.587749691781305],[-73.92724312575974,40.5877690507027],[-73.92731915293675,40.58784992990651],[-73.92726483869855,40.5878829990099],[-73.92727932188916,40.58790916939896],[-73.92735680928894,40.588022176276354],[-73.92739188174698,40.58799880011736],[-73.9274640249405,40.58795453583492],[-73.92749456893742,40.58793579500431],[-73.9275058017439,40.58792890155636],[-73.9275684694141,40.58789045187053],[-73.92758002886075,40.58788325840852],[-73.92764640357969,40.58784263380453],[-73.92765584309346,40.58783684272869],[-73.9277250698898,40.5877943659946],[-73.92773463890906,40.587788495417264],[-73.92779832443682,40.587749419853495],[-73.92794598351077,40.587658820507826],[-73.92787426020534,40.587588158854],[-73.9278739383161,40.58757550297897],[-73.9279162574111,40.5875487358896],[-73.92807906817859,40.58770246052338],[-73.9280304142927,40.5877314843463],[-73.92795555226488,40.587666603557324],[-73.92785030679849,40.587732985372185],[-73.92782113152728,40.587751386905204],[-73.92767581765735,40.58784303881298],[-73.92767538027495,40.58784331412351],[-73.92760667965298,40.587886644721294],[-73.92759326264303,40.587895064503265],[-73.9274692507199,40.58797306001015],[-73.92747502650576,40.58797967687847],[-73.92736935753538,40.58804459880316],[-73.92743823625605,40.588147891351674],[-73.92739015107531,40.5881785950789],[-73.9274045224574,40.588206445197876],[-73.92742552260701,40.58821939139716],[-73.92744551755531,40.58820630423186],[-73.92750396203982,40.588221360130476],[-73.92763603930841,40.58814049201514],[-73.9277724493279,40.58805697180053],[-73.92790482500551,40.58797592028584],[-73.9278905685549,40.5879603356301],[-73.9279017574099,40.58795340928011],[-73.92802185276423,40.58806875635107],[-73.92800676518983,40.588076999396364],[-73.92792318048316,40.587996187276985],[-73.92785876092739,40.58803455647945],[-73.92784847367828,40.58804068410867],[-73.92779092085891,40.58807496400412],[-73.92778443159253,40.588078829017],[-73.92776892978337,40.58808806153434],[-73.9276948316566,40.58813219695255],[-73.92768070085891,40.588140612944805],[-73.92764121499803,40.588164131325335],[-73.92755543879132,40.5882152211498],[-73.92756724259816,40.58822895259839],[-73.92755751586095,40.58823550272887],[-73.92754721531419,40.58822790681814],[-73.92754016723897,40.588233143865565],[-73.92752569167584,40.588221654952626],[-73.92751741750983,40.588225965625455],[-73.927522581628,40.58823208973649],[-73.92751674803628,40.58823639156184],[-73.92752878258517,40.58824788949067],[-73.92750327767824,40.58826938434181],[-73.92747241644969,40.5882891175856],[-73.92745467790994,40.58829956407424],[-73.92758351265692,40.58841898272002],[-73.92761064818477,40.588447131854764],[-73.92764026732434,40.58846519376028],[-73.92776143639114,40.58866060975899],[-73.92711186317564,40.58908147225963],[-73.92695102774614,40.58918207521089],[-73.92665299278443,40.58936849665182],[-73.92662861634156,40.58938412866702],[-73.92665280163361,40.58941087961672],[-73.9263611882989,40.5895927189506],[-73.92606024219879,40.58978037720322],[-73.92575347866332,40.58997165992758],[-73.92544308131156,40.59016520731782],[-73.92513959885663,40.590354440805854],[-73.92483070193948,40.59054704767499],[-73.9245461001638,40.59073925905285],[-73.92424735748767,40.5909410189563],[-73.92395467165774,40.591138687336695],[-73.92395294850094,40.59113985052524],[-73.92407257175611,40.591248681972985],[-73.9241996339266,40.591364280188884],[-73.92425997013223,40.591321446703375],[-73.9242824753092,40.59133793033927],[-73.92435025820497,40.591292268121734],[-73.92436357234453,40.5913007413062],[-73.92443135419065,40.59125592422554],[-73.92444799020575,40.59127201697639],[-73.92451798743384,40.59123143443253],[-73.9245268632088,40.59123821230113],[-73.92460129938564,40.59119932500333],[-73.9246568634646,40.591157885874935],[-73.92463689474583,40.59114179046586],[-73.92477134199528,40.59105638901175],[-73.92475692077475,40.59104452971644],[-73.92491025194087,40.59095152139602],[-73.92492023633991,40.59095914581453],[-73.92497245564519,40.59092870884741],[-73.92495914742977,40.59091515674992],[-73.92508693133415,40.590829750573555],[-73.92509358650472,40.59083568042513],[-73.92536357858714,40.59067334024753],[-73.92588801019409,40.59035203456011],[-73.92587504247328,40.59033715159938],[-73.92602962522365,40.59024379563519],[-73.92615947414343,40.59016537791117],[-73.92635608508667,40.5900379147357],[-73.92665232672309,40.589845861095085],[-73.92696173942275,40.58964526670788],[-73.92725962405339,40.58945214253094],[-73.92777636022281,40.58910220009763],[-73.92776465896628,40.589077182115055],[-73.92815905123096,40.58882524959019],[-73.92836271266806,40.588969016092044],[-73.92836783373286,40.588965824834624],[-73.92841885809032,40.58893403509833],[-73.92841297161776,40.58892903419752],[-73.92839694019999,40.58894062377472],[-73.92836947692133,40.58891821568705],[-73.9283959475282,40.58889803316926],[-73.92837977293732,40.58888637359882],[-73.92836438201127,40.5888828934661],[-73.92835661259966,40.588889246194235],[-73.92821616994858,40.58878391290409],[-73.92822539531498,40.5887762547008],[-73.92833619994984,40.5888625348116],[-73.92835866230412,40.58886543132917],[-73.92842900670269,40.58881272670069],[-73.92847329475434,40.58877954325515],[-73.92849709626641,40.588761710829665],[-73.92852165883288,40.588743206409774],[-73.92854348148687,40.58872676541532],[-73.92855975046885,40.58871529960187],[-73.92861252736502,40.58867810184769],[-73.92867344933791,40.588635164878305],[-73.92867656173945,40.588625667559654],[-73.92862139018239,40.588580295327745],[-73.92863061415636,40.58857263642084],[-73.92873407743991,40.588655223095145],[-73.92874926804633,40.58866558532845],[-73.92875761553675,40.58867429700595],[-73.92874984838613,40.588680648086864],[-73.92869567082158,40.58863843460354],[-73.92864656679106,40.588674559138255],[-73.92862784709554,40.588688330823885],[-73.92859836726521,40.58871001845224],[-73.92856305715718,40.58873599572367],[-73.92853560735239,40.588755646268],[-73.92851423024588,40.588770950683774],[-73.92849655735778,40.58878414921107],[-73.92845089882493,40.5888182502082],[-73.92839036856552,40.58886345782873],[-73.92839582804494,40.58887850436346],[-73.92846910760318,40.58893255510844],[-73.9284431266411,40.588952920722505],[-73.92843184870165,40.5889440326316],[-73.92838268998243,40.58897773722444],[-73.92837745971516,40.588981323616224],[-73.92844090493709,40.5890304276396],[-73.92862026499199,40.589120436296376],[-73.92865380058103,40.58909874079469],[-73.92865104293672,40.58909642248627],[-73.92876308761676,40.589021003438795],[-73.92878037394745,40.589010501518985],[-73.92878301645224,40.58900868831116],[-73.92880353610383,40.58899460862425],[-73.92882969525398,40.588976660152966],[-73.92885099369302,40.58896217032541],[-73.92891351845394,40.58891963277464],[-73.92891343177561,40.5889056842256],[-73.92886464540864,40.58886735631634],[-73.92888139684432,40.58885371957552],[-73.92895102993232,40.58890964240971],[-73.92881443150297,40.58900432654961],[-73.92879080445387,40.58901929305609],[-73.92863158702706,40.58912636163913],[-73.92866593842902,40.58914326406668],[-73.9286912629114,40.589126881340974],[-73.92873426467304,40.589147165167894],[-73.92885167698628,40.589070385171716],[-73.92921964005188,40.58881334544413],[-73.9292360368272,40.58882407725554],[-73.92917348137505,40.588869309337966],[-73.92925241100414,40.58893953149262],[-73.92924314818038,40.58895069162151],[-73.92915706333405,40.588878829627646],[-73.92909004308432,40.588926286047105],[-73.92916554248157,40.588987244618046],[-73.92915693821682,40.588996770394374],[-73.92907710569072,40.58893520034164],[-73.92901580207281,40.58897743952825],[-73.92908891387707,40.58904021219],[-73.92907875005771,40.58904616158618],[-73.92900239491979,40.5889866773584],[-73.92894319888002,40.589027465328705],[-73.92901775886673,40.58908960701022],[-73.92900602982367,40.58909793904089],[-73.92893189960107,40.589035250801764],[-73.92886398980494,40.58908115186617],[-73.9289466060801,40.58915498810988],[-73.92892810683752,40.58916246070846],[-73.92884820698386,40.58909128633241],[-73.92883803814992,40.58909902692821],[-73.9288653641496,40.58911870040405],[-73.9288512899082,40.58912822226836],[-73.92882474130364,40.58911152727276],[-73.92881457747305,40.58911807338516],[-73.92884268470213,40.589137747350364],[-73.92882939229249,40.58914607839482],[-73.92880050490938,40.58912580887866],[-73.92875703499419,40.589152966925184],[-73.92896123833768,40.58923423301873],[-73.92907637231647,40.58927396973407],[-73.92908417239428,40.589261066410764],[-73.92921570403192,40.58928563058913],[-73.92934866543267,40.58930381547518],[-73.929645245279,40.58936184684631],[-73.92976491819753,40.589400619508076],[-73.92990258163888,40.589464667286634],[-73.92998187866192,40.589515997878806],[-73.93001399131906,40.589461997600246],[-73.92998364350575,40.58944139963797],[-73.92986055070119,40.58937444316006],[-73.92975766786883,40.589343511185355],[-73.92975094353109,40.589320355186715],[-73.92961092161876,40.589308693552844],[-73.92936128354415,40.589250662480055],[-73.92937312241645,40.58922365916554],[-73.92957384158932,40.589272657379986],[-73.9297661577336,40.58929206894526],[-73.93003427450552,40.5894259965009],[-73.93015902101656,40.58952510921505],[-73.9303275985951,40.58965768991781],[-73.93039500720482,40.58973232891255],[-73.93042363784242,40.58978122243889],[-73.93043882862874,40.58977608680956],[-73.93057705718256,40.589890641203354],[-73.93054835816316,40.58990734463026],[-73.93038990330129,40.58977348476772],[-73.93034074246657,40.58980768423815],[-73.9302284661763,40.58968813602483],[-73.93027124781163,40.58965316310125],[-73.93016235501888,40.58956369710592],[-73.93010325988766,40.5896061050716],[-73.93018342737285,40.58967665569122],[-73.93031065188278,40.58981852775811],[-73.93037543247335,40.589940459710604],[-73.93029788091675,40.59003516763017],[-73.93032208619148,40.59004903480993],[-73.9304404174526,40.590020411238946],[-73.93045501847288,40.59003763271246],[-73.93056682228962,40.59001694360634],[-73.9305528123575,40.58995686028726],[-73.93058940447365,40.58995259113271],[-73.93062849364426,40.59025299033795],[-73.93058909225778,40.59025296654378],[-73.93056960951904,40.590042691536105],[-73.93046768917102,40.5900613730908],[-73.93053560681564,40.59026366146187],[-73.9305288833326,40.59030798867771],[-73.93062960712372,40.590305490351504],[-73.93063135116664,40.59029360804532],[-73.93065213846435,40.59029097949247],[-73.93067434421391,40.59059072131573],[-73.93062757826266,40.590590693091464],[-73.93063131413312,40.59032925860278],[-73.93052507228651,40.590333113429985],[-73.93048356634928,40.59060676694306],[-73.93047444731394,40.590729498446464],[-73.93047151959617,40.59085578498102],[-73.93047478744413,40.590907069698666],[-73.93047712293608,40.59092070012582],[-73.93049906406719,40.590920713398816],[-73.9304990544468,40.59092995682413],[-73.93052330262942,40.59092997148783],[-73.9305250476422,40.59091676838323],[-73.93062344246579,40.59091869427636],[-73.93062639159976,40.59061900064545],[-73.93064749948576,40.59061968367199],[-73.93064106700575,40.59094456641954],[-73.93052154756037,40.590952416844736],[-73.93052502016788,40.59094317601586],[-73.93049384083257,40.59094579826013],[-73.93049556105821,40.590957682659024],[-73.93046958507551,40.5909564295723],[-73.93046013661879,40.5910012190211],[-73.93069297189149,40.591000054806116],[-73.93069641658052,40.59101854140038],[-73.93045632075865,40.59102541699427],[-73.93044970323471,40.591078871264564],[-73.93044960172925,40.59107969192933],[-73.93072580784407,40.59107005495992],[-73.93072578729826,40.59108986026531],[-73.93050592282735,40.59109385073813],[-73.93050596616095,40.591111127729434],[-73.93044497861837,40.5911170272312],[-73.93037197719026,40.59121140087609],[-73.9304266710375,40.59124771583177],[-73.9305316928037,40.591190092991184],[-73.93052474130003,40.591211215577395],[-73.93056977645742,40.5912099224988],[-73.93057152827812,40.59119143786824],[-73.93060444306958,40.591186176221164],[-73.93060066906233,40.591484582041865],[-73.93056428429328,40.59149512379074],[-73.93057495301017,40.59122973161414],[-73.93052645879098,40.591225740403644],[-73.93052297842067,40.59124158355857],[-73.9304653676582,40.5912734075963],[-73.93049945183157,40.59129603763998],[-73.9304748059085,40.59146198432014],[-73.93047423397432,40.59146420239745],[-73.93040541662207,40.59173094214314],[-73.93046185647542,40.591720848494255],[-73.93057117820936,40.59152813743223],[-73.93060580656588,40.59154136250863],[-73.93050516364964,40.59171691396547],[-73.93046529420518,40.59174725889191],[-73.93045964272011,40.59198513253292],[-73.9304546522736,40.59213519976294],[-73.93045091922711,40.59224503726199],[-73.9304249356843,40.59224634183109],[-73.93042696672619,40.59212508383405],[-73.93043411755332,40.59193279181286],[-73.93043758093522,40.59174724211854],[-73.9303990560214,40.59175559642919],[-73.9303838085581,40.59182962928975],[-73.93035545570706,40.592028138039325],[-73.93031302163548,40.59218877812196],[-73.93031136732719,40.592193963156205],[-73.93030161927076,40.592299179223865],[-73.93034433277127,40.592301385517665],[-73.93034462939913,40.5922980677794],[-73.93036426041913,40.592299087031265],[-73.93036922747552,40.59224352542582],[-73.93038850696503,40.592252239752106],[-73.93038744801073,40.59226226808551],[-73.93038686981002,40.59226774745159],[-73.93038338821793,40.59230069936373],[-73.93038116977189,40.59232169631148],[-73.93037650336751,40.592365867781176],[-73.93037497475126,40.59238034071753],[-73.93037402412378,40.592389328256694],[-73.93037011701402,40.59242632138738],[-73.93036902388117,40.59243666532495],[-73.93036570007457,40.59246813134665],[-73.930364436033,40.592480093513736],[-73.93034189370509,40.592464973062775],[-73.93036221568062,40.59231177060923],[-73.93030109951042,40.59230803685358],[-73.9303075161744,40.592356723591365],[-73.93028656348363,40.59244557546555],[-73.93020441819307,40.592378176471435],[-73.93017616634198,40.59240622097059],[-73.93021785135721,40.59244085717825],[-73.93020149452241,40.59244831201511],[-73.9302060581915,40.592451666210955],[-73.93026531169383,40.59249522914805],[-73.93026943351035,40.59249197253412],[-73.93035364458575,40.5925549502942],[-73.93034305347936,40.592562660609644],[-73.93031400512095,40.592583807645205],[-73.93030388752193,40.59259117346884],[-73.93027668921884,40.592610975016434],[-73.9302651092732,40.592619404933124],[-73.93025320174303,40.592610495198805],[-73.93032634060393,40.59255368983713],[-73.93027813759176,40.59251762471036],[-73.93026579193081,40.59251243939057],[-73.93023285891206,40.592487799125124],[-73.93023781228283,40.59248395113614],[-73.93021718600748,40.592468519381754],[-73.93021322788597,40.59247159398887],[-73.93018970658281,40.59245411828898],[-73.93012526400537,40.59254669753318],[-73.9301058386685,40.592574604143955],[-73.93002301026205,40.592683046384984],[-73.93002724398049,40.59268501642732],[-73.93002811427208,40.59268542103794],[-73.93002958401446,40.59268610478235],[-73.930029709221,40.59268616248867],[-73.9301159318135,40.592726278084335],[-73.9300940414468,40.59275361996],[-73.93009108240781,40.59275224358186],[-73.93008905262114,40.59275478125363],[-73.93010191656566,40.59276076618986],[-73.93018660630723,40.592665620317135],[-73.93021251489367,40.592678370292624],[-73.93017886503426,40.592718580339614],[-73.93016410331168,40.59273621991173],[-73.9301469470835,40.5927567219399],[-73.93012845255072,40.59277882121377],[-73.93011754836333,40.592791849535764],[-73.93010658211621,40.59280495538504],[-73.93007616099004,40.59278950994147],[-73.93008682543824,40.592777303208806],[-73.93007558219126,40.592771606402344],[-73.92999950016392,40.59273305497696],[-73.92999915553297,40.59273288020147],[-73.92999827166088,40.592732432192264],[-73.92999750442203,40.59273204422957],[-73.92999008815514,40.59272828588224],[-73.92996263703692,40.592817170424055],[-73.92991250156446,40.59285339487319],[-73.92991885786927,40.59285509180107],[-73.92992176281808,40.59285586705548],[-73.92992534072582,40.592856821641526],[-73.92999065309381,40.59287425685695],[-73.92998741450491,40.59288126732545],[-73.93005338592835,40.59289897631455],[-73.93007018426367,40.59290277655394],[-73.93007514030509,40.59289515732153],[-73.93008710848919,40.59286925033307],[-73.93009899324113,40.592872440452496],[-73.93009701128354,40.59287673101261],[-73.93009377470064,40.59288456489188],[-73.93007945243019,40.592919227372924],[-73.9300665964161,40.592950339625766],[-73.93006258490894,40.59296448436396],[-73.93005244539405,40.593000243520926],[-73.9300326034589,40.59300023144126],[-73.93004645355532,40.592958584214635],[-73.93006353529198,40.5929171684682],[-73.93000857750992,40.592904892132985],[-73.93001166376463,40.592896866008424],[-73.92998800211889,40.59289157994989],[-73.92998549410802,40.59289810218049],[-73.92995835875494,40.59289204101907],[-73.92996052938284,40.592886397442136],[-73.92990668955937,40.59287437035303],[-73.92990039140612,40.59287296395577],[-73.92989511559173,40.59287178484903],[-73.92989066964314,40.59287079187085],[-73.92983201351173,40.59290364860513],[-73.92971282036602,40.59312004824824],[-73.92973850612181,40.593123467481675],[-73.92974639689025,40.59312451752144],[-73.92975537733648,40.59312571263706],[-73.92980336402728,40.59313209785513],[-73.9298026058641,40.593135407603455],[-73.9298884197121,40.59314682836436],[-73.92988961346835,40.59314161893142],[-73.9299812081446,40.593158886906956],[-73.93001524679529,40.59305439716801],[-73.93004238419589,40.59306087931824],[-73.93002689378021,40.59309073114723],[-73.93002033232528,40.59310546889252],[-73.9299791125168,40.593236563438225],[-73.92997510439892,40.59324597513729],[-73.92995591909573,40.5933085723268],[-73.92993575938492,40.59330532169542],[-73.9299759362929,40.593173815413635],[-73.92989436237966,40.5931584216671],[-73.92979816541931,40.593145051227964],[-73.92974147322654,40.59314392244574],[-73.92976735400579,40.59318654967956],[-73.92977852035662,40.59324743782426],[-73.9298146554055,40.593298828236776],[-73.92982317336796,40.59337269610159],[-73.92989320208073,40.593366416961196],[-73.92990069737226,40.59335881134785],[-73.93003922396669,40.593348430884],[-73.9300354613714,40.593367453890366],[-73.92990442337937,40.59337593561761],[-73.92980068404486,40.593391441960875],[-73.92978081742058,40.59343674147179],[-73.92985305834156,40.59352507922829],[-73.9298567841477,40.59358423525902],[-73.9298436823814,40.59364613235059],[-73.92985416775136,40.593699336841006],[-73.92986032030684,40.59378210123949],[-73.92991887262635,40.593876312213744],[-73.92994377175583,40.593932451885884],[-73.92996116581374,40.594005710816866],[-73.93001650952134,40.594094535559755],[-73.93021519470315,40.59397294418471],[-73.93019837897519,40.59393884360427],[-73.9301889671515,40.593941078758625],[-73.9301854141426,40.59393201544345],[-73.93016703888816,40.59388515270226],[-73.9301637451835,40.59387674944182],[-73.93014585611331,40.59383112654166],[-73.93012135534335,40.593768640642956],[-73.93011026067555,40.59373904051651],[-73.93010626301131,40.59372837568332],[-73.93009029511921,40.59369757090304],[-73.93007832030705,40.59367446886666],[-73.9300743711095,40.59366684857157],[-73.93005017634191,40.59360230692336],[-73.93008159453139,40.593595462871434],[-73.93013632556477,40.59371096002866],[-73.93013899067869,40.593722129151544],[-73.93016493129265,40.59378428119828],[-73.93018261761625,40.593826654574386],[-73.9301874812405,40.593837905780845],[-73.93022756280041,40.59393062089705],[-73.93028760390365,40.593906041923454],[-73.93029155870587,40.5939116986036],[-73.93030764773734,40.59390237882382],[-73.93045934564641,40.59381449774497],[-73.93052488661871,40.59388024070099],[-73.93038136884572,40.593963382225034],[-73.93035968941534,40.593975941324175],[-73.93044330312577,40.59405981155874],[-73.9305433316513,40.59415859321669],[-73.93057032638418,40.59418567053508],[-73.9305467907066,40.594199304588315],[-73.93052537125831,40.59417781957974],[-73.93052029290227,40.59417284072207],[-73.93048730994077,40.594139142698],[-73.93048105499368,40.59413284014808],[-73.9304418098452,40.59409329456567],[-73.93043396411382,40.594085389135195],[-73.93042039868944,40.59407172008164],[-73.93036624659997,40.59401715247656],[-73.93034985747641,40.59400063806134],[-73.93034386205125,40.59399459750943],[-73.93033684931889,40.59398770328137],[-73.93034434256151,40.59398271226788],[-73.9303269474639,40.59396544788105],[-73.9302993440439,40.59393805451043],[-73.93004011947694,40.59410488733062],[-73.93009827326878,40.59416085019428],[-73.93020176823156,40.59423891758621],[-73.93027533487952,40.59429698953209],[-73.93043246129612,40.594402674950075],[-73.93052974770505,40.59445124927925],[-73.93058089609409,40.59446745145547],[-73.93061349621851,40.59447681056669],[-73.93075181378951,40.594387624349416],[-73.93076122839564,40.59438190052098],[-73.93074807610721,40.594368779073655],[-73.93070936725965,40.59433016335934],[-73.93070268256008,40.59432349434348],[-73.93066439573101,40.59428529819411],[-73.93061151254717,40.59423254145794],[-73.93059803646446,40.59421933301755],[-73.9306230568456,40.59420449766007],[-73.9306417753042,40.59422284252658],[-73.930649569387,40.594230577701815],[-73.93068733320771,40.59426805333251],[-73.93069541073764,40.59427606694171],[-73.93074061678276,40.5943209272103],[-73.93074913473244,40.59432938034288],[-73.9307883252788,40.59436827024428],[-73.93079506249991,40.594374955704616],[-73.93083446436536,40.594413571304386],[-73.9308069383265,40.594429892356324],[-73.93076839841687,40.594392122116616],[-73.93066303510112,40.59446395093302],[-73.93070567804769,40.594477039750586],[-73.93076901026909,40.59449301531842],[-73.93082526679711,40.59444675750659],[-73.93081953536736,40.594441650444345],[-73.93083206587451,40.59443065566938],[-73.93093516114608,40.594459949861175],[-73.93095924897624,40.59444157029104],[-73.93099362203107,40.594416917392664],[-73.93102812893817,40.594393718718436],[-73.93103616514568,40.5943879600317],[-73.93110437164654,40.594343699334225],[-73.93119016326037,40.59428756527027],[-73.93126301572381,40.594244186118814],[-73.93121284213825,40.59418840921946],[-73.93122055938909,40.59418331726291],[-73.93122677419926,40.59419110690592],[-73.93127371485075,40.59423310576531],[-73.93130987534298,40.59426545835957],[-73.9313251214607,40.59427625619019],[-73.93131702522798,40.59428143789044],[-73.93127650555704,40.594256765416894],[-73.93124036875798,40.59427804397523],[-73.93119990483329,40.594303600137145],[-73.93112950421332,40.59434979638248],[-73.93112087099405,40.594355461404085],[-73.9310457338204,40.59440476393468],[-73.9310352031046,40.5944116745641],[-73.93099809750402,40.594436668934144],[-73.93097341657626,40.594453293622],[-73.93095463426401,40.59446594520637],[-73.93100842980628,40.59448226521554],[-73.93111095510909,40.594489012984496],[-73.93117079151001,40.594497530847164],[-73.93116797698224,40.59450340307287],[-73.93117266234964,40.59450400965477],[-73.93118315992697,40.594505370248456],[-73.9312471362245,40.594513660532776],[-73.93125615625146,40.59451482858227],[-73.93132562373603,40.59452383025395],[-73.93133571171825,40.59452513731459],[-73.9313668482681,40.59452917209466],[-73.93141979289183,40.594520990748684],[-73.93143023023495,40.59451937864436],[-73.93151134999138,40.594506843226135],[-73.93158758229929,40.59449506291106],[-73.9316156203621,40.59436596310965],[-73.93173994773721,40.594370867903],[-73.93174223368139,40.59430090317015],[-73.93174280308604,40.594283512461324],[-73.93176387399963,40.594284099265614],[-73.93175908241425,40.59436700800103],[-73.93175808167166,40.59438432876148],[-73.9316317758916,40.594376622558826],[-73.9316240705845,40.594429080940614],[-73.93161313737215,40.594503518414555],[-73.93153064222894,40.59451955377693],[-73.93146047172361,40.59453319422933],[-73.93136806343372,40.594546450784875],[-73.93117195590494,40.594520093215],[-73.93102713500396,40.59450468985123],[-73.93098771679719,40.59449342128496],[-73.93084626727283,40.594451525297366],[-73.93078131379619,40.59449895527697],[-73.93080547079988,40.59451610120188],[-73.93081918377601,40.59452942786829],[-73.93085036660072,40.59454371510539],[-73.93088473194915,40.59454889166066],[-73.93101903473443,40.59461690950116],[-73.93113820375007,40.59464019098283],[-73.93130171057044,40.59465448108965],[-73.93143018596695,40.59468661706287],[-73.9315625251532,40.59469897618475],[-73.93169652225775,40.594709929731394],[-73.9318772173972,40.59468868237048],[-73.9319050358965,40.59468541176642],[-73.93193364983979,40.59469240430254],[-73.93199915298689,40.59472828630591],[-73.93208972932091,40.594794386944244],[-73.93212964858496,40.594828742469225],[-73.93216666204161,40.59486309676754],[-73.93221820952607,40.59489192177998],[-73.93225233912364,40.5949046783188],[-73.93230826395404,40.59491634048729],[-73.93234749083403,40.594916916936754],[-73.93239677902238,40.594912014048916],[-73.9324521768845,40.594914967665915],[-73.93241277639822,40.594842507020836],[-73.9323981545495,40.59484584213676],[-73.93237188265151,40.59480236388972],[-73.93239089433514,40.594795689318524],[-73.93240548656365,40.594823558188104],[-73.93256343839334,40.59476347229718],[-73.93257803499363,40.59478576979403],[-73.93243762903224,40.594843636039975],[-73.93247702888684,40.59491609667613],[-73.93255597836541,40.59491168609039],[-73.93260420556855,40.59492954452514],[-73.93267147327013,40.59491175381685],[-73.93279727104478,40.59484273251867],[-73.9328265485289,40.59480374496932],[-73.93281932831573,40.59471570244123],[-73.93280736080116,40.594669158995444],[-73.93280121604128,40.59464525701648],[-73.93278001234768,40.59455966061039],[-73.93271241665666,40.594333871161716],[-73.9326765397575,40.59423641796777],[-73.93259834108946,40.594112228742176],[-73.93252661189226,40.594040018718225],[-73.93244863039504,40.59395996142008],[-73.9323508999956,40.59386846912445],[-73.93216554505263,40.59356300857758],[-73.93200062731803,40.59328764992178],[-73.93190580795954,40.593085883975235],[-73.9318254999622,40.592991109931],[-73.93175890743086,40.59283010489938],[-73.93174465539043,40.59283411261479],[-73.9316741082932,40.59285395021907],[-73.9317501541549,40.59301110338495],[-73.93176073534399,40.593037094133656],[-73.93173338203975,40.59304452121367],[-73.9317109079429,40.59305030052069],[-73.93168977728052,40.59300774573825],[-73.93168855675174,40.59300489316139],[-73.93153495293326,40.5926928305191],[-73.93155057104208,40.59269009334801],[-73.93162526000415,40.59282794876061],[-73.93166486127869,40.592816455180376],[-73.93172925082946,40.59279776736282],[-73.93174087511983,40.59279439369458],[-73.9316898528766,40.5926867929758],[-73.93167672233828,40.59266115368816],[-73.93166657890721,40.592635484344726],[-73.93161598469493,40.59260222732181],[-73.93156462560293,40.59255174077184],[-73.93153229503947,40.592479814917716],[-73.93148861724075,40.59230071094036],[-73.93146597430795,40.59226351413949],[-73.93146571541044,40.59226309951757],[-73.93145367368658,40.592238386452124],[-73.931431598401,40.5922254194125],[-73.93143675613805,40.59216713451828],[-73.93130932293165,40.59216058122628],[-73.9312719711603,40.592130766818926],[-73.93122104631826,40.592082809897626],[-73.93115993293195,40.59202707583525],[-73.93113956057566,40.59200892874766],[-73.9312007535447,40.591988240517274],[-73.9312583856432,40.5919651956671],[-73.93131727481916,40.59194678741067],[-73.93136406792844,40.591928373072385],[-73.93139997986388,40.59180489056233],[-73.9310098934316,40.59193104248112],[-73.93100451460818,40.59183074145803],[-73.93100012922301,40.591830738824825],[-73.93099465973228,40.59181819898627],[-73.93105716582586,40.59180820585479],[-73.93106043562065,40.59182743247628],[-73.93115143543247,40.591829994111585],[-73.93115360172419,40.59185506969043],[-73.93116347041989,40.59185424013398],[-73.93135300954737,40.59179119396206],[-73.93130130855013,40.59169297061052],[-73.93135740555581,40.591669688743615],[-73.93139310403649,40.59165416618987],[-73.93140775751671,40.59164400925851],[-73.93142565439746,40.59160418414756],[-73.93123713742926,40.59165368814878],[-73.93124260951417,40.59166288593505],[-73.93119983469265,40.59167790513555],[-73.93119326187245,40.59167121376447],[-73.93107262221237,40.5917054109263],[-73.9310704045976,40.591728812269736],[-73.93104847875684,40.591726290866156],[-73.9310760222574,40.59159759276834],[-73.93109794805815,40.59160011299396],[-73.93107702484296,40.5916886971562],[-73.93123057043024,40.591641983133215],[-73.93122728942258,40.59163445876792],[-73.93128458380468,40.591361181178684],[-73.93130541636037,40.591360358668496],[-73.9312459249482,40.59163697699603],[-73.93142252650108,40.591588570390705],[-73.93144647757215,40.591569758071756],[-73.93142232187763,40.59150663469133],[-73.93149291902432,40.59148103928678],[-73.93148064834168,40.591431790745794],[-73.93151343730567,40.59141298100181],[-73.93154334667179,40.59135047118321],[-73.93148084879925,40.591352941009575],[-73.93148628705273,40.59139640655321],[-73.9314665489463,40.59139890185916],[-73.93143272420818,40.591239241308145],[-73.93145684761484,40.591236748623935],[-73.93147538548223,40.59133454923008],[-73.93147647503525,40.591342072281726],[-73.93154664980308,40.59133793542362],[-73.93155939441567,40.59129296457354],[-73.93155272211989,40.59119979703657],[-73.93149418291647,40.59116653304406],[-73.93142883104338,40.5911363815045],[-73.93139610558983,40.59080940736695],[-73.93140697512008,40.590699910482364],[-73.93141600360772,40.590609106425696],[-73.93134125982577,40.590615463755746],[-73.93131907299002,40.59052752841828],[-73.93113301959812,40.58954611892421],[-73.93121294858955,40.58953130811946],[-73.93109178164583,40.58932656557231],[-73.93105313024397,40.58933030392341],[-73.93101236544729,40.589311706983494],[-73.93092739827037,40.58925625816715],[-73.93088880073576,40.58920734017392],[-73.93079601726942,40.58907815135649],[-73.93070488530002,40.58894206677684],[-73.93068568059813,40.58882195422698],[-73.9306243872196,40.58884907156914],[-73.93056889562718,40.58877843681955],[-73.93010137658847,40.588969317781775],[-73.93009138279221,40.58898886237912],[-73.93007004763595,40.588954093083935],[-73.93053614268541,40.58876212496011],[-73.93054468184404,40.58877081970294],[-73.93058602090878,40.58875129283322],[-73.93053444128184,40.58867959058684],[-73.93065021927525,40.588669869770904],[-73.9306353232422,40.58862358012036],[-73.9305473343507,40.58862854179416],[-73.93050707979359,40.58859341301573],[-73.93043726960481,40.588514386370086],[-73.9303996759751,40.58846552041546],[-73.93037983195724,40.58847090635768],[-73.9303832851466,40.588477447121434],[-73.92974410780818,40.58864107972985],[-73.92972846380187,40.58861391582993],[-73.93036500375167,40.58844282514496],[-73.93036806742558,40.58844862904647],[-73.93038545256267,40.588441616079045],[-73.93033237221044,40.58830339864162],[-73.92970255020445,40.58760735547434],[-73.92972232646733,40.587560082903984],[-73.92990371101129,40.58752912370046],[-73.93021881179895,40.58747683322919],[-73.93073284303392,40.587406983784895],[-73.93134917824065,40.58732816722968],[-73.93136556192925,40.58716922563174],[-73.93135135966132,40.58712468431612],[-73.93131722179236,40.58707144166899],[-73.93130299966691,40.587047537443794],[-73.93127751247586,40.58689328743548],[-73.93125191267126,40.586849825214436],[-73.93118073044306,40.58679873371359],[-73.93104528754786,40.58681416003734],[-73.93105809300643,40.58690727637361],[-73.93081444951878,40.586923422495474],[-73.93080593035226,40.58689626302774],[-73.93055771935782,40.58692511765034],[-73.92964322159189,40.587031326968294],[-73.92964181549503,40.5870139476126],[-73.93055096924033,40.58690727839072],[-73.93082019774087,40.58687563400709],[-73.93082871260322,40.586908224941865],[-73.93091135186279,40.586902843191],[-73.93091279265597,40.58688763841892],[-73.93095696421389,40.58688223416922],[-73.93095410532528,40.58689092186617],[-73.93101679851586,40.586885528721915],[-73.93101218068472,40.58683048768324],[-73.93052821173194,40.58685721589506],[-73.92966894624747,40.58695531167707],[-73.92961575482585,40.58697984176429],[-73.92956343312814,40.587035623126674],[-73.92928895400573,40.587055262041424],[-73.92919437666498,40.58708753211461],[-73.9290889400391,40.58709507024723],[-73.92888983084862,40.58708381922208],[-73.9287923654893,40.58709060159962],[-73.9286935949086,40.58708185193644],[-73.92857393936468,40.58706150237159],[-73.9284979856844,40.587032490303194],[-73.92843153421312,40.58700058835777],[-73.92836889002506,40.586959999834924],[-73.92829674888102,40.58691795605473],[-73.92824930479912,40.586875928826665],[-73.9281857599151,40.58682528921685],[-73.9281430268028,40.586781728309035],[-73.92811462171161,40.58669916226943],[-73.92808232971589,40.586697693937815],[-73.92806347188156,40.586568791205075],[-73.92807588962808,40.58648036137627],[-73.92808640183115,40.58644425900203],[-73.9280997427585,40.58640371735969],[-73.92810548598204,40.586361722670155],[-73.92811957884378,40.586329150199745],[-73.92808962925497,40.5863264963895],[-73.92803894403362,40.58632383025682],[-73.9280435838342,40.586293971882405],[-73.92809657044734,40.586299274523405],[-73.92811039892533,40.58629489206287],[-73.92814969379519,40.58617810776312],[-73.92813819706504,40.58615614316296],[-73.92791933785848,40.58613580604631],[-73.92792514440914,40.586093653926746],[-73.92816473860944,40.58611400349531],[-73.92816239374054,40.58615176718026],[-73.92817273929903,40.58617285270164],[-73.92819501248117,40.586134408570565],[-73.92827672497616,40.58610694357027],[-73.92815700695617,40.585864523066256],[-73.9280156889545,40.585870680114205],[-73.92785999074783,40.58591742368955],[-73.9277431115315,40.58605006520952],[-73.92764071689658,40.58604531648085],[-73.92751386933548,40.586025141875965],[-73.92744400140124,40.586015714957256],[-73.92740528162334,40.58599235415475],[-73.92738822580948,40.58601549745088],[-73.92736955785888,40.58600658531652],[-73.92733683471795,40.586040384460695],[-73.9275327137679,40.58625944180878],[-73.927586418299,40.586254135332524],[-73.92759559857465,40.58640009709863],[-73.92751621995613,40.58639826671562],[-73.92751168880366,40.58627010804402],[-73.92734144038624,40.586099125029996],[-73.9272807972705,40.58604390900871],[-73.92730650401874,40.58602078544208],[-73.92732050626589,40.586026134635325],[-73.92735088516028,40.58600123434901],[-73.92733921875877,40.58599410697163],[-73.92737247661515,40.58595920481587],[-73.92735853538498,40.58592100147297],[-73.92731976953047,40.58589260668821],[-73.92730433823881,40.58586592842007],[-73.9272133428372,40.58581247231665],[-73.9271409664434,40.58581242644458],[-73.92711203473601,40.585803552824736],[-73.92697296751648,40.58571976229796],[-73.92686097045839,40.585657393401284],[-73.92676297506532,40.58560037198077],[-73.92669065751855,40.585546927365414],[-73.92666268980555,40.585502411356266],[-73.9266627288983,40.58546681238293],[-73.92657139551335,40.585418531709486],[-73.9263804188107,40.585295756347925],[-73.92630563576253,40.58536156673959],[-73.92633697458781,40.585379281964215],[-73.92660195912512,40.58552907123942],[-73.92656690671224,40.5855575278398],[-73.92654820963327,40.585575315387786],[-73.92610161910726,40.58533987466682],[-73.92559227190118,40.585071343046934],[-73.92549354358309,40.585019292003345],[-73.92552860874576,40.58497837657286],[-73.92565445909008,40.5850414583569],[-73.92627529542237,40.58535264744218],[-73.9263454207472,40.58527615475333],[-73.92628242042893,40.585242294513556],[-73.92623109243671,40.585210222571625],[-73.92618443073194,40.585181713605046],[-73.9262054728269,40.58515502845822],[-73.92604075506978,40.585065634217706],[-73.92583335916947,40.58495307671886],[-73.92571918745784,40.584903376891184],[-73.92562656280687,40.584864353980535],[-73.92552355359896,40.58482507447777],[-73.92546985629907,40.58478284318078],[-73.92542431681328,40.58473462043732],[-73.92537889689996,40.58470963241158],[-73.9253663689133,40.58467613832196],[-73.92534111863338,40.58465660574241],[-73.92532658314217,40.5846468797563],[-73.9253052755718,40.584641788591355],[-73.92529083981677,40.584640736167415],[-73.92528564314598,40.584651766277425],[-73.92528656437648,40.5846650517938],[-73.9252805781324,40.58467435332394],[-73.92525943430542,40.584683754223924],[-73.92519787853679,40.5846766045509],[-73.92517439638766,40.58468369887527],[-73.9251449346813,40.58469430155412],[-73.92511237786752,40.58470377674532],[-73.92506992577474,40.58470808640534],[-73.92502668562115,40.584710693268775],[-73.92496894196486,40.58470642796954],[-73.92491416054912,40.584694618045866],[-73.92488747643586,40.584689483752776],[-73.92482669468836,40.58467778964811],[-73.92476270164578,40.58465968691501],[-73.9246584316704,40.58463370764771],[-73.9246143360199,40.58462879356574],[-73.92457168731157,40.58461575523866],[-73.92455343860499,40.584611818712396],[-73.92454209535659,40.584614774524155],[-73.92453696475262,40.584631597309425],[-73.92453331145863,40.58464608754714],[-73.92449855458852,40.584659020099906],[-73.92447425352509,40.58465861931339],[-73.92443091379468,40.584652525413],[-73.92439217705314,40.58465101712576],[-73.92435810811486,40.584659915309565],[-73.924320194973,40.584663046933166],[-73.92428379100926,40.58466675533752],[-73.92423972725355,40.584664723141834],[-73.92420858698647,40.58466316602442],[-73.92419040444925,40.58466501997191],[-73.9241494324731,40.58466702456068],[-73.92411977016187,40.58466316285465],[-73.92409849475109,40.58466097979826],[-73.92407731869199,40.58466747047307],[-73.92404565018333,40.58468734936012],[-73.92402980042765,40.58469439354623],[-73.92400490630222,40.58470961020084],[-73.92397692239041,40.58471788104525],[-73.92393894043546,40.58471810401886],[-73.92390414996925,40.58472818133277],[-73.92387090518996,40.584741691165924],[-73.92383976574513,40.584740159748655],[-73.92380030270105,40.58474271537984],[-73.92375627034058,40.58474356335338],[-73.92374259272154,40.584741330993054],[-73.92373128190832,40.584747197905486],[-73.92372605244609,40.58475534541163],[-73.92372841862397,40.5847634167082],[-73.92372776001352,40.58477327119053],[-73.92369747513638,40.58477923372651],[-73.92368152467515,40.584780514282215],[-73.92366251875161,40.58477772937905],[-73.92363219980518,40.58478081087135],[-73.92360336259902,40.58478155965571],[-73.92357452316203,40.584782337078884],[-73.92354117944834,40.58478717257878],[-73.92350796243137,40.58480647448836],[-73.92348001331943,40.58481765404865],[-73.92344966315008,40.58481785396557],[-73.92336761841904,40.58481316055118],[-73.92330757410673,40.584806587342364],[-73.92327791332038,40.58480272542007],[-73.92327255629779,40.58479638135592],[-73.92325805446309,40.58478953646946],[-73.92323447480602,40.5847879556577],[-73.9232025478627,40.58478178649409],[-73.92316062209765,40.584767568384166],[-73.92311274404497,40.584762678671176],[-73.9230877556041,40.58476628393321],[-73.92306502999506,40.58477222556293],[-73.92303385786953,40.58476778492408],[-73.92294484739413,40.58474752406106],[-73.92287786542856,40.58473114700981],[-73.92282834661037,40.584714095449456],[-73.9227803378639,40.58469762235663],[-73.92276198958491,40.584687893483306],[-73.92274216353451,40.58467761461941],[-73.92271703901412,40.58467254721245],[-73.92269579763347,40.584673274073225],[-73.92266396464582,40.584678661004304],[-73.92261003896611,40.58467436911181],[-73.9225872486443,40.584674518440366],[-73.92253407889633,40.584669075424095],[-73.92245200329162,40.58466147185094],[-73.92239659533165,40.584662423032086],[-73.9223487501292,40.58466038705446],[-73.92232306820625,40.58467096408966],[-73.92229117070154,40.58467058618559],[-73.92227673498897,40.58466953237778],[-73.9222517418297,40.58467604911666],[-73.92221382857993,40.58467918004522],[-73.92216374693659,40.58468065523393],[-73.9221128113616,40.58467460959254],[-73.92205510147397,40.584673226033445],[-73.92196786316511,40.5846766795763],[-73.92192310818187,40.584681590955974],[-73.92187674416584,40.58467436689872],[-73.92182955643051,40.58466538739131],[-73.92177263644436,40.584665759266265],[-73.92170654402453,40.5846597865539],[-73.92165711788391,40.58465431871041],[-73.92160322494142,40.58465290954945],[-73.92153193390808,40.58465799365118],[-73.92148629359104,40.58464961766296],[-73.92143088434281,40.58465053939494],[-73.92139293845504,40.58465076155156],[-73.92135650322948,40.5846515875006],[-73.92131474020609,40.58465183231557],[-73.9212615354203,40.5846463896915],[-73.9212341138271,40.58463613283655],[-73.92120843107772,40.58464670962217],[-73.92118797618971,40.58465204849423],[-73.9211499954696,40.584649387364884],[-73.92110968372512,40.584641537073054],[-73.9210837415353,40.584628974987524],[-73.9210728249297,40.58460473033321],[-73.92104987516795,40.58458753257777],[-73.92101255547504,40.58457501861245],[-73.92097161608687,40.584579903094465],[-73.92092557538895,40.58460449238337],[-73.92086664448331,40.584631488048736],[-73.9208174824948,40.58464627617936],[-73.9207736142829,40.58466159046374],[-73.92073119241923,40.58467168953225],[-73.92071070763414,40.58467126260516],[-73.92066736802005,40.58466516661486],[-73.92062166066907,40.584650972441615],[-73.92059058722053,40.58465520487767],[-73.92055119079481,40.58466357673168],[-73.92051853923712,40.584661467569894],[-73.9204774685219,40.58465477030649],[-73.92044708672557,40.58465205942174],[-73.92042662957967,40.58465739648145],[-73.92038424370159,40.58466749712211],[-73.9203515912683,40.58466538791225],[-73.92032272015781,40.584663253840574],[-73.9202862523476,40.58466116994367],[-73.92024896619857,40.58465156523759],[-73.92021920658965,40.584639028284464],[-73.92019563053438,40.58463453736744],[-73.92018513929892,40.58464792523243],[-73.92017316623397,40.58466361660208],[-73.92014899552649,40.58467477167552],[-73.9201201567881,40.58467552025471],[-73.92009138319499,40.584682059695005],[-73.92005107001701,40.5846742090307],[-73.92000618741412,40.58466465273671],[-73.91998043715414,40.58467234886708],[-73.91994571127931,40.5846881895487],[-73.91991558479535,40.584711526348],[-73.91988779208049,40.584740053991354],[-73.91988338525852,40.58475281364725],[-73.91986825718068,40.58475870449005],[-73.91984853057635,40.58475709819565],[-73.91983330504668,40.584754287821205],[-73.91982199322923,40.584760153845735],[-73.91981686076649,40.58477697591692],[-73.91980409838128,40.58479093863087],[-73.91977009453696,40.58480562699314],[-73.91972168757859,40.58482211627619],[-73.91967772153963,40.584828756068994],[-73.91966101694352,40.58482830512772],[-73.91964661380763,40.584830133523994],[-73.91964214028773,40.58483710280354],[-73.91964529759777,40.58484690397675],[-73.91964457262024,40.58485096522123],[-73.91962490609073,40.584858033605386],[-73.91958942402461,40.58487505339259],[-73.91958068616383,40.58490741899258],[-73.91956156878693,40.58491098537958],[-73.91954145458746,40.58490713570935],[-73.91954171963816,40.584895791638296],[-73.91954180830281,40.584892053280726],[-73.91950792643725,40.584903532959224],[-73.91949518735687,40.58490173498709],[-73.91949049655659,40.58489789661615],[-73.91948310823086,40.58490735065415],[-73.91946398767851,40.584913728166846],[-73.9194227425657,40.58491421088411],[-73.91940732432924,40.58490883125405],[-73.91936405077507,40.5849238847415],[-73.919312412841,40.58492231408775],[-73.91930973924839,40.58491413157964],[-73.91926390408052,40.58492469494891],[-73.91925118119148,40.58493022603945],[-73.91923392167692,40.58493090614002],[-73.91919938901975,40.58494334772675],[-73.91919210895502,40.584953730605434],[-73.91917758052884,40.58494956532122],[-73.91911306122581,40.58497168088132],[-73.91909578068575,40.58498898120789],[-73.91908730247327,40.585001076057324],[-73.91908122205002,40.585009746952664],[-73.91906212387035,40.58502843163006],[-73.91905665370123,40.58504504870816],[-73.9190339319749,40.585056112929024],[-73.91901850516346,40.585042943959124],[-73.91901215472545,40.58503670654995],[-73.91900154662845,40.58503459389709],[-73.91884177539342,40.58504311629129],[-73.91883758063189,40.58506129211618],[-73.9189001373303,40.585091332603604],[-73.91888640348611,40.585109956874206],[-73.91885660977941,40.58509948250216],[-73.91886847145638,40.58514902900094],[-73.91885595132804,40.58515129286404],[-73.91883570621592,40.58513128107713],[-73.91884758466419,40.58516810272315],[-73.9187992774343,40.58519813242281],[-73.91879644302753,40.58521978092003],[-73.91879590737993,40.585223868594994],[-73.91873721844212,40.58524552702317],[-73.91871268475835,40.58525555842003],[-73.91867392598344,40.58527033640741],[-73.91864419997988,40.585283442132834],[-73.91860378882117,40.58529254051601],[-73.91856870204414,40.58530161082798],[-73.91853044592084,40.585315537738545],[-73.91849438494873,40.58533437547639],[-73.91845508432317,40.585349947932755],[-73.91842222499416,40.585371996779074],[-73.91839879920514,40.58537533642926],[-73.91836802938516,40.58538803173237],[-73.91827395948559,40.585416429117515],[-73.91824686100648,40.585423445238405],[-73.91823937899689,40.585418588261845],[-73.91823078255213,40.585411317230076],[-73.91823445790854,40.58539952158455],[-73.91824022053738,40.58538652020704],[-73.91824857781764,40.58536334192141],[-73.91826546182037,40.58534137239491],[-73.91827180019222,40.585331579614184],[-73.91826744931048,40.58532186768536],[-73.91825626000036,40.58531865538963],[-73.91824028513473,40.585316704032316],[-73.91822488302728,40.58532202184797],[-73.9181941445312,40.58534286374872],[-73.91816283268341,40.58536247003824],[-73.91815973251246,40.585373442683974],[-73.91814604944649,40.585398649468864],[-73.9181503975033,40.58541244895109],[-73.9181616560129,40.5854237551564],[-73.91815161347871,40.585433134175126],[-73.9181293341389,40.58544500769923],[-73.91809953946165,40.58544999241251],[-73.91804527530192,40.5854558775609],[-73.91802073906733,40.58544868510607],[-73.91798349497577,40.585452872897314],[-73.91793674670106,40.58546767458531],[-73.91792666940871,40.58547705406211],[-73.91789175297394,40.58550845663389],[-73.91787533807526,40.58552354014281],[-73.91785413888088,40.58553579752537],[-73.91783233433532,40.58553872777201],[-73.91781416463101,40.58553392226208],[-73.91779343837898,40.58553523376552],[-73.917783864785,40.585539731112085],[-73.91777011248136,40.58555481600853],[-73.91776327205613,40.58556537535192],[-73.91774739918469,40.58557763384639],[-73.91773408347203,40.58557971524827],[-73.91771757083083,40.58557652874133],[-73.9177064129452,40.58558346685599],[-73.91769798577364,40.58559649528057],[-73.91768528021315,40.58560790398044],[-73.91767095771142,40.5856136610873],[-73.91761554193188,40.58561971876808],[-73.9175842937967,40.5856161226203],[-73.91752645861789,40.5856303765759],[-73.91745616814787,40.58560888199677],[-73.91741707950615,40.58562791490591],[-73.91738896600258,40.58561598234753],[-73.91734833391017,40.58561952686432],[-73.91734361538359,40.58564454064151],[-73.91731075974542,40.585676682821244],[-73.91727638515232,40.585674276144125],[-73.91725296732415,40.58565758021796],[-73.9172201529833,40.585656365279405],[-73.91719355533047,40.585683746391574],[-73.91713886655438,40.585681324528714],[-73.91712633030815,40.585709906899375],[-73.91707565840596,40.58570750331635],[-73.91706982693728,40.585736982111236],[-73.91594460143398,40.58466616188925],[-73.91582890019431,40.584525154085384],[-73.9157540475484,40.58442326811683],[-73.91713590203258,40.584077310797156],[-73.91723019841658,40.584062197245665],[-73.9175750002432,40.58400693372851],[-73.91833224560264,40.58390197513638],[-73.9190857231541,40.583830025775626],[-73.91986930720583,40.58375519488555],[-73.92075658809554,40.583717347346884],[-73.92092871814407,40.583713802234264],[-73.92116162477929,40.58370900240777],[-73.92236760892898,40.583713682803825],[-73.92279608123822,40.583730799849064],[-73.92284854701249,40.583732895871336],[-73.92350485693522,40.58375911229482],[-73.923791477666,40.583784348585496],[-73.9240846472311,40.5838105496047],[-73.92465393259313,40.58387323625174],[-73.9246647482773,40.58387442693951],[-73.92524124255092,40.5839536177234],[-73.9259458081012,40.584025971944826],[-73.92709278149856,40.58413986492367],[-73.92795893756407,40.584208059165235],[-73.92863344177003,40.58423153366543],[-73.92871569727367,40.58423256628308],[-73.92998341732851,40.584233435272736],[-73.92993690435303,40.5841228150372],[-73.92963248074902,40.58339880862565],[-73.93034850096231,40.58327369265189],[-73.93043425278594,40.58325401838661],[-73.93051721847878,40.58322832182788],[-73.93059667221604,40.58319682778294],[-73.93067191890015,40.583159811778195],[-73.9307423002421,40.583117597648545],[-73.93080720052076,40.5830705547041],[-73.93084048595078,40.5830297370687],[-73.93086743861963,40.582986288005905],[-73.93088770576708,40.58294077620335],[-73.93089053173173,40.58293019412089],[-73.93089101248621,40.58291940114776],[-73.93088913466904,40.582908697274284],[-73.9308849504752,40.582898380014086],[-73.9308785762051,40.58288873613481],[-73.93087018903205,40.582880033687374],[-73.93086002207752,40.58287251455557],[-73.93084835793164,40.58286638773296],[-73.93083552079845,40.58286182351394],[-73.93076371149853,40.582858754346184],[-73.93075765000432,40.58285838850637],[-73.93075176023906,40.58285723661779],[-73.9307462162324,40.58285533271619],[-73.93074118179749,40.582852733057734],[-73.93073680569076,40.58284951445659],[-73.93073321721643,40.58284577201531],[-73.93073052240585,40.582841616314795],[-73.93072880088454,40.58283717014679],[-73.93072810351943,40.58283256488573],[-73.9307284509159,40.582827936606776],[-73.93072983280896,40.582823422065296],[-73.9307385503497,40.58280754384064],[-73.93075016494436,40.58279278313121],[-73.93074069433477,40.582758947695346],[-73.93075429312083,40.582752910256275],[-73.93078122973864,40.58275303839733],[-73.93080856473162,40.58275316911738],[-73.93082904863846,40.58275881596987],[-73.93091370075877,40.58278215098542],[-73.93092077154287,40.58278410075657],[-73.930960032105,40.582728610786674],[-73.93109263324524,40.582743233455844],[-73.93117951233121,40.582715712356716],[-73.93170214276833,40.58281044700823],[-73.93171422041416,40.582811778842526],[-73.9317249134724,40.58287742005727],[-73.931745303496,40.582877000113655],[-73.93177240335245,40.58288537179016],[-73.93179734609143,40.58289700539897],[-73.93181946194424,40.582911588552044],[-73.93182823682754,40.58292198405229],[-73.93183474187381,40.58293330778646],[-73.93183881292906,40.58294527400374],[-73.93184034726013,40.58295758074026],[-73.93183930614721,40.582969917439094],[-73.9318357158611,40.582981972786996],[-73.93182966700037,40.58299344257048],[-73.9318213122053,40.5830040373524],[-73.93181086230615,40.583013489775944],[-73.93180467774465,40.58301506026472],[-73.931798928348,40.58301740230567],[-73.93179377830654,40.583020449015194],[-73.93178937469435,40.583024113385875],[-73.93178584326924,40.58302829077119],[-73.93178328488125,40.58303286187404],[-73.93178177259264,40.58303769615356],[-73.93178134959138,40.58304265555313],[-73.93178392762997,40.58304783414625],[-73.93178756056898,40.58305263094875],[-73.9317921545551,40.58305692203971],[-73.93179759090715,40.583060596562824],[-73.93180372918212,40.583063559590194],[-73.93181041080346,40.58306573457474],[-73.93186345428356,40.58308286125217],[-73.93191353649229,40.5830999174632],[-73.9319284768204,40.58310531231998],[-73.93194431270395,40.58310892942509],[-73.93196068261206,40.583110686200506],[-73.93197721282193,40.5831105425393],[-73.93192811186756,40.582869768935446],[-73.93237695742826,40.5829185099783],[-73.93237196954628,40.582961384699765],[-73.93201379961101,40.58292598224766],[-73.93198873707414,40.582943511602295],[-73.93201839411536,40.58311112461873],[-73.93233083503222,40.58302055265848],[-73.932355992818,40.583017100841325],[-73.93238004996152,40.58301051284351],[-73.9324023388802,40.583000971481226],[-73.93242224106018,40.58298874152606],[-73.93243920422016,40.5829741623576],[-73.93247465879543,40.58295458598508],[-73.93251294193347,40.58293839971358],[-73.9325534988149,40.582925838122314],[-73.93259877057645,40.582919267412116],[-73.9326447979136,40.58291751373147],[-73.93269070334219,40.582920610513334],[-73.93273561170211,40.58292849871931],[-73.9327786668411,40.58294102796535],[-73.9327911504497,40.582946020674456],[-73.93280451361863,40.5829494430206],[-73.93281841904317,40.582951208618994],[-73.93283251573119,40.5829512729035],[-73.93284644786279,40.582949634251555],[-73.9328598637717,40.5829463340249],[-73.93291966140737,40.58293914943084],[-73.9329801590471,40.58293751536938],[-73.93304047362123,40.58294145569253],[-73.93309972473217,40.58295091288434],[-73.93315704750465,40.58296574890035],[-73.9333034022795,40.58301476830245],[-73.93339305958206,40.58303130169429],[-73.93349145637734,40.58305871726045],[-73.93348952833725,40.58296458804405],[-73.93371378016623,40.58296718417742],[-73.93420971486967,40.58297979889361],[-73.93420772865389,40.58309425873819],[-73.93437027872967,40.58311020518447],[-73.93437970143313,40.58313903367386],[-73.9344692819631,40.58315251128205],[-73.93455992902898,40.58316541362909],[-73.93456279121907,40.58312490630254],[-73.93456057101983,40.583020173832445],[-73.93528194372153,40.58309697687045],[-73.93527605262628,40.58321782276461],[-73.93527611180933,40.583242913683726],[-73.93544040688028,40.583253964387914],[-73.93569071639767,40.583275093189314],[-73.93568953636134,40.58325484190405],[-73.9357242354232,40.58325398195899],[-73.93571933875555,40.583152699793025],[-73.93567676468076,40.58315353070123],[-73.93567353145987,40.58301942441272],[-73.93582439275778,40.58302111555223],[-73.9358269067191,40.58315194690393],[-73.93575981919535,40.58315597669332],[-73.93576657211088,40.58327750984988],[-73.93576749805185,40.58327753616706],[-73.93611243752984,40.58331301354203],[-73.93613233590128,40.5833144745387],[-73.93615228271496,40.58331346828617],[-73.93617175512634,40.58331002116027],[-73.93619024272601,40.58330422351685],[-73.93620726091874,40.58329622732326],[-73.93622236362557,40.583286242175106],[-73.93623515497677,40.58327452980213],[-73.93624529968804,40.5832613972078],[-73.93625253184905,40.58324718862217],[-73.93625432045471,40.58318392412839],[-73.93627418270633,40.58318123473943],[-73.93627045070228,40.58305920974605],[-73.93628933681373,40.58306024734328],[-73.93628752264308,40.58300938406062],[-73.93628723189404,40.583000903558506],[-73.93624507152872,40.583000055591434],[-73.93624185128176,40.582976153215085],[-73.93612802211177,40.58297936452221],[-73.93612865942575,40.583005470153495],[-73.9361288123766,40.58301119807051],[-73.93609824969623,40.58301163893423],[-73.93609807701677,40.58300471585109],[-73.9360966869136,40.582948745833065],[-73.93624023910762,40.58294667199504],[-73.93624037244727,40.58295200687692],[-73.93635149114577,40.5829504019047],[-73.93656607029148,40.582957648786625],[-73.93656436764796,40.582986944224515],[-73.93635050713773,40.58297972135926],[-73.93634906196026,40.58300460270306],[-73.93630031206764,40.58300295567567],[-73.93630169169045,40.58300973334195],[-73.93630359862789,40.583019096950125],[-73.9363086017894,40.583019538315845],[-73.93631716129535,40.5831790512013],[-73.93653912847094,40.58316362091813],[-73.93654855488354,40.583221455279826],[-73.93657592440783,40.583240505590155],[-73.93662876045126,40.58324262903018],[-73.93697427463762,40.58323032641149],[-73.93697724710977,40.583066048328995],[-73.93698651739246,40.58306617302966],[-73.93698743671975,40.58302662803946],[-73.93698767831037,40.58301627267399],[-73.93693100722118,40.5830155047849],[-73.93693148518248,40.58299498821794],[-73.93690397408108,40.58299461577272],[-73.93689167744034,40.5829944498662],[-73.93682584926127,40.582993557781684],[-73.936744914072,40.58299246200394],[-73.9367319026441,40.58299228630511],[-73.9366630028366,40.582991352396284],[-73.9366492210293,40.58299116587661],[-73.93663263829836,40.58299094212673],[-73.93663307422459,40.582972212406844],[-73.93705921677471,40.58297798232031],[-73.93705623806858,40.58302832312113],[-73.93705290451031,40.58308469947822],[-73.93763269743296,40.58309626828426],[-73.93763204328833,40.58311532021578],[-73.93705356331462,40.583103775747524],[-73.93705278742773,40.58312639196566],[-73.93702675588725,40.58312587259952],[-73.93703012691947,40.58302767974031],[-73.93703051033468,40.583016516793],[-73.93700558408266,40.58301601947157],[-73.93700520516781,40.58302706598829],[-73.93700387324063,40.58306585703738],[-73.93701423047526,40.58306606358359],[-73.93701481021189,40.58323327236416],[-73.9370510689012,40.58323547162604],[-73.93707737778301,40.583329755694734],[-73.9371245979845,40.5833467301644],[-73.93729744072712,40.583348841508425],[-73.93732049535775,40.5833404813013],[-73.93732470759876,40.58329281845621],[-73.93783180297181,40.58329309395877],[-73.93788732683063,40.58334396716499],[-73.93811917695093,40.583340478995325],[-73.9380942062777,40.58311681071716],[-73.93823991479739,40.5831168891334],[-73.93825745769914,40.58327956714188],[-73.9383308913978,40.58334119827832],[-73.93855276236508,40.58333798499146],[-73.93847712885872,40.58317789727135],[-73.93866846657744,40.583164428175216],[-73.93866646107381,40.58315914171813],[-73.9386599914724,40.58314208426921],[-73.93866334157599,40.58314134490746],[-73.93864663032174,40.58310636722828],[-73.93862218897611,40.58310300492533],[-73.93862755765117,40.583067021797646],[-73.93878660441516,40.583070937875654],[-73.93878266639005,40.58309483804145],[-73.93873115333615,40.58308945382893],[-73.93866851730584,40.58308406482901],[-73.93866322813594,40.58310503987541],[-73.93867832712037,40.58313795155617],[-73.93868719999845,40.583139421504015],[-73.93869745798781,40.58316493936702],[-73.93929640384748,40.58316726873515],[-73.93930153084891,40.58333321505465],[-73.9398253885057,40.583331446250675],[-73.93982883984624,40.58317053569237],[-73.93985700196737,40.58317497237736],[-73.93985851576804,40.583331334095625],[-73.94027355766531,40.58332993058934],[-73.94057745828908,40.583328225573666],[-73.94057532545169,40.58328213645093],[-73.9405749537624,40.583274117629465],[-73.94057258161921,40.58322286210972],[-73.94057214999887,40.58321354557412],[-73.94056962801585,40.5831590626893],[-73.94056916880335,40.58314914705408],[-73.94056754325045,40.58311477034387],[-73.94056608947726,40.583087368810865],[-73.94054199309049,40.5830881303295],[-73.9405422955577,40.583093681574205],[-73.94047360621614,40.58309385072798],[-73.94047357740766,40.583087220400195],[-73.94010952396499,40.58309297532062],[-73.94010903682926,40.58307506918445],[-73.94012576769944,40.58307479628753],[-73.94021422135167,40.58307335301207],[-73.9402251803578,40.5830731730915],[-73.94026708883328,40.58307249009076],[-73.94027941504943,40.58307228892943],[-73.94036352490993,40.583070916323955],[-73.94037688389578,40.58307069759504],[-73.94047281456905,40.5830691323533],[-73.9404865952313,40.58306890729648],[-73.94056166659252,40.583067681310396],[-73.94057550702207,40.58306745627385],[-73.94065816747754,40.58306610682723],[-73.94067657802275,40.583065805567514],[-73.94067712191335,40.58308579077095],[-73.94058568405266,40.583085976891375],[-73.9405866718767,40.583115240775584],[-73.9405872791283,40.58314227246807],[-73.94058754647739,40.58315420589618],[-73.94058846960866,40.583195430008765],[-73.94058872809889,40.583206947959205],[-73.94062855574226,40.58320529576546],[-73.94063649330324,40.58332834119584],[-73.94070019514754,40.58332762473228],[-73.94069690323708,40.58330243732705],[-73.94091645490738,40.583302406531494],[-73.94090001047691,40.583122950586294],[-73.94089710477415,40.58308760707996],[-73.9407386846444,40.58309124295609],[-73.9407384060463,40.58307561281773],[-73.94079355384314,40.58307460323686],[-73.9408308173342,40.58307392081982],[-73.94084677123493,40.58307362882203],[-73.94091637255394,40.5830723542198],[-73.94097532797579,40.583071274472005],[-73.9410040897775,40.58307074795659],[-73.94102517918685,40.58307036190638],[-73.94102584392364,40.583085497695286],[-73.94091450362929,40.58308833841576],[-73.940917369179,40.58312337783507],[-73.94092816033074,40.58325534247311],[-73.94093422085356,40.58330230643689],[-73.94115699675488,40.58329922746826],[-73.9411625845631,40.583275116142104],[-73.94113701228305,40.58316528347338],[-73.94113089391001,40.58316311083234],[-73.94110905972589,40.58314114122373],[-73.94110624879377,40.58312802407025],[-73.94109844565489,40.58309477669994],[-73.94114534994199,40.58310017993919],[-73.94115074719805,40.58310353245504],[-73.94120155728886,40.583090465205174],[-73.9412056166295,40.58309900307524],[-73.94115408610513,40.58311322222543],[-73.94115833809383,40.583129304549274],[-73.94119384397216,40.58326360343966],[-73.94120929823985,40.583298504883224],[-73.94124697402296,40.583301379359725],[-73.94126351164593,40.583336756798396],[-73.9413111511611,40.58333662684816],[-73.94144050857204,40.58334014747636],[-73.94148833784261,40.58352873644671],[-73.94154438657309,40.58351808329957],[-73.94157408083575,40.58360755593956],[-73.94255133565295,40.58351447617102],[-73.94202033352751,40.583110423782635],[-73.94214938810204,40.5831066795511],[-73.94270167762981,40.58350879761415],[-73.94304709646005,40.58349212946443],[-73.94256316190977,40.58312734751663],[-73.94268774005667,40.583122816572235],[-73.94319506158025,40.58348966263344],[-73.94354467530924,40.583471014361265],[-73.94309334781462,40.583134545214584],[-73.94322815546556,40.58313082021123],[-73.94351205889528,40.583337045980684],[-73.94369153004571,40.583467754266145],[-73.94406764167105,40.583472009110565],[-73.94363589795744,40.583145573909725],[-73.9437651164146,40.58314471883176],[-73.94423403587136,40.583479951646716],[-73.94461828666236,40.583496626087864],[-73.94417458523766,40.58315829121842],[-73.94432059818078,40.58315942487781],[-73.94477544081295,40.58350780441],[-73.94517477781615,40.583521378244384],[-73.94471270964229,40.583165044530475],[-73.94484512940873,40.5831642348437],[-73.94534992503475,40.58352905211058],[-73.94573014930431,40.58354487506151],[-73.94526670124625,40.58318251856744],[-73.9453760523788,40.58318193165069],[-73.94589911888089,40.5835526626104],[-73.94628634691914,40.583568685205535],[-73.94579941258891,40.58319464023046],[-73.94592412935306,40.58319410443495],[-73.9464342905935,40.5835631525926],[-73.94678945068779,40.58355046761432],[-73.94631603648713,40.583206940713445],[-73.94645496477298,40.58320516808022],[-73.94691796276105,40.583546033249895],[-73.94726832705268,40.58353318207207],[-73.94682202947196,40.583191191871244],[-73.94701390883579,40.583188100979626],[-73.94746867861319,40.58352819536258],[-73.94836747924927,40.58348859625844],[-73.9495826675518,40.58336143778927],[-73.95025076956796,40.583287264699884],[-73.95118226986263,40.58319926518033],[-73.9524744797083,40.5830771769274],[-73.9534932204868,40.58298819826116],[-73.95343216344399,40.58267434332113],[-73.95341929823668,40.58260821088642],[-73.95330135995677,40.582002749633666],[-73.95286292151823,40.582041146089615],[-73.95233099098468,40.582087727146416],[-73.95193849433252,40.582122095971265],[-73.95102369462633,40.58220219549079],[-73.95008839464275,40.582284807847465],[-73.94969672499398,40.58231940106685],[-73.94937473522302,40.582257483993764],[-73.94800448116935,40.58199633761614],[-73.94697681875222,40.581800471469776],[-73.9460061663116,40.5816154610823],[-73.94502940359484,40.581429276910804],[-73.94413672913878,40.58125911268355],[-73.9430620826782,40.58105626783255],[-73.94274062592515,40.58099558955944],[-73.94216538348023,40.581004699162754],[-73.94124120272407,40.58101932764551],[-73.94035765693333,40.581033307384445],[-73.93899065793369,40.58105414563056],[-73.93805680414229,40.5810683712787],[-73.9371056135673,40.58108285258518],[-73.9361696075799,40.58109709572454],[-73.93475193843814,40.58111865415704],[-73.9338128066391,40.58113292574223],[-73.93381364630925,40.5812139890526],[-73.93383615339371,40.58121373581192],[-73.93383598074706,40.58120413761329],[-73.93429954734847,40.58119927690185],[-73.9351340770489,40.58118378955792],[-73.93513789283371,40.58130327675381],[-73.93510879115189,40.58130381702117],[-73.93510615823942,40.581221396222766],[-73.93509532596836,40.581210618963375],[-73.93391404481238,40.58122934798405],[-73.93383645111416,40.58123016141157],[-73.93383627277936,40.58122031627126],[-73.93381304804858,40.58122057898279],[-73.93381328089824,40.58123261560772],[-73.93376391735084,40.58123317234014],[-73.93376314737046,40.58119356440814],[-73.93366295933792,40.58119469455574],[-73.93366325722226,40.5812129031723],[-73.93340042885238,40.58121538886942],[-73.93339931869012,40.581164801525276],[-73.93366243426819,40.581162313818744],[-73.93366279643868,40.58118459913496],[-73.93376313431386,40.5811834662259],[-73.93375801356125,40.581132041606025],[-73.93300348916414,40.581144675417356],[-73.93300294726048,40.5812814096514],[-73.93297161890682,40.58128363007498],[-73.9329635037576,40.58114517026235],[-73.93290958744818,40.581145767361285],[-73.93291340814964,40.58128373933734],[-73.93287295022404,40.58128600047336],[-73.93286916364707,40.58114848252078],[-73.93280636427467,40.58114741868665],[-73.9327788560717,40.581198430736414],[-73.93274944870574,40.581237225585234],[-73.93269753266533,40.58126928847321],[-73.9326407480483,40.58127671947132],[-73.93258006568037,40.58126474120362],[-73.93255268134347,40.58124009494589],[-73.93252433664159,40.581196042842194],[-73.93250341155878,40.58114698813668],[-73.9324506061651,40.58097120459675],[-73.93202124664525,40.57954186892285],[-73.9319957687601,40.57952101032555],[-73.93181497833275,40.578958697732816],[-73.931826884272,40.578680471095595],[-73.93169026330277,40.578178861147066],[-73.93164069394156,40.57817080967884],[-73.93106028108006,40.57626592009702],[-73.93106288335703,40.57616310022092],[-73.9314422561966,40.575700970430084],[-73.93150256744059,40.57566050512696],[-73.93309736378174,40.57558991920101],[-73.93334420953842,40.575565703052405],[-73.93480882465856,40.57553187661347],[-73.9348609283043,40.57552779666835],[-73.93489148244171,40.575515485487855],[-73.93490229100969,40.57548535354608],[-73.9348935645524,40.575221645997814],[-73.9349954030409,40.57522641258893],[-73.93500161781999,40.57543562133894],[-73.93507861830436,40.57550946601038],[-73.93532410491056,40.57559699192038],[-73.93575722316271,40.57572721627268],[-73.93623444465558,40.575842477958346],[-73.93647107586591,40.575860496356555],[-73.93656163438757,40.575819201443466],[-73.93660358189828,40.57577240595021],[-73.9366210958546,40.575722715958456],[-73.93665097426798,40.57562271008434],[-73.93667153857135,40.575428459497616],[-73.93668273284032,40.57542357984723],[-73.93669484322113,40.57542020375016],[-73.9367075253733,40.57541842720058],[-73.93672041869901,40.57541830071201],[-73.93673315659606,40.57541982788096],[-73.93674537688167,40.57542296528468],[-73.93675673209036,40.575427623715846],[-73.93675674501785,40.57542766108207],[-73.9367933549786,40.57553779456176],[-73.93679549482812,40.57554240169931],[-73.93679859197422,40.57554668082327],[-73.93680256338648,40.57555051721571],[-73.9368073025964,40.57555380802772],[-73.9368126825518,40.575556465036755],[-73.93681855902278,40.575558417011685],[-73.93682477446846,40.57555961162246],[-73.93683116226046,40.57556001684304],[-73.93683755114994,40.575559621809965],[-73.93684376985863,40.5755584371136],[-73.93684965167068,40.57555649451419],[-73.93761562467286,40.57553175091366],[-73.93896720783594,40.57548807756291],[-73.94250907828427,40.57537355453194],[-73.94251918829286,40.57538213343683],[-73.94252738351288,40.575391827584724],[-73.94253345599247,40.57540239098982],[-73.94253725164337,40.575413555609146],[-73.94253867415095,40.57542503814389],[-73.94253768741831,40.575436547228136],[-73.94253447865559,40.5754473939341],[-73.94252912962614,40.57545773810769],[-73.94252176647923,40.575467335794386],[-73.94251256286483,40.575475960644496],[-73.94250173583838,40.575483409251405],[-73.94248954074172,40.5754895059487],[-73.94247626518126,40.575494106953116],[-73.9424828136937,40.5755095118323],[-73.94249255056535,40.57552390354432],[-73.94250521823616,40.57553690139627],[-73.94252048161937,40.5755481615657],[-73.94253793696512,40.575557386195705],[-73.94255712254062,40.5755643312738],[-73.94257753084399,40.5755688130868],[-73.94259862202905,40.575570713080495],[-73.9427406081808,40.57559878801063],[-73.9428874874475,40.57563246638107],[-73.94311590561615,40.575676774845135],[-73.94329220627863,40.57572028533164],[-73.94347256946382,40.57574893063866],[-73.94364149533129,40.57577285995858],[-73.94382057423425,40.57578965857676],[-73.94393460727602,40.575801020375536],[-73.94404937431695,40.57580662856281],[-73.94416437658343,40.57580645876557],[-73.94427911427945,40.575800511721766],[-73.944393088759,40.575788813277015],[-73.94450580469352,40.57577141427237],[-73.94454293698377,40.575756738628485],[-73.94457698612153,40.57573821914246],[-73.94460727241695,40.57571622550237],[-73.94463319129606,40.575691196747286],[-73.94455272237943,40.57529349621082],[-73.9445662343865,40.57526902398239],[-73.94456720914145,40.57526639105943],[-73.94456762944276,40.57526367407508],[-73.94456748485673,40.57526094047705],[-73.9445667789727,40.57525825812548],[-73.94456677782306,40.57525551866656],[-73.94456729275788,40.57525280749168],[-73.94456831309674,40.57525018083407],[-73.9445698176764,40.57524769317402],[-73.9445717752899,40.57524539610882],[-73.94458057522623,40.57524085355881],[-73.94459025668125,40.57523751252283],[-73.94460054017095,40.57523546944982],[-73.9446063776838,40.57523524156286],[-73.94461218183132,40.57523576860198],[-73.94461778590367,40.5752370354293],[-73.94462302893764,40.575239005658304],[-73.94462776033996,40.575241622699046],[-73.94464233847724,40.5752617836984],[-73.94467768384723,40.575446321801834],[-73.94469506613167,40.57548381658491],[-73.94474441660772,40.5755137279401],[-73.94491960211009,40.575538831992134],[-73.94509624232467,40.57555707086767],[-73.94527387481992,40.57556839681854],[-73.94545203456565,40.57557278019419],[-73.94554290851313,40.5755740357085],[-73.94563360922793,40.575569578790436],[-73.94572352013327,40.575559439737845],[-73.94581203002214,40.575543687475225],[-73.9458985372125,40.57552242908514],[-73.94598245363802,40.5754958090803],[-73.94603603742596,40.575465657091094],[-73.94608366275509,40.57543016397729],[-73.94612442146595,40.5753900065587],[-73.94615753634311,40.57534595059765],[-73.94618237593534,40.57529883619631],[-73.94619846659587,40.57524956177627],[-73.94620550151308,40.57519906694646],[-73.94615898850574,40.57518971124725],[-73.94595330078262,40.57521201772154],[-73.94592148276949,40.57519893359957],[-73.94590897955277,40.57513925954732],[-73.94592390235839,40.57511543230958],[-73.94665101734039,40.575019426357684],[-73.94671197360066,40.57502011722825],[-73.94677953289852,40.575017328521106],[-73.94680134069229,40.57501544034444],[-73.94691980292814,40.57500518403127],[-73.94708500319486,40.57498087212697],[-73.94776716764017,40.574907288698974],[-73.94868549287553,40.57480822367932],[-73.94896375973472,40.57477820421169],[-73.94938813625934,40.57468967986318],[-73.94954065902323,40.5746499873341],[-73.94991862626001,40.57455162473926],[-73.95006575815155,40.57456212504096],[-73.95018552432875,40.57455956843396],[-73.95030872902427,40.57453352906264],[-73.95053081571785,40.5745205991531],[-73.9505311591346,40.57452057902991],[-73.95081177068978,40.57449199819017],[-73.95104789991744,40.57446078911608],[-73.95132509565437,40.57442437791552],[-73.95147653230816,40.57442444198012],[-73.9515151797231,40.574423626680996],[-73.95177767813585,40.574415340251704],[-73.95210772663668,40.574383665963765],[-73.95227790372938,40.574311446938],[-73.952397830766,40.57424704924289],[-73.9525777542962,40.57420412401004],[-73.95278491418682,40.57420081787068],[-73.9529666099609,40.57424177899967],[-73.95312496976112,40.574282902709385],[-73.95328291743445,40.57429188984164],[-73.95340408353212,40.574294194837115],[-73.95352660081384,40.57429652420813],[-73.95374257958349,40.574297232242095],[-73.95377968140244,40.57428764421341],[-73.95385051307802,40.57427147727177],[-73.95393490605609,40.57424290915571],[-73.95399423405081,40.574266317041975],[-73.95401136297535,40.574237622567665],[-73.9540319973193,40.57408629768298],[-73.95408333451817,40.57407327218374],[-73.95410726685508,40.57410198257739],[-73.95410029660769,40.57428723314921],[-73.95413360803454,40.57433326749534],[-73.95428546787073,40.57573133701873],[-73.95365171705345,40.575823980895706],[-73.9538405291647,40.57677674929711],[-73.95397148474959,40.57732235787792],[-73.95403280895012,40.57740231277459],[-73.95420562588852,40.57842628680486],[-73.95434539801184,40.57919539898078],[-73.95443828602436,40.57959995942244],[-73.95471326849088,40.58062209176004],[-73.95505505412478,40.581609236172085],[-73.95507111658038,40.581680175764404],[-73.95506943644497,40.581753451986266],[-73.95504961747505,40.581825162083376],[-73.95498917672076,40.58191682963285],[-73.95494024238494,40.58196890524089],[-73.95591997720777,40.58244783282195],[-73.9559626183502,40.58248051121552],[-73.95599607756314,40.58252016501815],[-73.95601446675302,40.5825576242704],[-73.95601774625992,40.582564316819074],[-73.95602659697414,40.58260992289198],[-73.95604146800456,40.582736254320174],[-73.9564572912573,40.582658850555354],[-73.9567561828483,40.58283497003074],[-73.95682583573115,40.58288630864742],[-73.95689047344999,40.58293397946099],[-73.95695596036049,40.58298226304367],[-73.9570313424629,40.583035332919955],[-73.95713291373283,40.58304572652517],[-73.95723610082364,40.5830422713193],[-73.95733608389972,40.58302513488056],[-73.95745546579563,40.583012788504895],[-73.95900764249988,40.58285215160964],[-73.95910958874236,40.58285667571559],[-73.95983502945747,40.58319054585225],[-73.96004798667482,40.58326987240679],[-73.96010509520559,40.583408357159506],[-73.96014924129577,40.583575897541984],[-73.96019673151895,40.584225031167996],[-73.96021792177663,40.58451466283822],[-73.96022753944155,40.584608959923756],[-73.96023124300906,40.58467600462871],[-73.96023461570664,40.584746283708725],[-73.9602394336217,40.58479187498361],[-73.96024315330844,40.58482708106582],[-73.96025825836561,40.58502930784157],[-73.96026851850121,40.58514903258494],[-73.96032539267314,40.585812723253724],[-73.96034190827932,40.58596836626258],[-73.96034614943134,40.58612477097556],[-73.9603380365593,40.58628108950042],[-73.96031766369542,40.586436468472485],[-73.96031712034926,40.58651472359948],[-73.96034953585209,40.58730628607411],[-73.96040710165576,40.588034352302785],[-73.9604596836014,40.58872381982127],[-73.96051667238417,40.589452911647776],[-73.96244434683403,40.58923886450633],[-73.96336982102012,40.58913656595774],[-73.96426415053995,40.58904117643811],[-73.96535986082648,40.58891861799846],[-73.96564091892893,40.58888717504077],[-73.96582014479027,40.58886806699165],[-73.96593162870914,40.58885634573966],[-73.96652635888165,40.58879327100864],[-73.96704559268242,40.58873819957733],[-73.96754240398279,40.58868082314347],[-73.96797003843092,40.58863142365179],[-73.96889735024128,40.588528578171164],[-73.96982318181551,40.58842666030165],[-73.9707527585702,40.58832192578834],[-73.9716772254981,40.58822207368145],[-73.97260330998256,40.58811877430716],[-73.97420799685439,40.58795461129789],[-73.97433591765278,40.58794151870802],[-73.97428505391788,40.58870895200189],[-73.97424288252276,40.58957733647741],[-73.97420167987667,40.59001725986871],[-73.97419290200388,40.590106189991204],[-73.97513509154633,40.590640689045735],[-73.97583819969519,40.5910645882994],[-73.9765127918731,40.59145264691431],[-73.9772213207709,40.59192193401605],[-73.97731284523739,40.59197765074741],[-73.97769565869359,40.59218653785858],[-73.97794972116878,40.59232865288342],[-73.97818191476277,40.59245853272026],[-73.97831048945163,40.5925383445478],[-73.97839338973664,40.592588279362296],[-73.97843219787867,40.59261193407823],[-73.97850113253354,40.592653952947906],[-73.97876175413519,40.59281338807976],[-73.97902617233552,40.592976421671764],[-73.97908510679243,40.59301275928961],[-73.97941565061504,40.59321656101732],[-73.97957368942204,40.59331400211663],[-73.97962758524515,40.593347232064346],[-73.97988534484564,40.59350615517502],[-73.97994499979632,40.59354164879869],[-73.98007809139497,40.593620835716266],[-73.98015283525521,40.59366530672316],[-73.98060159538927,40.59393230518214],[-73.9807101319401,40.593997228635736],[-73.98093723322518,40.594136933983215],[-73.98197740058099,40.59476340616916],[-73.98304659419559,40.59541454018647],[-73.98372152615246,40.595821078217256],[-73.98314034685635,40.595884931775146],[-73.98221115904596,40.59598701081328],[-73.98128384672701,40.596087901729796],[-73.98035785473854,40.59619154174655],[-73.97942586842964,40.59629752332779],[-73.97911883975927,40.59633011017623],[-73.97890571395493,40.59635273007941],[-73.97871638920563,40.59637246931259],[-73.97850169178693,40.59639485313184],[-73.97750674249224,40.59650645342082],[-73.97650934506581,40.59661610896225],[-73.97558819302563,40.596719206431764],[-73.97503940429317,40.59678002695338],[-73.9749269555482,40.59679353816303],[-73.97408390555671,40.596882943568296],[-73.9732398353256,40.596978818056996],[-73.97312284633645,40.59779052143376],[-73.97302108071091,40.59851878577741],[-73.97296713261613,40.59890996006772],[-73.97291116907182,40.599315803700954],[-73.97256533709847,40.601794373023274],[-73.97245261654382,40.60261705453998],[-73.97235152087218,40.603348118861206],[-73.97217742800865,40.604194711537545],[-73.97239735541898,40.6056518901445],[-73.97258982407092,40.60667153337376],[-73.97295948086467,40.60862950777036],[-73.97299433938896,40.60881414180244],[-73.97191518725322,40.608935921691035],[-73.97089538377742,40.60904971921056],[-73.9699656611014,40.60915047689355],[-73.96904086639492,40.609253193163376],[-73.96792168799611,40.609389189526304],[-73.96780676335973,40.60940315527968],[-73.96768635687866,40.60941778748273],[-73.96739979512793,40.60945960757399],[-73.96629835479908,40.60955521381429],[-73.96522378067694,40.60967440102234],[-73.96429649963927,40.609776426175635],[-73.96337092961164,40.60987865799269],[-73.9623854844826,40.60998599285033],[-73.9613726837953,40.61009887471202],[-73.96044361881509,40.61020150730531],[-73.95952069633742,40.61030205333979],[-73.95859278495766,40.610403030935245],[-73.95804731927223,40.610462762444406],[-73.95766801379435,40.61050371521915],[-73.95670471406346,40.61061187782908],[-73.9557406698918,40.61071482695379],[-73.95479552709989,40.610820766155335],[-73.95359888852906,40.61094986560658],[-73.95258786948973,40.61111223958921],[-73.9516677687291,40.61131318600034],[-73.95158452390383,40.611347343462626],[-73.9514654145938,40.611375656597275],[-73.95134816532786,40.611408167740755],[-73.95123303070568,40.61144480629788],[-73.95112026086306,40.611485492454584],[-73.9510101005332,40.611530138115626],[-73.95090278892654,40.61157864633622],[-73.95076938075914,40.61159024476765],[-73.94996296695327,40.61231572784955],[-73.9491197021277,40.61305321766795],[-73.94824834423737,40.613635357956575],[-73.94764057322082,40.61407771041329],[-73.94742608780807,40.61422460055384],[-73.94657366828139,40.6147891311377],[-73.9457369197798,40.61536340675711],[-73.94482770996294,40.61604620910957],[-73.94479547279651,40.61588853050804],[-73.94457366458381,40.61480377240412],[-73.94443614627806,40.61408080696169],[-73.94430888194563,40.61341173798495],[-73.94417450628589,40.61272253843789],[-73.94405560932151,40.61199284173445],[-73.94383161659528,40.61191945750294],[-73.9426513822668,40.61085642986379],[-73.94082897850092,40.609229317663164],[-73.93901246938964,40.6075994773072],[-73.93904962774812,40.60743329747624],[-73.93848986685121,40.60692194350375],[-73.93834708437143,40.60700045605808],[-73.93789050811033,40.60658786106367],[-73.93809808341838,40.60619520968087],[-73.93843493575841,40.60597386305894],[-73.93791557907792,40.60549790060346],[-73.93609407296226,40.60387316224391],[-73.9342626672588,40.60223071136715],[-73.93355117153605,40.60268728082507],[-73.93173390128477,40.601062069499335],[-73.92992224924922,40.59943738271767],[-73.92813139670953,40.59777792814634],[-73.92879010154883,40.597323294964895],[-73.92912437058177,40.59710730362159],[-73.92956858309299,40.59682026492001],[-73.92866850955163,40.59602045115446],[-73.92759936698295,40.595060779178745],[-73.92653304995389,40.5941043148465],[-73.9254714779807,40.593148788287465],[-73.92440413291217,40.592184251691656],[-73.92405553042184,40.59187234925938],[-73.9236367728711,40.59149536979739],[-73.92332177854864,40.59121191583284],[-73.92230792516297,40.5903082078848],[-73.9209599200278,40.589095651471496],[-73.91972510787204,40.58798727789788],[-73.91819087798073,40.586606854925655],[-73.91809256480836,40.586570335004915]]]]}}]}