{"type":"FeatureCollection","features":[{"type":"Feature","properties":{"district":"303"},"geometry":{"type":"MultiPolygon","coordinates":[[[[-73.91804606958485,40.68721324777111],[-73.91799890699448,40.68696577961103],[-73.91791548411955,40.68656593630199],[-73.91789200384292,40.686449159179105],[-73.91784937476159,40.68623316791465],[-73.9178353117744,40.68616366960068],[-73.91778426812586,40.68591141261919],[-73.91776547588543,40.68581854081255],[-73.91770109452911,40.68550035916787],[-73.91766435176335,40.685312586686045],[-73.91765638722461,40.68527188366829],[-73.91764776574716,40.68522782275846],[-73.91763742514941,40.68517497680864],[-73.9176263055923,40.68511814934088],[-73.91755763291395,40.68476719192137],[-73.91741294336087,40.68403405152308],[-73.91726632656643,40.683303224553406],[-73.91712138528143,40.68256847168672],[-73.91697632824899,40.68183415941815],[-73.9168301148301,40.68110098173274],[-73.91676207442167,40.68075559994103],[-73.91668638370811,40.680371378789665],[-73.9165399872181,40.67963749735314],[-73.91639300075401,40.678905848881186],[-73.91630119795475,40.67857711243375],[-73.91635492183977,40.677823537190164],[-73.91645747529957,40.67672602873553],[-73.91646486032269,40.67664704054926],[-73.91739586981699,40.67669358452107],[-73.91830550321117,40.67675318132717],[-73.91923562380018,40.67681320045693],[-73.92012233307223,40.6768568997422],[-73.92094539940011,40.67688783362508],[-73.92182361015792,40.676938358473116],[-73.92268540389395,40.67698428001559],[-73.92282185056462,40.676991550355524],[-73.9237887342265,40.67704607263306],[-73.92478283596881,40.677101144690205],[-73.92505697115352,40.67711622768472],[-73.9251205076134,40.677119726992785],[-73.92660419496477,40.677201378294235],[-73.92702683745478,40.677223358220914],[-73.9271490150459,40.67722971240808],[-73.92753991307463,40.67725004934703],[-73.927722291609,40.67726030384541],[-73.92784239871945,40.6772670523662],[-73.92822613923957,40.677288687860795],[-73.92993007703532,40.677390002034464],[-73.93007091825856,40.677398371968245],[-73.93031762756354,40.67741303826301],[-73.93105876159602,40.67745334159359],[-73.93115581843988,40.677458623056],[-73.93267552517389,40.67754124354049],[-73.93278068349821,40.67754696092887],[-73.9330808428656,40.677563281216834],[-73.93585837080063,40.67771460161781],[-73.9360224075648,40.677723580461205],[-73.93610313127226,40.67772800214887],[-73.93696583618889,40.677775250083826],[-73.9371448242304,40.67778505573265],[-73.93791077079732,40.677825193445074],[-73.93862492563589,40.67786256958314],[-73.9398351819835,40.67792390342896],[-73.94057204212176,40.6779701955119],[-73.94137663730466,40.678008230814314],[-73.94173858926428,40.67802797453071],[-73.94183266714782,40.67803310106807],[-73.9431895081842,40.67810708093797],[-73.94415120120405,40.678156358782296],[-73.9469189146633,40.67832058176043],[-73.94734330794161,40.67834727195603],[-73.9477679295213,40.6783717689033],[-73.94819276034016,40.67839407085496],[-73.94861778026603,40.67841417789956],[-73.94869725160616,40.678417131024446],[-73.94967567453644,40.67845668168333],[-73.95206345258673,40.67858633071856],[-73.95298672714047,40.678721995492346],[-73.95412766155528,40.67895797685653],[-73.95433162006519,40.67900086600922],[-73.95529361599387,40.67920315104412],[-73.9559586243741,40.67934624664843],[-73.95829216807752,40.67983113399758],[-73.95826930306914,40.679906895127644],[-73.95824570369483,40.67998510490562],[-73.95839571516417,40.680797792257515],[-73.95858566682551,40.68174248271485],[-73.95884062019942,40.68301805301666],[-73.9589832800778,40.68374991565399],[-73.9591320677473,40.68448514870094],[-73.9592759861371,40.68521670504709],[-73.95929959527227,40.68533484513137],[-73.95942259266334,40.685950306432574],[-73.95956770121369,40.68668255542489],[-73.9597137475643,40.687415634593684],[-73.95985939425704,40.68814745121742],[-73.96000519802637,40.6888810337184],[-73.96009714565346,40.689345210097656],[-73.96014678019974,40.68960877684183],[-73.96017256138647,40.68972986206398],[-73.96018691858245,40.68980345649131],[-73.96022304539696,40.68998862788653],[-73.96023740336464,40.690062222305436],[-73.96029281668113,40.690346249915606],[-73.96073858295301,40.69242390530241],[-73.96109264168119,40.69401050418693],[-73.96158556117244,40.696207488406046],[-73.9617499483519,40.696846168905736],[-73.96194070370834,40.6979116822371],[-73.96189837824244,40.69818833253169],[-73.96105100633973,40.698326078819036],[-73.96019688923502,40.69846272743902],[-73.95885874693442,40.69867732641665],[-73.95795938220982,40.69882000321601],[-73.95701993189441,40.698973914350006],[-73.956074562506,40.699090001967726],[-73.95518370886958,40.699192902413145],[-73.95429053384225,40.69929535427684],[-73.95337000670555,40.69940454065282],[-73.95254800177906,40.69949477714133],[-73.95195162310978,40.69956288152011],[-73.95177257901098,40.69958479492687],[-73.95153738930428,40.69961357934819],[-73.95137278648164,40.69963372460148],[-73.95101112102586,40.69967798589681],[-73.9500909471545,40.699790593237914],[-73.9497937928258,40.69982331492601],[-73.9481322539084,40.70000627331911],[-73.94724808771964,40.700104909246924],[-73.94712762146762,40.70012281088432],[-73.9463155753173,40.700214952761996],[-73.94461766111529,40.700405300420016],[-73.9443878859649,40.70042452378275],[-73.94372352822886,40.70050583573063],[-73.9419307888223,40.70072523469599],[-73.94114917214166,40.7002811274922],[-73.94046308535975,40.6998978895407],[-73.94041991450925,40.69987377476778],[-73.93968995275165,40.69945579144186],[-73.93890152808679,40.69903697048582],[-73.93856854782629,40.69884813605217],[-73.93817718618821,40.698640223292465],[-73.93777354634389,40.69840469305041],[-73.93739064765448,40.6981857954],[-73.93675978960712,40.69783118883033],[-73.93638762625119,40.69761530150746],[-73.93600679221876,40.69740539625048],[-73.93522264370645,40.696986545131544],[-73.9347969968416,40.696736592354654],[-73.93468892659646,40.69667495438772],[-73.9346067517839,40.69662808583977],[-73.93457999376531,40.69661282447065],[-73.93448784825009,40.6965602684789],[-73.93413397294013,40.69635843140373],[-73.93382817155928,40.69618427730804],[-73.93311862859143,40.6957911538465],[-73.93236605675587,40.695358377296685],[-73.9319289006206,40.6951146575316],[-73.93177404621468,40.695028215346866],[-73.93147184545109,40.69486090242535],[-73.93121199886629,40.694712769782406],[-73.9311451648234,40.69467397536634],[-73.930511465969,40.69431652304871],[-73.92970192402746,40.693863397611906],[-73.92882897891457,40.693350474071785],[-73.92882834168937,40.693350099253884],[-73.92864268981751,40.69324101255122],[-73.92850659671787,40.69316572635931],[-73.9280415960469,40.692905609523564],[-73.92778194248609,40.692761177933676],[-73.92750685270927,40.69260381145641],[-73.92707069461525,40.692346223593916],[-73.92644992133326,40.692001768828845],[-73.92631612531525,40.69192845396821],[-73.92556064122292,40.69149084000319],[-73.92534903613239,40.69136694183817],[-73.92439183303607,40.690831749277166],[-73.92429213267955,40.690773357356754],[-73.92364379835564,40.69039883758189],[-73.92316966710699,40.69012340599091],[-73.92280702359515,40.68992392534477],[-73.92207133797021,40.68948984130095],[-73.92130587808545,40.689071643598034],[-73.92121369950202,40.689019477115636],[-73.92096103866248,40.68887205183766],[-73.92055013077213,40.688640922116214],[-73.91980961874593,40.688211241411686],[-73.91906109224908,40.687784368759495],[-73.91878323293736,40.687626088443956],[-73.91829345832642,40.68735666781545],[-73.91804606958485,40.68721324777111]]]]}}]}