{"type":"FeatureCollection","features":[{"type":"Feature","properties":{"district":"313"},"geometry":{"type":"MultiPolygon","coordinates":[[[[-73.98372152615246,40.595821078217256],[-73.98304659419559,40.59541454018647],[-73.98197740058099,40.59476340616916],[-73.98093723322518,40.594136933983215],[-73.9807101319401,40.593997228635736],[-73.98060159538927,40.59393230518214],[-73.98015283525521,40.59366530672316],[-73.98007809139497,40.593620835716266],[-73.97994499979632,40.59354164879869],[-73.97988534484564,40.59350615517502],[-73.97962758524515,40.593347232064346],[-73.97957368942204,40.59331400211663],[-73.97941565061504,40.59321656101732],[-73.97908510679243,40.59301275928961],[-73.97902617233552,40.592976421671764],[-73.97876175413519,40.59281338807976],[-73.97850113253354,40.592653952947906],[-73.97843219787867,40.59261193407823],[-73.97839338973664,40.592588279362296],[-73.97831048945163,40.5925383445478],[-73.97818191476277,40.59245853272026],[-73.97794972116878,40.59232865288342],[-73.97769565869359,40.59218653785858],[-73.97731284523739,40.59197765074741],[-73.9772213207709,40.59192193401605],[-73.9765127918731,40.59145264691431],[-73.97583819969519,40.5910645882994],[-73.97513509154633,40.590640689045735],[-73.97419290200388,40.590106189991204],[-73.97420167987667,40.59001725986871],[-73.97424288252276,40.58957733647741],[-73.97428505391788,40.58870895200189],[-73.97433591765278,40.58794151870802],[-73.97420799685439,40.58795461129789],[-73.97260330998256,40.58811877430716],[-73.9716772254981,40.58822207368145],[-73.9707527585702,40.58832192578834],[-73.96982318181551,40.58842666030165],[-73.96889735024128,40.588528578171164],[-73.96797003843092,40.58863142365179],[-73.96754240398279,40.58868082314347],[-73.96704559268242,40.58873819957733],[-73.96652635888165,40.58879327100864],[-73.96593162870914,40.58885634573966],[-73.96582014479027,40.58886806699165],[-73.96564091892893,40.58888717504077],[-73.96535986082648,40.58891861799846],[-73.96426415053995,40.58904117643811],[-73.96336982102012,40.58913656595774],[-73.96244434683403,40.58923886450633],[-73.96051667238417,40.589452911647776],[-73.9604596836014,40.58872381982127],[-73.96040710165576,40.588034352302785],[-73.96034953585209,40.58730628607411],[-73.96031712034926,40.58651472359948],[-73.96031766369542,40.586436468472485],[-73.9603380365593,40.58628108950042],[-73.96034614943134,40.58612477097556],[-73.96034190827932,40.58596836626258],[-73.96032539267314,40.585812723253724],[-73.96026851850121,40.58514903258494],[-73.96025825836561,40.58502930784157],[-73.96024315330844,40.58482708106582],[-73.9602394336217,40.58479187498361],[-73.96023461570664,40.584746283708725],[-73.96023124300906,40.58467600462871],[-73.96022753944155,40.584608959923756],[-73.96021792177663,40.58451466283822],[-73.96019673151895,40.584225031167996],[-73.96014924129577,40.583575897541984],[-73.96010509520559,40.583408357159506],[-73.96004798667482,40.58326987240679],[-73.95983502945747,40.58319054585225],[-73.95910958874236,40.58285667571559],[-73.95900764249988,40.58285215160964],[-73.95745546579563,40.583012788504895],[-73.95733608389972,40.58302513488056],[-73.95723610082364,40.5830422713193],[-73.95713291373283,40.58304572652517],[-73.9570313424629,40.583035332919955],[-73.95695596036049,40.58298226304367],[-73.95689047344999,40.58293397946099],[-73.95682583573115,40.58288630864742],[-73.9567561828483,40.58283497003074],[-73.9564572912573,40.582658850555354],[-73.95604146800456,40.582736254320174],[-73.95602659697414,40.58260992289198],[-73.95601774625992,40.582564316819074],[-73.95601446675302,40.5825576242704],[-73.95599607756314,40.58252016501815],[-73.9559626183502,40.58248051121552],[-73.95591997720777,40.58244783282195],[-73.95494024238494,40.58196890524089],[-73.95498917672076,40.58191682963285],[-73.95504961747505,40.581825162083376],[-73.95506943644497,40.581753451986266],[-73.95507111658038,40.581680175764404],[-73.95505505412478,40.581609236172085],[-73.95471326849088,40.58062209176004],[-73.95443828602436,40.57959995942244],[-73.95434539801184,40.57919539898078],[-73.95420562588852,40.57842628680486],[-73.95403280895012,40.57740231277459],[-73.95397148474959,40.57732235787792],[-73.9538405291647,40.57677674929711],[-73.95365171705345,40.575823980895706],[-73.95428546787073,40.57573133701873],[-73.95413360803454,40.57433326749534],[-73.95439793821805,40.57437084590738],[-73.95511114426024,40.574371126805254],[-73.95513705246901,40.57437113692592],[-73.95569484044358,40.574326996263366],[-73.95620816595128,40.574265470675336],[-73.95634506681625,40.57420722198968],[-73.95636904107707,40.57417331255949],[-73.95629561203621,40.573834984654546],[-73.95631111453274,40.57380017438857],[-73.95634533454574,40.57379757879462],[-73.95638980040835,40.57382368774376],[-73.9564716944755,40.57413948774533],[-73.9565675090591,40.57417077849314],[-73.95720053498167,40.57418667138105],[-73.95794413859446,40.57414481266249],[-73.9584347635904,40.574088815046466],[-73.95865147139081,40.57405152377139],[-73.95888419181567,40.57399159603147],[-73.9589663415274,40.57394726876866],[-73.95897543388926,40.57390455247938],[-73.95894268461848,40.573467167647586],[-73.9589871897258,40.57343065522953],[-73.9590260777376,40.573451995118496],[-73.95907248027572,40.57384554800048],[-73.95909642194562,40.57386382043346],[-73.95939182247403,40.57391210975257],[-73.95982864911241,40.57392930963587],[-73.96021532299316,40.573911179121104],[-73.9604890840351,40.5738851815442],[-73.96068755363636,40.57387742198239],[-73.96081416941394,40.57386180993894],[-73.96090885893598,40.57386502894655],[-73.96210769550761,40.57371352001873],[-73.96267607127348,40.57366693903921],[-73.96305899786316,40.57363555351817],[-73.96398292380053,40.573557571732835],[-73.96453618454454,40.57351319942513],[-73.965084785767,40.57346919863812],[-73.96602239542979,40.57338859483277],[-73.96720294103956,40.57332631739762],[-73.96738975478877,40.57325899990463],[-73.9674356779313,40.573208969671484],[-73.96736390080571,40.57304456895237],[-73.96739472238792,40.572995002688515],[-73.96742628474541,40.57298510896942],[-73.96744946374336,40.573008064913154],[-73.96753149753702,40.57319073238481],[-73.96762388104109,40.573198585440124],[-73.96779155223932,40.5731881963184],[-73.96818506098592,40.57317786854635],[-73.96839037828883,40.57315444294028],[-73.96856335985478,40.573125946552054],[-73.96884893944627,40.57305802794782],[-73.96897214113856,40.57302153230492],[-73.96906454391238,40.57298763751309],[-73.96920229198784,40.5729574185168],[-73.96945126202374,40.572857280363365],[-73.96946838633161,40.57282336570569],[-73.96921197952125,40.57233537642364],[-73.96924621215567,40.57230407565472],[-73.96928385228028,40.5723014764521],[-73.9695589515174,40.57280858046091],[-73.96975580336883,40.57284692469053],[-73.96996110201728,40.57286002458764],[-73.97021089387857,40.57285226198196],[-73.97085363074373,40.57277051528003],[-73.97108691689405,40.57272724421578],[-73.97132989626341,40.57264381038423],[-73.97135044587515,40.57259945954289],[-73.97137785791334,40.57251075309905],[-73.97114248794544,40.57205063101218],[-73.97115394572539,40.5719996370466],[-73.97113515153808,40.57196015213604],[-73.97118306355719,40.57194189908436],[-73.9712206941635,40.571962782201815],[-73.9714565707675,40.57247946224352],[-73.97151790920266,40.572581681902015],[-73.9716070645239,40.57262822392002],[-73.97183632056797,40.572628280354444],[-73.97249673747082,40.572576256747595],[-73.97293476162717,40.57247460214546],[-73.97314693344359,40.57241463999544],[-73.9733450222981,40.57232121400631],[-73.97336256224084,40.5722633570437],[-73.97323268078631,40.57190586596716],[-73.97321224564611,40.571668424702885],[-73.97324990115143,40.57162668610919],[-73.97329095478173,40.57164235029671],[-73.97332515756248,40.57167627862998],[-73.97334306976647,40.57174057042461],[-73.97334904033113,40.57185109962246],[-73.97336611476469,40.57193720809338],[-73.97339000577036,40.572088546788606],[-73.97342758666764,40.57223467076802],[-73.97344805325683,40.57227210696953],[-73.9737320997119,40.57228692509416],[-73.97400678258742,40.57227436254671],[-73.97440961940832,40.572237503002384],[-73.97484762696561,40.57216454176603],[-73.975285649671,40.57204983266871],[-73.97547081902785,40.57196900381711],[-73.97540561020006,40.57150453486921],[-73.97540564094218,40.5714210406407],[-73.97545696559193,40.57142105161776],[-73.97548432668461,40.57145497784668],[-73.9755088303411,40.57152449244072],[-73.97551718820384,40.571694315280546],[-73.97560269948818,40.57185928310377],[-73.97567918029264,40.57195598449751],[-73.9759255209153,40.57201865743774],[-73.97621978857084,40.57201611012759],[-73.97684256247986,40.571948398432916],[-73.97685354613593,40.571946338189846],[-73.97699449049826,40.571924677646635],[-73.97713364145218,40.571897086717776],[-73.97727057020663,40.57186365042473],[-73.9774048548199,40.571824471801214],[-73.97753608150029,40.57177967157567],[-73.97766384588142,40.57172938779928],[-73.97756820091209,40.5712466666593],[-73.97759877204504,40.57119103051852],[-73.97767087523825,40.57117102007926],[-73.97804724933889,40.571199793959686],[-73.97807599798224,40.57122957012887],[-73.9777153307247,40.571251914345],[-73.97769819728073,40.571324968329705],[-73.97770502384303,40.57137715394979],[-73.97773918874078,40.57153371211871],[-73.97775127949761,40.571680289782755],[-73.97776503791475,40.57170769409896],[-73.97778407952242,40.57173319377066],[-73.97780796518913,40.571756200724806],[-73.97783614406804,40.571776184374826],[-73.97788258903337,40.571795544977896],[-73.977930801936,40.57181220403666],[-73.97799924493025,40.571830476798354],[-73.97806978098814,40.57184331224875],[-73.97819660524193,40.57186619222228],[-73.97832516078633,40.57188251422428],[-73.97845486511191,40.571892204296596],[-73.97858513050295,40.571895218531616],[-73.97871536670084,40.57189154327121],[-73.97884498357935,40.57188119516873],[-73.97897339381899,40.57186422111348],[-73.97910001556893,40.57184069801817],[-73.97945681046664,40.571742767958526],[-73.97952183045096,40.57171407873435],[-73.97976481057282,40.57158627108628],[-73.97984694469407,40.57153931961033],[-73.97986064824696,40.57148192001066],[-73.97980592543593,40.57140363404621],[-73.97972382225466,40.57134621741252],[-73.97966565809052,40.57133316109956],[-73.97946721065136,40.57129920608382],[-73.97944552606329,40.57129334540378],[-73.9794252416215,40.57128506789571],[-73.97940681742276,40.57127456131236],[-73.97939067136872,40.57126206396689],[-73.9794251615826,40.57122102372418],[-73.97956918287883,40.571217346187645],[-73.97977198326755,40.57124014633363],[-73.97997658477702,40.57142960286154],[-73.97998592782258,40.5715344401503],[-73.9799921431763,40.57164404344436],[-73.98000799187608,40.571708806607695],[-73.9802088309702,40.571726205491196],[-73.98050142446237,40.571737718907336],[-73.98093842347006,40.57168199535058],[-73.98126440073048,40.57160999952998],[-73.9815945609618,40.57152371284545],[-73.9818222515083,40.571464403084875],[-73.98204075852516,40.57148037052266],[-73.9820368507678,40.57143792428024],[-73.98201633411749,40.57138834604942],[-73.98199239133083,40.571351813309406],[-73.98192054501712,40.57132049258686],[-73.98169656909482,40.57131137182082],[-73.98159891057541,40.57130739548434],[-73.98155785470242,40.57129434286868],[-73.9815441742737,40.571273466987165],[-73.98157155423429,40.571249988425],[-73.98194794042385,40.57123700215768],[-73.9820266291875,40.5712761520893],[-73.98209504346238,40.571346611478646],[-73.98214632133065,40.57152143608227],[-73.98217710691097,40.5715605784547],[-73.98225580253013,40.571568418289836],[-73.98249190051152,40.57156584591316],[-73.98282723201832,40.57154241357474],[-73.9830804449657,40.57150853143356],[-73.98367270153263,40.57140705768757],[-73.98340440737677,40.57016554451094],[-73.98305809245096,40.57020965626867],[-73.98304328883712,40.57014586098814],[-73.98339168436654,40.570094684517066],[-73.9832699667533,40.56954189385389],[-73.98336058039285,40.569529993984325],[-73.9834852186614,40.57008901506295],[-73.98382125394902,40.57004578948194],[-73.9838394948926,40.57011246715812],[-73.98348842146684,40.57015603004669],[-73.98375790448652,40.57139622725111],[-73.985729317548,40.571195889981695],[-73.98593538175733,40.57117818892258],[-73.98645087588854,40.57114890891056],[-73.98646799852716,40.57107846272531],[-73.98650905821354,40.57108107682817],[-73.98654668594101,40.571133264865985],[-73.98686148425027,40.57110720923823],[-73.9872686683531,40.5710759444772],[-73.98752187630419,40.571047270923735],[-73.98777508425758,40.57101859681208],[-73.98803716678536,40.57098510876888],[-73.9886202548146,40.57089605131433],[-73.98857772038873,40.57069790950512],[-73.9886339755543,40.57069514448056],[-73.98866476412265,40.57072906724024],[-73.9886955452091,40.57081517428718],[-73.98872145848829,40.570883692082816],[-73.9888358220813,40.57087780855807],[-73.98892820617885,40.57087520822603],[-73.98914719716015,40.57084391918328],[-73.98935934175846,40.57083089299791],[-73.98964657530452,40.570792155409805],[-73.98993761163382,40.57075788712616],[-73.99014629531213,40.570726079786596],[-73.99026267527438,40.57070834011741],[-73.99052614849926,40.570658787125616],[-73.99077310323918,40.570599422340585],[-73.9907417467296,40.57040310360711],[-73.99071781592738,40.57025959565127],[-73.99079264766944,40.57024864875571],[-73.99082728598108,40.570421374378945],[-73.99086374684873,40.57060201624256],[-73.99119337523616,40.57061187496838],[-73.99156291512737,40.57057798348937],[-73.9918913975633,40.570533649999014],[-73.9922061931928,40.57049975207052],[-73.99229545219583,40.570491069671746],[-73.99252782858777,40.57046846400306],[-73.99272854897072,40.570433788037604],[-73.99296923014852,40.57036673204245],[-73.99294529319602,40.57023627108553],[-73.99298098072167,40.57019677330934],[-73.99301372686763,40.57021279297848],[-73.993027407132,40.5702780229683],[-73.99305289944269,40.570339025559015],[-73.9931574188674,40.570379789439016],[-73.9932977052498,40.57038240748588],[-73.99362618034414,40.57039286310791],[-73.99367509747081,40.57039513567029],[-73.994019665383,40.570411148679035],[-73.99440631046578,40.570390294471736],[-73.99468360322808,40.57036133791863],[-73.99480664237873,40.57036422120306],[-73.99493763229947,40.57035467451256],[-73.99513854436805,40.57031466120686],[-73.99515224064966,40.57017898274361],[-73.99513514004279,40.57006678710952],[-73.99518726085735,40.5700218776333],[-73.99524805213267,40.57009810177884],[-73.99526172926925,40.57022856233712],[-73.99529301203256,40.570321283216586],[-73.99684901717636,40.57036696546902],[-73.99699640776534,40.57036269138155],[-73.99704438661124,40.57035647342467],[-73.99719493825842,40.570348649044],[-73.99731811772288,40.57032256042318],[-73.99735575750898,40.57027820414812],[-73.99735576071082,40.570197319683395],[-73.997369448826,40.57013730754305],[-73.99741966158952,40.57014085444601],[-73.99744814048582,40.57028603439324],[-73.99751999355456,40.57032517356235],[-73.99766712135202,40.570374751166334],[-73.99784504412395,40.57041389340967],[-73.9979955952131,40.57044781585334],[-73.99818720620962,40.570460865069435],[-73.99829669781623,40.57047391227499],[-73.99846777900159,40.57049739697316],[-73.9986324281594,40.57050800669044],[-73.9989912881183,40.570489575780215],[-73.99922738028933,40.57048957761075],[-73.99961402575246,40.57046609660164],[-73.99964139901624,40.57044522300489],[-73.99965850686432,40.570382602502946],[-73.99970321419985,40.57038649752284],[-73.99973291179317,40.570411511607844],[-73.99972950792682,40.57045044112305],[-73.99971929823447,40.57047379774022],[-73.99974852156545,40.57049579745974],[-73.99995431840834,40.570507156697396],[-74.00016054084665,40.570512359648546],[-74.00036687228126,40.570511398325465],[-74.00057299594573,40.57050427420404],[-74.00077859539269,40.5704909982214],[-74.00092571258244,40.57046877732472],[-74.00107095885899,40.57044028468037],[-74.0012138747982,40.570405610413076],[-74.00135400834893,40.570364864200336],[-74.00190572374962,40.57023940551587],[-74.00201167053906,40.5702087585243],[-74.00205780931618,40.570152462399356],[-74.0019839688837,40.56959654182398],[-74.00208547639734,40.56958598398511],[-74.00220084969982,40.570303754391816],[-74.00222854320397,40.57060986276895],[-74.00234852717969,40.57110596794102],[-74.0024870773771,40.571738388872625],[-74.0047994162169,40.572878854348446],[-74.00668904970406,40.57339722045679],[-74.00880344301767,40.57376474711886],[-74.00942893690332,40.57379726841027],[-74.01007410785427,40.57383080951783],[-74.01071306846109,40.574029097311644],[-74.01115668729264,40.574166761859004],[-74.01190196490121,40.57479016650765],[-74.01201540191131,40.57488505247441],[-74.01232183520676,40.575652682365245],[-74.01245749577932,40.57661074641708],[-74.01279721934532,40.57748923713336],[-74.01301295529973,40.577758514381514],[-74.0130238006225,40.57780436976003],[-74.0130271545442,40.57785089456422],[-74.01296227612137,40.57799259398366],[-74.01290556930975,40.57813631715339],[-74.01285714220262,40.57828179024576],[-74.01281708712038,40.57842873609742],[-74.0123503592923,40.5792218211566],[-74.01224662878245,40.57935557337554],[-74.01213565152142,40.579485900468285],[-74.01201762170922,40.579612574325395],[-74.01189274589333,40.579735373230356],[-74.01176124260739,40.57985408224781],[-74.01162334198878,40.57996849359976],[-74.01147928537598,40.58007840702943],[-74.01132932488618,40.58018363015194],[-74.01117372297409,40.58028397879112],[-74.01101275197256,40.58037927730196],[-74.0108603557124,40.580462245264826],[-74.01070388953008,40.58054068610751],[-74.01054358463756,40.58061448391024],[-74.01037871958438,40.580639177252394],[-74.01021580270415,40.58067049803494],[-74.0100552919434,40.58070835821812],[-74.00989763848736,40.58075265138044],[-74.00974328549215,40.58080325301765],[-74.0095926668394,40.58086002089258],[-74.00944620591682,40.58092279543494],[-74.00930431442846,40.580991400189625],[-74.00919506147878,40.58104995922376],[-74.00908914148022,40.58111197589652],[-74.00898674255016,40.58117734006977],[-74.00888804655428,40.581245935660185],[-74.00886572727534,40.58126015929355],[-74.00872650978307,40.5813437626694],[-74.0085819919882,40.58142196326676],[-74.00843253422444,40.58149456609446],[-74.00827850914686,40.58156139011857],[-74.0081203008027,40.58162226871403],[-74.00795830367349,40.581677050080174],[-74.00779292169119,40.58172559761945],[-74.00762456723075,40.58176779027811],[-74.00745366008165,40.581803522848084],[-74.00647984834727,40.58192825696143],[-74.00604734235812,40.58198365253342],[-74.00483627576776,40.58185484358047],[-74.00398023616431,40.58172129566407],[-74.00294374157806,40.5814328355212],[-74.00220582876804,40.581365886020556],[-74.00185991317426,40.5813875190183],[-74.00119212303615,40.581419055252056],[-74.00076029959007,40.5813245290981],[-74.00066055290533,40.581308961648766],[-74.00055986763827,40.58129742968316],[-73.9996415228003,40.58131655849627],[-73.99895997129458,40.58163304592502],[-73.99818261219656,40.58172536373689],[-73.99776464433626,40.58145433077118],[-73.99771779495471,40.58070677630617],[-73.99215464809245,40.57932062543302],[-73.99182912790278,40.579247080928965],[-73.9917471424708,40.579235614170244],[-73.99166423622563,40.579229040183385],[-73.99158091065851,40.57922739873371],[-73.99149224635138,40.579231086802466],[-73.99140428678562,40.579240358542364],[-73.99131763576956,40.579255150306494],[-73.99123288812982,40.579275360555165],[-73.99115062562845,40.579300850552706],[-73.99107141296977,40.57933144531981],[-73.99069770945268,40.57937305109735],[-73.9903620646656,40.579424580120666],[-73.98969501304424,40.57921326907614],[-73.98957956138597,40.57919294219644],[-73.98944797186194,40.57905581569161],[-73.9889909355634,40.57883509996901],[-73.98842833769437,40.57881584211708],[-73.98814208290412,40.57886596371393],[-73.98798324056253,40.57894533574103],[-73.98760837934653,40.57903313614579],[-73.98761631521337,40.5790641686529],[-73.98785456901827,40.579003643742915],[-73.98786647687938,40.57902635110804],[-73.98751285814495,40.579115691195064],[-73.98745151824927,40.57913151319854],[-73.98744159488432,40.579107291373596],[-73.98746186967513,40.57910287834888],[-73.98759745387358,40.57906643764779],[-73.98758653958211,40.57904070176443],[-73.98748785269999,40.579064017527486],[-73.98739064388405,40.57908698306386],[-73.98738302206559,40.57913756071429],[-73.98669540063,40.57981490763022],[-73.98702138577706,40.58002276487546],[-73.98678109583895,40.58029393717525],[-73.98616526744581,40.58095022929512],[-73.98588567394853,40.58114442456495],[-73.98590398124827,40.581199841697675],[-73.98592418776613,40.58126743761237],[-73.98604509916231,40.581720685151765],[-73.98684478996451,40.58123210200535],[-73.98694506928186,40.58113642180222],[-73.98703902186894,40.58103707880057],[-73.98712641798753,40.58093431594984],[-73.98720704393665,40.58082838456177],[-73.98728070257492,40.580719543695785],[-73.98734721380256,40.580608059525225],[-73.98740641500143,40.58049420468638],[-73.98745816143247,40.58037825761164],[-73.98757400228182,40.580031450725016],[-73.9876289333413,40.57995889445208],[-73.98763925793929,40.57991759787685],[-73.98773341959809,40.57981829600352],[-73.98774940591963,40.57981901466222],[-73.98776533549403,40.579817761927046],[-73.9877807928605,40.579814570470695],[-73.98779537487405,40.57980952352989],[-73.98780870122009,40.57980275273432],[-73.98782042433349,40.579794434673666],[-73.98783023846349,40.57978478629195],[-73.98783788764798,40.5797740592292],[-73.98796171029515,40.57967181077992],[-73.98797256272839,40.57966049495729],[-73.98798580807917,40.57965077253156],[-73.98800105085762,40.579642933801814],[-73.9880178359337,40.5796372128222],[-73.98803566212692,40.579633780413616],[-73.98805399717064,40.57963273906323],[-73.98807229360484,40.57963411986441],[-73.9880900051223,40.579637881588226],[-73.98810660288044,40.57964391191464],[-73.98812159129173,40.57965203078599],[-73.98813452282118,40.57966199578348],[-73.98817189485567,40.57969065056228],[-73.98821371926029,40.57971547214046],[-73.98825932456631,40.57973606201805],[-73.98830797860212,40.57975208963287],[-73.98835890024804,40.57976329766786],[-73.98841745734897,40.57976898942003],[-73.98847456923028,40.579780372597085],[-73.98852928843145,40.5797972583574],[-73.98858070718369,40.5798193665739],[-73.9889035392383,40.58000867818228],[-73.98913636201411,40.580214877927446],[-73.98954195216194,40.58041536572387],[-73.9896996938388,40.58042110730358],[-73.98995504921773,40.58066166953157],[-73.9911944079675,40.58102830769959],[-73.99163007472379,40.581079884382035],[-73.99174273417003,40.58120016258765],[-73.99168261881195,40.581383427077306],[-73.99173078128501,40.581486505048005],[-73.99182532449974,40.58150370686717],[-73.99185535656643,40.58162397854626],[-73.9918252957587,40.581738520302906],[-73.99169553014778,40.581858503279044],[-73.9903376250445,40.58421825538863],[-73.99035067235309,40.584276528613465],[-73.99035573816502,40.58433551845132],[-73.99035276803941,40.584394591201026],[-73.99034179386186,40.5844531122692],[-73.9903229335028,40.58451045298722],[-73.9902963895521,40.58456599736491],[-73.99026244714365,40.584619148708086],[-73.99097612298841,40.58435003081023],[-73.99267391275036,40.58358844336962],[-73.99272664750707,40.58356177433156],[-73.99277367835256,40.58352949415218],[-73.99281398705494,40.58349230171309],[-73.99284670092435,40.583451002247486],[-73.99288601638153,40.58342415719183],[-73.99292971088956,40.58340158815951],[-73.99297699021193,40.583383705386495],[-73.99302699495351,40.5833708339266],[-73.99304892972094,40.58336317494608],[-73.99306880714555,40.58335275083161],[-73.99308603346724,40.58333987296323],[-73.99310009411829,40.58332492601724],[-73.99311056909389,40.583308356475264],[-73.993117145498,40.58329065928738],[-73.9931466251024,40.58327194844162],[-73.99317951603157,40.58325690118358],[-73.9932150419686,40.583245872669224],[-73.99325236440465,40.583239123201224],[-73.99339745701678,40.58314812948687],[-73.99354754864417,40.58306197803114],[-73.99370236147293,40.5829808282864],[-73.9938616089541,40.582904830447234],[-73.99402499633409,40.582834125172255],[-73.99419222120005,40.582768843324175],[-73.9943629740394,40.5827091057275],[-73.99453693881263,40.58265502294504],[-73.99458961844235,40.58264986415037],[-73.99464052562527,40.58263831694433],[-73.99468833664412,40.582620681584174],[-73.99473180829237,40.582597416634584],[-73.99476981020148,40.582569127043456],[-73.99479586372009,40.58253948098143],[-73.99482767684265,40.582513305572604],[-73.9948644669247,40.58249124476124],[-73.99490532888582,40.582473841267266],[-73.99494925747548,40.58246152323518],[-73.99499517200293,40.58245459370149],[-73.99504973844707,40.582450988139264],[-73.99510280580567,40.582440654118635],[-73.99515295658644,40.58242386767373],[-73.9951988512048,40.58240107719054],[-73.9952392637668,40.58237289142948],[-73.99527311481437,40.582340063264326],[-73.99528742805295,40.582311998089914],[-73.99530754671025,40.582286085570104],[-73.99533293327684,40.58226301800049],[-73.99536290950455,40.582243411668465],[-73.99539667452709,40.58222779038842],[-73.9954333262566,40.58221657150736],[-73.995471885484,40.58221005475514],[-73.99551132203959,40.58220841423687],[-73.99555058231515,40.582211693781495],[-73.9955886174119,40.582219805770954],[-73.99589671851152,40.58215701878412],[-73.9960552882052,40.58212890385432],[-73.99622429809615,40.582201930581654],[-73.99672570402994,40.58225349057956],[-73.99739612012657,40.58242961699971],[-73.9978130171092,40.58261003108321],[-74.00017922859408,40.583073950245186],[-74.0003088081067,40.58317703751484],[-74.00041739503706,40.58354592150345],[-74.00043685358045,40.5840489694867],[-74.00035951790483,40.58418644588058],[-74.00024683907257,40.58426376283383],[-74.00010035579987,40.58437544250071],[-73.99998204289251,40.584431281595364],[-73.99985809444584,40.58454296095297],[-73.99973977980437,40.58457732286541],[-73.99963273341201,40.584633162294374],[-73.99953132177029,40.5847018873364],[-73.99945807926116,40.58475343161669],[-73.99933976309936,40.58486081481738],[-73.99915383954433,40.5849424258704],[-73.99898481729468,40.585015445531035],[-73.99878762307115,40.58515289393346],[-73.99860169877739,40.585230208470136],[-73.99846084611694,40.58528604638752],[-73.99826365291959,40.58531181562528],[-73.99808523776014,40.585364721581676],[-73.99808899188393,40.585470741266064],[-73.99828673553591,40.585483062986896],[-73.99867110166021,40.585507013215604],[-73.99928905009473,40.58555236605306],[-73.99946933901509,40.58568981900952],[-73.99970597099512,40.585689819858736],[-73.99970033626072,40.58575424962789],[-73.99952567990363,40.58575854466008],[-73.99963423823505,40.58606974793613],[-73.99956511570319,40.586243920095846],[-73.99935665157747,40.58638136941586],[-73.99897352811571,40.58642861560604],[-73.99877633053225,40.58648445338677],[-73.99863826384758,40.586491629461065],[-73.99828052442544,40.58651021958502],[-73.99821854784213,40.58651021864083],[-73.99814530449004,40.58653169390733],[-73.99623653794231,40.587421255879775],[-73.99417305638377,40.588382857820946],[-73.99423502922512,40.58843870064845],[-73.99559857410351,40.587841707554325],[-73.9956605451227,40.58793620734399],[-73.9940790462178,40.58869344199073],[-73.99421554608301,40.58886853098554],[-73.99330854966949,40.58958389858062],[-73.99297835954066,40.5897300334531],[-73.99291591601808,40.58975737877903],[-73.9928606773962,40.589782698419455],[-73.99255747826085,40.5899216752267],[-73.99161412310936,40.59035644594474],[-73.99153934444449,40.590390903081484],[-73.99147342135687,40.59044930578861],[-73.99066311983638,40.591167166608486],[-73.99036425110995,40.591431931676524],[-73.99004994683105,40.5917341122881],[-73.98873129728322,40.59300189957061],[-73.98749136070194,40.59419398191606],[-73.98676314924305,40.59489406612999],[-73.98646726841895,40.59517882212594],[-73.98520027304848,40.596398126116625],[-73.9850613649743,40.59567091881957],[-73.98406380249398,40.59578271995424],[-73.98372152615246,40.595821078217256]]]]}}]}