{"type":"FeatureCollection","features":[{"type":"Feature","properties":{"district":"302"},"geometry":{"type":"MultiPolygon","coordinates":[[[[-73.9692929641454,40.707093331095905],[-73.96913013106987,40.707045733468114],[-73.96838331404915,40.706829373393475],[-73.9679513912622,40.705731217061505],[-73.96761547790786,40.70496163538709],[-73.96720962042622,40.70425570915349],[-73.96666970243913,40.70380660388785],[-73.96653747117685,40.7036966129153],[-73.96607413508079,40.70332015294109],[-73.9659159180058,40.703191603467246],[-73.96587418643406,40.70315769599679],[-73.96583576203929,40.703127008025014],[-73.96520438968129,40.702622744814235],[-73.96451844743143,40.702074978267795],[-73.96386889390853,40.701541889211256],[-73.96318252095749,40.70100009537481],[-73.9625499252884,40.70049703364404],[-73.96251930327632,40.700472681967405],[-73.96217978089145,40.700220710604356],[-73.96236579985019,40.69960558585191],[-73.96283963716343,40.698038668340025],[-73.96248295842662,40.69809538475474],[-73.96239769090447,40.69810894573783],[-73.96235903253023,40.69811509173978],[-73.9623307288082,40.69811959432488],[-73.96189837824244,40.69818833253169],[-73.96194070370834,40.6979116822371],[-73.9617499483519,40.696846168905736],[-73.96158556117244,40.696207488406046],[-73.96109264168119,40.69401050418693],[-73.96073858295301,40.69242390530241],[-73.96029281668113,40.690346249915606],[-73.96023740336464,40.690062222305436],[-73.96022304539696,40.68998862788653],[-73.96018691858245,40.68980345649131],[-73.96017256138647,40.68972986206398],[-73.96014678019974,40.68960877684183],[-73.96009714565346,40.689345210097656],[-73.96000519802637,40.6888810337184],[-73.95985939425704,40.68814745121742],[-73.9597137475643,40.687415634593684],[-73.95956770121369,40.68668255542489],[-73.95942259266334,40.685950306432574],[-73.95929959527227,40.68533484513137],[-73.9592759861371,40.68521670504709],[-73.9591320677473,40.68448514870094],[-73.9589832800778,40.68374991565399],[-73.95884062019942,40.68301805301666],[-73.95858566682551,40.68174248271485],[-73.95839571516417,40.680797792257515],[-73.95824570369483,40.67998510490562],[-73.95826930306914,40.679906895127644],[-73.95829216807752,40.67983113399758],[-73.96134655885788,40.6804635243011],[-73.96329205549502,40.6808815858961],[-73.9641038822544,40.68105239187715],[-73.96435883446631,40.68110587609886],[-73.96442177171635,40.681119079332554],[-73.96551043354931,40.68134401997692],[-73.96657247077346,40.681564814364975],[-73.96753196699646,40.681768783617585],[-73.96750697696828,40.681687021401125],[-73.96747796321887,40.68158629039426],[-73.96767828378199,40.68095545531167],[-73.97082602605167,40.681615941754764],[-73.97395601638314,40.68226973238774],[-73.97620908230067,40.68272954968124],[-73.97656872289879,40.68282705904315],[-73.97666659384534,40.68297221530127],[-73.97870368081426,40.68374432337831],[-73.97876022462926,40.68376544448331],[-73.97918390577766,40.68312883797303],[-73.97961680019237,40.682491269710724],[-73.98003510148293,40.68185262673862],[-73.98046155443677,40.681222546757006],[-73.98055579589803,40.68125830407289],[-73.98187894494298,40.68177101523409],[-73.98196634457499,40.68180488026765],[-73.98242465588432,40.681982466136475],[-73.98257285695064,40.682039890007275],[-73.98264212211302,40.682066727345166],[-73.98273169276673,40.68210143311217],[-73.98285436075183,40.68214896346191],[-73.98241638197145,40.68278056609882],[-73.98289143124379,40.682965383468925],[-73.98391125220776,40.68336231148898],[-73.98396120172804,40.683381751998105],[-73.98401507093982,40.68340271803375],[-73.98408792084534,40.68343107178931],[-73.98415401035774,40.683456793379456],[-73.9842214620033,40.68348304484063],[-73.98437410797827,40.683542454872025],[-73.98479805243349,40.68290922903039],[-73.98699520009434,40.68376501032032],[-73.98693991315564,40.6838448061588],[-73.98688953761969,40.68391751427004],[-73.98683005166264,40.68400337172878],[-73.98672263904915,40.68415839945851],[-73.9866146181508,40.68431430418872],[-73.98656303359638,40.68438875563924],[-73.98820437004785,40.6850273069239],[-73.98871156032757,40.68522461847975],[-73.98878796565091,40.685108199323956],[-73.98881926271109,40.68506050861363],[-73.98906873902831,40.6846803718352],[-73.98909813359096,40.68463558160563],[-73.98912840728988,40.68458945307363],[-73.99105866535301,40.685341695531456],[-73.99133249694536,40.68544840623623],[-73.99392929615883,40.6864528716492],[-73.99378736930758,40.68675596693523],[-73.99360423213145,40.687127230048326],[-73.99333822964894,40.687678796934044],[-73.9932683000288,40.687824451828625],[-73.99300451644845,40.68836463604006],[-73.99292888955874,40.68851942162269],[-73.99268552762909,40.689033246531395],[-73.99262286020634,40.68916054883613],[-73.99236367043248,40.68969012377716],[-73.99436092830202,40.69023948008453],[-73.99623278034554,40.69075777458652],[-73.99776924445038,40.691194697860944],[-73.99803048644992,40.6912537228764],[-73.9984527178269,40.69136998347773],[-73.99893829000436,40.69149514503465],[-73.99910057272561,40.691536973994026],[-73.99920161806008,40.6915718343478],[-73.99928819562555,40.69159395992726],[-73.99936540129043,40.69161307827304],[-73.9995127413904,40.691651450811605],[-73.99991517300599,40.69176723001051],[-74.00019040386195,40.691896447130354],[-74.00062303530208,40.69204149066767],[-74.00068438967641,40.69189781478948],[-74.00077305722617,40.69189575732643],[-74.00179431981029,40.69218477678905],[-74.00169989306643,40.69238276713675],[-74.0017436211104,40.69240674970565],[-74.00400795971098,40.69320819963255],[-74.00374561972463,40.693616202981254],[-74.00345348556655,40.69405163067151],[-74.00127014968672,40.69329606217649],[-74.0009586848302,40.69406908358239],[-74.00301393829082,40.69477784447932],[-74.00263556890172,40.69536203703775],[-74.00239802583796,40.69571165536724],[-74.00026872377788,40.6949658025781],[-73.99988214894346,40.695605199245804],[-73.99959546796508,40.69606503883681],[-73.9994614351467,40.69628002660449],[-73.99941971968092,40.6963469378187],[-73.99941302433207,40.696357676956055],[-73.99952373903514,40.6965748265436],[-73.99947406820606,40.696704134462166],[-73.99929468836194,40.69679512579423],[-73.99918199016862,40.696885188567514],[-73.99899604139195,40.69681227837313],[-73.99893969034687,40.69694094051598],[-73.99887207276453,40.69692378457433],[-73.99876458027705,40.69712073309417],[-73.99887117097656,40.697157577296025],[-74.00104903123558,40.69790823619499],[-74.00048768628551,40.6987577781373],[-73.99837760685772,40.698063296146266],[-73.99802102725111,40.69876173657397],[-74.0000184043362,40.69946604807382],[-73.99947463904962,40.70032277801851],[-73.9974989831,40.69963886932142],[-73.99736745811686,40.69963423492994],[-73.99716054243922,40.69979281264431],[-73.99718148446385,40.699994484968265],[-73.99717584355882,40.70010599196653],[-73.9972446280566,40.70014140989724],[-73.99669768997464,40.70087697691724],[-73.99682189085863,40.700990782325455],[-73.99752763207937,40.70122881695887],[-73.99776011099658,40.701359414876904],[-73.99780162786313,40.70131939476643],[-73.99813879965494,40.70151878774599],[-73.9961922729477,40.7033771413669],[-73.99588611884144,40.70326007708515],[-73.99513826840686,40.70297411472301],[-73.99506438491512,40.70310031365369],[-73.99504592748325,40.70313183979974],[-73.99544564246025,40.70327530597451],[-73.99529346700933,40.70355406589816],[-73.99498203312825,40.70338171553537],[-73.99480038274864,40.70329195864475],[-73.9946629034361,40.70343060855936],[-73.99485765867692,40.70356613902883],[-73.99499542533938,40.70365056371443],[-73.99488239968474,40.70378802583762],[-73.99491043003475,40.70379731646149],[-73.99492964675287,40.70377131558657],[-73.99502925982488,40.70380820086821],[-73.99488204726408,40.70400865389534],[-73.99483637435264,40.70398633908117],[-73.99476934125526,40.703952894953716],[-73.99471424235152,40.70399668906109],[-73.99477158125167,40.70404936037464],[-73.99479231460049,40.70406840563392],[-73.9947923129999,40.70408889470735],[-73.99477286228574,40.70410454169946],[-73.994698074708,40.704164700797484],[-73.99477614353458,40.70424586105254],[-73.99470229068407,40.704292531913744],[-73.99463603474435,40.70433440342875],[-73.99456979016932,40.7043762635141],[-73.99386341031877,40.704556007433204],[-73.99380687248414,40.70453961321432],[-73.993781554265,40.70446894454396],[-73.99377457207805,40.70444945740894],[-73.99369336129286,40.70447612883802],[-73.99368792224483,40.704477914211736],[-73.99358606975359,40.70450911821834],[-73.99362643916733,40.70459524465757],[-73.99350881403609,40.70462350527417],[-73.99280104228984,40.704634023928],[-73.99269135574995,40.70462984994554],[-73.99251210682047,40.704694112557746],[-73.99230833787296,40.704690001240316],[-73.99212703535068,40.70468964203369],[-73.99212100639087,40.70439620157808],[-73.99195715431205,40.704200677853436],[-73.99186159189317,40.704086642104556],[-73.9914179478271,40.70400408902084],[-73.99094755350794,40.70403244213939],[-73.99071473114805,40.70435137904078],[-73.99054617998547,40.70441616750194],[-73.99030768493817,40.704839880602165],[-73.99028496035669,40.70486642939239],[-73.99022721196012,40.70493404448724],[-73.99009111393444,40.704943463289254],[-73.98949358971352,40.704809038123805],[-73.98934734717507,40.70472969170282],[-73.98920046436159,40.70472389698897],[-73.98906989652583,40.704705914698366],[-73.98898897757802,40.70469035678176],[-73.98869723304766,40.704564578777],[-73.98840744807171,40.70455450084101],[-73.98830332208541,40.70454046895521],[-73.98828999111286,40.7050706589978],[-73.98795676557543,40.705134217412734],[-73.98726969367189,40.70517572069446],[-73.98692348455644,40.70516246248601],[-73.98687252212638,40.70515727738632],[-73.98682322841232,40.70514615199776],[-73.9867767914742,40.70512935446083],[-73.98673433051667,40.705107289623975],[-73.98669686891394,40.705080489285834],[-73.98666530954449,40.70504959937778],[-73.98664041303033,40.70501536439529],[-73.9866227794053,40.70497860945434],[-73.98652972946046,40.70497909917388],[-73.98642911608677,40.70506917942819],[-73.98643429892708,40.70534860741984],[-73.9847433000917,40.7055429072672],[-73.98402149848945,40.70559863456487],[-73.98343806287949,40.70564409484805],[-73.98342627543244,40.705577220847076],[-73.98340650264244,40.70546637066052],[-73.98336819944146,40.70546106507677],[-73.98326398672202,40.70548506666072],[-73.98308639158824,40.7054770907024],[-73.98308986565951,40.705511541826034],[-73.98283552135268,40.70555580739816],[-73.98274161885993,40.705572441532865],[-73.98274508124663,40.70555270986957],[-73.98274859367703,40.70553269123966],[-73.98245956872238,40.705508797225534],[-73.98245898641562,40.70554241447],[-73.98242287179878,40.70582205545215],[-73.9810239061828,40.70589891389373],[-73.98101733900947,40.70579750646794],[-73.98230205183879,40.70573697939983],[-73.98232944216603,40.7055520336642],[-73.98092510311987,40.70536925520069],[-73.98090864563804,40.70590794381198],[-73.98074070494954,40.70585515987054],[-73.98022004252597,40.705851075721135],[-73.98023715381456,40.70576328356],[-73.97955918487244,40.705743615250014],[-73.9795557993371,40.705770214772656],[-73.97932865325976,40.70576543285257],[-73.97927983185266,40.705789481974485],[-73.97927336276864,40.7059171353023],[-73.97921391703912,40.705906640233316],[-73.97918270866974,40.70596521497349],[-73.97905049904112,40.705966963591806],[-73.97905767012278,40.70595288910078],[-73.97892920137532,40.705931589879434],[-73.97893110285543,40.70592490572794],[-73.97906084911834,40.70594602894106],[-73.9792433349359,40.705551196377705],[-73.97912092242267,40.70553006967377],[-73.97896355081068,40.70550219650449],[-73.97886517755401,40.705867955697876],[-73.97881909040053,40.705862467582065],[-73.97892765823747,40.70549619916925],[-73.97879106192651,40.70547380870769],[-73.97873829486635,40.70546306467228],[-73.97863906658571,40.705830648221955],[-73.97860162154011,40.70582296852492],[-73.97869698190465,40.705456260458234],[-73.97868440584472,40.705454177108074],[-73.97864529228853,40.70559102159582],[-73.97846557848965,40.70556222186459],[-73.97843202250115,40.70567863537456],[-73.97845692665041,40.705684670847155],[-73.97844899155686,40.70571654541765],[-73.97842182374887,40.705713093959965],[-73.97838895552225,40.70583025458748],[-73.97842178331267,40.70583801423629],[-73.9784127146256,40.70587075035065],[-73.97838101898186,40.70586643677725],[-73.97839230543768,40.705970682310976],[-73.97840136144188,40.705972407194515],[-73.97839909439143,40.705982745202576],[-73.97885643096524,40.70605950510021],[-73.97885303360727,40.70606553478217],[-73.97839229957337,40.70598877423338],[-73.97838776526434,40.70600600388115],[-73.97834474852871,40.705999964987754],[-73.97835155258495,40.70596550577205],[-73.9783741922705,40.70596809446856],[-73.97836290650389,40.705863848933134],[-73.97834139805158,40.705859537263294],[-73.97834706969716,40.70582507783414],[-73.97837423698812,40.70583025182318],[-73.97840597500247,40.705710506546914],[-73.97838559905207,40.70570533367322],[-73.97839127010326,40.705672596922525],[-73.97841617508323,40.70567604846574],[-73.97845405328272,40.7055603752342],[-73.97842683362268,40.70555680850925],[-73.9785931362013,40.704978584143014],[-73.97853198820691,40.70487652342981],[-73.97844190715938,40.704871395843334],[-73.97828301996272,40.70466655164561],[-73.97816199691664,40.704528427576975],[-73.97817256987145,40.704485841333074],[-73.97817688845528,40.70446844361976],[-73.97802067326656,40.704290966456334],[-73.97735570894407,40.70417808977408],[-73.97733878404613,40.70422955078569],[-73.97726204579999,40.70422009633467],[-73.97721196339239,40.70421392662441],[-73.97751215494964,40.70319675266364],[-73.9773608383371,40.7031395205109],[-73.97729538355684,40.70318930808767],[-73.97713562625398,40.70300558140269],[-73.97705518959118,40.7031787689005],[-73.97683246363418,40.70361574187148],[-73.97623864768488,40.704775644190875],[-73.97596096344817,40.70471550694328],[-73.97692749188352,40.70279782040056],[-73.97664059239017,40.70249676609508],[-73.97634835593122,40.7022991057428],[-73.97615937292022,40.70217128035703],[-73.97553456489742,40.70304280880587],[-73.97532987393983,40.70295192433845],[-73.97594762102835,40.7020119965029],[-73.97594746888186,40.702011493721955],[-73.97598092723501,40.70197503589979],[-73.97600587845464,40.70194613327937],[-73.9758959808124,40.70190047088054],[-73.97581417882664,40.701895182644705],[-73.97581234475757,40.70189450427671],[-73.97559301790535,40.70181378876857],[-73.97560071840395,40.701806466781726],[-73.97561086931896,40.701796814507546],[-73.97550083176424,40.70175830896581],[-73.97540348224568,40.7019111475677],[-73.9745502338837,40.70159034380239],[-73.9756119226431,40.700037315955065],[-73.97579951831469,40.699752418001054],[-73.97580362604549,40.69971918604342],[-73.97580028779502,40.699685904190204],[-73.97578959980454,40.699653531842884],[-73.975771870182,40.699623002183614],[-73.97574761001927,40.69959519527502],[-73.9757175186582,40.699570912691435],[-73.97568246353053,40.69955085441254],[-73.9756434551527,40.69953559864604],[-73.9756016179965,40.69952558516007],[-73.9755581580751,40.6995211026069],[-73.97551432817887,40.69952228020205],[-73.97547139176288,40.699529083999785],[-73.97543058652715,40.699541317871564],[-73.9753930887391,40.699558629159476],[-73.97535997932667,40.69958051884197],[-73.97518254179207,40.69987279014609],[-73.97431850171851,40.701194295009],[-73.9741151399254,40.70130527091706],[-73.97388878848535,40.701085194393244],[-73.97385488106521,40.70108398602846],[-73.97376210936595,40.70108068054645],[-73.97354417557615,40.70089229252973],[-73.9735559707605,40.70086763188145],[-73.97328853602355,40.70062418455249],[-73.97292642848618,40.70029455342787],[-73.97257311967203,40.70008205612111],[-73.97239201397458,40.70016632275242],[-73.97262103106205,40.70046599557639],[-73.97298290412117,40.700806265746444],[-73.97326855015831,40.701050910972285],[-73.97333000146529,40.701050925227776],[-73.97351970654739,40.70122566022012],[-73.97353593223345,40.70132745298928],[-73.973757007132,40.701534138881996],[-73.97318676670898,40.701669803673866],[-73.97288404771976,40.701416795976186],[-73.97284574196068,40.7014347234147],[-73.97156913894538,40.70030067964468],[-73.97113824583208,40.69991789325827],[-73.97097896857521,40.6998564576524],[-73.97078200587988,40.69997866301143],[-73.97080524432843,40.7000975003425],[-73.97254221267232,40.70163644279701],[-73.97250810272986,40.70166238646313],[-73.9733245610394,40.70241265601088],[-73.97283512788735,40.70272874074414],[-73.97251594497197,40.70246534422115],[-73.96982556559531,40.70024507036818],[-73.96948655218107,40.700519060755745],[-73.97213138352252,40.7027497385597],[-73.97283889974975,40.70334642809948],[-73.97266938433755,40.70350138043131],[-73.97183169654934,40.70297866957987],[-73.96924539207357,40.701364741883694],[-73.9689347481843,40.70161586820745],[-73.96898517428966,40.701747088786725],[-73.97147483845822,40.70331654131667],[-73.9723124627611,40.703844539538764],[-73.97215798824992,40.70397020762625],[-73.97145657354827,40.703508715924755],[-73.97110342298832,40.70345973583993],[-73.97093307886317,40.70362477255154],[-73.97101963118536,40.70381561318393],[-73.97343036787649,40.705301410712124],[-73.9746556960806,40.70607426249181],[-73.97439083502323,40.70632577414489],[-73.97339230539548,40.70573321164145],[-73.97254880057797,40.70620449050653],[-73.97329876359848,40.706697713774695],[-73.97462966604422,40.70768106076842],[-73.97423616968535,40.70802438612255],[-73.97310627091186,40.70713556922067],[-73.97221794849034,40.70650549303314],[-73.97170524941589,40.706136032681066],[-73.97122492912246,40.705789899911196],[-73.97109655489108,40.7058500565584],[-73.97100438685831,40.70682824094674],[-73.97105692306182,40.706946433816846],[-73.97275756998357,40.708831279050386],[-73.97232032073758,40.709082883806815],[-73.97066975742996,40.70725970882167],[-73.97054062182244,40.707316076354026],[-73.97026218532285,40.70688750428424],[-73.97048881848579,40.70540066562206],[-73.9701689450992,40.70536185340743],[-73.970180755728,40.70492927056703],[-73.96762114779925,40.70334850569708],[-73.96751516691066,40.70343735738086],[-73.9674767449303,40.703949870956436],[-73.96833263747044,40.70448338458436],[-73.96929693837713,40.70508833122986],[-73.96923632685235,40.70599431300112],[-73.9692929641454,40.707093331095905]]]]}}]}