{"type":"FeatureCollection","features":[{"type":"Feature","properties":{"district":"309"},"geometry":{"type":"MultiPolygon","coordinates":[[[[-73.92872204594605,40.664495569685464],[-73.92905235465467,40.66435100704277],[-73.92916752203725,40.66429953215209],[-73.92940352909386,40.66419984576851],[-73.92987364827336,40.66399077252846],[-73.93068465493135,40.663620476270374],[-73.93160218672786,40.663230444400774],[-73.93155638854243,40.66275540392995],[-73.93147991420611,40.66205110995426],[-73.93140679378538,40.66133050833964],[-73.93132569780049,40.660593307024705],[-73.93108323098912,40.658295916036465],[-73.93090354932272,40.65661035598434],[-73.93190743894837,40.65653765254316],[-73.93284657358834,40.65647848205208],[-73.93381012074782,40.65642299267518],[-73.93478437377982,40.65636039508746],[-73.93571813327273,40.6563032967299],[-73.93617927816034,40.65627397257243],[-73.93668469506126,40.656241823301066],[-73.9371206387431,40.65621590309004],[-73.93767482031006,40.656185167773],[-73.9382040380815,40.65614801512509],[-73.9385934899821,40.65612237879505],[-73.93955925377138,40.65606275324829],[-73.94053214686076,40.65600153896532],[-73.94146260988943,40.655944248532585],[-73.94240147928623,40.6558848110927],[-73.94335488899219,40.6558283358871],[-73.94365193204968,40.65580978095562],[-73.94428788803422,40.65577005436381],[-73.94487284404424,40.65573476160182],[-73.94507909388349,40.65572204654112],[-73.94715896323054,40.65559378777378],[-73.95006664927287,40.65542299720076],[-73.95295919995513,40.65524930040045],[-73.95630035122711,40.65504828183134],[-73.9596966586306,40.65483921472639],[-73.95986103179125,40.65563478893716],[-73.96069809379583,40.65534092417816],[-73.96139352887583,40.6550706169553],[-73.96156461488322,40.65500411715331],[-73.96188086439798,40.654881192052414],[-73.96245536633172,40.65828697802753],[-73.96281298508585,40.660509392811036],[-73.96308285618551,40.662131168014206],[-73.96308145444448,40.662196726707045],[-73.96307309920638,40.66226198465187],[-73.96305784511922,40.662326514866045],[-73.96303579197094,40.66238989512736],[-73.96300708403692,40.66245171073649],[-73.96297190938986,40.66251155727426],[-73.96293049790583,40.66256904313256],[-73.96288312052815,40.662623792176355],[-73.96283008723769,40.66267544617695],[-73.96277174502504,40.66272366715596],[-73.96238822274184,40.66308961306464],[-73.96224973835139,40.66319867819516],[-73.96213146395601,40.66320816312051],[-73.96170958974497,40.66323575940543],[-73.96095595453626,40.66328505483443],[-73.96110886854329,40.664062323664794],[-73.96122259516942,40.664626579414275],[-73.96125791661365,40.66480182340948],[-73.9612815153738,40.664926509029286],[-73.96161627636893,40.6666952157606],[-73.96180658736226,40.667681226904115],[-73.96199657578542,40.66866286988913],[-73.96211021086793,40.669195697191086],[-73.96219447182031,40.669641029792786],[-73.96252326596903,40.67137973874283],[-73.96254108164965,40.6714601187116],[-73.96257123084727,40.67162224488748],[-73.96133695559313,40.671356771472624],[-73.95928752858583,40.670932063536306],[-73.95904725351424,40.67088226754688],[-73.95887265379488,40.67084639919717],[-73.95797317201796,40.67065727407644],[-73.95526963654763,40.67012490485427],[-73.95327019744906,40.67000720510516],[-73.95160495953361,40.669923718844124],[-73.95160464953511,40.66992370330114],[-73.95087469630799,40.669887099839755],[-73.9505022756118,40.669865351895304],[-73.94772996328906,40.66971344241018],[-73.9463846338309,40.66963667985764],[-73.94522645580362,40.66957058411928],[-73.94496468486737,40.66955587454582],[-73.94219628446868,40.669403304344705],[-73.93942695619805,40.669248684167144],[-73.93665702045566,40.669100570778184],[-73.93388773677808,40.668950445560164],[-73.93111937820875,40.66879854259196],[-73.92834967165896,40.6686471946909],[-73.9283599500501,40.66851520247135],[-73.92836987507371,40.66843482019719],[-73.92844239740998,40.66767220954525],[-73.92852469750416,40.66686656004811],[-73.92859855448165,40.665970538898925],[-73.9286840449078,40.665086023274434],[-73.92869200628128,40.66496229737675],[-73.92872204594605,40.664495569685464]]]]}}]}