{"type":"FeatureCollection","features":[{"type":"Feature","properties":{"district":"305"},"geometry":{"type":"MultiPolygon","coordinates":[[[[-73.86840518949181,40.69473118624401],[-73.86868454370578,40.6940346919058],[-73.86859478104992,40.69388437469202],[-73.86805885286068,40.69118395823953],[-73.86797688110053,40.69079558428422],[-73.86790948512783,40.690476261267015],[-73.86776832168447,40.68980328887615],[-73.86762340412545,40.68914534184562],[-73.86752749823646,40.68871618273903],[-73.8674569407755,40.688400441659354],[-73.86728057406931,40.68774928560641],[-73.86701802992113,40.68683034903661],[-73.86687058566343,40.686330590624145],[-73.8665984834927,40.685269559070086],[-73.86659790844888,40.68526471668403],[-73.86650407824489,40.68447405176159],[-73.86631496942952,40.68324894282336],[-73.86630263853499,40.683186694603144],[-73.8662900301626,40.683115007207775],[-73.86627174135589,40.6830340683551],[-73.86601993220731,40.681919587028176],[-73.86499404523258,40.6821289698999],[-73.8645649436505,40.68224615007708],[-73.86410096679134,40.68237285029281],[-73.86398968858057,40.68192956266774],[-73.86378674469518,40.681113747024504],[-73.86334943527028,40.67935164088912],[-73.86330964247928,40.67916796966387],[-73.86328297030332,40.6790793711762],[-73.86286742479696,40.67912212114375],[-73.86234580535023,40.67916478614704],[-73.86225943089215,40.678816786156524],[-73.86202843089725,40.67788611453548],[-73.86171238651546,40.676610595974516],[-73.86139775932693,40.675336590483454],[-73.8613186358256,40.67502126881557],[-73.86114396036497,40.67433014744939],[-73.86107192565032,40.67401981439809],[-73.86077512791373,40.6728056227411],[-73.86038519854728,40.67125171098987],[-73.85947416458082,40.67138053153496],[-73.85855466622876,40.67151814610235],[-73.85763323108364,40.6716561940382],[-73.8573094780505,40.67041623336579],[-73.8572848668308,40.67032198990501],[-73.8572674460264,40.67025529429499],[-73.85724675781796,40.67017405168215],[-73.85722693630146,40.67009621263574],[-73.85684676228357,40.668602935333155],[-73.85670509094247,40.66802643960385],[-73.85667995639089,40.66792415917604],[-73.8564631194297,40.66704176389169],[-73.85618809594054,40.66584655512881],[-73.85611740229734,40.66550938010643],[-73.85568461221035,40.663867492875696],[-73.85611710208867,40.663808402637336],[-73.85659075119855,40.66374715959931],[-73.85753563345148,40.66359786251401],[-73.85842950791304,40.66345336093123],[-73.85811779269261,40.66203657079248],[-73.85802504232093,40.66172105009188],[-73.85793640911963,40.66137443712406],[-73.8576153718558,40.66011893315399],[-73.85851436393638,40.65989894246878],[-73.85938691846947,40.65977271538219],[-73.86030494564054,40.65963465530412],[-73.861188754815,40.65925462588841],[-73.86174759025212,40.65893835651107],[-73.86317083340404,40.65827651294904],[-73.86269778233539,40.65761830901176],[-73.86300202201289,40.657488116627455],[-73.86300994210133,40.65747609303718],[-73.86301532163742,40.65746328042173],[-73.86301803082362,40.65744998792766],[-73.86301800429355,40.657436536279974],[-73.86301524268896,40.65742325004361],[-73.86300981264414,40.6574104497922],[-73.86300184517799,40.65739844437326],[-73.86301297536065,40.65734902404381],[-73.86300267139127,40.65733403625675],[-73.862994891143,40.65731819000782],[-73.86298975506251,40.65730173061783],[-73.86299451832421,40.657282556529516],[-73.86300321585041,40.65726420084886],[-73.86301562730313,40.65724712858115],[-73.86303143826,40.65723177221862],[-73.8630502481797,40.65721852078411],[-73.8630715805491,40.657207709976156],[-73.86307775806851,40.65721242298824],[-73.86308485456749,40.65721631369286],[-73.8630926834548,40.65721927979008],[-73.86310103888212,40.657221243291],[-73.86310970115656,40.65722215256836],[-73.86311844251706,40.65722198371418],[-73.86312343187535,40.65721921414491],[-73.86312777534762,40.657215872499584],[-73.86313136110317,40.6572120448151],[-73.86313409682026,40.65720782964226],[-73.86313591206293,40.65720333550851],[-73.86313676009463,40.65719867812358],[-73.86313661908142,40.65719397740043],[-73.86313549265412,40.6571893543678],[-73.86313340981488,40.65718492805409],[-73.8631304241904,40.657180812422844],[-73.86312661265113,40.65717711343843],[-73.8631220733322,40.65717392633794],[-73.86312086314443,40.657167865980924],[-73.86312096520498,40.65716173643792],[-73.86312237678797,40.65715570139936],[-73.86312506019651,40.65714992203192],[-73.8631289437694,40.65714455267454],[-73.86313392379503,40.65713973671668],[-73.86313986728086,40.65713560276918],[-73.86314661550513,40.65713226122966],[-73.86315398825552,40.657129801334385],[-73.8631581097421,40.65708778410382],[-73.86321868203987,40.65704187934281],[-73.86321606221108,40.65703782732016],[-73.86321439496379,40.65703349287536],[-73.86321372982947,40.657029004778956],[-73.86321408656816,40.65702449636616],[-73.86321545458145,40.65702010157586],[-73.86321779322732,40.65701595097123],[-73.86322103302764,40.657012167861055],[-73.86322507773225,40.65700886463635],[-73.86322980717846,40.65700613943139],[-73.86323508086089,40.65700407320815],[-73.86324074210569,40.65700272735134],[-73.86324662272516,40.657002141844465],[-73.86326056959349,40.65698307378938],[-73.86327051715504,40.656962603945196],[-73.86327623068608,40.65694121532833],[-73.8632498848914,40.656900408904725],[-73.86321767415544,40.65686212079666],[-73.86318000805923,40.65682683785151],[-73.86313736554848,40.65679500870423],[-73.86309028884337,40.65676703807284],[-73.86303937654394,40.65674328161262],[-73.86300171715266,40.65665375737041],[-73.86303117341501,40.65650818118078],[-73.86303820086057,40.656503750266616],[-73.86304419415848,40.65649851167941],[-73.86304899531798,40.65649260351501],[-73.86305247777466,40.65648618152026],[-73.86305454972693,40.65647941498706],[-73.86305515655596,40.65647248228981],[-73.86305428226541,40.65646556618311],[-73.86305194990311,40.656458848984194],[-73.86304822095349,40.656452507766765],[-73.8630431937166,40.6564467096931],[-73.86303700071693,40.656441607607576],[-73.86302980520972,40.65643733600738],[-73.86301307870002,40.656417609608695],[-73.86299992600786,40.65639637134129],[-73.86299057835198,40.656373994570494],[-73.8629939813938,40.6563653899707],[-73.86299920949274,40.65635733373809],[-73.86300611811264,40.65635004859457],[-73.86301451625793,40.65634373594445],[-73.86302417175403,40.65633857030662],[-73.86303481766592,40.6563346944897],[-73.86304615967788,40.65633221564408],[-73.86305788422993,40.65633120229958],[-73.86306966718664,40.65633168247104],[-73.86312378925443,40.65638993902952],[-73.86313059625894,40.656395242828445],[-73.86313849697578,40.65639957878343],[-73.86314725720176,40.65640281836247],[-73.8631566172549,40.6564048655337],[-73.86316629967219,40.656405659612204],[-73.86317601743468,40.65640517705884],[-73.86318487958572,40.65639753534598],[-73.86319206176094,40.656388931338114],[-73.86319738687618,40.65637957717708],[-73.86320072363539,40.656369703500374],[-73.8632019897679,40.65635955375476],[-73.86320115405671,40.65634937819366],[-73.86319823710818,40.65633942770686],[-73.86319331084378,40.65632994763459],[-73.8631864967268,40.65632117171843],[-73.86312264258872,40.656212274179985],[-73.8630513221345,40.656106098379894],[-73.86297273466879,40.65600294097369],[-73.86288709979732,40.655903090182214],[-73.86279465681298,40.65580682498634],[-73.86269566402707,40.65571441434774],[-73.86264117343165,40.65566753700785],[-73.86173355547592,40.655295221774196],[-73.86158297119444,40.65528829427199],[-73.86143294285304,40.655276256008136],[-73.86128376936983,40.65525913096786],[-73.86113574795915,40.65523695327126],[-73.86098917353912,40.65520976710535],[-73.86086853758908,40.6550778062392],[-73.86061323090364,40.654719470737064],[-73.8605783613639,40.654675329645336],[-73.86241566314888,40.65356482930656],[-73.8630437576712,40.653209416076855],[-73.86578143623073,40.651706021956855],[-73.86578161371796,40.651705923322226],[-73.86653773646671,40.6513027581787],[-73.86695242060728,40.65107938816279],[-73.86709225334813,40.65101002168836],[-73.86724026280908,40.650925489087435],[-73.86730167896631,40.65089278068227],[-73.86755817685784,40.650756162054876],[-73.86793130896054,40.65056117826291],[-73.8683003024828,40.65036513510077],[-73.8684816771708,40.65026737520499],[-73.86882361455139,40.65008569362928],[-73.86889219935416,40.65004925247707],[-73.86917533647139,40.64989630714593],[-73.86938440041469,40.64978487968961],[-73.86961770592666,40.64965399309841],[-73.86993270461475,40.64947579543942],[-73.87018565227542,40.649323182368086],[-73.87116452852021,40.64868713586371],[-73.87131661001283,40.64858831540578],[-73.87218473332494,40.64794507002915],[-73.8728165793136,40.64741579720062],[-73.87340024127535,40.64688108817368],[-73.87346558258528,40.64681663347197],[-73.87352036861589,40.64687620940508],[-73.876052693186,40.65030930848049],[-73.87623339658154,40.650554274824444],[-73.87629452527887,40.65063714033356],[-73.87921513909527,40.65458913189285],[-73.87921658230898,40.65459108377317],[-73.87926863785947,40.654569130732774],[-73.8793321168056,40.65462201684999],[-73.8796386550232,40.65449909180442],[-73.87971979034303,40.654375929776506],[-73.87924124622322,40.65373718643216],[-73.87910837392923,40.65370623553977],[-73.87676193956312,40.65056095449532],[-73.87672243382222,40.65037540309055],[-73.87672192491897,40.65032322196803],[-73.87656024945194,40.65009665434291],[-73.8739542531331,40.64644443461856],[-73.87390127670119,40.64636836786071],[-73.87458081075007,40.64561010598672],[-73.87495357741663,40.64514158369723],[-73.87530646365518,40.64465566910161],[-73.87545861879177,40.644426931380416],[-73.87596309071361,40.64364448425499],[-73.8761608741758,40.64332052800693],[-73.87617767060617,40.643289659022905],[-73.87619933032919,40.643257173093055],[-73.87621912533325,40.643222134697304],[-73.87654859970402,40.64263892828084],[-73.87683349023564,40.64211858983959],[-73.87709627062216,40.64160295452772],[-73.87734248271089,40.6410826809834],[-73.87752894550076,40.640716800105466],[-73.87797341334353,40.63980711772154],[-73.8780368114511,40.63987228425068],[-73.87868493173578,40.64053855256887],[-73.87864705317253,40.641065856068],[-73.87919156452111,40.64165237968198],[-73.88029669145689,40.64263782945603],[-73.88179027902325,40.64394902892288],[-73.88494835772816,40.646802172920324],[-73.8876754441811,40.649194097745394],[-73.88815811834274,40.64955754840936],[-73.88862824947213,40.64993078378508],[-73.889085352959,40.65031343248244],[-73.88952893170973,40.65070507083392],[-73.88995853737931,40.651105304539236],[-73.89000589124596,40.651148697130644],[-73.89003782518749,40.651178177477675],[-73.89136543587246,40.65236471944711],[-73.89156602912401,40.6525799991321],[-73.89175934413078,40.65279910754492],[-73.89194525490889,40.65302190197373],[-73.89212364008495,40.653248237411454],[-73.89229438359683,40.653477966325035],[-73.89245737415155,40.65371093908072],[-73.89354677073847,40.655202714083835],[-73.89441114043049,40.65483294916841],[-73.89520540354786,40.65448793002933],[-73.89546427259731,40.654377576656614],[-73.89558884530413,40.654324472270105],[-73.89594442822809,40.65417288840307],[-73.89667745494198,40.65385495665642],[-73.89678213307093,40.65380955582197],[-73.89741344662622,40.653538320719086],[-73.89761013242362,40.65345381612079],[-73.89780333200035,40.653624853411735],[-73.89800255747741,40.65380122395529],[-73.89813646165142,40.65404301474881],[-73.89859703793135,40.65582816707434],[-73.89888695186954,40.65670611215405],[-73.89900332293506,40.657240805857136],[-73.89902446346112,40.65731270307272],[-73.89904180388906,40.65737165757109],[-73.89888601745209,40.657394883209356],[-73.89878859226317,40.65741288789167],[-73.89879910308923,40.657456850346826],[-73.8988221337084,40.65753095393228],[-73.8992176082817,40.65911140419276],[-73.89965233345795,40.660735416378955],[-73.90002523004026,40.66228163145169],[-73.90042827387184,40.663807998267515],[-73.90085135606435,40.66534589502575],[-73.90126570398694,40.66688065066762],[-73.90166767824613,40.66841352919237],[-73.9019821814221,40.66967007119881],[-73.90228822560121,40.670936006966826],[-73.90266008288728,40.67219717915041],[-73.90296768930087,40.67343939526196],[-73.90322131898075,40.67447291368914],[-73.90344608600435,40.67539167709215],[-73.90346228820728,40.67545791947529],[-73.90347422342496,40.6755066832779],[-73.90347355400607,40.67553576136355],[-73.90347157270585,40.67562246005604],[-73.90346878200982,40.67574418093823],[-73.90346630685997,40.675852663865285],[-73.90346553686025,40.675886008967126],[-73.90346379622451,40.67592789064096],[-73.90345933672943,40.67603500336557],[-73.90335417591348,40.67711153487672],[-73.90331599637037,40.67786922339934],[-73.9033710112737,40.67798208970817],[-73.90344448043226,40.67837677216574],[-73.90352412011137,40.67874735398972],[-73.90349050037075,40.67889804853495],[-73.90404639808888,40.67922059801935],[-73.90352584558357,40.67973924251477],[-73.90262262346396,40.680664503418924],[-73.90075236020482,40.67967664350946],[-73.9004700109828,40.679535244065455],[-73.90024537705516,40.67942279101161],[-73.89974550607519,40.679507960067056],[-73.89969830320453,40.679544091694936],[-73.8988992828747,40.679560934901744],[-73.89870944753935,40.67963017068265],[-73.89848997806052,40.679670508775004],[-73.89827418950102,40.679725043494294],[-73.89806444695493,40.6797934316816],[-73.89786299939698,40.67987501111846],[-73.89767194109767,40.67996885493665],[-73.8974931207387,40.68007377672757],[-73.89743756213969,40.68012069179567],[-73.8973838130457,40.68016881312504],[-73.8972831778254,40.68026720839928],[-73.8971901008553,40.680369825242394],[-73.89710488700509,40.68047632757627],[-73.89702781539614,40.68058636659597],[-73.89695913848713,40.68069958191175],[-73.89689908124667,40.680815602729396],[-73.89686937820316,40.680881449031105],[-73.89674965951048,40.681492026564776],[-73.89663536766744,40.68155649534358],[-73.89658158697972,40.681574718432664],[-73.89652633301414,40.68200291891852],[-73.89646625062909,40.68233642247549],[-73.89643010411488,40.68244635933586],[-73.89641909073782,40.68247987574135],[-73.89636799095423,40.682599757134305],[-73.89635898903512,40.68262086673396],[-73.8962863468764,40.682758382587416],[-73.89620169623382,40.6828914827548],[-73.89599727316035,40.68319687928008],[-73.89577945503007,40.68349718335825],[-73.895614765645,40.68370742156887],[-73.89554859438628,40.68379189231574],[-73.89530504882751,40.684080520067276],[-73.89504926837293,40.68436259853601],[-73.89491067388055,40.68450848683582],[-73.8941746326718,40.68528324817077],[-73.89414255485788,40.68524714627194],[-73.89404098783193,40.68513283510319],[-73.89398568665801,40.685070594710545],[-73.89344031315596,40.68445679053497],[-73.8927414244319,40.683670185663416],[-73.89258303102321,40.68349191088735],[-73.89166010659268,40.68404417790952],[-73.89063086789984,40.684700178550806],[-73.8901541873892,40.68500398980529],[-73.8896278757877,40.6842364542531],[-73.88908895286676,40.68464055300135],[-73.88829811172322,40.68515419321358],[-73.888092663383,40.68528762792349],[-73.88808341842545,40.68529363217126],[-73.88728392925601,40.685622475450096],[-73.88452250957424,40.686684749095754],[-73.88377698583253,40.687863411184445],[-73.88226665442768,40.689038551150354],[-73.88117469031516,40.68987258783472],[-73.8795613942397,40.69110478082617],[-73.87950641154781,40.69114676934525],[-73.87939315108166,40.69120963169446],[-73.87402053240673,40.69419129521762],[-73.87107552550496,40.69474674837072],[-73.87004292899788,40.694941484652794],[-73.8689176269075,40.69514656151423],[-73.86840518949181,40.69473118624401]]]]}}]}