{"type":"FeatureCollection","features":[{"type":"Feature","properties":{"district":"308"},"geometry":{"type":"MultiPolygon","coordinates":[[[[-73.95829216807752,40.67983113399758],[-73.9559586243741,40.67934624664843],[-73.95529361599387,40.67920315104412],[-73.95433162006519,40.67900086600922],[-73.95412766155528,40.67895797685653],[-73.95298672714047,40.678721995492346],[-73.95206345258673,40.67858633071856],[-73.94967567453644,40.67845668168333],[-73.94869725160616,40.678417131024446],[-73.94861778026603,40.67841417789956],[-73.94819276034016,40.67839407085496],[-73.9477679295213,40.6783717689033],[-73.94734330794161,40.67834727195603],[-73.9469189146633,40.67832058176043],[-73.94415120120405,40.678156358782296],[-73.9431895081842,40.67810708093797],[-73.94183266714782,40.67803310106807],[-73.94173858926428,40.67802797453071],[-73.94137663730466,40.678008230814314],[-73.94057204212176,40.6779701955119],[-73.9398351819835,40.67792390342896],[-73.93862492563589,40.67786256958314],[-73.93791077079732,40.677825193445074],[-73.9371448242304,40.67778505573265],[-73.93696583618889,40.677775250083826],[-73.93610313127226,40.67772800214887],[-73.9360224075648,40.677723580461205],[-73.93585837080063,40.67771460161781],[-73.9330808428656,40.677563281216834],[-73.93278068349821,40.67754696092887],[-73.93267552517389,40.67754124354049],[-73.93115581843988,40.677458623056],[-73.93105876159602,40.67745334159359],[-73.93031762756354,40.67741303826301],[-73.93007091825856,40.677398371968245],[-73.92993007703532,40.677390002034464],[-73.92822613923957,40.677288687860795],[-73.92784239871945,40.6772670523662],[-73.927722291609,40.67726030384541],[-73.92753991307463,40.67725004934703],[-73.9271490150459,40.67722971240808],[-73.92702683745478,40.677223358220914],[-73.92660419496477,40.677201378294235],[-73.9251205076134,40.677119726992785],[-73.92505697115352,40.67711622768472],[-73.92478283596881,40.677101144690205],[-73.9237887342265,40.67704607263306],[-73.92282185056462,40.676991550355524],[-73.92268540389395,40.67698428001559],[-73.92182361015792,40.676938358473116],[-73.92183232561919,40.676849042261836],[-73.92190090521733,40.676131621547235],[-73.92197495287213,40.675348547772515],[-73.92204843320636,40.67457439719823],[-73.92213153379178,40.67368388950982],[-73.9222144432103,40.67279163355241],[-73.92229950367113,40.671900262101],[-73.92238401788495,40.67100876347348],[-73.92245355442307,40.67026114885402],[-73.9224669682933,40.67011693025594],[-73.92254432235495,40.669275811197444],[-73.92261354322443,40.66856410724237],[-73.92263210766683,40.66837321106478],[-73.92265530045283,40.66812711501417],[-73.92272714241189,40.66736505692959],[-73.92275257220436,40.66709733296227],[-73.9228110659899,40.667071761216505],[-73.92303439380227,40.66697412593355],[-73.92311978521666,40.66693679363259],[-73.92323224603328,40.66688762807009],[-73.9233103976441,40.666853460425514],[-73.9242446720856,40.66644500038643],[-73.92439099384752,40.666381423278004],[-73.92546270195405,40.66591675199176],[-73.92592201549634,40.66571503520167],[-73.92637970549224,40.66551489264436],[-73.92739350021706,40.6650747161543],[-73.92771188941798,40.66493432799188],[-73.92822872379762,40.664709865186474],[-73.92872204594605,40.664495569685464],[-73.92869200628128,40.66496229737675],[-73.9286840449078,40.665086023274434],[-73.92859855448165,40.665970538898925],[-73.92852469750416,40.66686656004811],[-73.92844239740998,40.66767220954525],[-73.92836987507371,40.66843482019719],[-73.9283599500501,40.66851520247135],[-73.92834967165896,40.6686471946909],[-73.93111937820875,40.66879854259196],[-73.93388773677808,40.668950445560164],[-73.93665702045566,40.669100570778184],[-73.93942695619805,40.669248684167144],[-73.94219628446868,40.669403304344705],[-73.94496468486737,40.66955587454582],[-73.94522645580362,40.66957058411928],[-73.9463846338309,40.66963667985764],[-73.94772996328906,40.66971344241018],[-73.9505022756118,40.669865351895304],[-73.95087469630799,40.669887099839755],[-73.95160464953511,40.66992370330114],[-73.95160495953361,40.669923718844124],[-73.95327019744906,40.67000720510516],[-73.95526963654763,40.67012490485427],[-73.95797317201796,40.67065727407644],[-73.95887265379488,40.67084639919717],[-73.95904725351424,40.67088226754688],[-73.95928752858583,40.670932063536306],[-73.96133695559313,40.671356771472624],[-73.96257123084727,40.67162224488748],[-73.96274508644052,40.671788982810774],[-73.9629930792161,40.67183417636813],[-73.96323954786885,40.671883969928935],[-73.9634843452526,40.671938333766185],[-73.9637273252179,40.67199723542433],[-73.96396834268178,40.67206063966636],[-73.96420725376889,40.67212850871125],[-73.9644439158404,40.67220080204045],[-73.9646781875988,40.67227747649385],[-73.96501808228737,40.672378173699485],[-73.96535993325472,40.672474956817],[-73.9657036627435,40.67256780382985],[-73.96604919256798,40.67265669361689],[-73.96639644391938,40.67274160582859],[-73.96674533801902,40.67282252127951],[-73.96709579550358,40.67289942156251],[-73.9674477366532,40.672972289183754],[-73.9675970682695,40.672998311997105],[-73.9677475223481,40.67302026939685],[-73.96789890802351,40.67303813352777],[-73.9680510332478,40.673051881727396],[-73.96820370510638,40.67306149654395],[-73.96835672984663,40.67306696578883],[-73.96850991334045,40.673068282523715],[-73.96866306125825,40.67306544507817],[-73.96877444116893,40.67294236721232],[-73.96894206417275,40.672887491270544],[-73.96888104104282,40.672980353039506],[-73.96882876454913,40.673142176953455],[-73.96880408653524,40.67321067489927],[-73.96877181687016,40.6733283421158],[-73.96874661648165,40.67344700588233],[-73.96872853766595,40.67356642012436],[-73.96871761787862,40.67368633684718],[-73.96871387985448,40.6738065077401],[-73.96871733138406,40.673926683599355],[-73.96874143505022,40.6740891068389],[-73.96878202091561,40.67425035364023],[-73.96883890186302,40.674408976997725],[-73.96891154617308,40.6745635626417],[-73.96899918531334,40.674712776311694],[-73.96905954804643,40.67480803253442],[-73.9691281508859,40.67489999852985],[-73.96920468608329,40.674988261699106],[-73.96928881029815,40.67507242605411],[-73.96938014616693,40.67515211421199],[-73.96947828392823,40.67522696843487],[-73.9695827833093,40.6752966528896],[-73.96969317549156,40.67536085493614],[-73.96980947471639,40.675420634289495],[-73.96994256350729,40.67546890088108],[-73.97008942579359,40.67550212288615],[-73.97024548707905,40.67551737386697],[-73.97040486964781,40.67551293930308],[-73.9705611137667,40.675488575618004],[-73.97070801049759,40.675445676079924],[-73.97084041336808,40.67538696928509],[-73.97095473585344,40.675316118210084],[-73.97104919104342,40.67523711280282],[-73.97142292782652,40.675754634158984],[-73.97188596838825,40.67639465297712],[-73.97244492512222,40.67716200860385],[-73.9727161502031,40.67752281068708],[-73.97305251679792,40.67799867738018],[-73.9735088335376,40.678639120969585],[-73.97431048177958,40.67973482307142],[-73.97469118307237,40.68026661680474],[-73.97514316722851,40.68087190530678],[-73.97450395883645,40.68073320332467],[-73.97410448721834,40.680649672444055],[-73.97397757588931,40.68098327596868],[-73.97439144135481,40.68104617024671],[-73.97422671395758,40.681504639536705],[-73.97395601638314,40.68226973238774],[-73.97082602605167,40.681615941754764],[-73.96767828378199,40.68095545531167],[-73.96747796321887,40.68158629039426],[-73.96750697696828,40.681687021401125],[-73.96753196699646,40.681768783617585],[-73.96657247077346,40.681564814364975],[-73.96551043354931,40.68134401997692],[-73.96442177171635,40.681119079332554],[-73.96435883446631,40.68110587609886],[-73.9641038822544,40.68105239187715],[-73.96329205549502,40.6808815858961],[-73.96134655885788,40.6804635243011],[-73.95829216807752,40.67983113399758]]]]}}]}