{"type":"FeatureCollection","features":[{"type":"Feature","properties":{"district":"301"},"geometry":{"type":"MultiPolygon","coordinates":[[[[-73.92405909736993,40.71411156014769],[-73.92404011334023,40.71400831262909],[-73.923139363493,40.713394728593684],[-73.92223466477621,40.71285595436308],[-73.92181880306816,40.711782067447274],[-73.92154601695684,40.71104328353501],[-73.92122073526369,40.710790558556624],[-73.92112020108517,40.710735407815335],[-73.92074853049758,40.71053364895845],[-73.92189184698694,40.70939609671099],[-73.92233696886,40.709006260416196],[-73.92286218864365,40.70854549802815],[-73.923062441265,40.70836896916604],[-73.9238514837559,40.70767629806346],[-73.92416905009897,40.70739444962722],[-73.92490706712074,40.70674439452795],[-73.92513762220635,40.70653890478016],[-73.92596183939116,40.70580978317423],[-73.92608930093012,40.70567970116241],[-73.92664808446342,40.70552922450201],[-73.92810830161388,40.70495299735735],[-73.9287377313106,40.70471695076389],[-73.92979994234433,40.70430452999458],[-73.93023688921348,40.70413113209265],[-73.93115533924303,40.703772334870365],[-73.9317287171702,40.70354599112401],[-73.9326978492492,40.70317039122274],[-73.93352262599566,40.70284898237553],[-73.93395092972543,40.70267459269806],[-73.9353365296369,40.702314825838734],[-73.93698074060913,40.7019102776597],[-73.93729063450654,40.7018284443382],[-73.93737897862363,40.70180513109689],[-73.93752896029672,40.70176555353758],[-73.93765493353419,40.701732312398576],[-73.93811592476665,40.70161066835003],[-73.93827139529674,40.701569642322845],[-73.938365196089,40.70154488984599],[-73.93886864126102,40.70142767298151],[-73.93951008205903,40.70127978124792],[-73.93982495738383,40.70120879864598],[-73.94001711989898,40.70116614817224],[-73.94020563904944,40.70112430564669],[-73.94042057874316,40.70107659829511],[-73.9419307888223,40.70072523469599],[-73.94372352822886,40.70050583573063],[-73.9443878859649,40.70042452378275],[-73.94461766111529,40.700405300420016],[-73.9463155753173,40.700214952761996],[-73.94712762146762,40.70012281088432],[-73.94724808771964,40.700104909246924],[-73.9481322539084,40.70000627331911],[-73.9497937928258,40.69982331492601],[-73.9500909471545,40.699790593237914],[-73.95101112102586,40.69967798589681],[-73.95137278648164,40.69963372460148],[-73.95153738930428,40.69961357934819],[-73.95177257901098,40.69958479492687],[-73.95195162310978,40.69956288152011],[-73.95254800177906,40.69949477714133],[-73.95337000670555,40.69940454065282],[-73.95429053384225,40.69929535427684],[-73.95518370886958,40.699192902413145],[-73.956074562506,40.699090001967726],[-73.95701993189441,40.698973914350006],[-73.95795938220982,40.69882000321601],[-73.95885874693442,40.69867732641665],[-73.96019688923502,40.69846272743902],[-73.96105100633973,40.698326078819036],[-73.96189837824244,40.69818833253169],[-73.9623307288082,40.69811959432488],[-73.96235903253023,40.69811509173978],[-73.96239769090447,40.69810894573783],[-73.96248295842662,40.69809538475474],[-73.96283963716343,40.698038668340025],[-73.96236579985019,40.69960558585191],[-73.96217978089145,40.700220710604356],[-73.96251930327632,40.700472681967405],[-73.9625499252884,40.70049703364404],[-73.96318252095749,40.70100009537481],[-73.96386889390853,40.701541889211256],[-73.96451844743143,40.702074978267795],[-73.96520438968129,40.702622744814235],[-73.96583576203929,40.703127008025014],[-73.96587418643406,40.70315769599679],[-73.9659159180058,40.703191603467246],[-73.96607413508079,40.70332015294109],[-73.96653747117685,40.7036966129153],[-73.96666970243913,40.70380660388785],[-73.96720962042622,40.70425570915349],[-73.96761547790786,40.70496163538709],[-73.9679513912622,40.705731217061505],[-73.96838331404915,40.706829373393475],[-73.96913013106987,40.707045733468114],[-73.9692929641454,40.707093331095905],[-73.96962252118868,40.70762758855523],[-73.9698486482356,40.70800304118529],[-73.96988899402872,40.70857487206716],[-73.96994196632629,40.70930205335397],[-73.9696148570143,40.71014774918189],[-73.96960541330354,40.71027084387491],[-73.96968584951003,40.710321731483816],[-73.9699926916954,40.7103820507434],[-73.97000849502372,40.71038561848707],[-73.9700232626314,40.710391191920024],[-73.97003655865588,40.710398606543755],[-73.97004799066768,40.710407643517435],[-73.97005722125282,40.7104180361169],[-73.9700639779715,40.71042947760683],[-73.97006806139926,40.710441630293985],[-73.97006935101302,40.710454135494146],[-73.97006780874848,40.710466624118425],[-73.97006348012376,40.71047872756709],[-73.97005649289616,40.71049008860856],[-73.97004705329154,40.710500371923054],[-73.9700354399177,40.71050927399976],[-73.97002199554144,40.71051653209476],[-73.97000711697184,40.71052193198599],[-73.96999124334839,40.7105253142961],[-73.96997484317981,40.71052657919645],[-73.96995840051589,40.710525689353624],[-73.96994240066073,40.71052267103125],[-73.96966186412786,40.71049972413706],[-73.96963106061418,40.71065694598792],[-73.96977460790818,40.71068625392121],[-73.96978235963249,40.71070640224946],[-73.96978568091191,40.71072724360149],[-73.96978448247484,40.7107482178154],[-73.969778796528,40.710768761157794],[-73.96976877589127,40.71078832147547],[-73.96975468989064,40.71080637303601],[-73.96973691711975,40.7108224306582],[-73.9697159352646,40.710836062752634],[-73.96969230826447,40.710846902921844],[-73.96941809247176,40.71093812726212],[-73.96937429954603,40.711020666063014],[-73.96990773027578,40.71126812183884],[-73.96931038443995,40.71110785288143],[-73.96923492931276,40.711240541940995],[-73.96929101552197,40.71127019931253],[-73.96923352673939,40.711433132286395],[-73.96914483225518,40.71145699505016],[-73.96909579961421,40.71156311360326],[-73.96907978591591,40.711623442476714],[-73.96888473220845,40.71217685923355],[-73.96886591557372,40.71223189865541],[-73.96881612079872,40.71225194770672],[-73.96886537511358,40.712272359626674],[-73.96883817598498,40.71238964192895],[-73.96894079301877,40.712418772448125],[-73.96892466277151,40.712463426935024],[-73.96890597197051,40.71250677653027],[-73.96889595006755,40.71252831477692],[-73.96887248523575,40.71257874343655],[-73.96884020537442,40.712633248987316],[-73.96882449721811,40.71266061713465],[-73.9688069333312,40.71270862091726],[-73.96878386342081,40.71275652670845],[-73.9687319475613,40.71274056991461],[-73.96872243615427,40.71273764582788],[-73.96871698717283,40.712746944774786],[-73.96866605733972,40.71285719349171],[-73.96854388242633,40.71282070094257],[-73.96849847488288,40.71280690373669],[-73.96846973347043,40.712824709346336],[-73.96847298005639,40.71285342821168],[-73.96844231934433,40.71293843489032],[-73.96855971786002,40.71298731067343],[-73.96850672619524,40.71310547188961],[-73.96884924838118,40.71321254596049],[-73.96839125147845,40.714261918674005],[-73.96800830687327,40.71512072380624],[-73.96765448249167,40.71586910872038],[-73.9673639163342,40.71648367905523],[-73.9672403439612,40.71658788605862],[-73.96725983400415,40.71667097505574],[-73.96710504006269,40.716908393254585],[-73.96725113674303,40.71698666660909],[-73.96674727829387,40.71773776645358],[-73.96659690266615,40.717967981390224],[-73.96718343223795,40.718275921027725],[-73.96719282626957,40.71826514402221],[-73.96730741540445,40.71831306718454],[-73.9672301330496,40.71841466884321],[-73.96718243697296,40.71848305630195],[-73.96706867689159,40.71843903579146],[-73.96709096201253,40.71840576680826],[-73.96715101172583,40.718316126435184],[-73.96656241897496,40.71801586680643],[-73.96655195195892,40.71803845157975],[-73.96653666141476,40.71803435964862],[-73.96652746661586,40.7180318976814],[-73.96651263089429,40.718051613288594],[-73.9663133012498,40.71831654090734],[-73.96621630036864,40.71826437192912],[-73.96619833874271,40.718254712252],[-73.96614194126214,40.718303618211756],[-73.96575996533477,40.71868903477947],[-73.96634580602196,40.719016141341186],[-73.96637512101479,40.71898467077644],[-73.96663600763597,40.71913014271264],[-73.9665486323214,40.71922157595245],[-73.9665137104634,40.719202805475874],[-73.96646745714561,40.71924344072396],[-73.96648075649607,40.71935679107177],[-73.9665073709955,40.71935866037537],[-73.96652341507094,40.71936849350555],[-73.9665347603218,40.71938070766681],[-73.96653866772382,40.71939559908954],[-73.96653591996467,40.71941197906405],[-73.96652886862368,40.719420613692336],[-73.96651453667197,40.71943097474466],[-73.9664913615978,40.71943620891118],[-73.96645879510119,40.71943334041537],[-73.96644063879793,40.7194199922828],[-73.96643313478006,40.71939664154626],[-73.96643689942611,40.719382346909484],[-73.9664456735856,40.71937091308057],[-73.9664650951546,40.719360434910335],[-73.96644323284876,40.71924320365161],[-73.9665015055231,40.719191280435034],[-73.96646644128904,40.71917459142351],[-73.96644906386184,40.719179141582856],[-73.96643687006988,40.71913982534452],[-73.96636643205078,40.7191004916017],[-73.96632227620138,40.71910405237625],[-73.9663636385142,40.71905045604845],[-73.96574267076753,40.7187068777771],[-73.96552429626978,40.71891934200095],[-73.96511950416225,40.71922689399757],[-73.96517811300168,40.71926709565912],[-73.96523106803473,40.71931160765495],[-73.96527782446579,40.71935997206043],[-73.96531790126528,40.71941169131751],[-73.96535088611866,40.71946623335332],[-73.96537643966869,40.71952303705373],[-73.96539429900726,40.71958151803574],[-73.96540428038085,40.71964107465934],[-73.96540628108174,40.71970109421693],[-73.96540028050552,40.719760959236694],[-73.96538634036392,40.719820053835036],[-73.96537102933335,40.719896859809616],[-73.96534768058338,40.71997248572354],[-73.96531644416858,40.72004644546671],[-73.96527752084597,40.720118263637346],[-73.9652311607851,40.72018747859783],[-73.96517766196057,40.7202536454423],[-73.96511736823715,40.720316338856485],[-73.96567655698857,40.72067896054055],[-73.96559823311401,40.720744458402685],[-73.96503278328099,40.72037706947511],[-73.964479462231,40.72003618825576],[-73.96438190823221,40.72013942466042],[-73.96433359670718,40.7202083196804],[-73.96444754853596,40.720276973906],[-73.96433475398055,40.72038653891121],[-73.96439735661679,40.72044183392412],[-73.96486440861328,40.72077554186064],[-73.96492581757813,40.72072028495002],[-73.96503100064521,40.7207908413711],[-73.96493074234183,40.72088135056591],[-73.96485304145489,40.720952804859586],[-73.96475287190957,40.720877483842614],[-73.9648343360941,40.720795547440936],[-73.96436107956328,40.720477239877326],[-73.9642746249727,40.72057576759408],[-73.96495059736664,40.72142418210708],[-73.9648428486345,40.72146417609479],[-73.96420193098578,40.72065389425717],[-73.96406591310317,40.720799910962775],[-73.96437504235094,40.72099255076859],[-73.96430846237276,40.721055669488344],[-73.96402617458526,40.7208808930687],[-73.96399793658405,40.72093843807272],[-73.96355958358193,40.72153948746839],[-73.96353855414516,40.721573378514535],[-73.96343759552926,40.721559095162505],[-73.96341522820944,40.721581627445474],[-73.96296566403016,40.722034477123074],[-73.9627566542267,40.722399015126264],[-73.96225346254128,40.72353229754621],[-73.96223504964324,40.723570259265394],[-73.96207271877797,40.723880300905485],[-73.96246790011057,40.72413157960146],[-73.96247195112905,40.72417498927368],[-73.96244340911427,40.724199785481524],[-73.96239043044633,40.724193567186944],[-73.96236596823351,40.72420906211678],[-73.96200744799015,40.723991901607974],[-73.96190256113948,40.724098290481095],[-73.96189426712185,40.72410670210125],[-73.96165984235287,40.72486045446301],[-73.96211461566836,40.72514806339908],[-73.9619023964313,40.72532050081128],[-73.96176070350782,40.72522879211093],[-73.96153679358694,40.725108918852264],[-73.96141263577844,40.725177219492835],[-73.96116366368389,40.72526460633369],[-73.96043230240612,40.7251141086607],[-73.9603665103636,40.72504730938606],[-73.95875928169892,40.72454135436975],[-73.9583307822691,40.72441170076634],[-73.95814292507116,40.72440428390023],[-73.95803916741664,40.72442744087881],[-73.95794183489497,40.72464920270007],[-73.95795096213239,40.725036439168576],[-73.9582758822373,40.72516745704118],[-73.95835177078861,40.725198057301895],[-73.95842611843923,40.72540053583232],[-73.96012497133243,40.725319636637074],[-73.96028544944211,40.725948122413136],[-73.96106343511704,40.725844899185674],[-73.96161518835936,40.72586556307423],[-73.96165280762037,40.726203926231065],[-73.96161716963762,40.726661421991196],[-73.96149920105312,40.726751091125436],[-73.96141826820894,40.72735617970488],[-73.96114159312467,40.728103725404736],[-73.9610168813666,40.72870444010192],[-73.9611509325364,40.729536204770845],[-73.96128261942144,40.73006102501026],[-73.96128450722306,40.73015906220415],[-73.96130143673088,40.730252942924885],[-73.96142843697933,40.730946392610385],[-73.96167446706403,40.731481253552694],[-73.96169848245741,40.73153234139498],[-73.9617128941469,40.73156611384507],[-73.96175495642323,40.73166467816527],[-73.96203458498626,40.73238037004254],[-73.96226340423296,40.73291555162369],[-73.96230391804515,40.73311366047957],[-73.96234062194122,40.73338922663305],[-73.96230837630691,40.733532324263756],[-73.96233177656883,40.73362302407023],[-73.96232850324637,40.73375434133018],[-73.96228520236927,40.734047695876846],[-73.96218552877318,40.734249016632965],[-73.9620903444991,40.73450799787379],[-73.9619847787049,40.734638033148336],[-73.96190964676353,40.734750806246815],[-73.96176208458853,40.73489161477933],[-73.96157494306746,40.73517961492879],[-73.9611900313403,40.73560279658318],[-73.9605191671798,40.73634219230027],[-73.96051155046179,40.73635060889772],[-73.96046748142291,40.73639964535311],[-73.9604226223434,40.73644455601367],[-73.96029557044771,40.736562919800136],[-73.96023863089073,40.73661376101402],[-73.96022288450321,40.73663665560261],[-73.96021577508537,40.73664518108004],[-73.96018765307622,40.73667547287323],[-73.9601473184298,40.73671569374623],[-73.9600952141967,40.73675854873346],[-73.96007713554926,40.73677856103886],[-73.96003383184511,40.73683431389314],[-73.96000106579136,40.73686913461305],[-73.9599165921341,40.73695405035648],[-73.95989501952846,40.736979059065064],[-73.95985081417793,40.73703685586006],[-73.95982931147842,40.73706090063335],[-73.95981583252669,40.73707273787143],[-73.9597990733821,40.73708439336943],[-73.9597797455522,40.73709566098184],[-73.95972243919333,40.737126312529185],[-73.9597058590907,40.737136852015105],[-73.95969225036394,40.73714725700978],[-73.95966543236104,40.737172164495526],[-73.95960239868394,40.73723695150634],[-73.9595831145233,40.73725416310588],[-73.95956431785017,40.7372686718345],[-73.9594701001917,40.73733478183147],[-73.95940138328844,40.737381016027534],[-73.95936872914996,40.7374043283771],[-73.95930574127578,40.73745206858903],[-73.95919107556793,40.737539116286705],[-73.9591637296287,40.737557008968665],[-73.95910990410891,40.73758603978802],[-73.95908953404938,40.737598009017034],[-73.95902797086994,40.737637357848804],[-73.95898856589714,40.73766472769052],[-73.95888819766131,40.73774116352363],[-73.95883332045649,40.73778546722059],[-73.9588247447747,40.737790803221515],[-73.95881432450598,40.73779583399911],[-73.95877797055272,40.73780944591518],[-73.95876542999085,40.7378148084693],[-73.95873036313834,40.737833742475125],[-73.95867800305567,40.73786649270307],[-73.95864031018324,40.73789994206998],[-73.95861342305074,40.73792120206608],[-73.95848746915817,40.73801668347349],[-73.95845868680819,40.73803920305113],[-73.95843189518173,40.738058644372266],[-73.95837507902785,40.73809694936886],[-73.95831235513265,40.738137026471044],[-73.95824213550955,40.738179919620435],[-73.95815588076826,40.73823083041113],[-73.95795987117343,40.73834839137325],[-73.95789424699922,40.73838640527278],[-73.95785444148463,40.73841010976999],[-73.95776488076125,40.738464359365345],[-73.95771673677041,40.73849332024759],[-73.95763409607027,40.738538117761586],[-73.9575470386147,40.73858224599528],[-73.9574182351603,40.73864924183517],[-73.95715479533312,40.73877632162041],[-73.95709329518273,40.738805989258395],[-73.95695851073044,40.738873873259216],[-73.95694640793137,40.73887918200222],[-73.95693002865116,40.7388870730717],[-73.95691820009655,40.7388889147882],[-73.95690347291884,40.73888996268393],[-73.95677816914437,40.73890559317959],[-73.95564004576103,40.73904431671022],[-73.95563515530762,40.73904470181235],[-73.95563004111827,40.739044699842104],[-73.95561454319139,40.73904581043351],[-73.9555833632283,40.739040071187794],[-73.9555306715092,40.739032693262445],[-73.95519660913389,40.739084541693806],[-73.9549228049316,40.73910330066518],[-73.9548075756689,40.73911884299778],[-73.95476314020387,40.73912353555645],[-73.9547153325348,40.739126541959195],[-73.9546632150002,40.739127953134535],[-73.95460353380129,40.739127848374295],[-73.95454644819088,40.739124916929754],[-73.95444125113258,40.73911765397017],[-73.95439555417087,40.73911477252269],[-73.95428317027601,40.739107370373574],[-73.95423262939586,40.739107350299456],[-73.954193512678,40.73910695714314],[-73.95415627885318,40.73910691485324],[-73.9541218660032,40.7391007688461],[-73.95402778116025,40.739083144574906],[-73.95397240398314,40.739074945828044],[-73.953815514917,40.739053125863684],[-73.95373783285366,40.739045333187335],[-73.9535808906475,40.73903297728513],[-73.95351461853667,40.739026926975306],[-73.95336744598872,40.739010514220574],[-73.95323299037669,40.73899268364096],[-73.95292355724182,40.738934942395375],[-73.95286232074193,40.73892156030059],[-73.95282301471167,40.73891247885014],[-73.95278707574712,40.73890417491642],[-73.95271781388733,40.738891084803406],[-73.95265702902607,40.738878876474665],[-73.95255527572029,40.73885768137765],[-73.95238448777513,40.73882039306016],[-73.95218669424783,40.73878525403576],[-73.9521773188058,40.73878358409294],[-73.95214506084808,40.73877825742604],[-73.95210541738095,40.738770983870104],[-73.95203337473417,40.7387572569285],[-73.95201751319439,40.73875376510187],[-73.95200514191767,40.73875151743849],[-73.9519879435446,40.738747620474406],[-73.9519773122518,40.738731289086715],[-73.95197285125757,40.73872743361673],[-73.95195469190347,40.73870893900189],[-73.9519492725807,40.73870482128743],[-73.95194368602371,40.738701711844286],[-73.95193588669196,40.73869852089721],[-73.9519275902918,40.738695897321556],[-73.95191056675519,40.738692693140514],[-73.95190236352279,40.73869220388825],[-73.95189451325611,40.73869245256909],[-73.95188714964519,40.73869343974151],[-73.9518803528664,40.73869515672781],[-73.95188004444081,40.73869526482099],[-73.9518797608839,40.73869539972878],[-73.95187948788583,40.73869555273382],[-73.95187925034095,40.73869571513519],[-73.9518790257653,40.73869591272249],[-73.95187881197515,40.73869611952825],[-73.9518784695848,40.738696597002956],[-73.95187820863435,40.73869714638049],[-73.95187803065285,40.738697785251816],[-73.9518778989462,40.73869930750913],[-73.95187825200317,40.738702053414315],[-73.95188040058613,40.738709897730466],[-73.95188068446178,40.738711456347126],[-73.95188069530279,40.73871260859822],[-73.95188060027688,40.738713050493146],[-73.95188044628398,40.738713409940466],[-73.95188033957277,40.73871356368511],[-73.95188022032096,40.73871369866155],[-73.95188008963609,40.7387138061589],[-73.95187993583109,40.73871390543778],[-73.95187975825947,40.738713976729834],[-73.95187956968137,40.73871403980849],[-73.95187936768761,40.7387140759098],[-73.95187914324195,40.73871409340627],[-73.95187864527342,40.738714075607945],[-73.95187806586495,40.738713985906735],[-73.95185788444076,40.73870829531178],[-73.95181269331361,40.738694183253585],[-73.95171714969756,40.73866521896634],[-73.95154202956651,40.738611258202425],[-73.95064521733293,40.738364472152426],[-73.95050973889578,40.738322684524334],[-73.9504645828052,40.738309580795224],[-73.95038748197699,40.73828483712585],[-73.9502194406016,40.73822153160054],[-73.95004848537417,40.73815805268337],[-73.94996516469934,40.73812448107626],[-73.94964771678877,40.73799773111236],[-73.9494843055123,40.737933859458565],[-73.9493970100016,40.73789966434003],[-73.94925743288604,40.73784498780455],[-73.94884377400774,40.73768589191395],[-73.94861200384769,40.73759545010184],[-73.94858408326107,40.73758455026476],[-73.94840521772187,40.737513834593564],[-73.9481229165706,40.737397154608615],[-73.94810675303033,40.7374337079596],[-73.94809172682271,40.7374677048649],[-73.94754211492793,40.73727891654852],[-73.94720149585577,40.73716644881984],[-73.94718139793841,40.737161253152756],[-73.94716178589232,40.7371549317599],[-73.94713634142683,40.737144654230136],[-73.9470955720832,40.73712486001731],[-73.9470493494224,40.73709995757942],[-73.9470361798764,40.737091793655885],[-73.94703400243671,40.737090279723176],[-73.94700570033977,40.737070617526605],[-73.94698861180815,40.73706106400508],[-73.94696827978058,40.737052598579396],[-73.94691047650045,40.73703173433777],[-73.94685990836189,40.73700738868831],[-73.94683977748869,40.73699914899081],[-73.94682157432791,40.736993764160424],[-73.94677824012734,40.736984018896706],[-73.94675925460247,40.73697872365659],[-73.9466991905293,40.73695775071144],[-73.94661589520466,40.7369245549605],[-73.9465805064899,40.73694426897732],[-73.94652352854786,40.73692685395834],[-73.94644229140863,40.736780626263325],[-73.94666174843341,40.736365663237166],[-73.94667515359106,40.73634062407221],[-73.9469037682147,40.735913658178866],[-73.9470014458955,40.735716910834206],[-73.94719983367159,40.73535517761173],[-73.94718691118457,40.73523078210061],[-73.9471577585992,40.73503229725173],[-73.94708643463501,40.734545915489704],[-73.94706532915387,40.734401992819414],[-73.94659806707352,40.734442224347475],[-73.94662261694711,40.73455805718613],[-73.94673908072966,40.735282693841185],[-73.9466990732422,40.73535608208457],[-73.94656003894856,40.73560306308309],[-73.94655464285027,40.73561300595564],[-73.94654745138962,40.735625669127096],[-73.94654176842498,40.73563602682893],[-73.9465287878717,40.735659277665285],[-73.94651304641673,40.735687448978084],[-73.94649010509518,40.735728559703574],[-73.94646450458738,40.73577487540829],[-73.94644310074185,40.735813184455886],[-73.9464305125695,40.735835358938004],[-73.94640050675866,40.735889068537034],[-73.94630720090625,40.73605751950634],[-73.9462474829692,40.736166165227154],[-73.94617195881511,40.73620288877441],[-73.9458731056289,40.73610183125833],[-73.94557048457217,40.73661230391059],[-73.94553259905281,40.73660508051795],[-73.94551998044129,40.7365906629184],[-73.94554528485209,40.736537832854765],[-73.94541584986413,40.73650174400834],[-73.94540003127122,40.736537764078925],[-73.94535897179904,40.736549754576075],[-73.94520743701801,40.7365088505163],[-73.94520113938783,40.73648723040844],[-73.94522012115169,40.73644400571906],[-73.94507806672308,40.73639349768502],[-73.94505908334067,40.73643912518255],[-73.94503381424784,40.73644872026418],[-73.94499908889487,40.73643669371279],[-73.94499910475596,40.73641747877069],[-73.94525492279563,40.73589278900394],[-73.94518507181319,40.735479152678],[-73.94503299031923,40.73542861568352],[-73.94502785767125,40.735450523016794],[-73.94502179930068,40.73547490611674],[-73.94500642212093,40.73553144180929],[-73.94499058532956,40.73557030876476],[-73.94496124483584,40.735634249151],[-73.9449230922739,40.735702786597194],[-73.9448854042497,40.73576637049466],[-73.94486214046057,40.73581053893732],[-73.9448365341482,40.73586778119145],[-73.94478551270912,40.73596454331537],[-73.94477272080763,40.73598576127731],[-73.9447592102149,40.73600410782444],[-73.94473954067817,40.73602424277521],[-73.94469052058979,40.736064138286345],[-73.94467094742116,40.73608275213121],[-73.94463300629036,40.736123850251644],[-73.94461272994506,40.736147398742986],[-73.9445772611248,40.73619118130513],[-73.94456766241346,40.73620282111464],[-73.94454962530499,40.73622465788195],[-73.94454903299523,40.73622528833388],[-73.94454837002635,40.73622587318458],[-73.94454679443372,40.736226925832284],[-73.94454488774215,40.73622780761108],[-73.94454261380302,40.73622855368408],[-73.94453916861201,40.7362293177884],[-73.94452715112091,40.736231013734006],[-73.94452429787896,40.736231580609335],[-73.94452191718344,40.73623225409153],[-73.94452006963596,40.73623299149059],[-73.94451850588771,40.73623383724844],[-73.94451721533662,40.736234828048275],[-73.94451617245132,40.736235944109715],[-73.9445156506814,40.736236762895196],[-73.94451534256619,40.73623755548198],[-73.94451527153964,40.73623795114526],[-73.94451524743091,40.73623833878988],[-73.94451528167909,40.736238734503885],[-73.9445153765078,40.736239112824315],[-73.9445155184606,40.73623949987884],[-73.94451570799212,40.73623987874749],[-73.9445162630205,40.73624064427579],[-73.944517044022,40.73624140170415],[-73.94451805009479,40.73624217616111],[-73.9445200849663,40.736243411141395],[-73.94452280603181,40.73624473540873],[-73.94453691364178,40.736250667615046],[-73.94453998943432,40.736252353239884],[-73.94454119610873,40.73625317285787],[-73.94454220280419,40.736253993552225],[-73.94454298311629,40.736254785993104],[-73.94454363410217,40.73625563281782],[-73.94454415355999,40.736256533355174],[-73.94454454389631,40.7362575068719],[-73.94454479148013,40.73625852471439],[-73.94454492119894,40.736259586392016],[-73.94454475257288,40.736261874387246],[-73.94454404114089,40.73626432344907],[-73.9445428076356,40.736266897401734],[-73.94454106488925,40.73626952605784],[-73.9445388600858,40.73627214628258],[-73.94453322105853,40.73627716869044],[-73.94453001123385,40.73627933711465],[-73.94452667130419,40.73628117226597],[-73.94452008735738,40.7362836541818],[-73.944515421174,40.73628439089296],[-73.9444924208175,40.73628307377273],[-73.94448138831733,40.73628149303568],[-73.94446408238154,40.73627872620051],[-73.9444283719635,40.73627027870707],[-73.94439089670874,40.73625873764429],[-73.94432355082688,40.73623259091181],[-73.94422248716924,40.7361877201334],[-73.94329968017612,40.73582361223085],[-73.94321347652946,40.73579053001632],[-73.9431678832003,40.73576750865253],[-73.94310507092833,40.73573579771036],[-73.94300691110809,40.73568865195128],[-73.94294414311412,40.735660191794146],[-73.9428804403222,40.73563294704617],[-73.9428418960536,40.73561723236573],[-73.94239443542429,40.7354257499477],[-73.94212245962963,40.73523376140642],[-73.94210536596886,40.735219038124846],[-73.94196892130124,40.73511897640367],[-73.94177231077717,40.73498208139011],[-73.94173819589855,40.734950717917755],[-73.94179189161022,40.734912896647636],[-73.94178616641567,40.7348949369234],[-73.9417630650352,40.734859382318625],[-73.94169368832172,40.734769378111544],[-73.94160658196863,40.73468770216404],[-73.94154566832448,40.73473433593498],[-73.94129801856808,40.734376293433826],[-73.94114746701952,40.73415292753774],[-73.94099746599917,40.733790485555964],[-73.94115615809413,40.73374890961004],[-73.94113533955344,40.73370281125015],[-73.94103843274782,40.73348826020316],[-73.94094207548778,40.73350865207865],[-73.94092914681445,40.73351139187738],[-73.94091758051697,40.73348404712152],[-73.94089912116024,40.73344038291534],[-73.94081817225897,40.733248908937846],[-73.94072562054994,40.73329118540725],[-73.9406442348713,40.73317051147975],[-73.94059112746449,40.73309176571787],[-73.94056868930251,40.73305849425783],[-73.94068491601338,40.733017077124714],[-73.94036658952952,40.73221258691498],[-73.93988785146198,40.73129562103379],[-73.93981322625451,40.73115268891224],[-73.93974607754154,40.731065475472256],[-73.93891503477069,40.730383794733406],[-73.93856120412507,40.73013364321889],[-73.93810334960666,40.729728519521515],[-73.93808900912056,40.72974684626065],[-73.93729511262934,40.72930055678754],[-73.93711874507949,40.72918993206517],[-73.9369312479987,40.729108091265736],[-73.93684001378087,40.729087913938464],[-73.93655894374993,40.72901782626717],[-73.93608245486583,40.72888271185222],[-73.93563591233656,40.728751952652914],[-73.93561453981152,40.728745985634546],[-73.93527438168027,40.72865101857109],[-73.9350119320217,40.72857242722878],[-73.93492926391922,40.728543915250576],[-73.93480845721115,40.72852861020143],[-73.93441741903712,40.72847259054702],[-73.93420948564123,40.72844388032264],[-73.93422206741177,40.72839051737071],[-73.93415421562237,40.728381653118284],[-73.93376676075225,40.7283339389381],[-73.93352761652702,40.72830739759022],[-73.93349948194378,40.72830413920165],[-73.93348555981643,40.72829441478154],[-73.93348271999368,40.72828156334355],[-73.93325729805608,40.72824070281494],[-73.93301658610117,40.72821034223379],[-73.93291116235261,40.72823331594185],[-73.93262682661627,40.72818061356364],[-73.93240789866186,40.728145923837516],[-73.9323870036787,40.72814769455636],[-73.93236090629155,40.72816776986466],[-73.93234598849824,40.728182393884865],[-73.93213397515774,40.728159603433866],[-73.93200420453815,40.72814508289363],[-73.93196085293664,40.72812562435975],[-73.93188125492898,40.72809538279428],[-73.93174841322009,40.72805372769685],[-73.93168317826692,40.728031726599724],[-73.93166858749694,40.72803828230707],[-73.93157356186883,40.72801829455851],[-73.93120770151343,40.72794133862452],[-73.93080479131761,40.727848839261874],[-73.93072254234549,40.72784107268984],[-73.93032635559956,40.7277951422491],[-73.92991812728005,40.72763889835647],[-73.92974384696795,40.727573639851364],[-73.92966042198182,40.72753321967909],[-73.9296125506025,40.72756017897448],[-73.92960207562369,40.727574315843476],[-73.92963029971219,40.72758681014808],[-73.92961806788247,40.727603242735626],[-73.92960020152694,40.727616097527736],[-73.9295802069088,40.72761282070885],[-73.92951117738872,40.72756993117689],[-73.9294247630484,40.727511752012724],[-73.92937588603777,40.727479969539004],[-73.9292878754255,40.72742550402893],[-73.92924333948392,40.72739794231883],[-73.92926898893543,40.72736521532133],[-73.92924341253463,40.727342000343995],[-73.92917934192215,40.727283844605644],[-73.92911102614755,40.727219740527815],[-73.92889748733168,40.727027763994194],[-73.92849418540162,40.72661460330805],[-73.92833738013017,40.72641758269876],[-73.92815870725642,40.72620523075793],[-73.9281307474383,40.7261726868246],[-73.92805429534305,40.72607234016279],[-73.92795514073468,40.7259165175138],[-73.9279391262521,40.72588372904592],[-73.92792754362851,40.725879056847276],[-73.92790171856065,40.725875780441775],[-73.92788257665207,40.72586648462561],[-73.92787172405026,40.72585405119786],[-73.92786431997047,40.725826679058486],[-73.92785895385211,40.725754598997405],[-73.92780287168226,40.72501026718179],[-73.92779650104131,40.7249256687138],[-73.9272027596346,40.723652947186324],[-73.92561470516623,40.72006166221263],[-73.92481798943699,40.72026513747549],[-73.92481537158015,40.72022555855099],[-73.92470891655732,40.7199988755665],[-73.92471098441732,40.71999119547703],[-73.92474503108116,40.71998524724643],[-73.92467622369202,40.71988569598354],[-73.92460885647323,40.71978969283505],[-73.92453432562183,40.71966615777262],[-73.92451999415132,40.71961273042439],[-73.92452018596842,40.71956837077439],[-73.92452083048197,40.719553566512054],[-73.92453854985799,40.719342580204675],[-73.92455355876746,40.719279131194334],[-73.92457948088894,40.71916252333494],[-73.92462954199924,40.71898697437387],[-73.92469004857115,40.718722335556016],[-73.92470227807114,40.7186883041008],[-73.92477183253621,40.718564610855466],[-73.92481555677264,40.71848683590619],[-73.9248641350911,40.718440445413684],[-73.92493181378997,40.71840582874961],[-73.92499204426606,40.71838478776139],[-73.92508677520773,40.718384219204424],[-73.92615790234233,40.71809946763342],[-73.92638366600805,40.718084807526374],[-73.92837930101501,40.71757836729027],[-73.92839153834056,40.71757875368077],[-73.92840375075595,40.717580192961115],[-73.92842127419077,40.71758421059849],[-73.92842419720877,40.71758530268093],[-73.92842688160779,40.71758675412769],[-73.92842937757847,40.717588574351524],[-73.92843171853902,40.717590808940514],[-73.92843568965907,40.717595953982666],[-73.92844561386124,40.71761186281077],[-73.9284495386324,40.7176160882684],[-73.9284516558226,40.71761777322964],[-73.92845389020697,40.71761919809438],[-73.9284619456356,40.71762312038188],[-73.928470830849,40.71762628680039],[-73.928480640266,40.71762873242143],[-73.92849153787803,40.717630495877884],[-73.92851353839714,40.717632094345355],[-73.92857425221365,40.71763313166147],[-73.92859170789374,40.717635060505295],[-73.92860667565209,40.71763833823812],[-73.92863720061406,40.71764795729285],[-73.92866774684481,40.71765931310408],[-73.92869826813597,40.71767238068171],[-73.92872866939288,40.71768714103635],[-73.92873538646586,40.71769118761874],[-73.92874207976138,40.71769646885933],[-73.92876845782253,40.71772204225039],[-73.92877608562021,40.71772727029104],[-73.92877998940898,40.7177293163668],[-73.92878398825955,40.7177310024859],[-73.92878963057186,40.71773285212252],[-73.92879561877734,40.717734297395296],[-73.92880855316683,40.71773597094671],[-73.92882252966149,40.717735997681395],[-73.92883713697674,40.71773436746058],[-73.92885202896082,40.71773110771208],[-73.92886642560394,40.71772634460418],[-73.92887965180016,40.71772031862372],[-73.9288910810599,40.717713311164395],[-73.92896850706047,40.71764754015099],[-73.9289822116627,40.71763657123735],[-73.92907419357616,40.7175713328195],[-73.92909346674548,40.71755616122478],[-73.92911003942852,40.717541601112515],[-73.92912432770675,40.71752729272471],[-73.92913648610194,40.71751307131081],[-73.92913856054392,40.71751003800516],[-73.92914020897881,40.71750676185833],[-73.92914231209289,40.71749933299912],[-73.92914297144013,40.71749071598807],[-73.92914245456932,40.71746451965409],[-73.92914397868,40.71745661399191],[-73.9291453078458,40.717453139464126],[-73.92914701545087,40.71744991595702],[-73.92915700695043,40.71743641457812],[-73.9291698977279,40.717423555102435],[-73.9291853904298,40.71741165011884],[-73.92920294211389,40.717401098006476],[-73.92956856905481,40.71722153606533],[-73.92960578835351,40.71719018455523],[-73.92963940071809,40.717156498853925],[-73.9296487614611,40.71714594216965],[-73.92966723720453,40.717122548942356],[-73.9296829561913,40.717098443044044],[-73.92969572853036,40.717073929091335],[-73.92970539915328,40.71704927938933],[-73.92970762282205,40.717040203803364],[-73.92970848430281,40.71703066735673],[-73.92970798609332,40.71702080742305],[-73.92970612734638,40.717010801580365],[-73.92969847812826,40.71699103024052],[-73.9296928553877,40.716981724874465],[-73.92968617709138,40.71697307523395],[-73.92950714859491,40.71659078087614],[-73.92950234927712,40.716585518429326],[-73.92949846168202,40.716579653778744],[-73.92949561546536,40.71657342087148],[-73.92949390595582,40.71656703436797],[-73.92949347200964,40.71656326993954],[-73.92949464975432,40.71653576927194],[-73.92949639794351,40.716526819713536],[-73.92949731486095,40.71652213772973],[-73.9295016940007,40.71649978980551],[-73.92931999766083,40.71611200883279],[-73.929315726363,40.71607810126991],[-73.92931651965579,40.71604383780609],[-73.92932187977766,40.71601207044941],[-73.92933177634775,40.71597656097972],[-73.9293448342123,40.71593891798326],[-73.92936131668621,40.71589831554506],[-73.92938250209322,40.715851628059866],[-73.92940052893972,40.71581651876642],[-73.9294198181735,40.71578500369705],[-73.92944067813082,40.715756578616485],[-73.92946325081394,40.71573104475641],[-73.92947356921461,40.715721452621324],[-73.92948531923346,40.71571242743576],[-73.92949834532271,40.71570406928515],[-73.92951247231095,40.715696505214744],[-73.92952747418941,40.7156898412979],[-73.92954313880719,40.71568419618106],[-73.92955920385597,40.71567964911117],[-73.92957543323463,40.715676273153],[-73.93029962426958,40.715507876364164],[-73.93149304610917,40.71520848057276],[-73.93151298432782,40.71521190462484],[-73.93153325506191,40.715213988488],[-73.93153596540606,40.71521416080985],[-73.93155892431619,40.715214850264964],[-73.9315843812833,40.715214252750236],[-73.93165926717444,40.71520855239445],[-73.93170534538311,40.71520316761259],[-73.9317500895425,40.715194584936924],[-73.93179267229117,40.71518297509136],[-73.9318324282947,40.71516852832999],[-73.93190482995988,40.71513758388363],[-73.93198814917388,40.71510013641434],[-73.93204461652165,40.71507417192071],[-73.93208047053639,40.71505649754114],[-73.93210478113062,40.71504259926945],[-73.93212999514387,40.71502560378412],[-73.93215573266116,40.715006059176424],[-73.93219753146334,40.714972107490546],[-73.932206073073,40.7149639809295],[-73.93221363282315,40.71495510661946],[-73.93222529811969,40.714935797461],[-73.93223037717559,40.71492154524647],[-73.9322341491633,40.714902015833],[-73.9322346904511,40.71489346121959],[-73.93223536350635,40.714882853138164],[-73.93223397469474,40.714864428375],[-73.93223001508797,40.71484696554604],[-73.93221519306177,40.714805613509526],[-73.93219698438755,40.714766449388854],[-73.93217367921349,40.71472213951959],[-73.93215665337229,40.7146948344856],[-73.93215361559828,40.71469104223012],[-73.9321499860121,40.714687464730396],[-73.93214128153377,40.71468129108931],[-73.93213686921227,40.71467904647495],[-73.9317535718227,40.71474167550589],[-73.93159048356527,40.714399492481355],[-73.93155662007553,40.71439338442318],[-73.93154203825681,40.714359607004866],[-73.93142604100935,40.71438234308075],[-73.93136746848062,40.714252491352006],[-73.9313130786729,40.71414402489602],[-73.93143603021136,40.714126182518044],[-73.9312406705949,40.71372481088489],[-73.93145301732991,40.713438844966355],[-73.93155604271146,40.71339947275489],[-73.93159144262145,40.713384815918],[-73.93164527391666,40.71334279375831],[-73.93197184127625,40.71325326091043],[-73.93245163156705,40.71312171693689],[-73.93255041730532,40.71309537126221],[-73.93257765480118,40.71308911165597],[-73.93259563619496,40.71308370067677],[-73.93261051935507,40.7130772882475],[-73.93261675980557,40.71307367214439],[-73.93262226609913,40.713069749874435],[-73.9326315998166,40.71306137111286],[-73.93263905242465,40.71305258616952],[-73.93264437548963,40.7130437018089],[-73.93264621458808,40.71303927229817],[-73.93264747285882,40.71303487863344],[-73.93264823497753,40.713031043045916],[-73.93264917373016,40.71301581505516],[-73.93264693956291,40.713000730789005],[-73.9320326298051,40.71159022307447],[-73.93338484615303,40.71123372774584],[-73.93328349320298,40.71097870695552],[-73.9319010192086,40.711338471428384],[-73.93166398860824,40.71081024348278],[-73.93151092590588,40.71046980839434],[-73.93126572703267,40.709924443553156],[-73.93102978770145,40.70935851220746],[-73.93093227547737,40.70916531125431],[-73.93079490181023,40.70911470157128],[-73.93079180370496,40.70911293481073],[-73.9307874517292,40.70911000516073],[-73.93078694295173,40.70910959039281],[-73.93078352647403,40.70910679750467],[-73.93078002706979,40.70910330128781],[-73.93077693109747,40.70909948148357],[-73.93077199333123,40.709091013034914],[-73.93076857210798,40.709081132574596],[-73.9307660006668,40.70906065352088],[-73.93076683651663,40.709019167445625],[-73.9307660262381,40.70900254357939],[-73.93076270533346,40.708986377059794],[-73.93075999154773,40.708979378490675],[-73.93075653104785,40.70897298273742],[-73.93073903156922,40.70894731694216],[-73.93071882196709,40.70892173947513],[-73.93069593784361,40.708896313011486],[-73.93067043926418,40.70887107444174],[-73.93064180374198,40.708846941665406],[-73.93057213306344,40.708794868260846],[-73.93054296635056,40.70876887089769],[-73.9305279439577,40.708751183869836],[-73.93052572285512,40.70874760833857],[-73.93051585863105,40.70873176236196],[-73.93050712316408,40.70871122513428],[-73.930502031801,40.708690294407006],[-73.93050100083198,40.70868122503974],[-73.9303609456584,40.70871773803283],[-73.93037347956374,40.708739303505155],[-73.93037720999891,40.70874751861025],[-73.93038184928766,40.708757768714044],[-73.93038563133169,40.70877453878915],[-73.93038574076616,40.7087823191491],[-73.93038466900725,40.70878976558328],[-73.93038021735106,40.708802847762975],[-73.93037287805079,40.708815873246984],[-73.93036285425633,40.70882846505416],[-73.93035053503768,40.70884013775814],[-73.93028879813222,40.708885728739034],[-73.93026628094647,40.70890492359058],[-73.93026509729755,40.70890609372043],[-73.93025651835264,40.70891654338685],[-73.93025038849032,40.70892791342272],[-73.93037671406157,40.709222340032994],[-73.93068099428758,40.70992095296734],[-73.93099835621314,40.71061822511628],[-73.93115836965885,40.711001048544944],[-73.93154613746866,40.71185535175125],[-73.93088881912209,40.712056006858354],[-73.93085966173925,40.712064941156946],[-73.93083571026413,40.71207493148341],[-73.93081637309481,40.71208622106975],[-73.93080841450546,40.712092384296746],[-73.93080159026492,40.71209889079783],[-73.93078780933583,40.71211647921737],[-73.93078286503948,40.7121253193264],[-73.93077936591715,40.71213390717088],[-73.93077736917613,40.71214206453654],[-73.93077687548669,40.71214978254498],[-73.93077788533874,40.71215701395382],[-73.93077894737053,40.712160427955666],[-73.93078037522969,40.71216370664807],[-73.930790204141,40.71218082226062],[-73.93080080544397,40.712194696353556],[-73.9308125804357,40.71220580594978],[-73.93081894298915,40.71221034908589],[-73.93082563734814,40.71221423420737],[-73.93083369272595,40.712217922464276],[-73.93084682544468,40.71222140637232],[-73.93085528765467,40.71222066378223],[-73.93086409444761,40.71221819268708],[-73.93161032734892,40.71203802268057],[-73.93182042077251,40.712478983611256],[-73.9318333498546,40.712507527987896],[-73.93184122321148,40.71252826277821],[-73.9318463511817,40.71254724863577],[-73.93184868877454,40.71256477418343],[-73.93184794873001,40.71259349105921],[-73.93184249493432,40.71262723799079],[-73.93183415746138,40.71265537457749],[-73.93182187286673,40.71267946522635],[-73.93181633870054,40.712687160987734],[-73.93180970336478,40.712694774845986],[-73.93179285963701,40.71271003780287],[-73.93177226424528,40.71272495661118],[-73.93173436851777,40.7127492922382],[-73.93066788646624,40.71302126689381],[-73.93057114310275,40.7130510969148],[-73.93054642776369,40.713055746460874],[-73.93052713207372,40.71306156140727],[-73.93051906936874,40.713065031889094],[-73.9305120595293,40.71306888245455],[-73.93050607875229,40.71307313754844],[-73.93050113783245,40.713077790811354],[-73.93049150439381,40.71309041921205],[-73.93047361522203,40.71311996285406],[-73.9304641824193,40.71313167232041],[-73.93043603849989,40.713156086450866],[-73.93043058814568,40.713161549060914],[-73.93042631105749,40.713166787893584],[-73.930424485839,40.7131695870044],[-73.93042294313071,40.71317255867123],[-73.9304226389901,40.7131916312696],[-73.93077166547397,40.71392946808526],[-73.93095073591768,40.71436381947862],[-73.93105231901666,40.7146102244261],[-73.9308519013403,40.71490298559298],[-73.92991665528317,40.7151498169996],[-73.92990279901284,40.71512496347712],[-73.92931412285779,40.715279834187136],[-73.92927167066946,40.71531421697895],[-73.92925366567535,40.71532880253997],[-73.92843881814593,40.71553094957593],[-73.9289024285406,40.716572812318084],[-73.92890598986214,40.71659635473193],[-73.92890601265017,40.71661895731226],[-73.92890251043775,40.7166401079376],[-73.92889551897682,40.71665951898598],[-73.92888441854596,40.71668042166847],[-73.9288707269487,40.71670144906427],[-73.92885446710952,40.71672257421477],[-73.92883566172385,40.716743778537406],[-73.9287905809,40.716787938570384],[-73.92876805027393,40.71680733061663],[-73.92874531987815,40.71682512834855],[-73.92871111320488,40.71684974586],[-73.92867728796152,40.71687240872581],[-73.92864365422388,40.71689324364651],[-73.92861009191243,40.71691233129577],[-73.92857581108369,40.71692983368474],[-73.92848910920299,40.71697104191194],[-73.9284362240153,40.71699883426733],[-73.92832241942122,40.717062456200715],[-73.92827145107027,40.717089728832356],[-73.92825263489708,40.717098595867014],[-73.92823253044881,40.717106454253546],[-73.92821135004569,40.717113239793335],[-73.92818927188941,40.717118880225335],[-73.9281665195066,40.71712333280159],[-73.9281433662164,40.717126524818084],[-73.92812006106156,40.717128436494356],[-73.92809688744703,40.71712903466946],[-73.92595163943955,40.71769107057007],[-73.92594091108798,40.7176741521624],[-73.92514606059827,40.71785561237694],[-73.9249974068021,40.717889555087496],[-73.9249747370717,40.71789389953436],[-73.92495489653578,40.71789814597498],[-73.92494252442515,40.71790088434585],[-73.92492621081297,40.717904854148486],[-73.92490239368493,40.71790942231898],[-73.92488911247905,40.71791154744521],[-73.92486299711763,40.717916500592715],[-73.92483730903167,40.71792192342363],[-73.92482214344719,40.717925092512296],[-73.92479461917732,40.71793177393703],[-73.92477173579086,40.71793694662495],[-73.92475077183738,40.71794044395356],[-73.92472906134894,40.717944050687954],[-73.92471227577275,40.717946155912244],[-73.92469362102362,40.71794812488479],[-73.92467591434067,40.717949922591984],[-73.92466004074603,40.71795144323383],[-73.92464513863986,40.71795310891757],[-73.92462555039987,40.71795384326488],[-73.92460339476078,40.717953306073525],[-73.92458693486758,40.71795070264646],[-73.92458407107215,40.717950240741665],[-73.92456824137076,40.71794488190706],[-73.92455290971762,40.71793913473424],[-73.9245380167142,40.717932371796195],[-73.92452081662722,40.717924481395315],[-73.92450755701414,40.71791763777103],[-73.92449266537847,40.71790967583789],[-73.92447781046094,40.717900985519854],[-73.92446061312042,40.717890879568344],[-73.92445062958924,40.71788537964245],[-73.92442924671528,40.7178722988446],[-73.9244087753188,40.71785889481167],[-73.92439020556478,40.7178482565531],[-73.92436927002807,40.71783642009263],[-73.9243507009103,40.71782523233979],[-73.92433303151242,40.71781399072903],[-73.92431306786708,40.71780215489705],[-73.92429305607696,40.71779006589677],[-73.92427585871778,40.7177806075765],[-73.92426006927374,40.717770880796614],[-73.92424565221575,40.7177617307076],[-73.92423357693366,40.71775456383379],[-73.9242219623099,40.71774774806327],[-73.92420571235449,40.717736976274935],[-73.92419082355953,40.7177269711461],[-73.92418084168787,40.71772024707858],[-73.92416598865643,40.71770997191668],[-73.92415062601889,40.717699992772225],[-73.92413531121596,40.717689581772824],[-73.9241199951014,40.71767936007593],[-73.92410280094344,40.71766713720255],[-73.92408423619375,40.71765219513108],[-73.92406646436,40.71763856715813],[-73.92404826607334,40.717624336809294],[-73.92403042353499,40.71760939353025],[-73.92401456906457,40.71759477706534],[-73.924001231726,40.717583404408316],[-73.92398912454941,40.717572013966446],[-73.92397727997053,40.71755992092127],[-73.92396563781037,40.71754641508647],[-73.92395450324662,40.717533610518394],[-73.92394037469346,40.71752081385537],[-73.92393132858294,40.717514135951525],[-73.92390367881605,40.71749562069674],[-73.92389417064558,40.71748905941831],[-73.92387326148526,40.71747454664184],[-73.92385189177774,40.71746075543042],[-73.92383238966161,40.717448477381076],[-73.9238147213608,40.71743663242636],[-73.92380657161952,40.71743149484572],[-73.9237952188527,40.717423553926764],[-73.92378242354737,40.717414593655505],[-73.9237701371041,40.71740599440522],[-73.92374875470027,40.717392176361784],[-73.9237283193838,40.71737827651856],[-73.92370971501529,40.71736731362679],[-73.92368739798661,40.717353106792636],[-73.92367370384748,40.71734403836112],[-73.92366000842217,40.71733551941541],[-73.92363989262068,40.71732065749357],[-73.92362699414969,40.71730857309436],[-73.92361499494635,40.71729682250138],[-73.92360155242622,40.717284737738304],[-73.92358786233977,40.717271580637],[-73.92357604244319,40.71725842594821],[-73.92356606851776,40.717245271981156],[-73.92355875481303,40.71723477608653],[-73.92354950298382,40.71722055092771],[-73.92353534366406,40.7172045664915],[-73.92352727087959,40.71719515047182],[-73.92351902168073,40.71718501463866],[-73.92351052402469,40.71717381467631],[-73.92349611939403,40.71715461539794],[-73.92348498545121,40.71714217264227],[-73.92347481994251,40.717130800858776],[-73.92346278696263,40.71711764551386],[-73.92345233852761,40.717105895934544],[-73.9234400204311,40.717092929200454],[-73.92342891999998,40.71708199872715],[-73.92341861434724,40.717069015738886],[-73.92341069923306,40.71705692524823],[-73.92340522164913,40.717044494456296],[-73.92340130597876,40.71703208279619],[-73.92339299433867,40.71701539074571],[-73.92338539779368,40.71700294966382],[-73.92337834167147,40.71699424629945],[-73.9233705225069,40.71698144505297],[-73.92336526383998,40.71697452587328],[-73.92335355684713,40.716965899489246],[-73.92323157113603,40.716699439157736],[-73.92316776085315,40.716478914883695],[-73.92313445722391,40.716479468945536],[-73.92311718168406,40.7164761884567],[-73.92311149603819,40.7164691877292],[-73.92310361124993,40.716451532494105],[-73.92307579911481,40.71638923476658],[-73.92305500014334,40.71634266479355],[-73.92326039798908,40.716249734135566],[-73.92331244916078,40.716228849896986],[-73.92333477379779,40.71622532626148],[-73.92336627583249,40.716217305606555],[-73.92338579746858,40.716212788670816],[-73.92340491085953,40.71619240448004],[-73.9234316927592,40.716172521098784],[-73.923471440708,40.716146666624006],[-73.92361145155549,40.71610350817141],[-73.92359001003155,40.71602814869508],[-73.92431329961575,40.715847056576926],[-73.92459408281047,40.71553437585567],[-73.92483287559027,40.715282912041516],[-73.924885535076,40.71526718765272],[-73.92485230936016,40.71519860069851],[-73.92478745137129,40.71507559354622],[-73.92476629284414,40.715032049512025],[-73.92476128782138,40.71501947468185],[-73.92476257206155,40.715004076274084],[-73.92476493340082,40.71498865277105],[-73.92476155049347,40.71497597144857],[-73.92472981629025,40.71493796647545],[-73.92469009338389,40.71488095703314],[-73.92466013078393,40.71486688040744],[-73.92461501505854,40.71482708365439],[-73.92455568744016,40.71475365373298],[-73.9245258166989,40.714690417847095],[-73.92451226161334,40.71462077218081],[-73.92448221734749,40.714523452300774],[-73.92443153174074,40.7143647761765],[-73.9244191096702,40.714349612525055],[-73.92441453117704,40.71434853851902],[-73.92440910864609,40.71434991286812],[-73.92439028050508,40.71434917913255],[-73.92436718832798,40.71433082947492],[-73.92434751117979,40.714307053009584],[-73.92433779606843,40.7142537087111],[-73.92433699107767,40.71420158735142],[-73.92433637463601,40.714140081755644],[-73.92433589757124,40.71412259346656],[-73.92405909736993,40.71411156014769]]]]}}]}