{"type":"FeatureCollection","features":[{"type":"Feature","properties":{"district":"316"},"geometry":{"type":"MultiPolygon","coordinates":[[[[-73.90404639808888,40.67922059801935],[-73.90349050037075,40.67889804853495],[-73.90352412011137,40.67874735398972],[-73.90344448043226,40.67837677216574],[-73.9033710112737,40.67798208970817],[-73.90331599637037,40.67786922339934],[-73.90335417591348,40.67711153487672],[-73.90345933672943,40.67603500336557],[-73.90346379622451,40.67592789064096],[-73.90346553686025,40.675886008967126],[-73.90346630685997,40.675852663865285],[-73.90346878200982,40.67574418093823],[-73.90347157270585,40.67562246005604],[-73.90347355400607,40.67553576136355],[-73.90347422342496,40.6755066832779],[-73.90346228820728,40.67545791947529],[-73.90344608600435,40.67539167709215],[-73.90322131898075,40.67447291368914],[-73.90296768930087,40.67343939526196],[-73.90266008288728,40.67219717915041],[-73.90228822560121,40.670936006966826],[-73.9019821814221,40.66967007119881],[-73.90166767824613,40.66841352919237],[-73.90126570398694,40.66688065066762],[-73.90085135606435,40.66534589502575],[-73.90042827387184,40.663807998267515],[-73.90002523004026,40.66228163145169],[-73.89965233345795,40.660735416378955],[-73.8992176082817,40.65911140419276],[-73.89931652897394,40.659067390868586],[-73.89956558976087,40.65895657561087],[-73.89955404528465,40.658717770675935],[-73.89956120190195,40.658477801158035],[-73.89958721631335,40.6582379457658],[-73.89963205515856,40.65799948035238],[-73.89969548002867,40.65776370185909],[-73.89977704187528,40.657531847562794],[-73.89982508237944,40.65742191752266],[-73.89985350444977,40.6573568607415],[-73.89988986836593,40.657274520947595],[-73.89991753773911,40.65720405350559],[-73.89994428113245,40.65713595242472],[-73.89999263787581,40.657012795393946],[-73.90011715857253,40.65675464374826],[-73.90026310933793,40.656501643777936],[-73.90042988275628,40.65625531720541],[-73.90061662515983,40.656017128907756],[-73.90082224832406,40.65578846732958],[-73.90104546033776,40.655570598610154],[-73.90128478168985,40.655364649178466],[-73.90153856617985,40.6551715977334],[-73.90623376712283,40.65204889617814],[-73.90755209573506,40.65118592573089],[-73.90804711498413,40.6516122768855],[-73.90855790522765,40.652095937794705],[-73.90933499313002,40.652808592144346],[-73.90960604860783,40.65304729591472],[-73.91014414233533,40.65352115917434],[-73.91067316848012,40.65400683246462],[-73.9108433063198,40.654102500481365],[-73.91093487182496,40.65417328041059],[-73.91097757827748,40.654227785788926],[-73.91105779342742,40.65431590053127],[-73.91189477077549,40.65507328622617],[-73.91218860289018,40.65533965935298],[-73.91236458896573,40.65551356524955],[-73.9131435625853,40.65622086404799],[-73.91377943741749,40.65678367971154],[-73.91402878145264,40.65700370958772],[-73.91441247690435,40.6573624197938],[-73.91556629612182,40.65839257171841],[-73.91572803769873,40.65855012827697],[-73.91707363502475,40.65974535396352],[-73.91741819283509,40.660051192101506],[-73.91818493104374,40.66072620891572],[-73.91860168163767,40.66111804860716],[-73.91893607368587,40.661416011176335],[-73.91920451043306,40.66165520014907],[-73.91945727792728,40.661880785292624],[-73.91959479824045,40.661995679790735],[-73.91973128815404,40.662123350770976],[-73.92011326171593,40.66245910456832],[-73.92077834190044,40.663075239081664],[-73.92105081749146,40.663313856038634],[-73.92165571659791,40.66384357516782],[-73.92209902558534,40.6642513320838],[-73.92287860200528,40.66495209942512],[-73.92318216244207,40.6652260197063],[-73.92402553241969,40.665981699747505],[-73.92409679254186,40.666042447258924],[-73.92416411290085,40.666105746819646],[-73.92422733607837,40.666171450424066],[-73.92428631415888,40.666239404445335],[-73.92434090930465,40.66630944999005],[-73.92439099384752,40.666381423278004],[-73.9242446720856,40.66644500038643],[-73.9233103976441,40.666853460425514],[-73.92323224603328,40.66688762807009],[-73.92311978521666,40.66693679363259],[-73.92303439380227,40.66697412593355],[-73.9228110659899,40.667071761216505],[-73.92275257220436,40.66709733296227],[-73.92272714241189,40.66736505692959],[-73.92265530045283,40.66812711501417],[-73.92263210766683,40.66837321106478],[-73.92261354322443,40.66856410724237],[-73.92254432235495,40.669275811197444],[-73.9224669682933,40.67011693025594],[-73.92245355442307,40.67026114885402],[-73.92238401788495,40.67100876347348],[-73.92229950367113,40.671900262101],[-73.9222144432103,40.67279163355241],[-73.92213153379178,40.67368388950982],[-73.92204843320636,40.67457439719823],[-73.92197495287213,40.675348547772515],[-73.92190090521733,40.676131621547235],[-73.92183232561919,40.676849042261836],[-73.92182361015792,40.676938358473116],[-73.92094539940011,40.67688783362508],[-73.92012233307223,40.6768568997422],[-73.91923562380018,40.67681320045693],[-73.91830550321117,40.67675318132717],[-73.91739586981699,40.67669358452107],[-73.91646486032269,40.67664704054926],[-73.91645747529957,40.67672602873553],[-73.91635492183977,40.677823537190164],[-73.91630119795475,40.67857711243375],[-73.91639300075401,40.678905848881186],[-73.9165399872181,40.67963749735314],[-73.91668638370811,40.680371378789665],[-73.91676207442167,40.68075559994103],[-73.9168301148301,40.68110098173274],[-73.91697632824899,40.68183415941815],[-73.91712138528143,40.68256847168672],[-73.91726632656643,40.683303224553406],[-73.91741294336087,40.68403405152308],[-73.91755763291395,40.68476719192137],[-73.9176263055923,40.68511814934088],[-73.91763742514941,40.68517497680864],[-73.91764776574716,40.68522782275846],[-73.91765638722461,40.68527188366829],[-73.91766435176335,40.685312586686045],[-73.91770109452911,40.68550035916787],[-73.91776547588543,40.68581854081255],[-73.91778426812586,40.68591141261919],[-73.9178353117744,40.68616366960068],[-73.91784937476159,40.68623316791465],[-73.91789200384292,40.686449159179105],[-73.91791548411955,40.68656593630199],[-73.91799890699448,40.68696577961103],[-73.91804606958485,40.68721324777111],[-73.91768113918742,40.687004094801544],[-73.91755226133515,40.686930223552565],[-73.91679832884886,40.68649719987202],[-73.91663016209311,40.68639172055204],[-73.91604599329078,40.686072069470804],[-73.91550033953943,40.68576152453067],[-73.91528963516097,40.685645536995445],[-73.91470083380548,40.685316945240636],[-73.91468915479078,40.685310419422834],[-73.91453972421824,40.68522691848022],[-73.91379700170991,40.68479987228624],[-73.91330728110815,40.68452085832436],[-73.91303721372338,40.68436780968285],[-73.91227301214865,40.68393496519218],[-73.91151192885334,40.683504990590635],[-73.91076954423528,40.68309270127248],[-73.9100246099535,40.68265737109004],[-73.9092746294849,40.68223432408578],[-73.90905527028094,40.68210557474549],[-73.90886025553432,40.681994036465625],[-73.90851642314055,40.68180394382526],[-73.90777158791644,40.6813778465742],[-73.90701820283938,40.68094827979063],[-73.90671941184443,40.68076742244536],[-73.90628287126724,40.68050675607502],[-73.90565934202584,40.68014069193064],[-73.90554836824855,40.68007160273965],[-73.90549303545258,40.68003715816064],[-73.90541416610561,40.679992643381325],[-73.9047893606793,40.679650457373775],[-73.90456891332471,40.67951553702173],[-73.90404639808888,40.67922059801935]]]]}}]}