{"type":"FeatureCollection","features":[{"type":"Feature","properties":{"district":"409"},"geometry":{"type":"MultiPolygon","coordinates":[[[[-73.81709738756452,40.70402980158784],[-73.8169667032834,40.70374128468205],[-73.81669961247347,40.70315609390823],[-73.81658976802586,40.70291543632359],[-73.81637824492984,40.70245196446883],[-73.81613853900221,40.70193756955727],[-73.81593702970403,40.70150511714811],[-73.81551777557523,40.70060539202804],[-73.8154625225453,40.7004928649587],[-73.81540728114821,40.700380337879544],[-73.81537190731052,40.700310310891744],[-73.81513940169282,40.699850009396535],[-73.81503311836114,40.69963959667209],[-73.81492343267226,40.69942244007551],[-73.81466945852729,40.698970712290006],[-73.81441548719306,40.69851897336271],[-73.81430922747006,40.69833533205672],[-73.81415191730615,40.6980399706406],[-73.81407050392085,40.69788713031347],[-73.81369419776813,40.697266795884],[-73.8136563435565,40.69720105168872],[-73.81361850786888,40.6971367390344],[-73.81338900459056,40.69675775423742],[-73.81315381582611,40.696369358745784],[-73.81299801763726,40.696112062590224],[-73.81245207934886,40.695198124552576],[-73.81224188596062,40.69483223614998],[-73.81209135559418,40.694559621023686],[-73.81202952196867,40.694447630948396],[-73.811769901511,40.69399390483764],[-73.81172663232407,40.693919298615825],[-73.81139791276169,40.69332231362474],[-73.81102158733421,40.69262288748596],[-73.81075433184695,40.69215870156334],[-73.8106329831089,40.6919473825769],[-73.81072587521027,40.69192242230356],[-73.81098810575406,40.69185504473452],[-73.81186315059246,40.69163008016463],[-73.81271762135624,40.69140780382239],[-73.81309863128277,40.69131810196269],[-73.81354014221486,40.69121136783586],[-73.81438437980432,40.69097195376603],[-73.81522826603552,40.69073347712807],[-73.8160748755888,40.690492270969166],[-73.8169264130452,40.69025014736652],[-73.81818710974092,40.689892074807005],[-73.81906075263923,40.68964244197441],[-73.81993922363728,40.68939369293801],[-73.82085264084236,40.689134383409026],[-73.82189346623468,40.68883822600447],[-73.82293216268151,40.68854300110572],[-73.82398034338131,40.68824526825732],[-73.82501128872681,40.687952318427946],[-73.82587322402716,40.68770864977386],[-73.82670197292126,40.68747320944752],[-73.8275302139173,40.68723948273673],[-73.82835620813941,40.68700280995246],[-73.8291824226466,40.68677080576231],[-73.83003934070088,40.68652935908597],[-73.83088556296508,40.68628654791147],[-73.83172298312515,40.68605070539833],[-73.83257747644114,40.68580634592297],[-73.83342190640434,40.68556778227131],[-73.83425993108531,40.68532893750008],[-73.83463115620022,40.68522321754759],[-73.83511671898272,40.68508493305055],[-73.83595082841032,40.684843546886015],[-73.8371765168474,40.68449539241853],[-73.83807769003315,40.68423890970228],[-73.83894069323384,40.683993802968],[-73.83978600226305,40.68375415853421],[-73.84063004126287,40.683513910571506],[-73.84119605663226,40.6833513668441],[-73.84134091906111,40.683310503082154],[-73.84151391931402,40.683261681456045],[-73.84237029108908,40.683018422215014],[-73.84323090375231,40.682775197560645],[-73.84408914893683,40.68252929856467],[-73.84451063724626,40.682415088341926],[-73.84496190679067,40.6823074553191],[-73.84505837855724,40.6822844518409],[-73.84513349880055,40.68226653350302],[-73.84520200269056,40.682250668650994],[-73.84529042325494,40.682230444826175],[-73.84583237438072,40.68210645072892],[-73.84671464241593,40.6818584931912],[-73.84757845129975,40.681579868280494],[-73.8478681763194,40.68148683212303],[-73.8484443463383,40.68129070363662],[-73.84930144925285,40.681046672407966],[-73.85014804258537,40.680808106977466],[-73.85099089282878,40.68056836766063],[-73.85168205505987,40.68036797739782],[-73.85223417083924,40.680207890968084],[-73.85267726102957,40.680079415082716],[-73.85335057286477,40.67986701654508],[-73.85398014767986,40.67968303546612],[-73.85439330700231,40.67966011368441],[-73.85653410305866,40.679527725297966],[-73.85683137043236,40.6795093383046],[-73.85721078550016,40.67948586434508],[-73.8577926836297,40.67945571614152],[-73.85819836034565,40.679430849068794],[-73.8585896258019,40.67940272939967],[-73.85952486262212,40.679345468416194],[-73.86046658753757,40.6792785624501],[-73.8607086187618,40.679263735809734],[-73.86140618634687,40.67922099276556],[-73.86234580535023,40.67916478614704],[-73.86286742479696,40.67912212114375],[-73.86328297030332,40.6790793711762],[-73.86330964247928,40.67916796966387],[-73.86334943527028,40.67935164088912],[-73.86378674469518,40.681113747024504],[-73.86398968858057,40.68192956266774],[-73.86410096679134,40.68237285029281],[-73.8645649436505,40.68224615007708],[-73.86499404523258,40.6821289698999],[-73.86601993220731,40.681919587028176],[-73.86627174135589,40.6830340683551],[-73.8662900301626,40.683115007207775],[-73.86630263853499,40.683186694603144],[-73.86631496942952,40.68324894282336],[-73.86650407824489,40.68447405176159],[-73.86659790844888,40.68526471668403],[-73.8665984834927,40.685269559070086],[-73.86687058566343,40.686330590624145],[-73.86701802992113,40.68683034903661],[-73.86728057406931,40.68774928560641],[-73.8674569407755,40.688400441659354],[-73.86752749823646,40.68871618273903],[-73.86762340412545,40.68914534184562],[-73.86776832168447,40.68980328887615],[-73.86790948512783,40.690476261267015],[-73.86797688110053,40.69079558428422],[-73.86805885286068,40.69118395823953],[-73.86859478104992,40.69388437469202],[-73.86868454370578,40.6940346919058],[-73.86840518949181,40.69473118624401],[-73.86681433894117,40.69506535080997],[-73.8645570888365,40.69552045651172],[-73.8636865642969,40.69569141837754],[-73.8623683414169,40.69595014324539],[-73.86016364237489,40.696384657940214],[-73.85928498359583,40.69655371121901],[-73.85833078917206,40.69674371065102],[-73.85744447739619,40.696912984716974],[-73.85657185216525,40.69706469102301],[-73.85567421922907,40.69717935704995],[-73.85478796060379,40.697296623755925],[-73.85283544386301,40.697548962130796],[-73.85274511620044,40.69756075009828],[-73.85271216325377,40.69766900124534],[-73.85270110981254,40.69781825496345],[-73.85270769744943,40.697968562052296],[-73.85273208500585,40.69811812011574],[-73.85277397002437,40.698265098014765],[-73.85283262278917,40.698407766080834],[-73.85338486406039,40.69925429881466],[-73.85386250337697,40.69986485523978],[-73.85437470785419,40.70042065278317],[-73.85449964630278,40.70055185496033],[-73.85441427839639,40.70054369162113],[-73.85410116469248,40.70051374882694],[-73.85103780683605,40.700233285990656],[-73.85070842256266,40.70020312510456],[-73.84913837243018,40.69828274069948],[-73.8482091285551,40.698518408043626],[-73.84789669792623,40.698600328819936],[-73.84700405316528,40.69882521050992],[-73.84502472877107,40.69935937701635],[-73.84427352104306,40.69978050611149],[-73.84359398129983,40.700172351925296],[-73.84293789500602,40.7005544287169],[-73.84275678397348,40.700657615422074],[-73.84275664180579,40.70065769530599],[-73.84275648798824,40.70065776813786],[-73.84256543771004,40.70075056564938],[-73.84256526008005,40.700750654866084],[-73.84256506948223,40.70075073585621],[-73.84236544272248,40.70083242813582],[-73.84236528892906,40.70083249041294],[-73.84236512282934,40.700832543961795],[-73.84215844733754,40.70090256363428],[-73.84156378094423,40.70110059871778],[-73.83947815241453,40.70269019433179],[-73.83867901361894,40.703220735190314],[-73.83856418282997,40.703296969393556],[-73.83841399424854,40.70338280879289],[-73.83696237811037,40.70421245233334],[-73.8373309558822,40.704854976455806],[-73.83784595160888,40.70562954088197],[-73.83806860430386,40.70595740457043],[-73.83809941700953,40.706030749379934],[-73.83812205297731,40.70610579976039],[-73.83813635325511,40.70618202879271],[-73.83814221741352,40.706258901280755],[-73.83813960381958,40.70633587747473],[-73.83812853122815,40.70641241693573],[-73.83810907735058,40.706487982282596],[-73.8380813787442,40.70656204297167],[-73.8378431590862,40.70695192480703],[-73.83714702988892,40.70795704626353],[-73.83828428770201,40.708409358625126],[-73.83824907634097,40.70846403648297],[-73.83811546460507,40.70866508903574],[-73.83750107652855,40.70954933526643],[-73.83746681789067,40.70959234628061],[-73.83745716488237,40.70960245197112],[-73.83745203013774,40.709607109183864],[-73.8374402842535,40.70961599282134],[-73.83742962348052,40.70962046046215],[-73.83740936273624,40.70962086607781],[-73.83740291315131,40.70962014279906],[-73.83738279782057,40.709611838870025],[-73.83736613588788,40.70960494520319],[-73.83696796858926,40.70943572150086],[-73.83695093682172,40.70942822498912],[-73.83694489682541,40.70942458795943],[-73.83692322075862,40.709407635150995],[-73.83662604160972,40.7091343750678],[-73.83658565050324,40.70909451089552],[-73.83657636629536,40.70908535541352],[-73.83657339002202,40.709083222920874],[-73.83653103120221,40.70904159170508],[-73.83639167881152,40.70891203933802],[-73.8363696429638,40.708891557284026],[-73.83631179405216,40.708837255987],[-73.83481230689935,40.70964335096004],[-73.83441030572138,40.70984642865709],[-73.83404791977469,40.710029392278244],[-73.83437728466588,40.71030276025538],[-73.83487619727299,40.71072319304349],[-73.83539956086865,40.711192236658135],[-73.83570351397292,40.711464634500835],[-73.835900721417,40.711641370769],[-73.8349471749916,40.71216272817278],[-73.83416307649371,40.71259164027736],[-73.83366214423471,40.7128648558003],[-73.83363557218605,40.71287971761272],[-73.83356895747797,40.71291697538191],[-73.83351144789184,40.71294616677605],[-73.83347837945026,40.712962951583684],[-73.83339529375984,40.71300793054598],[-73.83321652728132,40.71307098744671],[-73.83150084437894,40.71398771190662],[-73.83115645829162,40.714097674792235],[-73.83089910762234,40.714165601771526],[-73.83071326553424,40.71420824241954],[-73.83059306504438,40.71423706356279],[-73.82990416415647,40.71441868947396],[-73.82894852114048,40.71464874072145],[-73.8272072083061,40.71507371335613],[-73.82638237503474,40.71531067533935],[-73.82606003226817,40.71539934860242],[-73.82600337564062,40.71541363129475],[-73.8258552754084,40.715453396951716],[-73.82559716395322,40.71551433694041],[-73.82546060666236,40.715549645593455],[-73.82483222413238,40.714639992916034],[-73.82469343908902,40.71444314436217],[-73.82456081264586,40.71425503067776],[-73.82428940517953,40.71387006610603],[-73.82426449164649,40.71381642504511],[-73.82394405983383,40.71323329934461],[-73.82383889061457,40.71294087838176],[-73.82365751444189,40.71273244727884],[-73.82346858226788,40.71252793978276],[-73.82327224065169,40.71232751446062],[-73.82306864237184,40.71213132661016],[-73.82285794486634,40.711939528439096],[-73.82264031155772,40.71175226865632],[-73.82174715523601,40.711040303814585],[-73.8210335440485,40.710427036396105],[-73.8207781897368,40.71015690028957],[-73.82064159701369,40.70997122687117],[-73.82048703139793,40.70979443084687],[-73.82039055040663,40.70968027696205],[-73.82032313008781,40.70961096082472],[-73.8202625598923,40.709538073272405],[-73.81970626876841,40.70869185355482],[-73.819544262272,40.70843837380857],[-73.8192154306295,40.70785211647473],[-73.81916136281795,40.70776033205814],[-73.81910729583801,40.70766853940728],[-73.81905016952271,40.70757022091515],[-73.81899305614112,40.70747190358618],[-73.81892102527372,40.70734990604437],[-73.81861275278246,40.70685339956124],[-73.81828566411757,40.70630285048332],[-73.81821670992083,40.70618123393682],[-73.81809905196823,40.70597371523017],[-73.81740010534992,40.70463605315334],[-73.81735529075509,40.70455013978489],[-73.81709738756452,40.70402980158784]]]]}}]}