{"type":"FeatureCollection","features":[{"type":"Feature","properties":{"district":"406"},"geometry":{"type":"MultiPolygon","coordinates":[[[[-73.82600337564062,40.71541363129475],[-73.82606003226817,40.71539934860242],[-73.82638237503474,40.71531067533935],[-73.8272072083061,40.71507371335613],[-73.82894852114048,40.71464874072145],[-73.82990416415647,40.71441868947396],[-73.83059306504438,40.71423706356279],[-73.83071326553424,40.71420824241954],[-73.83089910762234,40.714165601771526],[-73.83115645829162,40.714097674792235],[-73.83150084437894,40.71398771190662],[-73.83321652728132,40.71307098744671],[-73.83339529375984,40.71300793054598],[-73.83347837945026,40.712962951583684],[-73.83351144789184,40.71294616677605],[-73.83356895747797,40.71291697538191],[-73.83363557218605,40.71287971761272],[-73.83366214423471,40.7128648558003],[-73.83416307649371,40.71259164027736],[-73.8349471749916,40.71216272817278],[-73.835900721417,40.711641370769],[-73.83597707110864,40.711705956977035],[-73.83600510752622,40.711729671038306],[-73.83602786459986,40.71174906391301],[-73.83611476516884,40.71182514637092],[-73.83640857617405,40.71164176976264],[-73.83640880153037,40.71164162567438],[-73.83640902618181,40.71164149967805],[-73.83671639080272,40.71147031625224],[-73.83671661545013,40.71147019142802],[-73.83671685306675,40.71147007483101],[-73.83703669303644,40.711311803655654],[-73.8370368821743,40.71131170457974],[-73.83703708361969,40.71131161423264],[-73.83736817903997,40.71116692878361],[-73.8377089419937,40.71103648427147],[-73.83805756129476,40.71092087278479],[-73.83952312732589,40.71049645145666],[-73.83972439908847,40.71039876558755],[-73.83978025101415,40.710385524079264],[-73.84019199323723,40.71027682891331],[-73.84024206327332,40.7102619311882],[-73.84069154199142,40.71015321355891],[-73.84133936609089,40.709946234363315],[-73.84263067991336,40.709432977234485],[-73.84271890271145,40.709398073376654],[-73.84299091278466,40.709286927640775],[-73.84314625301297,40.70922345641893],[-73.8432588082512,40.709168179635995],[-73.8434863043233,40.70905577479079],[-73.84356973293522,40.70901960898236],[-73.84381825734819,40.70891181962248],[-73.84417281256174,40.70877842134382],[-73.84453738846398,40.7086610549711],[-73.84491011169675,40.7085603313706],[-73.84528898563842,40.708476679497984],[-73.84567198215157,40.708410366125065],[-73.84615958443793,40.708350820046604],[-73.8466572411161,40.708318642341034],[-73.84681838082106,40.70831209763993],[-73.84697970185577,40.708309102486695],[-73.84714106923582,40.708309659387524],[-73.84730234866852,40.708313767888974],[-73.84746340447353,40.70832142455682],[-73.84762410188819,40.70833262298435],[-73.8485783880697,40.70843872032639],[-73.84876725167258,40.70844457893031],[-73.84895712614203,40.7084381375231],[-73.84914591506968,40.70841932047818],[-73.84933156214035,40.70838833368097],[-73.84951207338275,40.708345660871686],[-73.85042905370643,40.7080870670551],[-73.85059051032657,40.708039883423496],[-73.85110121675432,40.70790098302179],[-73.8526822571381,40.70741814532281],[-73.85275370628602,40.70739714706218],[-73.85471652519973,40.70676949632792],[-73.85469943412299,40.70674255462185],[-73.85470823889318,40.705210974144535],[-73.85411264779805,40.704425934071686],[-73.8539610547933,40.70426421713142],[-73.85392154219974,40.704224612102685],[-73.85389480159387,40.704183419197946],[-73.85371219871217,40.703917887883634],[-73.85305663901227,40.70313704661421],[-73.85252019054444,40.702291723617726],[-73.85266535417709,40.70230763096922],[-73.8551810971139,40.70258326737938],[-73.85529275904749,40.70259550128526],[-73.85531830284238,40.70267309507068],[-73.855350187959,40.70301315061702],[-73.85542839173296,40.70331819866338],[-73.85539423502298,40.70334863753442],[-73.85543954935126,40.70348741015396],[-73.85556678318521,40.70368052273584],[-73.85559770948579,40.70372622565153],[-73.85562587251538,40.70375342102256],[-73.85571454298014,40.70384282664999],[-73.85581295400105,40.703926400887156],[-73.8559200537607,40.70400324025779],[-73.8567325773891,40.70456147428644],[-73.85743062386592,40.70503461403372],[-73.85812511548458,40.705513569548074],[-73.85817736692826,40.705549604236815],[-73.85823279845748,40.70559168988512],[-73.85827681823903,40.70563616597642],[-73.85832909298354,40.70568172656366],[-73.85842210878099,40.70576971318553],[-73.85851166109214,40.705859756807385],[-73.85859767140244,40.70595177849803],[-73.85868006470538,40.70604569776172],[-73.85875876834946,40.706141432108865],[-73.85883371332724,40.7062388976189],[-73.8589277465748,40.70639247831476],[-73.8590106373112,40.70655001584793],[-73.85908198369157,40.70671079072312],[-73.85914149221188,40.70687406414214],[-73.85919485646384,40.707053550507176],[-73.85920276792697,40.70709204338418],[-73.85923858244145,40.70727274511009],[-73.85926363257646,40.70750345530025],[-73.85928511596993,40.707675918747405],[-73.85938681646334,40.708492313675244],[-73.85948456041913,40.70926256960275],[-73.85953948851738,40.709685841802575],[-73.85955858511612,40.70985056800515],[-73.85962505360848,40.71034616449101],[-73.85963516607262,40.710421604114885],[-73.85966362136904,40.710621210811354],[-73.85971586311456,40.71082085402347],[-73.85975346058552,40.71102288555944],[-73.85977617985922,40.711226356944614],[-73.85978389267622,40.71143032267563],[-73.85977666082577,40.71163381134059],[-73.85975932862962,40.711845059282254],[-73.85971313648841,40.71260553908367],[-73.85966066761631,40.71329464674517],[-73.85965416837627,40.713379961412514],[-73.85964254795842,40.71349314467935],[-73.85963511364042,40.71391991037822],[-73.85963616980666,40.71397813137194],[-73.85964031106872,40.71400921924124],[-73.85968907299396,40.714200293472466],[-73.85975358765751,40.71438923381072],[-73.85983356779448,40.71457492297631],[-73.85992855499961,40.71475627044785],[-73.86003789875775,40.714932235724135],[-73.86062663290484,40.715487169565],[-73.86122406383268,40.716037328764955],[-73.86152886655591,40.71631493670872],[-73.86183368326833,40.71659254334638],[-73.86213638216947,40.716876773998855],[-73.8624254052537,40.71714814705257],[-73.862721951645,40.717428018945824],[-73.86301850142435,40.71770788185701],[-73.86357111137092,40.71827667989171],[-73.86412297578198,40.71884480791707],[-73.86468729523524,40.719427075602376],[-73.865238706778,40.71997671002763],[-73.86547610936374,40.72028093775383],[-73.86604176152642,40.72090092260158],[-73.86657241077614,40.72148663694876],[-73.86705641381577,40.722013651463286],[-73.86711404562114,40.722076403898164],[-73.86730908346742,40.722289024023006],[-73.8676592737985,40.72266125662906],[-73.86821068530563,40.72325474863846],[-73.868453052108,40.72348549408582],[-73.86876817321776,40.72382090666133],[-73.86927215672416,40.72441183571603],[-73.86929270423025,40.72443592947432],[-73.86931025918213,40.724465990825465],[-73.86970765351231,40.72514643414158],[-73.87021135905727,40.72618732638213],[-73.87063185133093,40.72705885402548],[-73.87074561011444,40.727269538871305],[-73.87084539424183,40.72748459344074],[-73.8709308131908,40.72770320666988],[-73.87100156107077,40.727924524028644],[-73.87101127403585,40.72795761140166],[-73.87113283389877,40.728371719797266],[-73.87132455417441,40.72892989539711],[-73.87143142313145,40.729241023372],[-73.87146074249573,40.7293263741386],[-73.87154749998865,40.72936238282856],[-73.87235229539972,40.729655484845495],[-73.8731694263057,40.72995061869611],[-73.87408913174015,40.73028279187949],[-73.8747547553187,40.73054189175393],[-73.87495349518932,40.73061869577326],[-73.8750915415561,40.7306713632198],[-73.87479414179867,40.73075902678017],[-73.8739739307465,40.73100325864141],[-73.87315527206962,40.73124396981539],[-73.87192058402668,40.73161392828473],[-73.87171009720723,40.73168446479944],[-73.87149800706483,40.731750586653945],[-73.87135597210751,40.73179204304143],[-73.87128940485768,40.73181626187207],[-73.87112231381228,40.731871529009034],[-73.87100363161183,40.73190568314212],[-73.87086492771883,40.73194559889658],[-73.87075965162758,40.73197845188898],[-73.86932050856946,40.73242754322795],[-73.86904838731198,40.73251391794113],[-73.86860949295486,40.73265317614595],[-73.86845203540034,40.7327133755156],[-73.86835853307497,40.732740158542185],[-73.86831806828769,40.73275361978701],[-73.86827761517472,40.732767071649505],[-73.86810582281171,40.73282625451552],[-73.86792586488245,40.732872569248386],[-73.86682801264074,40.73324578029664],[-73.86581270615748,40.733583862478476],[-73.8652477262991,40.73376224872942],[-73.86491748978455,40.73386651004691],[-73.86447086311264,40.734007274428095],[-73.86271376422756,40.734515053656125],[-73.86181828281356,40.73477006020524],[-73.86162341867559,40.734829973149836],[-73.8608717262406,40.73506108568492],[-73.86040989227443,40.73520126025286],[-73.85985925612107,40.735368385685696],[-73.85930876830142,40.73553612834745],[-73.85872465829331,40.73570864419666],[-73.85862016449931,40.735739907103785],[-73.85801767671622,40.73590708352752],[-73.85661541096455,40.73633083668272],[-73.85628567711039,40.73642604200309],[-73.85567427717288,40.73658665815374],[-73.85505083413389,40.736720221623315],[-73.85415418099689,40.73687781334146],[-73.85340136545196,40.737002757776686],[-73.85244443475906,40.737202312982056],[-73.85187067482495,40.73734292918622],[-73.85130352672203,40.73751172754279],[-73.85087606336612,40.737653859934404],[-73.85079216460862,40.73768175602176],[-73.84995440284413,40.737960304354466],[-73.84956453785416,40.73810609239612],[-73.84859447960451,40.73850117106348],[-73.84801295264873,40.73876334447148],[-73.84750820278065,40.739007807039364],[-73.84746313966669,40.73895203102379],[-73.84732494191466,40.73877145757543],[-73.84721361587883,40.738643986684075],[-73.84689366193675,40.738671217394334],[-73.84683930150699,40.73866921721521],[-73.84674882036029,40.7386517895026],[-73.84664652799182,40.73861704635408],[-73.84646970086132,40.73853949369595],[-73.84623339566755,40.73843584548417],[-73.84591093947772,40.738307055412825],[-73.84575822374096,40.73820688531823],[-73.84565725443402,40.7381174010476],[-73.84556447917227,40.738002282361236],[-73.84547089500556,40.73787322194963],[-73.84538360452511,40.737609183797794],[-73.84533739787076,40.73727772469665],[-73.84514466081863,40.73651093465257],[-73.84504021116554,40.73609538006267],[-73.8448890569042,40.73591158087904],[-73.84485477813107,40.735751469808385],[-73.84480079557775,40.73554280320157],[-73.84474675769555,40.73536256493392],[-73.8447001317296,40.73520812753742],[-73.84467595516688,40.735112344700326],[-73.84458707110481,40.73487970422385],[-73.8445141556929,40.73470317770475],[-73.8444276585073,40.73449809611571],[-73.84441482926788,40.734471270150046],[-73.84435434678426,40.734344792846166],[-73.8442858422926,40.734201447450154],[-73.84407921519004,40.73384780001359],[-73.84371576279118,40.73322572994625],[-73.84284582512353,40.73206764274157],[-73.84273328630793,40.73195087369637],[-73.84212248089864,40.73134443634909],[-73.84148231450513,40.730739088935124],[-73.84100260941224,40.73027889994406],[-73.84055003848917,40.72984472990818],[-73.83981650437467,40.729037386925285],[-73.83920093959843,40.72826686303023],[-73.83925131485033,40.728150577393016],[-73.8389995345475,40.727718190991396],[-73.83894398029078,40.7276227839544],[-73.83859702300174,40.72702693359709],[-73.83821301303284,40.72636743735597],[-73.83813251140042,40.72620154440877],[-73.8378878861857,40.72569743229844],[-73.8377685695804,40.72543391303396],[-73.83749280062835,40.72512785109173],[-73.83731312227303,40.7247301580282],[-73.83697735802956,40.724071060301476],[-73.83608484334498,40.72269695731669],[-73.83597139644365,40.72253908663712],[-73.83582950926652,40.722341718150936],[-73.83554819936055,40.72197002498789],[-73.8341282331352,40.72023053289907],[-73.8337588817707,40.71983829601564],[-73.83278345993918,40.71880242943909],[-73.83232126490047,40.718329897586784],[-73.83185305523264,40.71791214330438],[-73.83155245772058,40.717680562807224],[-73.83138469573959,40.71755131712129],[-73.83102009771679,40.717331724027716],[-73.83067949915387,40.71717906419952],[-73.83042902352463,40.716962770934636],[-73.8297627450989,40.71672368308964],[-73.82898761262553,40.716520981148825],[-73.8281573649354,40.716293882016444],[-73.82808320630943,40.71627359666786],[-73.82776412966626,40.7161776325897],[-73.82762869158084,40.71613689851865],[-73.82750753205794,40.71610045812886],[-73.82714076706792,40.71600685117405],[-73.82639604681975,40.71565521403372],[-73.82625020254231,40.715565023849294],[-73.82612095309473,40.7154925266359],[-73.82600337564062,40.71541363129475]]]]}}]}