{"type":"FeatureCollection","features":[{"type":"Feature","properties":{"district":"401"},"geometry":{"type":"MultiPolygon","coordinates":[[[[-73.906473146101,40.79018117520826],[-73.90251173700936,40.789472084525855],[-73.90239936084069,40.78955162068608],[-73.90206327886757,40.78949440599798],[-73.90203428533763,40.789414686929405],[-73.90169686089969,40.78932032382413],[-73.90077375891737,40.789143818251766],[-73.90032629743821,40.78900766282588],[-73.90010759371353,40.78885048959726],[-73.89961637941789,40.788400496236584],[-73.89924748492666,40.788148659625996],[-73.89783180169579,40.787182170394246],[-73.89725536651027,40.786750956944125],[-73.89702410373327,40.786658156960264],[-73.89693993562564,40.78662466896988],[-73.89651204913615,40.78606865902618],[-73.89637905280328,40.78613108158371],[-73.89640086049128,40.78615791177374],[-73.89635251322336,40.786179310203444],[-73.89630366096527,40.78611920156276],[-73.89635026246752,40.78609731961296],[-73.89636888344322,40.78612023020118],[-73.8965025483398,40.786057467844245],[-73.89637855982231,40.78590898109463],[-73.89626785620464,40.78596057194658],[-73.89628652699828,40.785983718636665],[-73.89621803522918,40.786016022871465],[-73.89604376668132,40.78579998748064],[-73.89611381864466,40.78576734216558],[-73.89613322780036,40.785791403565035],[-73.89624259793263,40.78574043299211],[-73.89614015089818,40.785607167288475],[-73.89600516772023,40.785666650238774],[-73.8960274447233,40.78568928642591],[-73.89598001322786,40.785711675769114],[-73.89592962975526,40.78564894431399],[-73.89597673220963,40.78562708775993],[-73.89599975377492,40.78565575201857],[-73.89612632632591,40.78559316880902],[-73.8958291437706,40.78522152738367],[-73.89683173824393,40.78442766370363],[-73.89677700751378,40.78438842096382],[-73.89675857252605,40.78440327601188],[-73.89672269281469,40.784377549325946],[-73.89673441949779,40.78436809984458],[-73.896725136462,40.784361442109336],[-73.89673005421017,40.784357478677975],[-73.89672052173829,40.78435064397955],[-73.89675564813932,40.78432233937594],[-73.89677182707501,40.78433394109597],[-73.89678844985491,40.78432054842684],[-73.89682807945586,40.78434896455133],[-73.89680660094295,40.78436627062641],[-73.8968593888039,40.78440412048289],[-73.89715534459026,40.784194962857086],[-73.89707707781552,40.78413383132825],[-73.89706703746879,40.78414001728153],[-73.89703510112183,40.78411616279183],[-73.89704389204375,40.784107116234566],[-73.89703074018229,40.78409900429759],[-73.8970608713766,40.78407329931869],[-73.89707152062674,40.784078550196675],[-73.89708343278143,40.78407808489566],[-73.89711913265347,40.78410051273538],[-73.89711097076531,40.78410812969591],[-73.89719273550543,40.78416853742992],[-73.89729699220412,40.7840948569068],[-73.89742198964578,40.78399631472129],[-73.8973312936992,40.783928202908804],[-73.89732187904336,40.78393486538144],[-73.89728742994517,40.78391529820931],[-73.89729998277292,40.78390625498508],[-73.89728745934838,40.783896237700986],[-73.89731570793737,40.783871959800834],[-73.89734203875136,40.78387103037478],[-73.89737209664166,40.78389345361351],[-73.89736205077543,40.783902975520505],[-73.89745426052167,40.783970873888535],[-73.89761396594382,40.78384496778496],[-73.89772226528189,40.783743464835744],[-73.89764011148233,40.78368211898574],[-73.89763132509488,40.78368830543217],[-73.8975962455615,40.78367111966742],[-73.89761381306091,40.783661604422434],[-73.8975987852621,40.78365015495016],[-73.89763142253398,40.78362492848966],[-73.8976583777849,40.783625905984884],[-73.89768592455722,40.783650708788436],[-73.89768026826688,40.783659757508204],[-73.89775342406512,40.783714260479],[-73.89781043874578,40.783684461545235],[-73.89767518069633,40.783584272755505],[-73.89876162661504,40.78274894588209],[-73.89885620397878,40.78280430460415],[-73.90114577552112,40.782711106090765],[-73.90172373164525,40.78212925463805],[-73.9017493505536,40.78211723760423],[-73.90179093113794,40.78210191951075],[-73.90185231621935,40.782080999301165],[-73.90186925588468,40.78207403378078],[-73.90188611408095,40.782065817778886],[-73.90191949285614,40.78204562135182],[-73.90195095786946,40.78202128909468],[-73.90198345147945,40.78199048351661],[-73.90205256434417,40.78191807899379],[-73.90211707957931,40.781847706125134],[-73.90217132811898,40.781789696591844],[-73.90217815316002,40.78178056186365],[-73.90218359459601,40.78176976980434],[-73.90218781908904,40.7817571387905],[-73.90230443036812,40.78151989321865],[-73.90251248041793,40.78110825136081],[-73.90258049398925,40.7808148981238],[-73.90267723582107,40.780594131742575],[-73.90267677081076,40.78035257204688],[-73.90257929672349,40.780289120835754],[-73.90234303882677,40.78018724480475],[-73.90225480922867,40.780274168316964],[-73.90218303706659,40.78035936664966],[-73.90214967411914,40.780780493954445],[-73.90203565790117,40.78120310196311],[-73.90129127618927,40.78185841927053],[-73.90121754094692,40.78181911242214],[-73.90072847022454,40.781979495284205],[-73.90034572668016,40.78206605451143],[-73.90034960780339,40.78216441002758],[-73.89947947752695,40.78216988593748],[-73.89865437844038,40.78199542032097],[-73.89718604766,40.78280720996373],[-73.89711384250623,40.782723074238795],[-73.89705399045003,40.782756353988034],[-73.89704959252558,40.782765534360855],[-73.89704323062661,40.78277402374394],[-73.89703508510803,40.78278158146891],[-73.8970253868894,40.78278799327923],[-73.89701441090851,40.78279307740418],[-73.8970024683272,40.78279668971211],[-73.89698989770996,40.78279872779638],[-73.8969770554258,40.782799133878555],[-73.89693680919576,40.782821513126514],[-73.89693431565571,40.78282897645503],[-73.89693017255576,40.782836003263434],[-73.89692450306323,40.78284238465581],[-73.89691747572284,40.78284793092336],[-73.89690929944615,40.78285247718422],[-73.89690021730097,40.7828558882851],[-73.89689049928526,40.782858062819265],[-73.89688043430058,40.782858936141196],[-73.89687032156341,40.78285848228835],[-73.8968194082322,40.782886793069544],[-73.89681423587825,40.78289503743022],[-73.89680735475012,40.782902525368435],[-73.89679895119066,40.78290905410818],[-73.89678925277083,40.782914446848835],[-73.89677852212706,40.7829185575531],[-73.896767049849,40.782921274901554],[-73.89675514661018,40.78292252530735],[-73.89671207983272,40.7829464718301],[-73.8967051055797,40.78295592059966],[-73.89669611582852,40.782964328280634],[-73.89668537333635,40.78297144912824],[-73.89667319209086,40.782977075009974],[-73.89665992813276,40.78298104148904],[-73.89664596914923,40.78298323263073],[-73.89659467842824,40.783011751710454],[-73.8965929555898,40.7830180363388],[-73.89658991331801,40.78302402499032],[-73.89658563233219,40.78302955877],[-73.89658022621815,40.78303449085178],[-73.89657383841445,40.783038690374205],[-73.89656663840664,40.78304204591256],[-73.89655881723034,40.783044468435335],[-73.89655058240254,40.78304589366641],[-73.89654215241556,40.78304628379055],[-73.89653375093987,40.78304562845671],[-73.89648431039487,40.78307311987219],[-73.89648030614353,40.783080778194076],[-73.8964747453439,40.783087852637294],[-73.89646777052972,40.78309416186992],[-73.89645956047883,40.78309954417395],[-73.8964503256308,40.783103861590305],[-73.89644030269285,40.78310700345506],[-73.89642974857273,40.78310888923598],[-73.89641893379346,40.78310947059673],[-73.8963637901165,40.78314013294812],[-73.89636175532127,40.78314623294422],[-73.89635837149744,40.78315197633306],[-73.8963537393544,40.78315719217942],[-73.8963479967541,40.78316172524875],[-73.89634131460822,40.78316544062743],[-73.8963338917914,40.78316822773789],[-73.89632594922224,40.78317000362985],[-73.89631772328842,40.78317071544904],[-73.8963094588111,40.78317034201019],[-73.89625542678834,40.78320038730855],[-73.89624754407659,40.78321098853213],[-73.89623741636106,40.783220423821255],[-73.89622533536871,40.78322842139333],[-73.8962116490908,40.783234750879025],[-73.89619675175913,40.783239229958],[-73.89618107249005,40.783241729610715],[-73.89600297728207,40.78333672680559],[-73.8960029746129,40.78333843572971],[-73.89600184769618,40.78334099600848],[-73.89600072122916,40.78334270391842],[-73.8959995927677,40.783345265368446],[-73.89599846784515,40.78334697210709],[-73.89599734071673,40.78334868001643],[-73.89599508912009,40.78335123928012],[-73.89599396353509,40.783352946688254],[-73.89599283640752,40.78335465392742],[-73.89599058636236,40.783356360823234],[-73.89598833543734,40.78335806654554],[-73.89598721051166,40.78335977495934],[-73.89598496024763,40.78336148068216],[-73.89598271020205,40.78336318757785],[-73.8959804586154,40.78336489329939],[-73.89597933369124,40.78336660054043],[-73.89597708342495,40.783368307435765],[-73.89597370959545,40.783369157429654],[-73.89597146021234,40.78337086315301],[-73.89596921060689,40.7833725700488],[-73.895966961234,40.78337342273279],[-73.89596471318603,40.78337427374269],[-73.8959624629191,40.78337598063774],[-73.89595909107102,40.78337683163814],[-73.89595684169943,40.78337768331678],[-73.89595346918897,40.78337853498653],[-73.89595122113805,40.7833793876714],[-73.89594784708648,40.78338023816689],[-73.89594559903541,40.78338109085166],[-73.8959422278604,40.78338108780771],[-73.89593997981186,40.78338193881713],[-73.8959366084164,40.78338193577283],[-73.89593435904277,40.78338278845619],[-73.89593098852885,40.783382785412506],[-73.89592761601936,40.783383636076344],[-73.89592536842233,40.78338363404658],[-73.89592199724719,40.783383631002046],[-73.89591974987054,40.78338362897238],[-73.89574317446552,40.78348169687218],[-73.89574204733012,40.7834834036063],[-73.89574091951673,40.7834859655569],[-73.89573979238119,40.78348767229102],[-73.895738666112,40.783490233237835],[-73.89573641583534,40.78349194012847],[-73.89573528958118,40.78349364686331],[-73.89573416110616,40.78349620881325],[-73.89573191171156,40.783497915202],[-73.89572966209673,40.78349962142299],[-73.89572853496068,40.78350132815697],[-73.89572628424341,40.7835030345444],[-73.89572403484864,40.78350474076549],[-73.89572178390993,40.78350644765521],[-73.89571953451573,40.783508153373624],[-73.89571728512063,40.78350985959456],[-73.89571503618066,40.78351071227402],[-73.8957127861239,40.783512418661786],[-73.89571053606808,40.78351412437944],[-73.89570828646852,40.783514975885474],[-73.89570491394792,40.783515827547916],[-73.89570266455114,40.783517534438666],[-73.89570041495216,40.783518385441994],[-73.89569704375366,40.78351923710538],[-73.89569479437311,40.783520089281474],[-73.89569142185209,40.78352094094353],[-73.89568917225284,40.78352179194662],[-73.89568579973165,40.783522643608514],[-73.89568355167428,40.78352349511546],[-73.89568018115324,40.78352349206446],[-73.89567680775026,40.78352434372528],[-73.8956745597077,40.78352434169024],[-73.89567118851015,40.783525192347724],[-73.89566781666664,40.78352518929517],[-73.89566556994643,40.78352518726114],[-73.89566219788254,40.78352518420822],[-73.89548449389792,40.78362581315674],[-73.89548336629524,40.78362837342969],[-73.89548111532768,40.78363093452662],[-73.89547998840342,40.78363264125833],[-73.895478860579,40.78363520220117],[-73.89547661117344,40.78363690841738],[-73.89547543359778,40.783639431956885],[-73.89547323239839,40.78364117674759],[-73.89547098099025,40.783643737173826],[-73.89546985516674,40.783645444409],[-73.89546760309794,40.78364800433197],[-73.8954653536906,40.78364971121807],[-73.89546310428497,40.783651416931434],[-73.89546085333464,40.78365312381602],[-73.89545747946451,40.78365482850926],[-73.89545522917614,40.78365653472425],[-73.89545297844766,40.78365824043622],[-73.89545072904039,40.78365994681942],[-73.89544735628876,40.78366079847411],[-73.89544510555913,40.7836625046885],[-73.89544173234748,40.78366421055454],[-73.8954394842822,40.78366506205673],[-73.89543611175135,40.78366591320871],[-73.89543273787916,40.78366761840379],[-73.8954293653481,40.78366846955557],[-73.89542711573868,40.783669321726215],[-73.89542374320666,40.78367017338039],[-73.89542037133839,40.78367102335983],[-73.8954169988062,40.78367187501382],[-73.89541362761648,40.78367187195444],[-73.89541025508599,40.783672722435554],[-73.89540688321479,40.78367357408985],[-73.89540463560797,40.783673572049935],[-73.89540126441818,40.78367356899018],[-73.89539789122522,40.78367442014045],[-73.89539452003537,40.78367441708048],[-73.89497050778469,40.78390977515609],[-73.89496938282542,40.783911482387126],[-73.89496825431544,40.783914043324245],[-73.89496712712696,40.78391660476514],[-73.8949659994976,40.78391916620562],[-73.89496487233382,40.78392087360212],[-73.89496374514509,40.78392343504298],[-73.8949614950554,40.783925141248446],[-73.89496036654488,40.783927702185494],[-73.8949581162335,40.7839294090608],[-73.8949569899512,40.7839311162905],[-73.89495473917539,40.78393367620455],[-73.89495248886473,40.783935382409645],[-73.89495023877406,40.78393708878242],[-73.89494798934476,40.78393879498823],[-73.89494573903268,40.78394050186329],[-73.89494348828156,40.78394220756525],[-73.89494123885189,40.783943913770926],[-73.89493898787907,40.783945620142674],[-73.89493673844997,40.78394732584567],[-73.89493336455074,40.783949031026054],[-73.8949311149247,40.78394988368955],[-73.89492886549341,40.78395159056508],[-73.89492549206099,40.78395244103119],[-73.89492324130786,40.783954147402824],[-73.89491986941803,40.78395499787016],[-73.89491649686505,40.78395584950948],[-73.89491424878214,40.78395670167149],[-73.89491087689022,40.78395755331123],[-73.89490750367845,40.783958403274404],[-73.89490525405176,40.78395925593742],[-73.89490188284752,40.783959252863056],[-73.89489851095713,40.78396010332976],[-73.89489513840363,40.783960954968435],[-73.8948917671993,40.783960951893754],[-73.8948895204644,40.78396094984461],[-73.89488614903966,40.78396094676958],[-73.89488277736915,40.78396179740357],[-73.89487940528318,40.78396179432773],[-73.89471407574707,40.78405218232513],[-73.8947129472233,40.78405474426485],[-73.89471182090499,40.784057305201415],[-73.89471069373157,40.78405901309798],[-73.89470956586952,40.78406157453567],[-73.89470843734621,40.78406413597278],[-73.89470618790536,40.78406584284393],[-73.89470506070607,40.78406840310953],[-73.89470393353307,40.78407011050346],[-73.89470168208086,40.784072670914476],[-73.8946994326406,40.784074377115374],[-73.89469830546656,40.78407608501183],[-73.8946960551453,40.78407779070929],[-73.89469380303213,40.78408035061698],[-73.89469155358954,40.78408205799042],[-73.89468930260671,40.784083763687164],[-73.89468705316577,40.78408546988785],[-73.89468480372443,40.784087176255994],[-73.89468255475359,40.78408802774256],[-73.89467918150086,40.78408973358617],[-73.89467693073784,40.78409143928286],[-73.89467468044253,40.78409229194073],[-73.89467130785162,40.78409399711461],[-73.89466905910052,40.78409484876863],[-73.89466568518694,40.78409655394114],[-73.89466343621449,40.784097406097416],[-73.89466006453448,40.78409825655732],[-73.89465669042814,40.7840991081876],[-73.89465444233707,40.784099960344506],[-73.89465106977336,40.784100811976046],[-73.8946476978734,40.784101661932816],[-73.89464432578036,40.78410165885011],[-73.89464095409804,40.78410251048215],[-73.89463870581557,40.78410250842669],[-73.89463533325232,40.784103359555175],[-73.89463196336318,40.78410335647413],[-73.89462859149046,40.78410335339116],[-73.89462522027893,40.78410335030869],[-73.89462184906739,40.78410334722614],[-73.89461960232768,40.78410334517171],[-73.89461622957337,40.78410334208758],[-73.89461285968423,40.784103339005966],[-73.89460948850238,40.784102481711194],[-73.8946061179521,40.78410247862878],[-73.89460274809359,40.78410162083242],[-73.8946005027043,40.78410076573966],[-73.89459713215408,40.78410076265699],[-73.89459376141417,40.784099904859566],[-73.89459039243674,40.78409904756624],[-73.89458814484637,40.78409819079597],[-73.89458477700003,40.784096479961725],[-73.89458253161195,40.78409562436604],[-73.89457916087248,40.7840947665682],[-73.8945769155157,40.78409305609042],[-73.89457354631736,40.78409219946651],[-73.89457130228215,40.78409048965993],[-73.89456793242468,40.78408963186257],[-73.89456568684875,40.78408792088179],[-73.89456344281467,40.7840862105725],[-73.89456119789936,40.78408450009483],[-73.89455895254234,40.7840827902868],[-73.8945567085086,40.78408107997736],[-73.89455446447525,40.784079369500375],[-73.89455221889895,40.784077659189435],[-73.89444200402878,40.78413478596401],[-73.89444424758956,40.78413734998453],[-73.8944453679978,40.784139914651576],[-73.89444648755898,40.78414162343064],[-73.89444760797004,40.7841441864224],[-73.89444872749878,40.784146749915905],[-73.89444984658601,40.78414931391158],[-73.8944509676892,40.78415102336213],[-73.89445208809978,40.784153586856405],[-73.89445320630647,40.78415615034865],[-73.89445320224524,40.78415871231047],[-73.89445432265605,40.78416127580473],[-73.89445431859409,40.78416383826914],[-73.89445431453211,40.784166400733525],[-73.89445543406228,40.7841689637244],[-73.89445543000036,40.784171526188786],[-73.89445542593764,40.784174089155755],[-73.89445429828503,40.78417665008856],[-73.89445429422305,40.78417921255295],[-73.89445429016187,40.78418177451477],[-73.89445316162484,40.784184337122],[-73.89445315891773,40.78418604487319],[-73.89445203258721,40.784188605807145],[-73.89445090405182,40.78419116724167],[-73.89445089998894,40.784193730208635],[-73.89444977211542,40.784196291141185],[-73.89444864490142,40.784198853079445],[-73.89444639412775,40.78420055944172],[-73.89444626716217,40.78420084746907],[-73.89444526559195,40.78420312087619],[-73.89444413705687,40.78420568180807],[-73.89444301207911,40.78420738903388],[-73.89444076038995,40.78420995061222],[-73.89443851027796,40.78421165630483],[-73.89443738174248,40.78421421723664],[-73.89443513229146,40.784215922929796],[-73.89443288195793,40.784217629124676],[-73.89443062982726,40.78422019070242],[-73.89442838037586,40.78422189639543],[-73.89442612938156,40.784223602086996],[-73.89442387992808,40.78422530895258],[-73.89442163047634,40.784227014645474],[-73.89441937948088,40.78422872083949],[-73.89441600690766,40.78422957246411],[-73.8944137565729,40.78423127882614],[-73.89441038352749,40.784232983991956],[-73.89440813388596,40.78423383614261],[-73.89440475995946,40.784235540804886],[-73.89440251185977,40.78423639345941],[-73.89439913994977,40.78423724340892],[-73.89439576535982,40.78423894924297],[-73.89439351571711,40.784239801895936],[-73.89439014314564,40.78424065184455],[-73.89438677123262,40.784241503468934],[-73.89438340001409,40.7842415003794],[-73.89438002743974,40.78424235200297],[-73.89437777934137,40.78424320348438],[-73.89437440790236,40.784243200394386],[-73.8943710362094,40.784244052018494],[-73.89436766410917,40.78424404892768],[-73.89436429222933,40.784244045837],[-73.89436092101069,40.784244042746806],[-73.89435754979205,40.784244039656514],[-73.8943541792346,40.78424403656673],[-73.89435080801594,40.784244033476256],[-73.8943474367973,40.78424403038566],[-73.89434406693495,40.78424317258176],[-73.89434069637754,40.7842431694916],[-73.89433845098685,40.78424231439374],[-73.89433507958192,40.784241456588155],[-73.89433170770221,40.78424145349651],[-73.89432833850138,40.78424059569277],[-73.8943249692988,40.7842397390616],[-73.89432272324987,40.78423888228757],[-73.8943193554051,40.78423717027294],[-73.8943159846592,40.784236314142674],[-73.89431373860972,40.78423545787104],[-73.8943103701031,40.78423374652564],[-73.89430812383338,40.78423289025371],[-73.89430475620783,40.78423117941151],[-73.89430251063389,40.78422946842565],[-73.89429914077286,40.784228610620445],[-73.89429689674007,40.78422690080857],[-73.89429465182663,40.78422519049327],[-73.89429240713474,40.78422347950802],[-73.89429016222071,40.78422176969521],[-73.894287916866,40.78422005988193],[-73.89428567419272,40.78421749418395],[-73.89428342927906,40.784215784371014],[-73.89428118458673,40.78421407405564],[-73.89428006418011,40.78421151156487],[-73.89427782014918,40.78420980125004],[-73.89427670106862,40.78420723658264],[-73.89427445571475,40.7842055267691],[-73.89427333530932,40.78420296377569],[-73.89427234227921,40.78420068803762],[-73.89427221777078,40.78420039977975],[-73.8942699737407,40.784198689297234],[-73.89426885333718,40.78419612529866],[-73.89426773293212,40.78419356230519],[-73.89426773700127,40.78419099984079],[-73.89426661791954,40.78418843634595],[-73.89426549616009,40.78418672639043],[-73.89426550022745,40.78418416509872],[-73.89426438136819,40.78418160043138],[-73.89426438543667,40.78417903846956],[-73.89426438950595,40.784176476005165],[-73.89426326844023,40.78417391301104],[-73.89426327250953,40.784171350546664],[-73.89426327657965,40.784168787579695],[-73.89426440578228,40.784166226650186],[-73.89426440985156,40.784163664185776],[-73.89426441392003,40.784161102223955],[-73.89426554092007,40.784158540287265],[-73.89426554498851,40.784155978325444],[-73.89426667217501,40.78415427043326],[-73.89426779939447,40.78415170899932],[-73.89426892793541,40.784149148069154],[-73.89427005647708,40.784146586636396],[-73.89427118281549,40.78414402469903],[-73.89427230999976,40.78414231797947],[-73.89427343787919,40.784139757048635],[-73.89427456620199,40.78413719444295],[-73.89427681587486,40.784135488753115],[-73.8942779422112,40.78413292782084],[-73.89428019298664,40.78413122162937],[-73.89428244401624,40.784128661226205],[-73.89428357120184,40.784126953333846],[-73.89428582131494,40.784125247644226],[-73.89428807366836,40.7841226860695],[-73.89429032312,40.7841209803792],[-73.89429257257153,40.78411927468885],[-73.89429482356759,40.784117567827174],[-73.89429819660933,40.784115863167294],[-73.89430044826526,40.784114156976244],[-73.89430269724292,40.78411330482706],[-73.89430607050464,40.784111600167144],[-73.8943083199573,40.78410989330382],[-73.89431169252586,40.784109041682306],[-73.89431394329883,40.784107335992765],[-73.89431731520412,40.78410648554317],[-73.8943195641813,40.784105633393644],[-73.89432293810421,40.78410392823128],[-73.89432631001107,40.78410307660874],[-73.89432968257826,40.78410222548932],[-73.89433193064029,40.78410222755058],[-73.89433530408975,40.7841013759292],[-73.89433867599368,40.78410052598158],[-73.89434204720506,40.78410052907241],[-73.89434541911152,40.78409967744932],[-73.89434879098404,40.78409968054057],[-73.89435216288956,40.78409882941986],[-73.89435553343966,40.7840988325097],[-73.89435890531216,40.78409883560066],[-73.89436227586225,40.7840988386903],[-73.89436564839593,40.78409884178167],[-73.89436789535586,40.78409884384125],[-73.89437126521202,40.78409970114189],[-73.89437463642336,40.78409970423176],[-73.89437800561764,40.78410056203418],[-73.89438137682902,40.78410056512387],[-73.8943847466873,40.78410142125144],[-73.894388116543,40.78410227905417],[-73.89439148706077,40.78410313635481],[-73.8943937333264,40.78410399312771],[-73.8943971023026,40.78410484975668],[-73.89440047237905,40.784105707559256],[-73.89440271776407,40.784106563828594],[-73.89440608560544,40.78410827517072],[-73.89440945612562,40.78410913129818],[-73.89441170169825,40.78411084228198],[-73.89441394573005,40.78411255209164],[-73.8944173155867,40.784113409893514],[-73.89441956115967,40.784115120877175],[-73.89442180585223,40.78411683118987],[-73.8944251736954,40.78411854202887],[-73.89442741772675,40.78412025250838],[-73.89442966330127,40.78412196282172],[-73.89443190733392,40.784123672631054],[-73.89454100171902,40.78406569180148],[-73.89453987995458,40.78406398184858],[-73.89453763595257,40.7840614173269],[-73.89453651639226,40.784059707376024],[-73.89453539598001,40.784057143882514],[-73.89453315040416,40.78405543407379],[-73.8945320321953,40.78405287108486],[-73.89453091043023,40.78405116180196],[-73.8945297900202,40.784048597135744],[-73.89452979407845,40.78404603517387],[-73.89452867451675,40.784044326395566],[-73.89452755410505,40.78404176290198],[-73.8945275581642,40.78403920043754],[-73.89452643907502,40.78403663694515],[-73.89452644313421,40.784034074480715],[-73.89452532137066,40.78403236452766],[-73.8945253254291,40.784029802565776],[-73.89452532948833,40.784027240101324],[-73.89452533354756,40.78402467763686],[-73.89452533760678,40.784022115172405],[-73.89452646478249,40.784020408450324],[-73.89452646884088,40.78401784648843],[-73.89452647290192,40.78401528285129],[-73.89452760010901,40.784012721414754],[-73.89452760416816,40.784010158950295],[-73.8945287313436,40.78400845222819],[-73.89452985766891,40.784005890790816],[-73.89453098619732,40.784003329858024],[-73.89453211337336,40.7840016226333],[-73.89453323969948,40.78399906052579],[-73.89453436822657,40.78399650026307],[-73.89453549474229,40.783994792367615],[-73.89453662327107,40.78399223093218],[-73.89453887271378,40.7839905240643],[-73.89453999900702,40.78398881734128],[-73.89454225068302,40.78398625693358],[-73.89454450012433,40.78398455073572],[-73.89454562730077,40.783982842840764],[-73.89454787875515,40.783980282935325],[-73.8945501290769,40.78397857724072],[-73.89455237851881,40.783976870372605],[-73.89455462950154,40.7839751646785],[-73.89455687894136,40.78397345898296],[-73.8945591270302,40.78397260632534],[-73.89456137779301,40.783970900128345],[-73.89456475258554,40.783969194289575],[-73.89456700067413,40.78396834163182],[-73.89456925165618,40.783966635937446],[-73.89457262333175,40.78396578481005],[-73.8945748729912,40.783964079114355],[-73.89457824554897,40.78396322748503],[-73.89458049495691,40.783962376503474],[-73.89458386619214,40.7839615248728],[-73.89458724029164,40.78396067374722],[-73.89458948837965,40.78395982108902],[-73.89459286093435,40.783958971134524],[-73.89459623349163,40.78395811950469],[-73.894599605357,40.7839581225886],[-73.8946018543245,40.78395727110365],[-73.89460522464705,40.783957274186],[-73.89460859742448,40.78395642255599],[-73.89461196774698,40.783956425638124],[-73.89461533983267,40.78395642872177],[-73.89461758656739,40.783956430776286],[-73.89462095843268,40.78395643385957],[-73.89478403798553,40.783867752196656],[-73.894784042034,40.7838651902347],[-73.89478516699724,40.78386348300547],[-73.89478629551606,40.78386092039486],[-73.89478742315134,40.78385835895612],[-73.89478855031756,40.783856652231435],[-73.8947896775111,40.78385409129485],[-73.89479192694161,40.783852385092096],[-73.89479305545998,40.783849822481436],[-73.89479418196471,40.78384811575607],[-73.89479643340498,40.783845555845744],[-73.89479868437782,40.78384384964428],[-73.894799810691,40.7838412875341],[-73.89480206144242,40.78383958183494],[-73.8948043117537,40.78383787563276],[-73.89480656184554,40.783836168760224],[-73.8948088121558,40.783834463060515],[-73.89481106158621,40.78383275618731],[-73.89481331101466,40.78383105048671],[-73.89481556198575,40.78382934478748],[-73.89481781141478,40.783827638584235],[-73.8948211852849,40.78382678694901],[-73.89482343559632,40.78382508007633],[-73.89482680814122,40.78382423011498],[-73.894829058232,40.783822523242],[-73.89483242945695,40.783821671604045],[-73.89483467907728,40.783820820617706],[-73.89483805162446,40.783819968980765],[-73.89484029970372,40.78381911682024],[-73.8948436715877,40.783818266355226],[-73.89484704479582,40.78381741471862],[-73.89485041888466,40.783816563585304],[-73.89485266696445,40.78381571092194],[-73.89485603750025,40.78381571399715],[-73.89485941004423,40.783814864034845],[-73.89486278124117,40.783814867110465],[-73.89486615243811,40.78381487018597],[-73.8948695243234,40.78381401854751],[-73.89487177237572,40.783814020598264],[-73.89487514357262,40.783814023673514],[-73.89487851410831,40.78381402674806],[-73.89530927247162,40.783576113840674],[-73.8953104009646,40.78357355172741],[-73.89531152813407,40.78357099028301],[-73.89531265528277,40.78356928305055],[-73.89531378156971,40.78356672210793],[-73.89531490871933,40.78356501420533],[-73.89531603721086,40.78356245276211],[-73.89531716281653,40.78356074552819],[-73.8953194131044,40.78355903981845],[-73.89532054159487,40.78355647887775],[-73.89532166654018,40.783554770973105],[-73.89532391727117,40.783553063588414],[-73.89532616689742,40.78355135787795],[-73.89532729404543,40.783549650645334],[-73.89532954345214,40.7835479442645],[-73.89533179418005,40.783546238554905],[-73.89533404446784,40.78354453234229],[-73.895336293875,40.78354282545876],[-73.89533854482298,40.78354111974924],[-73.89534079288642,40.783540267578914],[-73.8953430422914,40.78353856186789],[-73.89534641770213,40.78353685667682],[-73.8953486664265,40.78353600450694],[-73.89535091515083,40.783535152337016],[-73.89535428769524,40.78353344764567],[-73.89535653730258,40.78353259447128],[-73.89535878536627,40.78353174179803],[-73.89536215788948,40.783530891820966],[-73.89536440727545,40.78353003914881],[-73.89536777913914,40.78352918799831],[-73.89537115254632,40.78352833634652],[-73.89537339926663,40.7835283383863],[-73.89537677178947,40.78352748840881],[-73.8953801423107,40.78352749146869],[-73.8953823916963,40.783526638796175],[-73.89538576376026,40.783526641857286],[-73.89538913428143,40.7835266449169],[-73.89539138234375,40.783525792745564],[-73.89539475352608,40.783525795805616],[-73.89557132620163,40.78343029207835],[-73.89557132888004,40.783428584326956],[-73.89557245735939,40.78342602288115],[-73.89557358251643,40.783424314974205],[-73.89557470965516,40.78342260824172],[-73.89557471233532,40.78342089931764],[-73.89557584013514,40.78341919258572],[-73.89557696507053,40.78341748534864],[-73.89557809154891,40.78341577794543],[-73.89558034226599,40.78341407223096],[-73.89558146808277,40.783412364994625],[-73.89558259522293,40.78341065708938],[-73.89558372015722,40.783408950354804],[-73.89558597109615,40.783407243467735],[-73.89558709823427,40.78340553673511],[-73.89558934629073,40.78340468405735],[-73.89559047254714,40.7834029773239],[-73.89559272282347,40.78340127110621],[-73.89559497087893,40.7834004189309],[-73.8955972209365,40.78339871154024],[-73.89559834673399,40.783397859520846],[-73.89560059567164,40.78339700684365],[-73.89560284506697,40.78339529995486],[-73.89560509444264,40.783394448953224],[-73.8956073427189,40.783393596275296],[-73.89560959077286,40.78339274476982],[-73.89561184015021,40.78339189259538],[-73.89561408908669,40.78339104042051],[-73.89561633714233,40.78339018774219],[-73.89561858673805,40.78338933674052],[-73.89562195925335,40.78338848508058],[-73.89562420596896,40.783388487115474],[-73.8956264555653,40.78338763561104],[-73.89562870294206,40.783387637646435],[-73.89563207479596,40.78338678598561],[-73.89563432371547,40.783386788022284],[-73.89563657043101,40.78338679005692],[-73.8956388198078,40.783385937881945],[-73.89564218899949,40.78338594093298],[-73.89564443703739,40.78338594296865],[-73.8956466839733,40.78338594500329],[-73.89582887869102,40.78328788283218],[-73.89583000582087,40.78328617609715],[-73.89583113074673,40.78328446936013],[-73.89583225921442,40.78328190740915],[-73.89583338568474,40.78328019950084],[-73.89583338835644,40.78327849174938],[-73.89583563840297,40.78327678485662],[-73.89583676553248,40.78327507812152],[-73.89583789399823,40.78327251717565],[-73.89583901958483,40.78327081043914],[-73.89584014671493,40.78326910320144],[-73.89584239698218,40.78326739580615],[-73.89584352190923,40.78326568789633],[-73.89584577149783,40.7832648368902],[-73.89584689708595,40.78326312898091],[-73.89584914801137,40.78326142326136],[-73.89585139739391,40.78325971754036],[-73.89585364676445,40.7832588648586],[-73.89585477191144,40.78325715694888],[-73.89585702195569,40.78325545072576],[-73.89585927154378,40.783254599719356],[-73.89586151959166,40.783253747036255],[-73.89586376897547,40.783252040142344],[-73.89586601922456,40.7832511891364],[-73.89586826881501,40.78325033645456],[-73.89587051752302,40.78324948427445],[-73.895873889365,40.783248633779216],[-73.89587613741172,40.7832477815984],[-73.89587838612034,40.783246928915574],[-73.89588063504668,40.783246077908146],[-73.89588400755137,40.783245226240524],[-73.89588625558453,40.78324522827149],[-73.89588850385215,40.78324437558806],[-73.89589187635481,40.78324352509288],[-73.89589412438791,40.783243527123695],[-73.8958974942336,40.78324353016784],[-73.89589974382339,40.783242677485376],[-73.89590199053409,40.78324267951485],[-73.89590536170209,40.78324268255997],[-73.89590760973516,40.78324268459052],[-73.89606377738431,40.783157201805366],[-73.89605475062164,40.783154658247035],[-73.89604638629909,40.783151035274116],[-73.89603890601761,40.78314642887223],[-73.89603250795665,40.78314096108156],[-73.8960273616236,40.78313477676361],[-73.89602360336293,40.78312803976313],[-73.89602133274404,40.783120928567456],[-73.89602060992327,40.78311363157761],[-73.89602145405019,40.78310634211689],[-73.89601782384614,40.783106514386404],[-73.89601420934171,40.7831062055302],[-73.89601072006482,40.78310542490737],[-73.89600746174868,40.783104196172566],[-73.89600453312782,40.78310255655932],[-73.89600202294623,40.783100555751716],[-73.89600000726824,40.783098254378906],[-73.89599854717348,40.783095722177805],[-73.89599768690616,40.78309303587995],[-73.89599745253429,40.78309027688646],[-73.89598684946756,40.783091648073054],[-73.89597609404456,40.78309164317299],[-73.8959654931479,40.78309026232607],[-73.89595534925105,40.78308754493175],[-73.89594595178797,40.78308356852495],[-73.89593756889454,40.78307844656377],[-73.89593043975806,40.78307232519215],[-73.8959247677924,40.78306537906997],[-73.89592071483409,40.78305780638952],[-73.8959183965248,40.7830498232205],[-73.89591787901169,40.78304165734484],[-73.89591917706016,40.78303354175757],[-73.89591630068941,40.78303421415835],[-73.89591331597727,40.783034506113545],[-73.89591030935654,40.783034409168565],[-73.89590736789447,40.78303392613079],[-73.89590457677136,40.78303307098831],[-73.89590201681399,40.78303186850472],[-73.89589976215484,40.78303035350214],[-73.89589787808545,40.78302856985281],[-73.89589641916558,40.783026569208516],[-73.89589542764335,40.78302440950489],[-73.89589493223168,40.78302215328371],[-73.89589494727689,40.78301986588171],[-73.89588453814993,40.783021052976466],[-73.89587401391613,40.78302092256811],[-73.89586366122478,40.78301947820858],[-73.89585376205285,40.78301675923798],[-73.89584458602465,40.78301283971309],[-73.89583638306814,40.78300782639029],[-73.89582937660745,40.7830018558177],[-73.89582375747756,40.78299509061613],[-73.89581967872653,40.782987715049686],[-73.89581725144693,40.78297993000689],[-73.89581654175001,40.78297194752918],[-73.89581756896523,40.78296398503543],[-73.89579357075607,40.78294587109695],[-73.89578212877042,40.78294652881941],[-73.8957706996527,40.782945752520185],[-73.89575959236579,40.782943563184915],[-73.89574910717248,40.78294001999783],[-73.89573952751834,40.782935218741734],[-73.89573111236946,40.782929289208724],[-73.89572408921173,40.78292239169151],[-73.89571864790125,40.7829147126502],[-73.89571493553198,40.78290645967179],[-73.89571305245946,40.782897855858295],[-73.89571304958785,40.78288913379581],[-73.89570846360164,40.78288802752724],[-73.89570414333328,40.78288641781714],[-73.89570018382658,40.782884340078326],[-73.89569667218873,40.78288184002007],[-73.895693685674,40.78287897264241],[-73.89569128998419,40.782875801026265],[-73.89568388888817,40.7828703328314],[-73.89567466290403,40.782872352949376],[-73.89566511840792,40.78287314451159],[-73.89565553638548,40.78287268421486],[-73.89564619892714,40.78287098561005],[-73.89563738092339,40.78286809870336],[-73.89562934197218,40.78286410848399],[-73.89562231873639,40.78285913242214],[-73.89561651797653,40.78285331701077],[-73.8956121104639,40.78284683345285],[-73.89560922595314,40.7828398726212],[-73.89560794936233,40.78283263943926],[-73.89560831827315,40.78282534684833],[-73.89561032182452,40.78281820953857],[-73.89560553354495,40.7828174961036],[-73.89560094568526,40.7828162332782],[-73.89559666665073,40.78281445090127],[-73.89559279754957,40.78281219108818],[-73.89558942980368,40.78280950723547],[-73.89558664298858,40.78280646275913],[-73.89558450295308,40.7828031295963],[-73.8955830602634,40.782799586505384],[-73.89558243942686,40.78279671690002],[-73.89558227729276,40.782793811363206],[-73.89558257621643,40.78279091210382],[-73.8955708104995,40.78279237694935],[-73.89555888835953,40.78279244707983],[-73.89554709422629,40.78279112082212],[-73.89553570947561,40.7827884298171],[-73.89552500571652,40.78278443826483],[-73.89551523831133,40.78277924139284],[-73.89542536848006,40.782719970804514],[-73.89477429053537,40.78225359249442],[-73.89542197971666,40.781717771016446],[-73.89535750567514,40.7816576571336],[-73.89535083030222,40.78166394584016],[-73.89527872466527,40.78172268695972],[-73.89528796173529,40.7817292382267],[-73.89462439338403,40.782269809190915],[-73.89460091774589,40.78225315898151],[-73.8952373986715,40.78173465477362],[-73.89521264204438,40.78171709670773],[-73.89524343107055,40.78169201531765],[-73.8952661225134,40.7817081101757],[-73.89531098163927,40.7816715658942],[-73.89531667833319,40.78167560575181],[-73.89534092170135,40.78165585474458],[-73.8953485046738,40.781649265484525],[-73.89532558010085,40.781626273911115],[-73.89535590038525,40.78159565149613],[-73.89534447842294,40.781585566311456],[-73.89528467911305,40.78154124925496],[-73.89527648089776,40.78155307297097],[-73.89526579426177,40.78156368652241],[-73.89525292085878,40.781572790317504],[-73.89523822406939,40.781580127380714],[-73.8952315192508,40.78159093283293],[-73.8952227873264,40.781600866481426],[-73.89521222004244,40.78160971019009],[-73.89520004944866,40.78161726975701],[-73.89518654280276,40.78162337917911],[-73.89518621084044,40.78164499497318],[-73.89518095260196,40.78166623951711],[-73.89517092741374,40.781686469075396],[-73.89515643904737,40.78170507066717],[-73.89513792651522,40.78172148064059],[-73.89511595076829,40.78173520175221],[-73.8950911776987,40.78174581823429],[-73.89506435796235,40.781753008393295],[-73.8950609539905,40.78176120857212],[-73.89505582515403,40.781768872707346],[-73.89504911062845,40.78177579282507],[-73.89504099261859,40.781781781141035],[-73.89503169141446,40.78178667515626],[-73.89502145941343,40.7817903420667],[-73.8950105742711,40.781792682367026],[-73.89500426064102,40.7818130142096],[-73.89499345069383,40.781832220918005],[-73.89497846512408,40.78184973268748],[-73.89495974850549,40.78186502999658],[-73.89493785610178,40.78187765901988],[-73.89491343739397,40.781887245091774],[-73.89488721681201,40.78189350382188],[-73.89488496839817,40.78190215252364],[-73.89488094970069,40.78191042232869],[-73.89487526177001,40.781918105290885],[-73.89486804762996,40.78192500822035],[-73.8948594886814,40.78193095754117],[-73.89484980014093,40.78193580365624],[-73.89483922562921,40.7819394247087],[-73.894828031045,40.78194172964624],[-73.89482005609607,40.78196182401907],[-73.89480821818269,40.781980786131406],[-73.89479278344416,40.781998189672976],[-73.89477409888514,40.78201364337347],[-73.89475258457436,40.782026799799],[-73.89472872420062,40.78203736316338],[-73.89470305419832,40.78204509597825],[-73.89470149815008,40.78205312348588],[-73.89469817337931,40.78206083405769],[-73.89469317623515,40.78206800424624],[-73.89468665153117,40.78207442626399],[-73.89467878834884,40.78207991400486],[-73.89466981455807,40.78208430843749],[-73.89465999021367,40.78208748221387],[-73.89464960001914,40.782089343359864],[-73.8946429797258,40.78210909810602],[-73.8946321465195,40.78212774656663],[-73.89461739962843,40.78214477363942],[-73.89459914638444,40.78215970900725],[-73.89457789097179,40.78217214012917],[-73.894554220501,40.782181723635695],[-73.89452878879166,40.782188194813344],[-73.89452289517854,40.78219953254751],[-73.8945147639889,40.782210040274215],[-73.89450459119256,40.782219464745374],[-73.89449262196467,40.782227578820525],[-73.89447914477678,40.78223418694116],[-73.8944644844443,40.78223912984393],[-73.89445904523411,40.78225694091521],[-73.89444990515513,40.78227385419878],[-73.89443730258799,40.78228942857755],[-73.89442156621949,40.78230325785422],[-73.89440310647026,40.78231498134554],[-73.89438240479058,40.782324293289285],[-73.89436000110359,40.78233095081915],[-73.89433647972336,40.7823347802989],[-73.89433563699292,40.78234260534887],[-73.89433312559079,40.78235022096254],[-73.89432901285011,40.782357422956274],[-73.89432340903782,40.782364018236024],[-73.89431646439847,40.78236982997445],[-73.8943083651259,40.782374702351795],[-73.8942993283712,40.78237850473376],[-73.89428959642066,40.7823811351738],[-73.8942794301997,40.78238252314662],[-73.89427308559668,40.78240085248058],[-73.89426271457914,40.78241808841007],[-73.8942486220937,40.78243372412954],[-73.89423122251388,40.78244729988573],[-73.89421102745604,40.78245841649637],[-73.89418863073593,40.7824667470878],[-73.89416469090793,40.78247204670664],[-73.89413991190071,40.78247415952239],[-73.89411502231862,40.7824730234096],[-73.89409075401744,40.78246867177468],[-73.89406782058444,40.782461232573446],[-73.89404689635576,40.7824509245489],[-73.894028596588,40.78243805079893],[-73.89401345936696,40.78242298986408],[-73.8940017780384,40.782424442992934],[-73.89398994178568,40.782424523379206],[-73.8939782281633,40.782423229137905],[-73.89396691185,40.78242059061837],[-73.89395625820787,40.782416669692594],[-73.89394651705945,40.78241155830433],[-73.89393791682966,40.78240537631324],[-73.8939306591893,40.782398268683856],[-73.8939071510805,40.78240092006579],[-73.89388338816877,40.78240065447338],[-73.89385999277845,40.78239747886219],[-73.8938375776086,40.78239147639796],[-73.89381672968713,40.78238280427847],[-73.8937979949969,40.78237168961677],[-73.89378186417694,40.78235842349317],[-73.89376875967316,40.782343353332145],[-73.89375902467506,40.78232687380359],[-73.89375291412806,40.78230941648675],[-73.89374075949536,40.782306401801435],[-73.89372943630849,40.782301888817955],[-73.8937192615912,40.78229600388978],[-73.89371052021242,40.78228891178172],[-73.89370345691064,40.78228081105684],[-73.8936982694417,40.78227192851714],[-73.89366772698189,40.78226410573787],[-73.89363936722398,40.782252466171265],[-73.89361400859983,40.78223734572318],[-73.89359238293036,40.782219180753806],[-73.8935751143059,40.782198495484614],[-73.89356270107572,40.782175886869716],[-73.89355402716863,40.78217441173724],[-73.89354577527438,40.782171901138916],[-73.89353815782192,40.78216841970519],[-73.89353137090762,40.78216405705884],[-73.8935255892472,40.78215892550768],[-73.89352096167798,40.78215315715347],[-73.89351760732733,40.78214690049117],[-73.89351561254601,40.78214031658626],[-73.89348965072794,40.782135010626504],[-73.89346528035881,40.782126383071244],[-73.89344323071687,40.7821146920986],[-73.89342416163211,40.78210028755864],[-73.89340864374083,40.78208360050428],[-73.89339714140957,40.78206513029175],[-73.89338999883925,40.78204542963754],[-73.89338099469877,40.78204563518253],[-73.89337206538659,40.7820447309684],[-73.89336344606528,40.782042740808556],[-73.89335536373343,40.782039717115936],[-73.89334803124743,40.7820357395225],[-73.89334164171555,40.78203091278225],[-73.89333636341242,40.782025364012256],[-73.89333233534711,40.78201923934493],[-73.89332966360237,40.78201270007953],[-73.89332841854088,40.782005918434066],[-73.89332863295209,40.78199907300981],[-73.89330984874537,40.78199986187215],[-73.89329113505848,40.78199839552204],[-73.89327295758399,40.781994710449865],[-73.8932557686707,40.78198889835909],[-73.89323999606654,40.78198110388434],[-73.8932260322741,40.78197152099208],[-73.89321422478304,40.78196038815353],[-73.8932048674228,40.78194798241057],[-73.89319819305065,40.781934612481095],[-73.89319436775718,40.781920611076785],[-73.89316202561447,40.78190028083093],[-73.89313414972766,40.78187643307136],[-73.89310800166824,40.7818698262457],[-73.89308341028196,40.7818603770674],[-73.89306090692064,40.78184828970733],[-73.89230750203646,40.782466041573905],[-73.89229702094441,40.78253435048873],[-73.89281494422093,40.78291321498279],[-73.89274917876415,40.78296570668492],[-73.89214593583782,40.782540842691624],[-73.89165459123726,40.782194781530876],[-73.89171690105486,40.78214228602748],[-73.89188955621877,40.782258065805436],[-73.89214162714599,40.78243172650334],[-73.89224191097368,40.78241079956387],[-73.89300986180193,40.78179802356237],[-73.8930006898945,40.7817797192585],[-73.89298944040662,40.781776617703315],[-73.89297902279347,40.78177214176664],[-73.89296972522786,40.7817664152623],[-73.89296180489957,40.781759596597325],[-73.89295548090091,40.7817518743902],[-73.89295092816623,40.78174346225317],[-73.89292378243894,40.78173841653679],[-73.8928981286231,40.781729991960034],[-73.89287468890666,40.781718425685824],[-73.89285412314682,40.7817040433198],[-73.89283701029419,40.78168724974409],[-73.89282383209446,40.78166851771907],[-73.8928149595269,40.78164837457457],[-73.89279607123369,40.781642234683254],[-73.89277875372518,40.78163383477367],[-73.89276347100113,40.78162339991066],[-73.89275063254138,40.781611209682886],[-73.8927270755011,40.78160525578753],[-73.89270499095143,40.78159663715555],[-73.8926848969815,40.781585555974665],[-73.8926672649821,40.781572272202396],[-73.89265250858698,40.781557097467456],[-73.89264097396938,40.78154038775916],[-73.89263293172114,40.781522535075915],[-73.89261894815446,40.781518412787854],[-73.89260590834243,40.78151277992555],[-73.8925940928388,40.78150575768111],[-73.89258375585594,40.78149749713937],[-73.89257511979527,40.7814881760274],[-73.89256837046231,40.781477994890494],[-73.89254346998545,40.78147283193149],[-73.89251990370924,40.78146483073007],[-73.89249822781187,40.781454180119574],[-73.89247895385681,40.781441131460916],[-73.89246253671938,40.781425992710254],[-73.8924493638516,40.78140912115095],[-73.89243974613807,40.781390914961385],[-73.89242833834699,40.781387883502035],[-73.8924176831658,40.78138354944614],[-73.89240803617109,40.78137801675101],[-73.89239962875676,40.78137141812468],[-73.89239266258382,40.78136391184269],[-73.8923873047433,40.78135567795168],[-73.89235597152201,40.781347183427684],[-73.89232690327587,40.78133488689221],[-73.89230089189098,40.781319123331876],[-73.89227864597596,40.78130032218296],[-73.89217832400543,40.78137075104892],[-73.89216184201905,40.7813581916559],[-73.89211148854682,40.78139517920925],[-73.89208480450479,40.78137365032227],[-73.89224627026235,40.781254752298075],[-73.89223503512572,40.781243993527845],[-73.89222640840981,40.78123192347883],[-73.89222064846467,40.78121890362299],[-73.89221792778646,40.7812053238767],[-73.89219774243168,40.781205094353],[-73.89217786783186,40.78120240257348],[-73.89215882039412,40.781197318479315],[-73.89214109503284,40.78118997417192],[-73.8921251523102,40.78118056048031],[-73.89211140646916,40.78116932200283],[-73.89210021466998,40.78115655075147],[-73.89209186771015,40.781142578564555],[-73.89208658246864,40.781127768484325],[-73.89208449627081,40.78111250532394],[-73.89207759310369,40.781113428258834],[-73.89207058397255,40.78111343017032],[-73.892063679936,40.78111251100085],[-73.89205708888805,40.781110698428414],[-73.89205100929803,40.78110804703307],[-73.89204562423411,40.781104636653566],[-73.89204109585096,40.78110056998304],[-73.89203756050676,40.78109596947676],[-73.89203512465741,40.78109097366493],[-73.89203386165075,40.78108573298106],[-73.89203380951803,40.78108040523217],[-73.8920349698288,40.781075150847045],[-73.89201473540045,40.78107477947674],[-73.89199485119514,40.781071906085224],[-73.89197584902863,40.78106660752317],[-73.89195823712575,40.78105902550403],[-73.8919424865274,40.781049362813626],[-73.89192901849225,40.78103787788666],[-73.89191819322978,40.78102487789448],[-73.8919103002665,40.78101071052955],[-73.89190555070233,40.78099575470624],[-73.89190407156488,40.78098041042644],[-73.89190406397665,40.7809669558762],[-73.89190683062994,40.78095366670075],[-73.8919123031394,40.7809408713701],[-73.89192034623903,40.78092888614767],[-73.891868794552,40.780892684116594],[-73.89184879376019,40.780901419761115],[-73.89182713161306,40.78090744613814],[-73.89180443763588,40.78091058811462],[-73.89178137134049,40.78091075438129],[-73.89175860305879,40.78090794010622],[-73.89173679446202,40.780902227075316],[-73.8917165793315,40.780893781315555],[-73.89169854514012,40.780882848269805],[-73.89168321597964,40.78086974566412],[-73.89167103732991,40.780854854274025],[-73.89166236311296,40.78083860685875],[-73.89165744540769,40.78082147558474],[-73.89165642712459,40.780803958303856],[-73.89165933785294,40.780786564085325],[-73.89166609300115,40.78076979842171],[-73.8916588007794,40.780766615095835],[-73.89165234114587,40.780762522503466],[-73.89164690812935,40.78075764357439],[-73.89164266492189,40.78075212485772],[-73.89163973897703,40.78074613211994],[-73.89163821818138,40.78073984536562],[-73.89163814821485,40.78073345343087],[-73.89163953117864,40.780727148310866],[-73.89164232553212,40.78072111939323],[-73.89164644734062,40.780715547769105],[-73.89163697362133,40.780708596940585],[-73.89161945798145,40.78069682452414],[-73.89160475144045,40.78068300820055],[-73.89159326079658,40.78066753014548],[-73.89158530389192,40.78065081849965],[-73.89158110082072,40.78063333552607],[-73.89158076784162,40.78061556482318],[-73.8915843141621,40.78059799794792],[-73.89159164168416,40.780581120818795],[-73.89160254771812,40.78056540027479],[-73.89161673058953,40.78055127116224],[-73.89163379798394,40.78053912430664],[-73.89165327779894,40.78052929570203],[-73.89167463120289,40.780522057217205],[-73.89167988935391,40.78050892035342],[-73.89168741475613,40.78049643716557],[-73.89169832106514,40.780483555103324],[-73.8917116359191,40.780472055587445],[-73.89172706068786,40.78046219653214],[-73.89172861206357,40.78044467251151],[-73.8917338981269,40.78042757466711],[-73.8917427776598,40.78041135976169],[-73.89175501344647,40.78039646097016],[-73.89177027861065,40.78038327630773],[-73.89178816534826,40.78037215799716],[-73.89180819582172,40.78036340305923],[-73.89182983492513,40.78035724537823],[-73.89185250457938,40.78035384945381],[-73.89184972450708,40.780348739323664],[-73.89184813150258,40.78034334367935],[-73.89184777222862,40.78033782057258],[-73.89184865720888,40.78033233178868],[-73.89185076051986,40.78032703810757],[-73.89185402055014,40.78032209459409],[-73.89185834180527,40.78031764605574],[-73.89186359770501,40.780313822801034],[-73.8918696342912,40.78031073682235],[-73.89187627473751,40.78030847851546],[-73.89188332452923,40.78030711403163],[-73.89189057716094,40.780306683339845],[-73.89189782018556,40.78030719905615],[-73.8919048414375,40.780308646073955],[-73.89190843215673,40.780290367056004],[-73.89191589729636,40.78027277809739],[-73.89192703687947,40.78025635036587],[-73.8919415524999,40.780241523922214],[-73.89195905531605,40.78022869593221],[-73.89197907646712,40.780218210027485],[-73.89200107963288,40.78021034710061],[-73.89202447540029,40.78020531778069],[-73.8920253185006,40.780197002564094],[-73.89202790632545,40.780188897999665],[-73.89203217178007,40.7801812142134],[-73.89203800427407,40.780174150421686],[-73.89204525258877,40.78016788976641],[-73.89205372879793,40.780162594566555],[-73.89206321314,40.78015840210992],[-73.89207345971592,40.780155421093596],[-73.89208420286442,40.78015372880588],[-73.89209092157762,40.780133795168126],[-73.8921016569689,40.780114904957884],[-73.89211614507809,40.78009752263909],[-73.89213402967565,40.78008207559989],[-73.89215487102169,40.78006894364455],[-73.89217815667821,40.7800584496549],[-73.89220331410863,40.78005085165173],[-73.89220959072718,40.7800422267076],[-73.89221743355728,40.780034377403105],[-73.89222667960969,40.780027466861476],[-73.8922371367338,40.78002163869673],[-73.8922465188453,40.78001773300867],[-73.89225644458102,40.78001470160598],[-73.8922667735545,40.78001258736387],[-73.89226759637123,40.78000307265559],[-73.89226953828597,40.779993652365036],[-73.89227640997645,40.77997596890128],[-73.89228720076757,40.77995945505684],[-73.89230158555652,40.779944608353276],[-73.89231913096306,40.77993187608494],[-73.89233930838625,40.779921641843316],[-73.89236150993001,40.77991421396039],[-73.89238693345641,40.77990742846381],[-73.89238594725953,40.77990319124198],[-73.89238594229016,40.77989888821727],[-73.89238691869859,40.779894649685765],[-73.89238884691889,40.77989060399061],[-73.8923933526454,40.77988442906887],[-73.89239897380976,40.77987880745448],[-73.89240559484587,40.77987385472258],[-73.8924130796313,40.77986967269665],[-73.89241853906692,40.77986745214715],[-73.892424355932,40.77986583910379],[-73.89243041393675,40.779864865814254],[-73.8924365919707,40.77986455173636],[-73.89244276652364,40.779864903149104],[-73.89244504715477,40.77984206083189],[-73.89244763140518,40.77983118796241],[-73.89245239470117,40.77982074919503],[-73.89245922263521,40.779810995251914],[-73.8924679512107,40.779802160406675],[-73.89247837078103,40.77979445685767],[-73.89249023108498,40.77978806963125],[-73.89250324725751,40.77978315213795],[-73.89251710667185,40.77977982248767],[-73.89253484564902,40.779770519588666],[-73.8925128172442,40.779741786849655],[-73.89249619226818,40.77970211269653],[-73.89249710706602,40.779674412036925],[-73.89254394803139,40.77957559574732],[-73.89254018145552,40.77955183427164],[-73.8924774877329,40.77951465264381],[-73.89245856426392,40.77952809352364],[-73.89243701349265,40.77953901192377],[-73.89241341100093,40.779547116233054],[-73.89238838716922,40.77955218999968],[-73.89236261034004,40.77955409771218],[-73.8923367689675,40.77955278841888],[-73.89231155322955,40.779548297088766],[-73.89228763659428,40.77954074367737],[-73.89222623412802,40.779531644327086],[-73.8921639309213,40.77952735346818],[-73.89210137690601,40.77952791586187],[-73.89203922463034,40.779533325641324],[-73.89197812245177,40.77954352637308],[-73.8918179184095,40.77958857362878],[-73.89166859702924,40.77949253890747],[-73.89150718848516,40.77909786666841],[-73.89129658525378,40.77891576446917],[-73.89119589704401,40.77856328788727],[-73.89218330746357,40.777721813487574],[-73.89252259860889,40.77740462898924],[-73.89250271923294,40.77736469430018],[-73.89225365703457,40.77720452302909],[-73.89286040075659,40.77715907485111],[-73.89423247497794,40.7781536132299],[-73.89656477551955,40.77624702432567],[-73.89584074908397,40.77573483177304],[-73.8951305991223,40.77523345499774],[-73.89442276558354,40.77473483875298],[-73.89370305300285,40.7742260143931],[-73.89356083752284,40.774122297657804],[-73.8934067513114,40.774027592862495],[-73.89324236751062,40.77394301914849],[-73.89306943696552,40.77386948524829],[-73.89288992639547,40.77380766121187],[-73.89135880583912,40.77346514436693],[-73.89070870691026,40.77331953042949],[-73.89034195964742,40.773237605029436],[-73.88955507391924,40.77306841093995],[-73.889526403808,40.77306037212018],[-73.8894992179716,40.77304976374347],[-73.88947391314814,40.77303674062404],[-73.88945085817586,40.7730214927994],[-73.8894303899708,40.77300424275441],[-73.88941280723816,40.77298524223148],[-73.8894022625021,40.772926718073904],[-73.88904000254537,40.77091623848171],[-73.88870893210384,40.769091523749026],[-73.88868841369,40.76897759712484],[-73.88874443982986,40.76891817925323],[-73.88870027091559,40.768909795988876],[-73.88863437786628,40.76889680669883],[-73.88860184082482,40.76888941600512],[-73.8885029223487,40.76885280757759],[-73.88841083634009,40.76880263676443],[-73.88833024243536,40.76874027611344],[-73.8882650457988,40.76866826058267],[-73.88821777778394,40.76858998789891],[-73.88818930641268,40.76850918972574],[-73.88818541926055,40.768479404391755],[-73.88817759226343,40.76842825670099],[-73.88813062683815,40.76826419297411],[-73.88781814564801,40.76720207825227],[-73.88772988224954,40.76691443436967],[-73.8877066182002,40.7668385980517],[-73.88777877319735,40.76682329668761],[-73.88835471177596,40.76669771329829],[-73.88881653866369,40.76659534946127],[-73.88925619495024,40.76652072836363],[-73.89029034589534,40.766345197795744],[-73.89051357791098,40.766325211056035],[-73.89107078785666,40.76627533857336],[-73.89183535796347,40.76622708004954],[-73.89165463928464,40.76615653615902],[-73.89144489747314,40.76607465413451],[-73.89173006762898,40.76605063524762],[-73.89181857243598,40.76604413210693],[-73.89212103446779,40.76602190660705],[-73.89239443284752,40.76600398220735],[-73.89266781311643,40.76598968407649],[-73.89307516292304,40.765973430209506],[-73.89349605945462,40.76595093000095],[-73.89432372021464,40.76614647173559],[-73.89443225945358,40.76601124286751],[-73.8944998080285,40.765919714849815],[-73.8945602113229,40.76581508609791],[-73.8946062741715,40.76570935460731],[-73.89464325993836,40.76560092500155],[-73.89480222557943,40.765134886028996],[-73.89495497551854,40.76466832063701],[-73.89495796501971,40.76466580209843],[-73.89499458888929,40.76445315402315],[-73.89505758652855,40.764346538151976],[-73.89506657695074,40.764331328290496],[-73.89516836997808,40.76419736223056],[-73.89524936761863,40.76411230109546],[-73.89527479388136,40.76408559863975],[-73.89542447794862,40.763947245818144],[-73.89557704382763,40.76382796806639],[-73.89585991874085,40.76362847361529],[-73.89598406502796,40.76354311003805],[-73.89608492465551,40.763473754704535],[-73.89624744731556,40.76333274771649],[-73.89641138403464,40.76315008327044],[-73.89670622763173,40.762742258751445],[-73.89706081799254,40.76227539812007],[-73.89727167665444,40.761971139798426],[-73.89731957511427,40.761902282268224],[-73.89742736744724,40.761746738660634],[-73.89789528110552,40.7610445056278],[-73.89791145232911,40.761020349147735],[-73.89825240295752,40.76051448685452],[-73.8984920500695,40.76016673426973],[-73.89866137866714,40.75992101787413],[-73.89882449633093,40.75967880175103],[-73.89906072889895,40.759328016412255],[-73.89941035185058,40.7588088390257],[-73.89949119693256,40.75867385497243],[-73.89956551035594,40.75853671761677],[-73.89963319317602,40.75839760962539],[-73.89969415509078,40.75825671673106],[-73.89974831504072,40.75811422613843],[-73.89979560092769,40.75797032764739],[-73.89981659068424,40.75787604591484],[-73.8998335252937,40.757781293776375],[-73.89984804489752,40.757703210625756],[-73.89985862123196,40.75762476118327],[-73.89986642960562,40.75738507256327],[-73.89982406572348,40.75700815575267],[-73.89982149541241,40.7569852820244],[-73.89972650438982,40.756541866817244],[-73.89955938193738,40.75623909745896],[-73.89925857125111,40.7555350745096],[-73.89912091444084,40.755306291324175],[-73.89866847997291,40.75482278247594],[-73.89864865470433,40.75476633017532],[-73.89862401170794,40.7547109860183],[-73.8985946564138,40.75465698723501],[-73.89856071509658,40.75460456579557],[-73.89840806417232,40.75440594265153],[-73.89837417108488,40.754374822500566],[-73.89833447690637,40.75434795979611],[-73.89828989541253,40.754325972923915],[-73.89824145288293,40.75430936802648],[-73.89819026447626,40.75429852735173],[-73.89813750855961,40.75429370045388],[-73.897923512633,40.754240002678266],[-73.89854223111878,40.7541701124327],[-73.89862947442634,40.7541615224452],[-73.89873816428349,40.75415367043633],[-73.8992154677058,40.754106218947115],[-73.8995734853758,40.754063532368036],[-73.90030276295876,40.753991314783526],[-73.9012134788526,40.75390221108614],[-73.90212120344033,40.75380101197869],[-73.90247213009243,40.75376303795318],[-73.9029891241067,40.75370838254392],[-73.90392280538741,40.75361132413528],[-73.90491691374754,40.75350527789411],[-73.90586440330034,40.753403848745975],[-73.90611707967247,40.7533788762875],[-73.9066854594976,40.753307942350304],[-73.90690889767504,40.7532848487352],[-73.90759425921112,40.75322228460465],[-73.90823661061745,40.75316242454439],[-73.91023124668567,40.752976523473016],[-73.9106747483103,40.752995076324495],[-73.91034111867039,40.7526768155198],[-73.90984318646106,40.75163867983069],[-73.91267116656972,40.75106458870176],[-73.91314339178861,40.75096705217545],[-73.91525600931422,40.75084562644847],[-73.91818375833961,40.75023449829503],[-73.91957573550128,40.74994391220831],[-73.92021333700542,40.74981080108333],[-73.9205390008441,40.749750827852324],[-73.92071243442633,40.750468007451886],[-73.92101480198528,40.75097260997024],[-73.92161208025276,40.75137155212438],[-73.92255043067752,40.751576479635304],[-73.92463369536247,40.75164334566207],[-73.92651605612762,40.751513074328436],[-73.93151912066561,40.75115245567117],[-73.93393939417153,40.75026964577674],[-73.93464705504746,40.749850316546905],[-73.93538685321553,40.74941193315351],[-73.93674775106649,40.74849321191136],[-73.93686355668945,40.748421263647685],[-73.93739653782151,40.748916439963494],[-73.9373928579201,40.74901474717878],[-73.93738558127866,40.74919831471231],[-73.9373836884436,40.74924606416869],[-73.93738153801151,40.74939373647429],[-73.9373804600166,40.74946771292754],[-73.93729600790647,40.74952049836857],[-73.9373262635063,40.74963379669232],[-73.93741548785447,40.749692282014614],[-73.93742973635655,40.749751093780596],[-73.93781162642844,40.7498974782203],[-73.93798209237035,40.74997208726719],[-73.93863715901978,40.75025879942018],[-73.93944284343051,40.75060601982256],[-73.94002099809916,40.750860617101985],[-73.94026281548076,40.75096710074411],[-73.94039280567917,40.75102253127946],[-73.94052030819238,40.75107939206118],[-73.94108612438261,40.75132787998553],[-73.94177703566687,40.75162798457628],[-73.94187442025334,40.75167028367449],[-73.94238347775675,40.75189120832171],[-73.94254022283339,40.751959238887316],[-73.94271928014308,40.752036951785136],[-73.9438353674642,40.75253012255439],[-73.94403580304798,40.75262661997449],[-73.94374837088456,40.752620980589505],[-73.94369877940004,40.75267277401875],[-73.94623305277253,40.753784979771936],[-73.94789671088193,40.75448530117713],[-73.94877954861249,40.75489041870109],[-73.94897021357266,40.75467856280863],[-73.94903024966037,40.75461339395776],[-73.9490827054014,40.75455645763893],[-73.94911295199473,40.7545236203243],[-73.95080763818348,40.755263680114496],[-73.95077122659485,40.755307969156135],[-73.9507252463368,40.755362935048545],[-73.95066341760197,40.75543632283302],[-73.949150218094,40.7573289458977],[-73.94783189516902,40.75898919330451],[-73.94596424219853,40.76129260661045],[-73.94580554804836,40.7614495676238],[-73.94570525640735,40.761488157056796],[-73.94473048972095,40.76285654700938],[-73.94471460803074,40.762878840426765],[-73.94467628079377,40.76293008559972],[-73.94350281966635,40.764499040743665],[-73.94158523271763,40.766616087657816],[-73.94131174941451,40.766918004769806],[-73.94046256885602,40.767530469300446],[-73.94035103718282,40.76765337598725],[-73.93983559349122,40.767988005939486],[-73.93953321663723,40.76805874435444],[-73.93936587223844,40.768159701879746],[-73.93895502453307,40.76795818671982],[-73.93819730754757,40.76869974435682],[-73.93806943217601,40.76871540032433],[-73.937887684264,40.7685575534323],[-73.93777816678481,40.76861905182275],[-73.93796200938907,40.76872232349612],[-73.93795822895135,40.768784934017994],[-73.93747109116867,40.76895155858922],[-73.93681460654729,40.76890394747858],[-73.93668539119413,40.769133054691075],[-73.93670737989191,40.76925260907431],[-73.93640381736164,40.76947488451707],[-73.93616913919564,40.769516114654685],[-73.93574021432624,40.76936722986672],[-73.93524016831186,40.76967932546315],[-73.93489533894557,40.7700418628897],[-73.93469499067032,40.770425338022726],[-73.935147154026,40.77054195605858],[-73.93500813872225,40.77116239486673],[-73.934940272005,40.77116402093292],[-73.93493892956693,40.77116405317746],[-73.93490481282649,40.771270641186845],[-73.9345273010944,40.77117677510354],[-73.93443525743177,40.771462362333594],[-73.93482622761698,40.77157695807344],[-73.93480858897112,40.771699586898755],[-73.93480681344163,40.77173413889007],[-73.93515017807533,40.77183369712239],[-73.93554844669607,40.771953686825086],[-73.9355679704974,40.77191877803628],[-73.93565635283767,40.77175639643522],[-73.9355216306528,40.77171629406102],[-73.93556621751357,40.77162911639181],[-73.93585195294749,40.77171600199284],[-73.93580987642521,40.77179936862196],[-73.93569833888495,40.77176690312413],[-73.93560853449772,40.77193127768467],[-73.9355892281931,40.77196597367681],[-73.93605335028688,40.77210580162665],[-73.93746638537077,40.772531495125364],[-73.93781335903401,40.77356289464773],[-73.93785811822775,40.77408756897321],[-73.93765483024703,40.77508568538347],[-73.93704702153741,40.77586648653898],[-73.93703012773818,40.77589320499782],[-73.93638022817588,40.77692145606024],[-73.936089196991,40.77718432207721],[-73.93585452641504,40.77721168462437],[-73.93508232492148,40.77794423372794],[-73.93474353011284,40.77807633537719],[-73.93437322856104,40.778085922137414],[-73.93381132859415,40.77810045423618],[-73.93289245470426,40.77794260599061],[-73.93277477867667,40.77792238877811],[-73.93274122965342,40.77799395031778],[-73.93272210453966,40.77803476711813],[-73.93264931173394,40.778021974233084],[-73.93184646077505,40.77788082503077],[-73.93178834305155,40.777870607105],[-73.93104964298996,40.77744189680963],[-73.93107377146754,40.77726059439833],[-73.93088304263192,40.77697370617741],[-73.93062856554165,40.77659090274975],[-73.9298805850014,40.776221631399444],[-73.9290357214348,40.77646741705909],[-73.9286051502335,40.77659267510116],[-73.92839561141388,40.77679052906526],[-73.92827730832717,40.7768989753246],[-73.92631833403904,40.77824177518511],[-73.92582201245972,40.77838590626325],[-73.92574521646584,40.77840537134118],[-73.9256507617824,40.77843081233576],[-73.92557304262864,40.778458851828915],[-73.92487344547867,40.77862560450964],[-73.92423363007518,40.77910119376566],[-73.92318694397959,40.78024839362807],[-73.92295652690196,40.78044100761981],[-73.92263013830838,40.78056478572818],[-73.9220996549944,40.78085187463709],[-73.92097562099683,40.78176769150664],[-73.91996458792964,40.782635069039216],[-73.91909034674545,40.78336764600415],[-73.91847384225493,40.783754157698056],[-73.91818862939189,40.78393296611385],[-73.91773807440299,40.784075951913195],[-73.91724516427522,40.78414200119857],[-73.91717118646432,40.7841934843716],[-73.91718200679684,40.78455206317955],[-73.91683277016423,40.785191392487555],[-73.91575172894562,40.786107578578275],[-73.9154171875742,40.78606392941116],[-73.91534351270901,40.78611634808699],[-73.91526013936036,40.78619221714426],[-73.91558710139766,40.78642963116601],[-73.91423947964567,40.78785620956354],[-73.9125998591149,40.78937632963406],[-73.9124081093413,40.78927430344523],[-73.91266748294603,40.78900397504397],[-73.91222952426362,40.78917927996633],[-73.91206853578667,40.78933865431566],[-73.91195110905574,40.78940179722117],[-73.9120797502442,40.78952181498974],[-73.91183777736101,40.78968088445849],[-73.91169342372085,40.789572638107416],[-73.91124959039149,40.78974393630283],[-73.91094297500358,40.78975504325399],[-73.91090487098805,40.790040684460436],[-73.9102221578405,40.79046520778251],[-73.90985862925778,40.79094549378207],[-73.90677991420773,40.79037510865335],[-73.906473146101,40.79018117520826]]],[[[-73.88885148496334,40.798706328958936],[-73.88860021869957,40.7986509854163],[-73.8885856250733,40.79870607229726],[-73.88821348851279,40.79866530463874],[-73.88821415282797,40.79866379571513],[-73.88825230744402,40.79857718039849],[-73.88837251380009,40.79858745575393],[-73.88839250519779,40.79856629676754],[-73.88823353313649,40.7982428842861],[-73.88794420603693,40.79834333668389],[-73.88766940705628,40.79838105015464],[-73.88755967580653,40.798368732437254],[-73.88745451160945,40.79835365457671],[-73.88744413439,40.79835193334363],[-73.88734380764393,40.79833532909434],[-73.88728568013723,40.79832435868468],[-73.88723161846639,40.79831226578515],[-73.8871867416842,40.79829965046044],[-73.8871326442625,40.79828110190267],[-73.88707655961194,40.79825992072719],[-73.88703352908725,40.79824148180369],[-73.88699057468449,40.79822080916],[-73.88693756858692,40.7981938231772],[-73.88682628424971,40.798134208744656],[-73.88677992738079,40.79810681476014],[-73.88673071139027,40.798074880364425],[-73.88672123646833,40.7980718902806],[-73.88670122347455,40.79806432478141],[-73.88668224426033,40.798055399991796],[-73.8866510852459,40.798038196700084],[-73.88660440944805,40.79801033460094],[-73.88653645218785,40.79796863725475],[-73.88648571061235,40.79793482714925],[-73.88646193517576,40.79791690200802],[-73.8864476279963,40.797906118232824],[-73.88639344440251,40.79786125541419],[-73.88631837125503,40.79779607530614],[-73.88628680056253,40.79777002853237],[-73.88618605645814,40.79769315237746],[-73.8860911272631,40.797618569936866],[-73.8859892188933,40.797543565554605],[-73.88586675456291,40.797453971075875],[-73.88570879586396,40.797339297789726],[-73.88557218565708,40.79724109744501],[-73.88541962818046,40.79713548837205],[-73.88536002886444,40.79709249327753],[-73.88531358206156,40.79705652568065],[-73.88526897378188,40.79701915569975],[-73.8852237547495,40.79697882190987],[-73.88511038267093,40.79687410782234],[-73.88500486751634,40.796775352620465],[-73.88487106375764,40.79664615908012],[-73.88479288320583,40.796576310458775],[-73.88470366866711,40.79649503207042],[-73.88465812670361,40.7964571295256],[-73.88457592146095,40.79639244454081],[-73.88450450963163,40.79633557027978],[-73.88446288938587,40.79630395695967],[-73.884369382495,40.79623858587326],[-73.88428576654385,40.79618176992711],[-73.88424498708427,40.7961510127545],[-73.88422937027998,40.79613685074939],[-73.88421619472528,40.79612287999517],[-73.88415665725516,40.796051518648966],[-73.88408036837758,40.79595839282093],[-73.88403220776799,40.795900316365],[-73.88400985604736,40.7958753947876],[-73.88398001309025,40.79584548614976],[-73.88395093198062,40.795819883163446],[-73.88391718206042,40.79579502195962],[-73.88388038316798,40.795771625529134],[-73.88384160297448,40.795750019441186],[-73.8837574159016,40.79570856541997],[-73.88371602364636,40.79568983925958],[-73.88368606502718,40.795678309104034],[-73.88365916952804,40.7956707356248],[-73.8836472632472,40.79566874245486],[-73.88363602032433,40.79566784841546],[-73.88363491877153,40.7956678653961],[-73.88363371018023,40.79566795480703],[-73.88363113716706,40.795668375377815],[-73.88362866045311,40.79566906626372],[-73.88362651450382,40.79566994678688],[-73.88362566059602,40.79567041415742],[-73.88362493671501,40.795670899249345],[-73.88362434350393,40.7956714124499],[-73.88362389181395,40.79567192529077],[-73.88362358249432,40.79567245636808],[-73.88362347511053,40.79567272631012],[-73.88362341600232,40.795672996300894],[-73.88362339107702,40.79567325761489],[-73.88362339060492,40.79567352766488],[-73.8836234384093,40.79567379726104],[-73.88362352038048,40.795674067394245],[-73.88363082548068,40.795691319970935],[-73.88364118305206,40.79571067304285],[-73.88366120810029,40.7957445423726],[-73.88368570715008,40.795788512448574],[-73.88369177813956,40.79579940536063],[-73.88372136446775,40.795854112889536],[-73.88372923494411,40.79587318468224],[-73.88373136425811,40.79588233671574],[-73.88373228479001,40.79589118062391],[-73.88373179288757,40.79590815410531],[-73.88372908649976,40.795924225575575],[-73.88372552582665,40.79593466784343],[-73.88372319549666,40.79593887975391],[-73.88372041619702,40.79594255111051],[-73.88371433895317,40.79594847905342],[-73.88370684004312,40.79595406364298],[-73.88369799188168,40.795959241124876],[-73.8836879120701,40.795963949633204],[-73.88368124897224,40.795966302332765],[-73.88367448015721,40.795967844606395],[-73.88366792669441,40.79596851261596],[-73.88366478678279,40.795968509446936],[-73.88366175261619,40.79596829128234],[-73.8836551675666,40.7959672300653],[-73.88364828586799,40.795965503808894],[-73.88363294995119,40.7959598599868],[-73.88362568067889,40.795956394259754],[-73.88361818816541,40.795952136750785],[-73.8836004480683,40.79593998935055],[-73.88357745705336,40.795920964932215],[-73.88354870255068,40.79589245377129],[-73.88352132338422,40.795862303754696],[-73.88349059449253,40.795824460776096],[-73.88343778229442,40.79574969303058],[-73.88341030322763,40.79571686030637],[-73.88338637422903,40.79569276525572],[-73.88334750984657,40.79565830923805],[-73.88332622624758,40.795639431405746],[-73.88326600487368,40.795587276491155],[-73.88324624360261,40.79557194803219],[-73.88322052550595,40.79555484815527],[-73.88320394303746,40.79554499746243],[-73.88318903725671,40.795537509062626],[-73.88317473357546,40.79553185684372],[-73.8831640628853,40.7955288558724],[-73.88316079453168,40.79552794407077],[-73.8831435822139,40.795525044687544],[-73.88309890771004,40.79552013680347],[-73.8829831164623,40.79550055976063],[-73.88294565229009,40.79549236274534],[-73.8828915622347,40.79547848530579],[-73.88283375197724,40.7954639376444],[-73.88281685343809,40.79545799460008],[-73.88280269382368,40.795451298967464],[-73.88273381151991,40.79541236241376],[-73.88264736334975,40.795363837058574],[-73.88256589218064,40.79532175419638],[-73.88251548178505,40.79529729944254],[-73.88245647333528,40.795270098873374],[-73.8824118949776,40.79525094398234],[-73.88237750527846,40.79523946391315],[-73.88228246152993,40.79521398197181],[-73.88218546415868,40.79518761526519],[-73.88209633687468,40.79515986104319],[-73.8820730731555,40.795155307365036],[-73.88202447821959,40.795149584231226],[-73.88200405621465,40.79514623125228],[-73.88189640244073,40.79512278910258],[-73.88179719700847,40.7950981764745],[-73.88170835287261,40.795078706359405],[-73.88166054417218,40.79507083151614],[-73.88159381157871,40.79506283837483],[-73.88153903087833,40.795057875109],[-73.88148620045219,40.79505534394181],[-73.88138137953057,40.79505729851886],[-73.8813650271248,40.79505760551531],[-73.88130870043942,40.79505603460773],[-73.88128967259654,40.79505425080533],[-73.88127276943138,40.795051531382704],[-73.8811967614241,40.795035892661744],[-73.88110369782542,40.795017128707656],[-73.8810641428739,40.79501153259843],[-73.88097705478944,40.79500379752585],[-73.88087685804118,40.79499131139751],[-73.88084019560723,40.794985133035475],[-73.88075892952052,40.794968515268536],[-73.88072255224046,40.794962030258],[-73.88066224490039,40.79495316103854],[-73.88061282089043,40.79494722955719],[-73.88050077207255,40.79493616249463],[-73.8803803154631,40.794923142803725],[-73.88031188472492,40.79491772335884],[-73.88023542873849,40.79491445627401],[-73.88009881438364,40.79491159363503],[-73.87998700129216,40.7949080200521],[-73.87991508464381,40.79490431605237],[-73.87991449155305,40.79490426165889],[-73.8798539645331,40.794898849003516],[-73.87980493377017,40.79489225117053],[-73.87975745821167,40.79488368367087],[-73.87967478298795,40.79486649659626],[-73.87956272211946,40.79484239012772],[-73.87946001096137,40.7948185725926],[-73.87934893739131,40.79479262132398],[-73.87920446532175,40.7947582777923],[-73.87907659806774,40.794728274486864],[-73.87899352766185,40.79470652965695],[-73.87887252713162,40.794673606334186],[-73.87874662234786,40.794639444237426],[-73.87864663726114,40.79460883904987],[-73.87852685920603,40.79457407923466],[-73.87847233873839,40.794556714573474],[-73.87841281195193,40.79453577816269],[-73.8783743781276,40.79452080676742],[-73.87834370275962,40.79450663745009],[-73.87824960606076,40.79445685734037],[-73.87820787186254,40.794432561806516],[-73.87818989044013,40.79442319590693],[-73.8781774587459,40.79441798697585],[-73.8781630235292,40.794413145486125],[-73.87811831475959,40.79440155322276],[-73.87804184880981,40.79438437221034],[-73.87801071682786,40.79437429898077],[-73.87797523216784,40.794359790094596],[-73.87793243517783,40.79433971697939],[-73.87789422394029,40.79431924480321],[-73.87778072525015,40.794253333194064],[-73.8776219539544,40.7941604762445],[-73.87753980202646,40.794111366439544],[-73.8774471559982,40.794059695517625],[-73.87733499061804,40.79399729771867],[-73.87726571206598,40.79396349177285],[-73.87715743689003,40.79390651001014],[-73.8770547451278,40.79385314443566],[-73.87695902423708,40.79380537015951],[-73.87690341417037,40.793775458467664],[-73.87685334972971,40.793744959299815],[-73.87683239271817,40.79373019552984],[-73.87678543251924,40.79369322480153],[-73.87676325835342,40.793677253703954],[-73.87667149377098,40.79361710079414],[-73.87657771056752,40.79355319140981],[-73.87653382908445,40.79352398548326],[-73.8764934794008,40.793500700983685],[-73.87640255055383,40.79345691060213],[-73.8763654184664,40.79343652853089],[-73.87633147326585,40.793416321580324],[-73.8763175576235,40.79340643656772],[-73.87628751906911,40.793381632046966],[-73.87627936699344,40.7933759049923],[-73.8762714716073,40.793371187049246],[-73.87624509705645,40.79335847975815],[-73.87620619071448,40.7933427869378],[-73.87614385924937,40.793321242408666],[-73.8761220260555,40.793312782209405],[-73.87609618491413,40.79329952597477],[-73.87606235014438,40.79327750811582],[-73.8760478671672,40.79326668649713],[-73.87601532254268,40.79323949180822],[-73.8759974417483,40.79322720855636],[-73.8759660259803,40.793210424747755],[-73.87591748808153,40.79318803151352],[-73.87586407715743,40.79316731596853],[-73.8758448384829,40.79315850721044],[-73.8758307548566,40.79315011728742],[-73.87581681561483,40.79313983649391],[-73.87580272711051,40.79312744857357],[-73.87578703333045,40.79311169937137],[-73.87575830870135,40.79307552250703],[-73.87574836430468,40.79306453503427],[-73.87572500179957,40.793043501182794],[-73.87569604980138,40.79302111020789],[-73.87561279450044,40.79296780115409],[-73.87557896865847,40.79294118191445],[-73.87555275917292,40.79291615567679],[-73.87553042327107,40.792890782315936],[-73.8755123273792,40.792867258987734],[-73.8754712314494,40.79280636776754],[-73.87544969810892,40.79277715038678],[-73.87543203665531,40.79275543862988],[-73.87538576406486,40.792706833777146],[-73.87530659534366,40.79262898982552],[-73.87522354103153,40.79255072665204],[-73.8751279512566,40.79246518393393],[-73.8750739587247,40.79242077547198],[-73.87498356453406,40.79235155521876],[-73.87491771753022,40.79230347842378],[-73.87485267905689,40.79226072390703],[-73.87481081338848,40.79223740098081],[-73.87471064054341,40.792189735745424],[-73.87466759149247,40.79216665405694],[-73.8746326900661,40.792144968323626],[-73.87454446880673,40.79208707814092],[-73.8744931852396,40.79205745058938],[-73.8744099810372,40.7920153600436],[-73.8742932600669,40.79195306184496],[-73.8742000330936,40.79190437831626],[-73.87417526889703,40.791892455653155],[-73.87415314054893,40.79188356220591],[-73.8741321335034,40.79187711819259],[-73.87411193956818,40.79187302628005],[-73.87407064434686,40.79186803733176],[-73.87401755922824,40.79186378314735],[-73.87392742618478,40.7918586590028],[-73.87388510082924,40.79185338122037],[-73.87386851936823,40.79184991406635],[-73.87361978246481,40.79177281820989],[-73.87351081387881,40.791725360734524],[-73.8734378359468,40.79168303863205],[-73.87337134112273,40.79164620704183],[-73.8733590410694,40.79164097963974],[-73.87334448778758,40.79163647933269],[-73.87329524220436,40.79162598804932],[-73.87327840110599,40.79162162895548],[-73.87320017614609,40.7915974189542],[-73.87314608947119,40.79157835872597],[-73.87309734778611,40.79155818729916],[-73.87303537491206,40.791529627025696],[-73.87297284856072,40.79149959004382],[-73.87292724191762,40.79147626113366],[-73.87288457445666,40.79145210820734],[-73.87284269361069,40.79142558682344],[-73.87273896798439,40.79135358558478],[-73.8726470660465,40.791294140769615],[-73.8725699039412,40.79124780678891],[-73.87246121603872,40.79118066172888],[-73.87235602503648,40.791119887235325],[-73.87226298911675,40.79106568272024],[-73.87222386671793,40.79104017317107],[-73.87221878971063,40.79103686176664],[-73.87216399871969,40.79099572113592],[-73.87208390642424,40.79093283057396],[-73.87197367245862,40.7908450177531],[-73.87184538603357,40.790736977019264],[-73.87175020506083,40.790658509529855],[-73.87171094798327,40.79062407591881],[-73.871682106399,40.79059470477735],[-73.87160773568904,40.79050799380069],[-73.87153422429408,40.790424633902866],[-73.87143773747371,40.790323687494215],[-73.87136151517981,40.790245430797334],[-73.87134366346878,40.790224888522395],[-73.87132522630435,40.79020128356399],[-73.87126782455506,40.79011992145706],[-73.87123092167765,40.79006873275472],[-73.87121154143503,40.79003612173732],[-73.87120394439427,40.790019084973146],[-73.87119724046633,40.7899998966742],[-73.87118336516144,40.78994531969001],[-73.87115500629314,40.78981952374329],[-73.87114607484403,40.78978815788269],[-73.87113409505933,40.78974607319286],[-73.87110291637639,40.78966364252131],[-73.87107215941822,40.78956494041265],[-73.87105158005143,40.78950368287392],[-73.87102842677982,40.78943168893734],[-73.8710183958015,40.78939257848005],[-73.87101587054424,40.789375259066404],[-73.87101491849417,40.78935891373016],[-73.87101411499661,40.78927214896484],[-73.8710137812168,40.78923054552524],[-73.87101364700268,40.78921403910693],[-73.87101127918719,40.789194414888236],[-73.87100344385935,40.78916585980699],[-73.870984741466,40.78910815337672],[-73.87098333940936,40.789103828816714],[-73.87097263727193,40.78905713490408],[-73.87094746326207,40.78895375432462],[-73.87096139741698,40.78886528841771],[-73.87095613780784,40.78873218140729],[-73.87094258342167,40.78859941346633],[-73.87092076477519,40.78846728302725],[-73.87089073096055,40.78833608708789],[-73.87085254953452,40.7882061205437],[-73.87080132197008,40.78806324191918],[-73.87079045012254,40.78803026886237],[-73.8707857395144,40.78799646524578],[-73.87078728234762,40.78796249278369],[-73.8707950484114,40.787929016494566],[-73.87080888567434,40.78789669168323],[-73.87107316744445,40.787574840752924],[-73.87122538791158,40.78744541718164],[-73.8713739875909,40.78727091482759],[-73.87148752146939,40.787052566473825],[-73.87163065373362,40.78679790584326],[-73.87187562144997,40.786623508954264],[-73.87210572329084,40.78646881763963],[-73.87224806110342,40.786428740437174],[-73.87226518997507,40.78642391877755],[-73.87247298613175,40.78630300728252],[-73.87268454327935,40.786153926991],[-73.87278847069518,40.78607797635332],[-73.87287195903875,40.78597502780494],[-73.87282839783694,40.78595446173851],[-73.87282262864464,40.78596397466708],[-73.87277406006672,40.78594192145973],[-73.87280919949988,40.785903109099415],[-73.87285349943211,40.78592565111256],[-73.87284047915851,40.78594312338177],[-73.87288496983653,40.78596263321615],[-73.872981211824,40.78589445246452],[-73.87308761688934,40.785854952783566],[-73.8732023431419,40.78582496989548],[-73.87328576346556,40.78581238416293],[-73.8733546108211,40.78578868932818],[-73.87342763286719,40.78576182995955],[-73.87351452458638,40.785750091699285],[-73.87368942683156,40.78575465264392],[-73.8738639953411,40.78576404341521],[-73.87403799934543,40.78577825159907],[-73.87421120882092,40.785797258413076],[-73.87435662263823,40.785806996137794],[-73.87459684365717,40.78583260139791],[-73.874838013158,40.785852397072944],[-73.87507988798549,40.785866363204214],[-73.87532222427274,40.78587448571063],[-73.87556477768722,40.78587675640272],[-73.8758073036773,40.78587317299116],[-73.87604955771906,40.785863739088825],[-73.87629129556291,40.7858484642073],[-73.87653227348018,40.78582736374731],[-73.87677224850898,40.78580045898299],[-73.8783068005765,40.78535662050863],[-73.88522186783517,40.7866304871956],[-73.8853744221112,40.78666912629612],[-73.88574422143155,40.78667729180755],[-73.88596200181902,40.786752519485006],[-73.88612955538372,40.78670799375494],[-73.88631726172174,40.78673287011935],[-73.88659282770269,40.78673817541284],[-73.88692199786375,40.78673311425447],[-73.88715316418762,40.78682618202947],[-73.88727783418649,40.786806673751535],[-73.88770126372532,40.78687227457343],[-73.88830725732349,40.78700634428385],[-73.88856541967114,40.787160949835894],[-73.8890521244328,40.78737255975568],[-73.88940460807083,40.78779128007471],[-73.88952254829917,40.788058824697934],[-73.8896109710906,40.78819999100903],[-73.88979724020074,40.78865239218929],[-73.88987049744215,40.78889549798508],[-73.88988482197044,40.78900996593536],[-73.89012684970766,40.789636279490665],[-73.89030135499017,40.789876726832304],[-73.89056971575057,40.79010763621307],[-73.89079999909833,40.790207576198696],[-73.89091952963915,40.790225554277995],[-73.89115649564229,40.79017385570524],[-73.89140452869836,40.79019391930026],[-73.89160587115452,40.79016070045078],[-73.89177016603418,40.79022204377215],[-73.89197448927074,40.79023627424179],[-73.89210433844188,40.7903233369397],[-73.89218182984939,40.79039426960916],[-73.89282283610936,40.792817081951625],[-73.89261805166494,40.79384099530898],[-73.89179289686578,40.79677524575884],[-73.89146412571843,40.797069709707195],[-73.89138566506288,40.79713592160803],[-73.89131158868787,40.797232471180656],[-73.89126861053201,40.797297593364526],[-73.89073139028332,40.79766089980671],[-73.89074667860798,40.797674655538934],[-73.89072763263883,40.797682903002624],[-73.89080903156568,40.797786294499126],[-73.89082535336983,40.79778217694936],[-73.89087421678997,40.797829748226526],[-73.89080346891839,40.79786274095037],[-73.89075732720387,40.79781310714188],[-73.8907872598436,40.79779867072512],[-73.89071401711375,40.79769528744921],[-73.89068952645451,40.79770766225175],[-73.89067322907712,40.79769731502436],[-73.89062148266541,40.79774892344873],[-73.89067572679157,40.797831626396125],[-73.89068932626911,40.79782957303988],[-73.89083042169476,40.798007406077254],[-73.89079505127066,40.79802183735321],[-73.89065123202073,40.797846066769964],[-73.89065939632953,40.79784194150482],[-73.89060785824256,40.79776750713793],[-73.89016916368631,40.79796465843273],[-73.89011894402665,40.79788745675342],[-73.89008344066386,40.79790090498284],[-73.89004647710618,40.797903116575114],[-73.89000362263471,40.79789184095774],[-73.88976564041533,40.79786914297946],[-73.88961192353311,40.79784765016885],[-73.8893651005021,40.797808091386045],[-73.889212838981,40.797801204104275],[-73.88914925293632,40.797810130857854],[-73.88906339518941,40.797833878023724],[-73.88886162193924,40.79787305739867],[-73.88871105363494,40.797938248730354],[-73.88856224600553,40.7980224993817],[-73.88846004385218,40.7980850155217],[-73.8883524809828,40.79813935919854],[-73.88831097224379,40.79818418537036],[-73.88851389271132,40.79824315578644],[-73.8884606409117,40.798290858784426],[-73.88856204587569,40.798353403824635],[-73.88850873250027,40.798437839994676],[-73.88839282545207,40.798375280868],[-73.88851285371605,40.798590541019834],[-73.88861288997039,40.79859842395775],[-73.88861405901397,40.798619494205376],[-73.88899654222841,40.798680754488004],[-73.88897708980147,40.79875053035715],[-73.88883691629043,40.798746722276846],[-73.88885148496334,40.798706328958936]]]]}}]}