{"type":"FeatureCollection","features":[{"type":"Feature","properties":{"district":"402"},"geometry":{"type":"MultiPolygon","coordinates":[[[[-73.897923512633,40.754240002678266],[-73.89796738728224,40.75421200096725],[-73.89800652918245,40.754180200043905],[-73.89804037333418,40.75414505894914],[-73.89806843121234,40.754107084937814],[-73.89809029781773,40.75406682615651],[-73.89810565752265,40.754024863730926],[-73.89809119371843,40.75393858292629],[-73.89806831793359,40.75385336122711],[-73.89803715732462,40.753769672224415],[-73.89752108776024,40.752832376769135],[-73.89746858723605,40.75273119920309],[-73.89735757518913,40.7524321127198],[-73.89732244935323,40.7522870439648],[-73.89729378479981,40.75214115589084],[-73.8972777435533,40.75203977276474],[-73.897264822315,40.751938132237576],[-73.89733247626982,40.7517890264152],[-73.8974219698374,40.751541618216],[-73.8972443746733,40.75130055442341],[-73.89673437675525,40.750520429233084],[-73.89631037800208,40.749627709370976],[-73.89615573567092,40.74933460151946],[-73.89573080028957,40.74861505141136],[-73.8957024792063,40.748566072085154],[-73.8956727864848,40.74851821242745],[-73.89564469814476,40.748473705578085],[-73.89554649212168,40.74832228640396],[-73.89547085005789,40.748205655352976],[-73.89524044951642,40.74785040207635],[-73.89489689828707,40.74728105726348],[-73.89444688750346,40.746535270813006],[-73.89344313884821,40.74495795463995],[-73.89217865751209,40.74287277803958],[-73.89168988619096,40.74214484419897],[-73.89127017953258,40.74142824878979],[-73.89088670316742,40.74068724516434],[-73.8905035830003,40.73990275047526],[-73.89025427973442,40.73939225415253],[-73.890177442278,40.739234933842056],[-73.89015983787404,40.739198879089315],[-73.89013366873242,40.73914446346852],[-73.89005151424455,40.73897360319475],[-73.88967163475186,40.73831513949202],[-73.88876078838557,40.73653636379489],[-73.8883831716343,40.73575838230886],[-73.88823587820687,40.73544116088825],[-73.88770199270428,40.73429132275877],[-73.88852285967548,40.734531160016154],[-73.88910318982454,40.7345923964626],[-73.88993450671488,40.734559956743425],[-73.89113852797301,40.734512969164555],[-73.89138497925177,40.7345049890541],[-73.89175016416739,40.73448480973209],[-73.89232644055762,40.73447014025988],[-73.89255554589468,40.73447812630978],[-73.89278405666076,40.73449596224911],[-73.89301088115073,40.734523575198104],[-73.89323494452191,40.73456081205582],[-73.89347408234102,40.73460217804845],[-73.89370905653054,40.73465745278428],[-73.89393780540267,40.734726210044684],[-73.89415835505042,40.73480779168287],[-73.89424644899582,40.73484181316727],[-73.89440759654316,40.734899323149065],[-73.8945753193575,40.734946492315146],[-73.89457544857858,40.7349465286192],[-73.89457557913671,40.734946555040395],[-73.89474809027577,40.73498275149379],[-73.89474827940192,40.734982787349786],[-73.89474847999331,40.73498281500748],[-73.89492421708373,40.73500772168097],[-73.8951013347047,40.73502118309019],[-73.89602931590736,40.73501789160908],[-73.89659952200017,40.73509450345161],[-73.89691188038617,40.73508660132856],[-73.89783236941891,40.73516035418248],[-73.8980688299364,40.735183598796],[-73.89806895986156,40.73518360829249],[-73.89806910146103,40.73518361662663],[-73.8983078669028,40.735194174327056],[-73.89830799682723,40.735194184325856],[-73.89830812742746,40.73519418444118],[-73.89854758662686,40.73519191005727],[-73.89854772823891,40.73519191018201],[-73.89854787096642,40.735191900926274],[-73.8987862131798,40.735176820169066],[-73.8987863429133,40.73517681090158],[-73.89878646142799,40.7351767929129],[-73.89902209966382,40.73514908398636],[-73.89922944768975,40.735111598271686],[-73.89943348532013,40.735062590668626],[-73.89963257895796,40.73500235830322],[-73.89982513106335,40.734931395019714],[-73.9000096941265,40.7348503206149],[-73.90009738990209,40.734818505802515],[-73.90018211221347,40.73478232813398],[-73.90026348646647,40.734741947568615],[-73.9003411528722,40.73469754264856],[-73.90041476803798,40.73464930970919],[-73.90048400643168,40.73459746227724],[-73.9005485620062,40.734542229331026],[-73.90060814934425,40.73448385508016],[-73.9006625049975,40.734422597622725],[-73.90071138865115,40.734358727804],[-73.900910948234,40.734126036736036],[-73.901079709003,40.73391463477944],[-73.90259650842539,40.732104428346],[-73.90416853267317,40.73018659103327],[-73.90421888938035,40.73012526891651],[-73.90518057919772,40.72895657697393],[-73.90557740103739,40.728636684315525],[-73.9057242363777,40.728520019586355],[-73.9067302812899,40.72773268283056],[-73.90693049911576,40.72757603027489],[-73.90706867295428,40.727466522772694],[-73.90712253078468,40.727424728437995],[-73.90716705244449,40.727388653787465],[-73.90730013750303,40.727294369914745],[-73.9074099735685,40.72720873888088],[-73.90804680880517,40.72673388791034],[-73.90889173791572,40.726068425976784],[-73.90971646081488,40.72544595612683],[-73.91134506901571,40.72418216995197],[-73.91257187743852,40.72323963495005],[-73.91316969805791,40.72308152589652],[-73.91384828309035,40.72289841235398],[-73.91423632914547,40.72277369421527],[-73.91597755003271,40.722251691275645],[-73.91610640677094,40.722225886261405],[-73.91610654838857,40.72222586006289],[-73.91610667900834,40.722225824474855],[-73.91623166966652,40.72218743607615],[-73.91623175271317,40.72218740933226],[-73.91623184722106,40.72218737371782],[-73.91634995236875,40.72213698559482],[-73.9163500230956,40.722136949962994],[-73.91645824620025,40.72207586600181],[-73.9164584231399,40.72207576678676],[-73.91645860077394,40.72207564060043],[-73.91655467946697,40.72200550648011],[-73.91789308455651,40.722270696218764],[-73.9190389757071,40.72252449328512],[-73.92006712173477,40.72274304844903],[-73.9205319833439,40.72294034239256],[-73.92027538340737,40.72366078553608],[-73.92037064169669,40.72368111331819],[-73.92037847580912,40.7236826847764],[-73.92039358699544,40.723685774870134],[-73.92040966982236,40.72368857799007],[-73.92042456800866,40.723691911684],[-73.92044061317402,40.723695461272925],[-73.92045948702633,40.72369992298682],[-73.9204725382298,40.723703777412034],[-73.92048926848682,40.72370820966344],[-73.9205083552936,40.72371321229283],[-73.92052580777893,40.72371896096045],[-73.92054419370676,40.72372488030926],[-73.92056373915445,40.723731396180376],[-73.92058657492447,40.72373893087014],[-73.92061214395146,40.72374726955823],[-73.92062681530052,40.72375194412145],[-73.92064009070799,40.723755410522635],[-73.92066663445787,40.723760697699916],[-73.9206917819405,40.723764866170605],[-73.92071601964189,40.72376767369184],[-73.9207365054163,40.72376933575741],[-73.92075934789996,40.72377125140157],[-73.92078170579363,40.72377255523505],[-73.92081641914274,40.72377452460201],[-73.92083881199972,40.723776241737006],[-73.9208588364714,40.72377845295149],[-73.92087514616117,40.72377920245143],[-73.92088913627258,40.72377921206478],[-73.9209070691402,40.723779143134415],[-73.92092478903952,40.72377836206617],[-73.9209462461655,40.72377980027563],[-73.9209639261338,40.72378242432335],[-73.92098351167094,40.72378619204126],[-73.92100630283643,40.72379128658946],[-73.92103050094359,40.723797237322344],[-73.92105009580422,40.72380224959179],[-73.92106917060302,40.723807223472804],[-73.92108547646309,40.723811215086144],[-73.92110036025854,40.72381578218236],[-73.92112106450271,40.723824693213096],[-73.92113732965376,40.72383257526568],[-73.9211554651799,40.72384101629343],[-73.92117731288019,40.723852206796295],[-73.92120104505189,40.72386283971538],[-73.9212229310019,40.72387204856144],[-73.92124200387731,40.723878491454755],[-73.92126155304379,40.72388270103607],[-73.92127832111758,40.723886332252974],[-73.92129415270605,40.72388994590707],[-73.9213118324226,40.7238939384274],[-73.92133185603933,40.723897103624005],[-73.92134862510669,40.72389933950076],[-73.92136493282364,40.72390179066698],[-73.92138101252571,40.72390732132],[-73.92139557202773,40.723916913289855],[-73.92140450640761,40.72392792305044],[-73.92141709746465,40.72393086805398],[-73.921433865007,40.723934967485185],[-73.92146083709967,40.723947422404706],[-73.92147176748504,40.72395330033348],[-73.92148477864409,40.7239603967622],[-73.92149988718768,40.72396657506493],[-73.92151374366593,40.72396977288089],[-73.92151817990622,40.723971558892366],[-73.92153328663102,40.72397853863757],[-73.92154582684316,40.72398428430506],[-73.92156328597645,40.72399368825392],[-73.92157791601524,40.72400363088216],[-73.92159370420008,40.72401478920141],[-73.92160762415,40.72402525402584],[-73.92162142466375,40.72403561004237],[-73.92163443684217,40.7240426158228],[-73.9216493313895,40.724049164026816],[-73.92166563414251,40.72405531681866],[-73.92168565511973,40.72406134582206],[-73.92170194810272,40.72406588632436],[-73.92171774543478,40.724069850027746],[-73.9217354590234,40.724074500216055],[-73.9217547948118,40.72407860134611],[-73.92177549283984,40.72408188385741],[-73.92179483043971,40.724084445243356],[-73.92181489364607,40.72408396432996],[-73.92183379891682,40.724082274758885],[-73.92184451181092,40.7240815712151],[-73.92186107058596,40.724081608755554],[-73.92187665823187,40.72408225007134],[-73.92189462544049,40.72408300993291],[-73.9219125537207,40.724086173104375],[-73.92192440727766,40.724091837014335],[-73.92193443525872,40.72410004676241],[-73.92194647162727,40.72411037574461],[-73.9219573905526,40.724115569104924],[-73.92197438287532,40.724120714479255],[-73.92199371963528,40.72412325706821],[-73.922011651306,40.72412466521605],[-73.92203217195507,40.72412750679809],[-73.92205078528673,40.72413218435137],[-73.92206986223363,40.724135465712216],[-73.92208803882681,40.724138521974794],[-73.92210621542858,40.72414232590652],[-73.92212761082129,40.72414659036562],[-73.92214626057458,40.724150448387086],[-73.92216396641422,40.72415197329217],[-73.92218258271909,40.724153552585975],[-73.92219982687459,40.72415501401591],[-73.92221869030347,40.72415824193431],[-73.9222340595316,40.724163601278164],[-73.92225172329604,40.72417099661454],[-73.92226802574584,40.72417748253145],[-73.92228620280889,40.72418128643502],[-73.9223039225149,40.72418093770851],[-73.92232001360424,40.72417606784063],[-73.92233541690074,40.724172232822056],[-73.92235638264822,40.724169365501595],[-73.92237410231867,40.724169044238664],[-73.9223932169671,40.72416966038789],[-73.92241840412638,40.724170803309335],[-73.92244077340769,40.72417230383961],[-73.92246219534644,40.72417440816418],[-73.92248221821093,40.72417777134417],[-73.92249992279842,40.72418038579087],[-73.92251575655784,40.72418338546012],[-73.92253299639351,40.7241880077324],[-73.92254930374219,40.72419087386179],[-73.92256326829784,40.724193053228724],[-73.92258302766433,40.724199577611664],[-73.92259126195702,40.72420326605646],[-73.92259792197382,40.72420625133769],[-73.92261186961294,40.72421257312185],[-73.92262535665819,40.72421884081871],[-73.92264165971221,40.72422541664492],[-73.92265886271561,40.724231244898775],[-73.9226761032647,40.72423584084833],[-73.92269099988826,40.72424015511679],[-73.92270939034462,40.724243598411626],[-73.9227266327153,40.724246059393685],[-73.92274576207295,40.7242452158335],[-73.92276253419685,40.724244930730876],[-73.92278302197042,40.7242461779722],[-73.92280260911754,40.72424800156824],[-73.92284336872012,40.72425271963861],[-73.92286129939676,40.724254461366705],[-73.92287922843092,40.72425648152042],[-73.9228981288989,40.72425877170488],[-73.92291606069413,40.724259548973606],[-73.92293121165173,40.72425911885557],[-73.92294077605575,40.72425893528173],[-73.92296314351967,40.72426147219741],[-73.92301127471289,40.72426206979351],[-73.92314779007283,40.724263765565766],[-73.92320876027158,40.724263419258584],[-73.92321428988642,40.72425181535155],[-73.9232572329583,40.72425124071807],[-73.9234449385153,40.72424874488574],[-73.92346284721462,40.724248928171555],[-73.92350121526025,40.72425384310599],[-73.92364637525692,40.72426629472561],[-73.92368662861378,40.72426877082106],[-73.92373820362327,40.72428545581348],[-73.92375148655509,40.72428431185887],[-73.92406939675722,40.724289222582186],[-73.92412708328484,40.72429260092623],[-73.92414685405129,40.72428985009618],[-73.92417644313517,40.72428070201814],[-73.92419217991154,40.724275741693575],[-73.92428434537072,40.72429101209357],[-73.92435683726055,40.72430725053324],[-73.92448063338459,40.72433937129092],[-73.92455737108895,40.72435928708846],[-73.92465327395544,40.7243876439845],[-73.92468803127831,40.724403695517495],[-73.92490316165183,40.72450657567162],[-73.92498732434257,40.72455493335696],[-73.9250650689491,40.72459485869987],[-73.92513666041378,40.72463392476535],[-73.92513844593608,40.724634988716005],[-73.92516963901222,40.72465346910129],[-73.92528222312207,40.72472087389924],[-73.9253014448664,40.72473297979259],[-73.92539503255533,40.724799840256175],[-73.92552386998965,40.7248874171909],[-73.92553807417833,40.72489824123463],[-73.92568785128067,40.72501803418603],[-73.92619991273062,40.725404087660294],[-73.92622803892253,40.725424042538926],[-73.92655663912397,40.725669065287406],[-73.92657286034839,40.72568642855442],[-73.92661994718051,40.72573931878451],[-73.92692613110452,40.72607176474095],[-73.92708774691283,40.72624843030622],[-73.92713796957013,40.726302393303875],[-73.92723433234396,40.72641205574697],[-73.92721721119939,40.72646064526309],[-73.9277619680096,40.72692986474549],[-73.92785278944137,40.72699899076905],[-73.92810972310468,40.727261380674605],[-73.9282834334517,40.727512090834544],[-73.9284859122038,40.727758579666336],[-73.9285567608544,40.727844828185745],[-73.92861486624295,40.72787655960058],[-73.92865537507303,40.72789068006672],[-73.92870824780987,40.72793027574725],[-73.92877556756137,40.727980688659],[-73.92881964284587,40.72800861362834],[-73.92889885311769,40.72805659697416],[-73.92893416423001,40.72808101970297],[-73.92910283484898,40.7281976786859],[-73.92923485876166,40.72826016576123],[-73.929392573708,40.72830855599457],[-73.92994415137056,40.72843310035104],[-73.93043971043015,40.72856313778723],[-73.93070871433734,40.72860666760436],[-73.93099163669311,40.728617598583874],[-73.93119267796652,40.728642987776915],[-73.93126345392155,40.72867720381063],[-73.93129800153325,40.72872544111279],[-73.93143398052354,40.72874256599035],[-73.9320430867127,40.72880978110324],[-73.93413016327804,40.729051906120375],[-73.9345317637569,40.72910480653514],[-73.93588751333363,40.72946511487226],[-73.9359282069928,40.7294817707391],[-73.9361331048847,40.72956336265145],[-73.93636315943913,40.72964338330165],[-73.93644563967128,40.72967214559876],[-73.93648138614026,40.729686519841714],[-73.93725405595634,40.73013460441589],[-73.93777915695546,40.73040047632093],[-73.93804478507167,40.73050996784624],[-73.9387573597812,40.731078201205555],[-73.93901362096585,40.73129845726292],[-73.93911054574816,40.73137980652573],[-73.9391741165019,40.73150623557768],[-73.93921026840314,40.73155951002746],[-73.93936863200217,40.7318610389955],[-73.93940973698975,40.731934812863486],[-73.93941918776596,40.731981562606805],[-73.93945253455875,40.73208705671479],[-73.93948778635685,40.73216618514178],[-73.93949645683932,40.73219948191666],[-73.93941220925933,40.73223586275378],[-73.9394641421489,40.732301708739605],[-73.93947186578312,40.73233511257],[-73.93948488081186,40.732380900901006],[-73.93954196713415,40.7325070292991],[-73.9396676288666,40.732752726657985],[-73.93974902700607,40.73290970931886],[-73.93978436990298,40.73298199456903],[-73.93986983153803,40.73316151928997],[-73.93991049829695,40.73327632836195],[-73.94003200991102,40.733245044305896],[-73.94005620356046,40.733286376485296],[-73.94010107332394,40.733363028984016],[-73.94016538640956,40.73348637434488],[-73.94009737776959,40.733511334951444],[-73.94001807012909,40.73354044127544],[-73.94006135020058,40.733644234769464],[-73.94007982777362,40.73368815610413],[-73.94010436853125,40.73375295054141],[-73.94006709327039,40.73376215298028],[-73.94034365972108,40.73419527893157],[-73.9404503357523,40.734432536274866],[-73.94066499856203,40.7347788841615],[-73.94086498592704,40.735070409091236],[-73.94122480467027,40.73544289009874],[-73.94162192243846,40.735798783650345],[-73.94163596800148,40.73581907939864],[-73.9416229064841,40.735823899718554],[-73.94161655224369,40.73583284777194],[-73.94162472636474,40.73584144233838],[-73.94180143973267,40.73596257820148],[-73.94190459194989,40.73601349115485],[-73.94196641273336,40.736042284610086],[-73.9420304961384,40.73606672046727],[-73.94205818845116,40.736079071555565],[-73.94208360671577,40.73609177279654],[-73.94210483382446,40.736104732596075],[-73.9421480767947,40.73613566848959],[-73.94216645287655,40.73614665455631],[-73.94224043442604,40.73618436068244],[-73.94227949922484,40.73620169697735],[-73.94229951025787,40.73621056815043],[-73.94240797511547,40.73625267527356],[-73.94256066310005,40.7363146441842],[-73.942617301401,40.73634000376156],[-73.9426417150165,40.73634951601455],[-73.9426498587399,40.73635169004069],[-73.94265918607185,40.73635305500021],[-73.94270176880806,40.73635420096781],[-73.94271158202736,40.736355268637844],[-73.94272008107481,40.736357101416836],[-73.94273679211518,40.736362656863776],[-73.94275630720325,40.7363708431975],[-73.94286937946474,40.736424416010664],[-73.94291468021933,40.73644409636514],[-73.94303934385863,40.73649759467839],[-73.94316721664607,40.73654898695715],[-73.94324208181106,40.73657908214632],[-73.94328861692705,40.7365960172029],[-73.94338584284633,40.736630545671154],[-73.9434315732658,40.73664748848302],[-73.94346410663792,40.73665973288519],[-73.94357675397869,40.73669825857167],[-73.94359480342638,40.73671778977375],[-73.94377941508297,40.73677548586059],[-73.94395913765196,40.73683610126816],[-73.94445052831138,40.737001829842725],[-73.94484628751302,40.73712779455914],[-73.94542629742466,40.73732324638339],[-73.94560258882314,40.73738209722628],[-73.94579981312475,40.737452132000634],[-73.94589125600207,40.73748258573931],[-73.94592145868828,40.73749379303702],[-73.94592866792138,40.73749626341636],[-73.94593191000166,40.7374977877538],[-73.94593478459895,40.737499454651164],[-73.9459372701498,40.737501238801826],[-73.94593932901476,40.73750311271385],[-73.94594095987217,40.73750507655413],[-73.94594215413971,40.737507121439776],[-73.94594410333048,40.73751251570067],[-73.94594514077706,40.737518370231236],[-73.94594669817852,40.737524548331855],[-73.94594749665009,40.73753313041559],[-73.9459447990511,40.7375454031409],[-73.9459372612599,40.737556440096924],[-73.9459182746334,40.73756757872588],[-73.94591175927842,40.73757093524105],[-73.94590575564354,40.73757336373225],[-73.94590000091144,40.73757494532644],[-73.94589726599038,40.73757539468772],[-73.94589463741784,40.73757560922686],[-73.94589209140621,40.73757559044039],[-73.94588965372495,40.7375753373353],[-73.9458872862647,40.73757485860505],[-73.94585686433787,40.737568882710825],[-73.9458390231052,40.73755573572614],[-73.94582536619043,40.737548958051676],[-73.9458192949661,40.7375464783172],[-73.94581751868698,40.737545946087685],[-73.94581568524715,40.737545558239006],[-73.94581379024896,40.737545305890215],[-73.945811813659,40.73754517814268],[-73.94580767006978,40.737545338693515],[-73.94580315890097,40.73754603046507],[-73.94579426649551,40.73754851136695],[-73.94577543679408,40.73755542754256],[-73.94572336904332,40.73758486739565],[-73.94568038333996,40.73761231275143],[-73.94566737658238,40.73762229253111],[-73.94563862187024,40.7376482142304],[-73.94562459602591,40.73765927440467],[-73.94558536491941,40.73768435334385],[-73.9455286316558,40.73771579954579],[-73.9454881134532,40.73773700496695],[-73.945455768032,40.73775235199271],[-73.94542554603397,40.737764674823445],[-73.94539673388455,40.73777422441213],[-73.94524265235826,40.73781652974287],[-73.9451023158267,40.73785656205576],[-73.94505824046414,40.73787025609017],[-73.94501457717692,40.73788553443428],[-73.94496461225295,40.737905817450375],[-73.9449113999564,40.73793094325295],[-73.94489834665613,40.73793866349429],[-73.94487440629368,40.73795607679544],[-73.94486381627502,40.73796292422658],[-73.94485391467585,40.73796798967279],[-73.9448420965231,40.73797275600319],[-73.94478762138644,40.73799052472333],[-73.94477519762314,40.737996264085],[-73.94476502360281,40.73800261599583],[-73.94475495293814,40.738011283505514],[-73.94468245424405,40.73810797209342],[-73.94465794094918,40.73812957306695],[-73.94463860064806,40.73813835254227],[-73.94463507246157,40.73813895410879],[-73.94463143837856,40.738139240004514],[-73.94462770874206,40.73813922062104],[-73.94462383708876,40.73813888554939],[-73.94461565846572,40.73813728743505],[-73.94460803640322,40.73813489752288],[-73.94459950294977,40.738131462477064],[-73.944566923444,40.738115579367516],[-73.94455295830868,40.738109728485554],[-73.94454546685759,40.73810733863213],[-73.94453842296285,40.738105724138514],[-73.9445316995587,40.738104865007905],[-73.94452525921659,40.73810474497232],[-73.9444955775668,40.738107314598246],[-73.94447895031381,40.73811257545675],[-73.94446254857958,40.738118906245354],[-73.94402128751996,40.738287663935786],[-73.94257885812198,40.738816020268715],[-73.94280384267618,40.73886154695899],[-73.94280080814424,40.73888072353947],[-73.94255612805293,40.739020865746824],[-73.94215338117519,40.739080051760716],[-73.94146173463167,40.739248583627315],[-73.94140886391511,40.73929957070655],[-73.94134983794339,40.73936163080176],[-73.94101774041424,40.7396797728979],[-73.94077801743283,40.73992178145376],[-73.94050888805725,40.740113941753286],[-73.94036159285046,40.74033534565838],[-73.94056144969083,40.74041832293436],[-73.94028230242274,40.7407992824138],[-73.9399239012415,40.74135443063891],[-73.93965611215268,40.74176921586865],[-73.93910874138092,40.74261703567943],[-73.93866991753195,40.7425340820251],[-73.93858786976786,40.74293088268765],[-73.93930746279246,40.74306775402512],[-73.93974435898767,40.74315951259895],[-73.93975601918524,40.74314401748956],[-73.94001922975666,40.743208272210886],[-73.94014858521224,40.74283244146021],[-73.93965301521378,40.742731087095805],[-73.94004815102228,40.74207122634087],[-73.94008406290699,40.74206324464164],[-73.94014181484292,40.74196918618743],[-73.94079972883502,40.74089766839854],[-73.94118816696206,40.74029021779213],[-73.94159470030033,40.7398641261691],[-73.94165001879614,40.73986415420986],[-73.94183504992716,40.739692620714244],[-73.94203367165663,40.73965693856134],[-73.94208664916368,40.73959258700161],[-73.94215937774796,40.73955163352994],[-73.94237973008305,40.739430471969754],[-73.94241321949603,40.73942273760938],[-73.94244816527323,40.739413896617606],[-73.94248164922902,40.73941169948439],[-73.94251076458573,40.739411714022054],[-73.94253405960492,40.73940840276228],[-73.94257045548699,40.73940620705622],[-73.94259666844879,40.73939514780302],[-73.94261561041546,40.73937522646056],[-73.94262581394169,40.739358622475194],[-73.9426491363561,40.73932320041692],[-73.94267972562717,40.7393021776814],[-73.94270012786527,40.739277828156325],[-73.94271034058517,40.73925125852521],[-73.94272766121328,40.739231597195996],[-73.94279045640073,40.7391937212045],[-73.94271139005957,40.73914369286134],[-73.94269588366713,40.73913388083182],[-73.94270608992112,40.73911506297883],[-73.94279106937535,40.739069033454236],[-73.94290141828857,40.739003801504566],[-73.94329026866818,40.73900862239333],[-73.9435316603867,40.73892280549155],[-73.94356853368721,40.73892550949098],[-73.94360554747949,40.73892436668426],[-73.94364201133348,40.7389193983885],[-73.94367724507745,40.738910697278925],[-73.94375068796468,40.738892630746655],[-73.94382272277534,40.73887153786564],[-73.94389313413845,40.738847481700155],[-73.94392187163804,40.738836629264526],[-73.94394170057882,40.738820617142544],[-73.9439578703336,40.7388023798777],[-73.94396995657188,40.73878239606008],[-73.94433882538479,40.73864623976503],[-73.94459252874786,40.73857388800338],[-73.94480159543227,40.73850057832653],[-73.94523862072616,40.73835682364538],[-73.94529420414904,40.738314858561736],[-73.94535847947536,40.73826948539736],[-73.94548236590117,40.73820703129393],[-73.94601135253077,40.73812081425014],[-73.94715087181176,40.73790012334491],[-73.9503362620347,40.7390069858436],[-73.95039319194352,40.73902756033973],[-73.95072468223914,40.73913050454897],[-73.95136030838324,40.73931497403852],[-73.95138071451841,40.73933647729522],[-73.95192208192246,40.73948730592815],[-73.95219672758516,40.73953625486506],[-73.9522153737711,40.73950345675032],[-73.9522972079241,40.73951862852682],[-73.95243355272927,40.73954393449678],[-73.95249805377412,40.739558639445285],[-73.9525664843774,40.73957577795654],[-73.95260237966797,40.739584023641015],[-73.95263400587473,40.739591288869484],[-73.95269882536108,40.73960617945557],[-73.95275412900965,40.73961970025923],[-73.95283134418206,40.73963599570558],[-73.95291652689198,40.739652113094216],[-73.95301574053715,40.73966917328737],[-73.95331835122266,40.73971859868661],[-73.95341454477158,40.73973626995568],[-73.95350014162985,40.739753927484806],[-73.95367148545422,40.73979433889962],[-73.95375351918099,40.73981300381814],[-73.9537772420148,40.73981721825374],[-73.95379878808681,40.73981986577472],[-73.9538088392085,40.739820292978074],[-73.9538200274479,40.73981982922873],[-73.9538588161983,40.739815116679154],[-73.9538740654047,40.739814069884446],[-73.95399631710342,40.73981409130882],[-73.9540453811646,40.73981205786151],[-73.95416096154257,40.73980327025779],[-73.95421335151983,40.73980073347323],[-73.95434254243452,40.73979884866078],[-73.95445339268447,40.739800279169415],[-73.95457431562885,40.739804748787556],[-73.95467405648976,40.73981153303222],[-73.95474210608033,40.739815899732356],[-73.95478421779814,40.73981591627361],[-73.95479667341934,40.73981471514083],[-73.95481021948802,40.73981224357956],[-73.95485696896264,40.73979970849304],[-73.95487585469716,40.739795781034985],[-73.95491398069154,40.739789987492806],[-73.95493966279436,40.73978726870709],[-73.95498631086835,40.73978457737779],[-73.95502314341974,40.73978318588687],[-73.95505997596848,40.73978179605944],[-73.95520363590519,40.739778808074334],[-73.95522880785674,40.73977679230141],[-73.95529063771643,40.739768090207775],[-73.95531915980796,40.7397655711262],[-73.95536636374376,40.7397648868245],[-73.95541178942041,40.73976708310102],[-73.9554189159671,40.7397679504635],[-73.95542672904534,40.73976946641833],[-73.95545971983992,40.73977779083534],[-73.95546765067924,40.73977909055638],[-73.95547496705144,40.73977967855485],[-73.95549441822828,40.73977956093111],[-73.95551408403593,40.73977796563688],[-73.95551509086093,40.739777884775506],[-73.95553724485593,40.73977463360263],[-73.95555130014266,40.73977178454636],[-73.95556162429459,40.73976969863908],[-73.95556803152874,40.739767882444944],[-73.95557485207902,40.739765219396595],[-73.95560214990203,40.739751938716395],[-73.95560846272585,40.73974967116757],[-73.95561450106392,40.739748142471434],[-73.95562429351861,40.7397467239462],[-73.95563528007243,40.73974612491652],[-73.95567927370703,40.73974760101011],[-73.9556891959379,40.739747432946096],[-73.95569800427987,40.73974671664152],[-73.95587541922043,40.73972178613262],[-73.95598072513813,40.73971130912565],[-73.95611897472271,40.73970515704317],[-73.95614908424899,40.73970175566444],[-73.95621492962236,40.73969192932883],[-73.95624261164735,40.73968901333177],[-73.95636593483104,40.73968033400873],[-73.95654189613165,40.73966890119717],[-73.95655856629823,40.73966688125502],[-73.95657678916183,40.73966328597535],[-73.95663482350615,40.739647602915326],[-73.9566558300674,40.739642730110056],[-73.95673650026714,40.73962737934429],[-73.95679871035685,40.73961736183686],[-73.95682353901003,40.739614724063756],[-73.95685053222033,40.739613555129885],[-73.95688022501531,40.7396138001179],[-73.95691509079991,40.73961548792795],[-73.95691900947347,40.73961588576129],[-73.95692303345538,40.73961658065813],[-73.95693155675934,40.7396189344084],[-73.95695727726097,40.73962950689683],[-73.95696588162461,40.739632535973655],[-73.95697362315164,40.739634375625286],[-73.95697731731511,40.739634890306164],[-73.95698094007176,40.739635134237666],[-73.95702052948604,40.739634950835324],[-73.95706179227868,40.739631832813764],[-73.9571046178665,40.73962579772024],[-73.95714889104121,40.73961686243031],[-73.9571745741813,40.73960988496132],[-73.95722993362253,40.73959212009668],[-73.95725341436346,40.73958596903736],[-73.95728369206078,40.73958014549566],[-73.957365367112,40.73956710032751],[-73.95741470766,40.739556582011744],[-73.95746607442858,40.73954341851164],[-73.95752016571682,40.73952743602219],[-73.95757867555957,40.739508141128255],[-73.95758450204687,40.7395057669127],[-73.95758998468358,40.739502761163315],[-73.95759520937852,40.739499106489056],[-73.95760021934018,40.73949474092111],[-73.9576095673322,40.73948419087092],[-73.95763455804388,40.73945032204597],[-73.95763940313135,40.73944545299887],[-73.9576443785898,40.739441303190254],[-73.95764957785602,40.73943779341447],[-73.9576550372954,40.739434885991415],[-73.95769167671628,40.73942022163412],[-73.95778977239864,40.739389595444756],[-73.95781298242116,40.7393812110454],[-73.95783305440654,40.739372672875916],[-73.95787174668588,40.739352470288296],[-73.95796044362709,40.73929991265234],[-73.95798514776511,40.73928735132585],[-73.95800848806392,40.73927730138729],[-73.95803720372624,40.739268036253485],[-73.95810634348696,40.73925060919715],[-73.9581231238344,40.73924510435236],[-73.95813766520315,40.739239112362206],[-73.95825512163884,40.73918362971929],[-73.95836705562311,40.73913333207926],[-73.95846682395415,40.7390950519716],[-73.95858431411148,40.73904116201254],[-73.95868260497008,40.738998261143585],[-73.9587857625724,40.738954605550674],[-73.95881278544756,40.73894415168776],[-73.95887504953112,40.73892219229929],[-73.95890248656035,40.738911197787985],[-73.95892486919305,40.73890039093988],[-73.9589846885233,40.73886827282516],[-73.95902844677197,40.73884805406155],[-73.95913624628122,40.73880122082453],[-73.95918469317887,40.73877905935372],[-73.95920597529579,40.738766918550716],[-73.95925086376519,40.738735830990606],[-73.95926236387596,40.73872924373335],[-73.95927346121157,40.73872399754881],[-73.95939408153606,40.738677357907804],[-73.95953181719854,40.73861833273113],[-73.95963595433521,40.73857627022998],[-73.95972420337289,40.738535598746665],[-73.95978270346579,40.73851171066145],[-73.95983699528468,40.73849397164295],[-73.95985404654243,40.738490096504265],[-73.95987349884922,40.738487463905294],[-73.95993158356691,40.73848463953081],[-73.95995298823036,40.738485159606775],[-73.96000509976616,40.73849124753245],[-73.96001767208682,40.73849209840882],[-73.96002897845497,40.73849216482091],[-73.96004172884962,40.73849099019483],[-73.96005462382864,40.73848817519902],[-73.96006757901841,40.7384837496239],[-73.9600804629095,40.73847774810182],[-73.9600932301301,40.73847017044953],[-73.96010554777811,40.738461195972526],[-73.96011713293029,40.73845103347841],[-73.96012759268112,40.73844002408259],[-73.96013085166251,40.7384356390348],[-73.96013345834069,40.73843076910724],[-73.96013545062728,40.73842536589795],[-73.96013686315297,40.738419342807816],[-73.96013848536931,40.73837979256504],[-73.96014056496982,40.73836686225731],[-73.96014265220776,40.73836104512299],[-73.96014547202853,40.73835589533226],[-73.9601490854786,40.73835134907866],[-73.96015351682247,40.738347343883134],[-73.96016047979931,40.73834278002507],[-73.96016917242203,40.73833850625045],[-73.96020045878554,40.7383269907482],[-73.96021115211683,40.73832236568885],[-73.96022036568883,40.738316866132145],[-73.96022403678207,40.73831388660296],[-73.96022715341647,40.738310700489585],[-73.96027048974297,40.73825993585119],[-73.96028544056766,40.73824399232724],[-73.96072580373679,40.73808017017932],[-73.96170910164196,40.73821891866333],[-73.96195441655281,40.7382408822651],[-73.96209998908999,40.73826019177962],[-73.96213404613776,40.73826588581309],[-73.96216416128229,40.73827223490987],[-73.96216505619311,40.73827253825914],[-73.96216583608776,40.73827292499876],[-73.96216617447988,40.73827314909272],[-73.96216647673565,40.73827340115173],[-73.96216676378317,40.738273672973854],[-73.96216700104054,40.73827397007608],[-73.96216740987819,40.7382746409861],[-73.96216769092659,40.738275393104416],[-73.96216785716277,40.73827625726017],[-73.96216790859835,40.73827721301518],[-73.96216773862518,40.73827905139402],[-73.96216721847475,40.738281250844736],[-73.96216396658298,40.73829124172085],[-73.96215651228,40.738318857003215],[-73.96213146735151,40.73839284568207],[-73.96212654058702,40.738415414725516],[-73.96212468789201,40.738435905274606],[-73.96212483572963,40.7384385266087],[-73.96212537122544,40.73844110786397],[-73.96212630516986,40.73844365205939],[-73.9621276250102,40.738446156845484],[-73.96213146112954,40.73845107065091],[-73.96213695200179,40.738455925695924],[-73.96214321030874,40.738460231506366],[-73.96215107586613,40.73846474205936],[-73.9621821806658,40.73848003068481],[-73.96226462052333,40.73852338474269],[-73.96235201619743,40.73856455280189],[-73.96239859334683,40.738583235651994],[-73.96242538266736,40.73859705761659],[-73.96245085621194,40.738612097900365],[-73.96247475087858,40.738628189897305],[-73.96249684562622,40.73864517723424],[-73.96251691303671,40.73866288460558],[-73.96253484590211,40.73868121615242],[-73.96255052381623,40.73870004585673],[-73.96256384948754,40.73871926730861],[-73.96259185234969,40.738768209190056],[-73.96260819816908,40.73879553905696],[-73.96262015898662,40.73903266212623],[-73.96243079005264,40.73967148058549],[-73.96220916557884,40.740006174995884],[-73.9617904826309,40.740013130417005],[-73.96153655773304,40.74015982310229],[-73.96143157483469,40.74029669069479],[-73.96141027129391,40.74032362162809],[-73.96128517458084,40.74034928488652],[-73.96124697945471,40.740423596612736],[-73.96124682219423,40.74042473121576],[-73.96126107939801,40.740446795044136],[-73.96131588369333,40.740470639565196],[-73.96150536577223,40.74053026738233],[-73.96171990260346,40.74059943479648],[-73.9618263891064,40.74063163419436],[-73.96193750086432,40.74079487881608],[-73.96188806318123,40.74098216980996],[-73.96180397423018,40.74109767347216],[-73.961652517354,40.741132757098754],[-73.96145893775225,40.74113750517687],[-73.96121862852013,40.741107860130334],[-73.96111770387579,40.7415372776616],[-73.96107358624153,40.7416259280741],[-73.96107392567998,40.741694504752296],[-73.96110901150807,40.74179407146457],[-73.96126996809065,40.741831089213065],[-73.96129091093216,40.74179394662349],[-73.96136426747577,40.741810067016345],[-73.96136611280632,40.741823612732794],[-73.9613648658307,40.74183719790203],[-73.9613605637523,40.74185041719189],[-73.96135333492782,40.74186287618641],[-73.96135274033514,40.741864562537536],[-73.96135179503524,40.741866153563244],[-73.9613505239109,40.74186760738362],[-73.9613489604214,40.74186888573024],[-73.96134714572192,40.7418699549537],[-73.96134512758003,40.74187078690922],[-73.96134295911857,40.741871359697555],[-73.96134069741714,40.741871658241415],[-73.96133840200964,40.74187167468231],[-73.96110814501434,40.74182802540549],[-73.96117277851148,40.741886334141256],[-73.96155253168956,40.741993261407345],[-73.96119029789023,40.74264485525986],[-73.96111369481214,40.74274854913807],[-73.96109548654573,40.74278194722898],[-73.96097168385481,40.74275405426387],[-73.96093449806602,40.74282976002262],[-73.9606460218035,40.743392706263286],[-73.96059726583294,40.7434319833623],[-73.96054252040626,40.74346639397166],[-73.9604826192219,40.74349541405912],[-73.9604184744982,40.74351860168308],[-73.96035106308082,40.74353560372304],[-73.96028141156619,40.743546161257484],[-73.96021058066677,40.74355011350722],[-73.96013964905673,40.74354740028395],[-73.95977470797814,40.74350468370064],[-73.95971981529031,40.743693045465456],[-73.95975586317587,40.74369884945022],[-73.95970598360812,40.74385865006135],[-73.95975727190712,40.74387475068258],[-73.96001568928234,40.743920109801245],[-73.96002196197679,40.74390730610344],[-73.95993157068438,40.74379975951658],[-73.9599331442771,40.74378874035357],[-73.95994685233357,40.743784575895276],[-73.96007363699398,40.743929958335045],[-73.96012375375955,40.74393920790268],[-73.96012885352141,40.74392640379294],[-73.96003494096279,40.74381319753378],[-73.96004199507843,40.743803074023546],[-73.96005765843071,40.74380367501256],[-73.96017778721604,40.743947863749476],[-73.960216548921,40.74395740754679],[-73.96021261942937,40.74398093408058],[-73.9605088734164,40.74404199265068],[-73.96052090981662,40.74401974007546],[-73.96056856858495,40.74402966608301],[-73.96051732536267,40.744105341081145],[-73.96011951918793,40.74402967229453],[-73.96010602637571,40.74405870980712],[-73.95992298789865,40.74402704209625],[-73.95993311497537,40.74399458841122],[-73.95963225023962,40.74393463191431],[-73.95955401304758,40.744015496701046],[-73.95936198209034,40.744213976037294],[-73.95940368217357,40.744226074747324],[-73.9593910660958,40.74428332424144],[-73.95946013173088,40.744292519797305],[-73.95946913213879,40.74426775269999],[-73.95971280471149,40.74431481741353],[-73.95972855228645,40.74427211561957],[-73.96015525517691,40.74436878260574],[-73.96012600962386,40.744443936991644],[-73.96001147139263,40.74442254304456],[-73.96002610056907,40.74437386231283],[-73.95980151741625,40.7443293685812],[-73.95979139383243,40.74435584424744],[-73.95954322849347,40.74430877879256],[-73.95952410819169,40.74435489590625],[-73.95936852954134,40.744324805343524],[-73.9592997163362,40.74432422217934],[-73.95923368945685,40.744310043026665],[-73.9592159711042,40.744326026129954],[-73.95916042289976,40.74436716219002],[-73.95909956028862,40.744403690481526],[-73.95903404086985,40.744435216324376],[-73.95894482634769,40.74445476035497],[-73.95885419935782,40.74447009115756],[-73.95881841584702,40.744508907268475],[-73.9587753700448,40.744555599863595],[-73.9591872398515,40.74462101125723],[-73.95922188572061,40.74455380563107],[-73.95941134001757,40.74459114412763],[-73.95941819442545,40.74459275982076],[-73.9594247965274,40.74459490095447],[-73.95943107519165,40.74459754354744],[-73.95943696655586,40.744600662615866],[-73.95944240940852,40.74460422061233],[-73.95944734539945,40.74460818350859],[-73.95945172609503,40.74461250974107],[-73.95945549887904,40.7446171535567],[-73.95945863272343,40.744622066026906],[-73.95946108867096,40.744627197382776],[-73.95946284296737,40.74463249048951],[-73.95946387758201,40.7446378935752],[-73.95946417955417,40.74464334867122],[-73.95946375112125,40.74464879848436],[-73.95946329058692,40.74465487734727],[-73.9594620474797,40.74466089177221],[-73.9594600317459,40.74466678513872],[-73.95945726676912,40.744672499323435],[-73.95945377637196,40.744677978715956],[-73.95944959362568,40.74468317206483],[-73.9594447610742,40.744688026279135],[-73.95943932500028,40.744692497818264],[-73.95943333829676,40.74469653979342],[-73.95942685803543,40.744700115536396],[-73.95941994745529,40.74470318888369],[-73.95941267265363,40.744705732384226],[-73.95940510501381,40.74470771909136],[-73.959397318998,40.74470913043588],[-73.95938938708186,40.7447099543814],[-73.95938138680673,40.744710179898526],[-73.95937339680782,40.74470980818763],[-73.95887919943334,40.74462433145484],[-73.95875854834802,40.74494500525302],[-73.95964901103127,40.74513383995065],[-73.95966590587591,40.74517030058272],[-73.95963675133882,40.7452031697385],[-73.95960150585186,40.74520737384921],[-73.9590666925803,40.745110345305314],[-73.95907628880576,40.74509246880747],[-73.95862255916228,40.745007815675095],[-73.95849389303119,40.74498786491641],[-73.95847854708349,40.74503809162608],[-73.95847142298703,40.74506024138743],[-73.9584525226965,40.74511901182233],[-73.95862451222632,40.745149430662885],[-73.9586245007113,40.74516797196018],[-73.95873752408323,40.74519508943759],[-73.9591404409601,40.745291763707186],[-73.9591694989292,40.74529287343806],[-73.95919801002731,40.74529728278456],[-73.95922533022285,40.74530489214484],[-73.95925084238479,40.74531552963254],[-73.9592739702227,40.745328954959476],[-73.9592941913043,40.74534486486323],[-73.95931104885662,40.745362899957534],[-73.95932982273561,40.74539724775606],[-73.9593407193065,40.74543351019898],[-73.9593434270197,40.74547065053102],[-73.95933786844708,40.745507606896076],[-73.95932420249706,40.74554332269597],[-73.959302819873,40.745576776799176],[-73.95927433190408,40.74560701273567],[-73.95924338773052,40.74564514354433],[-73.95920557602041,40.74567950681789],[-73.95916167782293,40.74570939272998],[-73.95911259991684,40.74573418394018],[-73.95905935607946,40.74575336834654],[-73.95896746083429,40.745775077365714],[-73.95882565701372,40.7457533279259],[-73.95864152920839,40.74572911522799],[-73.95856398158583,40.74573469764133],[-73.95850227459322,40.74576497421799],[-73.95850876213379,40.745787883622775],[-73.95852012701683,40.7458096660898],[-73.95853605821785,40.745829725486125],[-73.95855611974223,40.74584751283457],[-73.95859993477022,40.7458955754473],[-73.95914371692935,40.746000603678645],[-73.95877806254315,40.74655673697179],[-73.95872036392863,40.74664630161459],[-73.95866490741066,40.74664202069684],[-73.95857744304874,40.74675108484973],[-73.95848340545179,40.746837777964956],[-73.95840693398827,40.746887307304824],[-73.95839814292222,40.74691780160384],[-73.95835800818824,40.74697401659788],[-73.95830782389999,40.74706834919561],[-73.95845316793555,40.74709794562906],[-73.95751889321009,40.748303619592434],[-73.9576668047197,40.74837347901905],[-73.9577265433446,40.748294061895905],[-73.9578395394205,40.74833800337541],[-73.9576883184342,40.748535026871835],[-73.95757650467837,40.7484885253785],[-73.95763576836282,40.74840634746513],[-73.95749344070785,40.74833646476331],[-73.95704097342924,40.74892035087422],[-73.95485394268036,40.748040794641135],[-73.9547334795327,40.74801872571124],[-73.95470561241694,40.748013620452596],[-73.95439317918219,40.747956380624515],[-73.95430591777034,40.747994815912726],[-73.95430434325938,40.74800791985551],[-73.95437247709864,40.74801628598392],[-73.95436619145806,40.748044874348174],[-73.95415161163933,40.7480144114449],[-73.95415476160213,40.7479882035638],[-73.95422759407714,40.747998954037755],[-73.95423466390275,40.74796917471384],[-73.95430279744177,40.74797694465776],[-73.9543647478346,40.74795117253389],[-73.95318382492859,40.747734811961124],[-73.95305375571401,40.74808748722947],[-73.95478387869808,40.748427687773386],[-73.95632162509666,40.74908155393246],[-73.95613499240578,40.749264626274964],[-73.95601160302711,40.749373994226886],[-73.95606134734874,40.74940287696209],[-73.95606887244588,40.74939287366365],[-73.95624926722698,40.7494865777094],[-73.95622199020691,40.749517303030586],[-73.95604535823234,40.74941931137432],[-73.95605570265155,40.74941145214697],[-73.95600065094617,40.74938370320937],[-73.95576039140938,40.749596659530376],[-73.95617416492492,40.74966509449204],[-73.95619953007338,40.74967071442296],[-73.95620136867242,40.74968563282158],[-73.95612066411361,40.749759885369805],[-73.95608794510895,40.74976872916972],[-73.95606245734433,40.74976427782982],[-73.95559517265887,40.749683968539756],[-73.95546436936405,40.749674213082805],[-73.95534928514448,40.75001385690411],[-73.95521529965917,40.74999196768942],[-73.95522809429403,40.74994344604054],[-73.95513239152478,40.749926424332486],[-73.95520275040874,40.74967653740964],[-73.9550665256017,40.74963273037559],[-73.95451584573388,40.75058669897693],[-73.95465000413118,40.75083104095966],[-73.95447585982694,40.751097265560006],[-73.95449858097594,40.75122583574058],[-73.95391958666158,40.75179900365133],[-73.9539489670387,40.75182340686372],[-73.95389216624743,40.75189075777055],[-73.95375312856626,40.752001550856114],[-73.9536210397199,40.7520852081836],[-73.95292971005249,40.75276364940441],[-73.95289896210177,40.75279991962983],[-73.9529079071637,40.75286038947291],[-73.95278760145926,40.75298088510861],[-73.9525679242037,40.75316767101144],[-73.95201001989038,40.753835013291],[-73.95193018728062,40.753884821847635],[-73.95166990038551,40.75418341503189],[-73.95153689279796,40.754330628431866],[-73.95131438087441,40.75457955013957],[-73.95101792732538,40.75508691922262],[-73.95087701951559,40.75516691470505],[-73.95083917142067,40.75521808361664],[-73.95080763818348,40.755263680114496],[-73.94911295199473,40.7545236203243],[-73.9490827054014,40.75455645763893],[-73.94903024966037,40.75461339395776],[-73.94897021357266,40.75467856280863],[-73.94877954861249,40.75489041870109],[-73.94789671088193,40.75448530117713],[-73.94623305277253,40.753784979771936],[-73.94369877940004,40.75267277401875],[-73.94374837088456,40.752620980589505],[-73.94403580304798,40.75262661997449],[-73.9438353674642,40.75253012255439],[-73.94271928014308,40.752036951785136],[-73.94254022283339,40.751959238887316],[-73.94238347775675,40.75189120832171],[-73.94187442025334,40.75167028367449],[-73.94177703566687,40.75162798457628],[-73.94108612438261,40.75132787998553],[-73.94052030819238,40.75107939206118],[-73.94039280567917,40.75102253127946],[-73.94026281548076,40.75096710074411],[-73.94002099809916,40.750860617101985],[-73.93944284343051,40.75060601982256],[-73.93863715901978,40.75025879942018],[-73.93798209237035,40.74997208726719],[-73.93781162642844,40.7498974782203],[-73.93742973635655,40.749751093780596],[-73.93741548785447,40.749692282014614],[-73.9373262635063,40.74963379669232],[-73.93729600790647,40.74952049836857],[-73.9373804600166,40.74946771292754],[-73.93738153801151,40.74939373647429],[-73.9373836884436,40.74924606416869],[-73.93738558127866,40.74919831471231],[-73.9373928579201,40.74901474717878],[-73.93739653782151,40.748916439963494],[-73.93686355668945,40.748421263647685],[-73.93674775106649,40.74849321191136],[-73.93538685321553,40.74941193315351],[-73.93464705504746,40.749850316546905],[-73.93393939417153,40.75026964577674],[-73.93151912066561,40.75115245567117],[-73.92651605612762,40.751513074328436],[-73.92463369536247,40.75164334566207],[-73.92255043067752,40.751576479635304],[-73.92161208025276,40.75137155212438],[-73.92101480198528,40.75097260997024],[-73.92071243442633,40.750468007451886],[-73.9205390008441,40.749750827852324],[-73.92021333700542,40.74981080108333],[-73.91957573550128,40.74994391220831],[-73.91818375833961,40.75023449829503],[-73.91525600931422,40.75084562644847],[-73.91314339178861,40.75096705217545],[-73.91267116656972,40.75106458870176],[-73.90984318646106,40.75163867983069],[-73.91034111867039,40.7526768155198],[-73.9106747483103,40.752995076324495],[-73.91023124668567,40.752976523473016],[-73.90823661061745,40.75316242454439],[-73.90759425921112,40.75322228460465],[-73.90690889767504,40.7532848487352],[-73.9066854594976,40.753307942350304],[-73.90611707967247,40.7533788762875],[-73.90586440330034,40.753403848745975],[-73.90491691374754,40.75350527789411],[-73.90392280538741,40.75361132413528],[-73.9029891241067,40.75370838254392],[-73.90247213009243,40.75376303795318],[-73.90212120344033,40.75380101197869],[-73.9012134788526,40.75390221108614],[-73.90030276295876,40.753991314783526],[-73.8995734853758,40.754063532368036],[-73.8992154677058,40.754106218947115],[-73.89873816428349,40.75415367043633],[-73.89862947442634,40.7541615224452],[-73.89854223111878,40.7541701124327],[-73.897923512633,40.754240002678266]]]]}}]}