{"type":"FeatureCollection","features":[{"type":"Feature","properties":{"district":"410"},"geometry":{"type":"MultiPolygon","coordinates":[[[[-73.85722330984474,40.65027867003899],[-73.85902154958957,40.65266017586469],[-73.85991265091621,40.65384023727846],[-73.86001322825,40.65397342586144],[-73.86049595722871,40.65455882447813],[-73.86054077882585,40.65462399610808],[-73.8605783613639,40.654675329645336],[-73.86061323090364,40.654719470737064],[-73.86086853758908,40.6550778062392],[-73.86098917353912,40.65520976710535],[-73.8609450096384,40.65522068001311],[-73.86089920007336,40.65522644295003],[-73.86085277407666,40.655226926436505],[-73.86080677473116,40.655222119609746],[-73.8607622355335,40.65521213046782],[-73.86072015717333,40.6551971834431],[-73.86045463170866,40.65506710736632],[-73.86030402711805,40.654925002722194],[-73.86025748919218,40.65488405050416],[-73.8602513031118,40.65487860618992],[-73.86024486376589,40.654872254568986],[-73.86021221902361,40.65484005213166],[-73.86015870367471,40.65479366330605],[-73.85979242750736,40.65447615737718],[-73.85975533673269,40.654104176189925],[-73.85948691913477,40.65393234893375],[-73.85941022942697,40.65386473742254],[-73.859409890647,40.65385786181064],[-73.85944474027151,40.65363754760188],[-73.85934240802169,40.65356106691029],[-73.85924955873753,40.653254295428574],[-73.85912613282355,40.65317299473196],[-73.85904529229799,40.6531079760841],[-73.85900715381493,40.65300405837236],[-73.85898002913167,40.652675457834874],[-73.85868859934199,40.65248755609583],[-73.85854822276491,40.65236079018107],[-73.85837385611713,40.65218529245016],[-73.85805076445999,40.651801868693596],[-73.85793978941108,40.65167574157661],[-73.8578339260735,40.65155815255745],[-73.85774883373948,40.651489881695575],[-73.85752745156287,40.65137924311286],[-73.85731941515513,40.651237099008036],[-73.85730224535361,40.65106410457863],[-73.85718757766335,40.6508756946088],[-73.85702601785154,40.65069371930463],[-73.85695870357813,40.650587373975306],[-73.85711163060917,40.65052598094267],[-73.8571471445685,40.650496134980315],[-73.85717602062607,40.650462390014965],[-73.85719753330177,40.6504255938651],[-73.85721114211813,40.65038667100663],[-73.85721650517836,40.65034659934577],[-73.85721348775486,40.65030638564976],[-73.85721129579683,40.650303860942174],[-73.85720969470685,40.65030109069613],[-73.85720873041622,40.650298154383236],[-73.85720843058797,40.65029513623909],[-73.85720880382338,40.65029212284689],[-73.85720983941513,40.650289200653425],[-73.85721150765455,40.65028645348926],[-73.8572137606839,40.650283960163755],[-73.85721653386926,40.65028179220429],[-73.85721974765474,40.65028001180429],[-73.85722330984474,40.65027867003899]]],[[[-73.83032725337064,40.65513280580348],[-73.83037789718178,40.655128335118135],[-73.83041325059033,40.65515782233639],[-73.83041203905744,40.655215855761845],[-73.83040011516309,40.65525714399902],[-73.83035808100351,40.655322082887785],[-73.83033058333676,40.6553698723751],[-73.83026601851492,40.65542864678493],[-73.83019020357271,40.655478818883495],[-73.83012570678878,40.65551061084542],[-73.83000321318897,40.655552128707214],[-73.82992594068769,40.65554220300227],[-73.82988919856018,40.65552282258419],[-73.82994556435838,40.655424494353106],[-73.83004306625594,40.65534942254144],[-73.83032725337064,40.65513280580348]]],[[[-73.8011553859723,40.67179912084403],[-73.8011423813821,40.67148794259665],[-73.80113697261623,40.67135852938849],[-73.80113430131904,40.671294462128635],[-73.80113236148254,40.670548667617204],[-73.80116000865918,40.669800420972685],[-73.80117909108151,40.669100265712174],[-73.80119956362952,40.66893882490494],[-73.80121552845985,40.66884282944882],[-73.80123401238428,40.66864223751149],[-73.8012616037584,40.668390189897416],[-73.8013428673729,40.66777379734283],[-73.80141897585904,40.66735421613508],[-73.8014539825105,40.667175673413006],[-73.80153052669341,40.666837159493085],[-73.80155565335343,40.66675336444601],[-73.80166776691213,40.6663729626696],[-73.80168266553363,40.66632235257108],[-73.80170297937693,40.66626407029428],[-73.80183646415172,40.66588109373886],[-73.80203207689965,40.66524802533259],[-73.80214866502808,40.6652499534641],[-73.80299527141308,40.66521661078069],[-73.80377524451634,40.665160184274306],[-73.80432050570943,40.665120733367225],[-73.80413699625406,40.66507426967914],[-73.80610163184434,40.66482819140052],[-73.80647434285778,40.66385258471637],[-73.80737179867165,40.660672954147884],[-73.80768782553382,40.66044832486154],[-73.80789071543407,40.6605515147989],[-73.80845754392598,40.66064231444993],[-73.80960148782957,40.66087566388326],[-73.81149556952494,40.66122496080569],[-73.81155723962625,40.66123636754665],[-73.81162044196459,40.66124074452736],[-73.81168380244537,40.66123799658705],[-73.81173464868363,40.66123270645952],[-73.8117859560972,40.66123352219741],[-73.81183646808225,40.66124042382183],[-73.81188494751576,40.66125324230056],[-73.81193020705362,40.66127166368753],[-73.81197113821004,40.66129523681175],[-73.81200673850566,40.661323384326934],[-73.81201302839541,40.661356317060246],[-73.81201458898713,40.661389575070785],[-73.81201140165399,40.661422765164154],[-73.81200350428874,40.661455495973385],[-73.81165574220198,40.66260733959917],[-73.81158695116778,40.66273375879783],[-73.8115024914701,40.66285555027463],[-73.81140327892801,40.66297106835771],[-73.81129060737722,40.66307881072689],[-73.81116608713663,40.66317747410256],[-73.81176694941475,40.66293453587816],[-73.81228672785198,40.66282283799342],[-73.81281616385513,40.66272443613283],[-73.81335011162022,40.66264007870689],[-73.8138875902703,40.66256992656825],[-73.81442763026917,40.66251410224165],[-73.81496922485715,40.662472668737344],[-73.81791759590796,40.66295601625101],[-73.8230521056646,40.66355387813596],[-73.82426052232638,40.663519259019374],[-73.82584393795268,40.66338847156824],[-73.82948716041835,40.663824539974414],[-73.83203218807458,40.66483860562761],[-73.83211846803609,40.66503281894159],[-73.83247768214142,40.664968212812404],[-73.83185738017242,40.66365393062977],[-73.83107771065983,40.662056223738176],[-73.83029375208027,40.660401991532304],[-73.83003131984027,40.65989400832976],[-73.82991335687284,40.65966566868477],[-73.82931420218824,40.65889865674667],[-73.82859942404697,40.657196973016184],[-73.82827925614772,40.656033533425614],[-73.82807181162465,40.6552677027037],[-73.82782507502198,40.65424036172502],[-73.82770683535408,40.653748036189754],[-73.8275964175788,40.65328826648437],[-73.82747807095909,40.65279547828383],[-73.82736078980705,40.65230711930968],[-73.82724192613374,40.65181216271298],[-73.82712509909712,40.65132568647162],[-73.82701324463507,40.65085989913009],[-73.82689623390857,40.650349708987974],[-73.82724314900159,40.650287171849826],[-73.82895553086827,40.65008188275324],[-73.82927196330891,40.6500467760496],[-73.82959697362601,40.64982765808605],[-73.82975653526441,40.6499965462377],[-73.83001039818284,40.65032837516031],[-73.8298694883251,40.65042963014292],[-73.8300076744927,40.650903475057646],[-73.8303814083702,40.651147920432585],[-73.83053125515521,40.651329520124584],[-73.83069916378126,40.65140431208385],[-73.83081972914454,40.6515137852805],[-73.83093651353481,40.651626129256],[-73.83099441867893,40.65176986454706],[-73.83110356276806,40.65225669541139],[-73.83132175015787,40.65272653287059],[-73.83129886631302,40.65323377210741],[-73.83128774471707,40.65347883792681],[-73.83139609775661,40.653518868093606],[-73.83156039342549,40.653603277647996],[-73.83156068724126,40.65360365032659],[-73.8315921634221,40.653646996502985],[-73.83161314793695,40.65374895323639],[-73.83158322059658,40.653813786333885],[-73.8311820184313,40.65417083010382],[-73.83120160215557,40.65418976108523],[-73.83113181848982,40.654248097443684],[-73.830425167031,40.654830845270745],[-73.8304204789365,40.654828271487574],[-73.83015719582365,40.655001356734836],[-73.83013498681507,40.65502863509935],[-73.83014785427493,40.65503478715167],[-73.83016885409623,40.655009062668675],[-73.8302090599967,40.65502997144852],[-73.83018320665533,40.655064273266966],[-73.8301301265928,40.65503966637245],[-73.83011226681158,40.655097282185345],[-73.83008155069436,40.655143841054866],[-73.82990080019458,40.65529687902341],[-73.82934489242989,40.6557100220865],[-73.82917306859059,40.655864865542554],[-73.8290406635642,40.656022380948144],[-73.82902428985523,40.656049261512734],[-73.82901417557974,40.656107884452624],[-73.82903950091577,40.65612309967302],[-73.82907029897915,40.65612314544539],[-73.82910836312273,40.65611561380395],[-73.82915279961658,40.65609636311573],[-73.8291881885572,40.656072270301955],[-73.82921364262532,40.656037124946245],[-73.82934890224666,40.65592418720431],[-73.82938972946424,40.655898721794685],[-73.82945602175378,40.65583397285656],[-73.82943341421336,40.65581876175768],[-73.82966677652145,40.655599040016504],[-73.82985054455624,40.655644843064856],[-73.83002267408853,40.655636819819044],[-73.83002356082703,40.6556444088285],[-73.83006519242163,40.65565895787024],[-73.83008601602312,40.65566312775956],[-73.8301503268674,40.65566460284457],[-73.83020017064872,40.65565570813689],[-73.830308055358,40.65561999347833],[-73.8303697749091,40.655571794439645],[-73.83044328071922,40.65551947244465],[-73.83053411626771,40.65542026478442],[-73.83055410997996,40.65539476943657],[-73.83058237017296,40.655323754538024],[-73.83057157846144,40.65515651641791],[-73.83055658589429,40.65515473712608],[-73.83055620208113,40.65530585075535],[-73.83055145115402,40.655359436782156],[-73.83053069151879,40.65535764899081],[-73.83053540141084,40.655319877256375],[-73.83053759090554,40.65491222374312],[-73.83055028060313,40.65491224243873],[-73.83055777780145,40.65513980338401],[-73.83056930687607,40.65514245592553],[-73.83055831781138,40.654927189777524],[-73.83055609756028,40.6548929222433],[-73.83056886758126,40.6548613123496],[-73.83060245974772,40.65480688977772],[-73.830978453841,40.65449499728812],[-73.8313573446368,40.65418069908614],[-73.8313435328767,40.65416837889274],[-73.83144752173949,40.65410263768685],[-73.83146913310618,40.65411585753261],[-73.83170814411545,40.65393117429707],[-73.83195297310009,40.65403133434745],[-73.83199688470377,40.654001526995124],[-73.83205445130542,40.654046418067786],[-73.83212330981654,40.65427316167625],[-73.83200052870747,40.65444081896525],[-73.83205201431508,40.65446642666791],[-73.83216050229746,40.65450950917548],[-73.83219775627528,40.65445407709619],[-73.83221698518581,40.65446038629317],[-73.83216594711055,40.654530454829356],[-73.83204647773093,40.65448107631974],[-73.83190474303169,40.654630519939296],[-73.83185835751905,40.65461183972574],[-73.83160220213368,40.65484199906236],[-73.83154966356706,40.65491703485854],[-73.8314933010301,40.65497982053992],[-73.83141211466815,40.6551937389539],[-73.8313810634857,40.65535179591031],[-73.8313576493812,40.65547097584],[-73.83130844752444,40.65559932514163],[-73.83116100809754,40.65591923323476],[-73.83110341009049,40.65594681934624],[-73.83092856003482,40.65603056223304],[-73.83088868963769,40.65603595147738],[-73.8308332160638,40.6560434510679],[-73.83075005477163,40.6560712465068],[-73.8306032491924,40.65613989430195],[-73.83047191680431,40.65621567093813],[-73.83046931981691,40.656217035147726],[-73.83040507534938,40.65625197214533],[-73.83038132783882,40.65626527842335],[-73.83038004883461,40.656265994564144],[-73.83034959412645,40.65628306117209],[-73.83028389469523,40.6563067226317],[-73.8302455038412,40.65632456907375],[-73.83021213161007,40.65633719250569],[-73.83007856308664,40.65646906446895],[-73.83008724952307,40.65648669174432],[-73.83008780413894,40.65650636274828],[-73.83007188433668,40.656532030387005],[-73.83005514080462,40.656554205513665],[-73.83003301456556,40.656567168336274],[-73.82998526032299,40.65658261675739],[-73.82992739066435,40.656571553736306],[-73.82988890772108,40.656556403185846],[-73.82984486541211,40.656522841231336],[-73.82979956416527,40.65649197276207],[-73.82971177079273,40.65646069995042],[-73.8296582856936,40.65644694842221],[-73.8296089716734,40.656431618229036],[-73.82960562793461,40.65644448515629],[-73.82955286969725,40.65643795680711],[-73.82955413715338,40.65642377086866],[-73.82953233393792,40.656426860449855],[-73.8294789300125,40.65644927818261],[-73.82937603410589,40.65650633571866],[-73.82930775204429,40.65655362803798],[-73.82925819722632,40.656606511234536],[-73.8292416315751,40.656637886499084],[-73.8292365379905,40.65666452751921],[-73.82924646374767,40.656685013392874],[-73.82925847022506,40.656706295098914],[-73.829260692207,40.656725811607636],[-73.82925959351668,40.65674167324494],[-73.82926720321498,40.65676960885141],[-73.82928204674602,40.656813422817905],[-73.8293028747796,40.656872637338985],[-73.82930974695338,40.656932457535355],[-73.82928525714235,40.65696556283874],[-73.82926623612845,40.65698408503029],[-73.82923845041697,40.6570071883393],[-73.82920543743192,40.65703583493457],[-73.8291580155683,40.657074445149654],[-73.82913482607461,40.65709375102443],[-73.82911536880955,40.65711766545067],[-73.82909990801159,40.65713080100107],[-73.82908591602641,40.657140924895366],[-73.82905921013854,40.65715292547813],[-73.82903021278767,40.65716524112025],[-73.82900435055434,40.65717438892989],[-73.82898285487713,40.657185607846465],[-73.82896778740296,40.65720524792025],[-73.82896084087683,40.657226015640035],[-73.82896508277005,40.657262985923786],[-73.82898079995608,40.65729522216325],[-73.8290132530184,40.65742521182791],[-73.8290774848865,40.65758128530636],[-73.82913225563836,40.65770275476288],[-73.8291791973458,40.657799778544465],[-73.82920828304665,40.65782204739635],[-73.82925795356897,40.657854193951884],[-73.82932389422103,40.65788066313436],[-73.8293876196138,40.657885235541585],[-73.82941762232906,40.657883235188145],[-73.82945589724174,40.6578987012081],[-73.82951375096914,40.657914524424434],[-73.82952765623916,40.657928989166386],[-73.82953241448577,40.65793835820889],[-73.82953964021826,40.65795661560999],[-73.82955414647576,40.65797806131078],[-73.82965499496454,40.65808820416835],[-73.82968908238816,40.65810921378985],[-73.82972820317217,40.65812103421244],[-73.8297531466851,40.65813615539224],[-73.82977638969626,40.658160950491165],[-73.82979192787609,40.658184777932085],[-73.82980019619943,40.65820303752905],[-73.82982243247814,40.658218312164436],[-73.8298640541821,40.65822950281568],[-73.82991710261363,40.65824944025417],[-73.82993039585945,40.65826009595338],[-73.82993139548495,40.65827199496399],[-73.82993571633197,40.65828755117196],[-73.82995461939602,40.65830234272724],[-73.82997749698596,40.658312700819046],[-73.83000933019504,40.658323712770446],[-73.83005302050796,40.658338871975076],[-73.83009440305702,40.65835910285983],[-73.83011807881157,40.65837929937061],[-73.83013028740517,40.658402643218764],[-73.83013062197728,40.65842580468259],[-73.83012345473459,40.658450062430134],[-73.83011362777836,40.658460194777085],[-73.83007584536898,40.65848264406391],[-73.83005061350448,40.658490048398356],[-73.83002290290227,40.658491736680816],[-73.8299889488318,40.658491826554226],[-73.82995500685284,40.658487949530375],[-73.8299167073472,40.65847962185972],[-73.82988279238077,40.658468606804156],[-73.82985300549763,40.6584679110612],[-73.8298131848938,40.65847766596499],[-73.82977169416311,40.65848836843692],[-73.8297320793274,40.65849859839267],[-73.82970706838918,40.65850251386472],[-73.82966825159824,40.6585225805727],[-73.82962667738495,40.658557078603465],[-73.8296065278313,40.65860018631568],[-73.82959986903158,40.65865680641295],[-73.82961343158017,40.65870966027146],[-73.82967103985068,40.65879528408602],[-73.82969253208826,40.65883615062207],[-73.82972318498395,40.65889390400792],[-73.82975486375837,40.65894854086496],[-73.82981399218826,40.659016875243985],[-73.82982393761228,40.65903097943141],[-73.82987347914914,40.65910123304041],[-73.82991536797647,40.65915541453235],[-73.82992819287433,40.659180981407644],[-73.82994255948434,40.65924208618054],[-73.8299597282835,40.659296555440896],[-73.82996192425747,40.65930351898917],[-73.82996580818295,40.65932446628178],[-73.82997176218312,40.659349384544065],[-73.82999639204002,40.65945334232548],[-73.83000997071112,40.659501437344154],[-73.8300142688901,40.65952333781322],[-73.8300129082758,40.659554586715],[-73.83002344734403,40.65957888000006],[-73.8300501303299,40.65963239498938],[-73.83008151753675,40.65971114418262],[-73.83010115287587,40.659754808633636],[-73.8301166593849,40.65978815376865],[-73.83013138340064,40.65980690317604],[-73.83014950104759,40.6598086849575],[-73.83016243281726,40.65980411092638],[-73.83017248495635,40.659788902129016],[-73.8301773206411,40.659776063192226],[-73.83017592521591,40.65975845105134],[-73.83016641944116,40.65973654021983],[-73.83015376710675,40.659720968036],[-73.83014068468832,40.659709202633145],[-73.83013365723926,40.659693800585536],[-73.83012437380442,40.65966760604291],[-73.83011550258755,40.6596431572514],[-73.83010937351257,40.65960903757755],[-73.83009786351573,40.65956491303416],[-73.83007338502357,40.659476502971586],[-73.8300689875143,40.65942398436733],[-73.83003414614134,40.659259791422876],[-73.83002780027718,40.659229886437025],[-73.8300216692621,40.65919656067094],[-73.83001214184989,40.65916316387899],[-73.82994729215723,40.659105694910835],[-73.82989716548305,40.659048685765974],[-73.82988152586556,40.65903089893086],[-73.82982589468604,40.65896126923786],[-73.82978551303393,40.65888007029192],[-73.8297638699683,40.65882457547307],[-73.82972481464316,40.658744026299594],[-73.82971373370657,40.65870140323481],[-73.82969520083397,40.65865592869167],[-73.82970652894596,40.65860197635559],[-73.82979240260039,40.6585680176268],[-73.82987072192734,40.65857097376919],[-73.82994527545988,40.65858812701393],[-73.83000120757706,40.658593890244255],[-73.83005721360327,40.6585712494508],[-73.83013346980556,40.65853149250733],[-73.8301580575766,40.65851742995996],[-73.83019910654933,40.658508969064314],[-73.83024406800726,40.6584295019879],[-73.83024427039392,40.65834996934832],[-73.83016976043835,40.658315773528486],[-73.83010276781116,40.65825886521043],[-73.8300060027403,40.65817634852318],[-73.82991415861223,40.65814459779377],[-73.82989047899366,40.65813641184903],[-73.8298271228173,40.65811643485687],[-73.82977140702349,40.658025457192885],[-73.82970079467547,40.65792593544349],[-73.8296301319762,40.65784629785786],[-73.82951463014506,40.657797838832764],[-73.82945866947036,40.65780343760203],[-73.82937290582954,40.65779478840831],[-73.82922393902868,40.6577065123841],[-73.82910499991128,40.657544429059044],[-73.82906423436309,40.657442112650244],[-73.82909434825203,40.65733421866346],[-73.82917290744733,40.657243440634474],[-73.82924393205008,40.657181056147046],[-73.829347152373,40.657103058158896],[-73.82942711948485,40.657013739541036],[-73.82949826173954,40.65690590795557],[-73.82949465565422,40.65685761471557],[-73.82946131261428,40.65676951032569],[-73.82946151593038,40.65668997716968],[-73.82950265119847,40.656647431983465],[-73.82958468477644,40.656656073882054],[-73.82968157040285,40.65669030322555],[-73.82977849236674,40.6567103304849],[-73.82989186540316,40.656728820795905],[-73.82990152392094,40.65673039577463],[-73.83000967244323,40.656736236212],[-73.8300917256968,40.65673635744882],[-73.83018507808814,40.65669388796901],[-73.83024118364911,40.656631480837085],[-73.83032728545429,40.6565066273082],[-73.83039087156534,40.65643570913256],[-73.83050532057378,40.656342367316356],[-73.8310667080647,40.65613845468112],[-73.83110547238395,40.65611876166864],[-73.83114230124049,40.656097020636835],[-73.83120986302549,40.65605265633484],[-73.83127112564215,40.65600327162474],[-73.83132544910993,40.65594938241611],[-73.83137226594393,40.65589155167467],[-73.83141108708287,40.65583038354064],[-73.83144150699754,40.655766517017376],[-73.83146320792649,40.655700619295516],[-73.83147596319463,40.6556333787829],[-73.83146993367384,40.65555345167127],[-73.83151638832615,40.65546449091798],[-73.8315472294415,40.65541574309203],[-73.83155930253503,40.655355343644516],[-73.83155309177175,40.655242972372356],[-73.83161418598198,40.65519443568775],[-73.83168728328633,40.65509125970428],[-73.83175312959307,40.654962109505334],[-73.83185238479282,40.654885038267146],[-73.83191670520652,40.65488260662099],[-73.83200725288437,40.65490052071436],[-73.83206411482318,40.65488939626415],[-73.83212857266554,40.654875445275245],[-73.83218186067897,40.65489475245753],[-73.83224117996961,40.655086542484334],[-73.83248465579332,40.65587372706258],[-73.83275352381291,40.656742985804435],[-73.83276735895174,40.65678771523736],[-73.83290309524597,40.65748377162325],[-73.83278194361473,40.657548460383694],[-73.8320849710086,40.6561310285115],[-73.83194394578256,40.65617142725362],[-73.83260036370606,40.657826591627476],[-73.83201491708037,40.65807753213435],[-73.83110373716049,40.65823171845072],[-73.83112664421834,40.65831878644122],[-73.83126967491418,40.658359831558585],[-73.83194576717005,40.658274346859244],[-73.83284428358573,40.65813812869369],[-73.83338439472544,40.658051859208165],[-73.8330606995693,40.65668787927814],[-73.83280439716935,40.65582273475348],[-73.83259452699377,40.655023943138836],[-73.83238192807039,40.6542376666549],[-73.83217106969018,40.65334655240471],[-73.83197428225203,40.65264323892552],[-73.83183300502058,40.652138310574706],[-73.83170565136662,40.65168313457737],[-73.83156681412638,40.65116771441594],[-73.83118719179556,40.650751711171075],[-73.83108885273711,40.650053932813556],[-73.83148089127319,40.649991151630346],[-73.83179812387785,40.64994462258209],[-73.83271909931766,40.649808500257514],[-73.83363845286185,40.64967622405265],[-73.83456069909784,40.64954430367687],[-73.83547106295025,40.64941412281921],[-73.83581103816384,40.649369425553395],[-73.83597223496493,40.64934876341621],[-73.83638580071128,40.651007672473675],[-73.83681076816048,40.65269771513567],[-73.83720192485781,40.6543520510955],[-73.8376239181885,40.6560381180954],[-73.8380499820658,40.65771293855236],[-73.83845306722507,40.659361619701066],[-73.83880690398891,40.660941834977734],[-73.8386227280471,40.66103553399662],[-73.83862724293905,40.66108164278517],[-73.83873481585907,40.66109912311177],[-73.83883705709064,40.661121523880915],[-73.83885070785949,40.66118398684212],[-73.83889463748258,40.66118118330702],[-73.83892925173791,40.6612700338526],[-73.83890258818673,40.66127275335984],[-73.83888105420549,40.66120825595695],[-73.83885632115522,40.661213052660614],[-73.83889239488927,40.661403524755976],[-73.83847541913434,40.661479335589675],[-73.83807555639744,40.66158795982317],[-73.83809310865266,40.66179333219271],[-73.83814081447282,40.66206950759352],[-73.83822167662554,40.66221712649941],[-73.83843897330769,40.66234384791495],[-73.83872354363115,40.662407160984245],[-73.83969596515551,40.6622383041053],[-73.83962395791993,40.66199612919542],[-73.8399794997562,40.66190427386242],[-73.839725403531,40.660950658874874],[-73.83963511499208,40.66047888852642],[-73.83929268188328,40.659241351665514],[-73.8389646298412,40.6575730435248],[-73.83849739559618,40.65590102434863],[-73.83839803830547,40.65581547310863],[-73.83806058407623,40.654236372112734],[-73.83763582356364,40.65253221055604],[-73.83723913520092,40.65089692276293],[-73.83681334575157,40.64924941500217],[-73.83729407914412,40.649137062416926],[-73.83738778845625,40.649118149970306],[-73.83658955042505,40.645892465260694],[-73.83633074721295,40.645321149279745],[-73.83640735455994,40.64531741400111],[-73.8376159580898,40.64533354409031],[-73.83810960644416,40.64534720644741],[-73.8386089610291,40.64534790831288],[-73.83903473466054,40.64527070458398],[-73.83931289879814,40.64522354896305],[-73.83970469170568,40.64515639707863],[-73.83980222854669,40.645144911052014],[-73.83989797737767,40.64512667816124],[-73.83999113555923,40.6451018512486],[-73.84008092217103,40.645070638432294],[-73.84016658455876,40.645033301361806],[-73.84024740464383,40.6449901530243],[-73.84032270494318,40.644941555120546],[-73.84039185424862,40.64488791503288],[-73.84126005446507,40.64488479363774],[-73.84579484060227,40.64410150925752],[-73.84950699084062,40.64413376618153],[-73.85207628474056,40.64617614809116],[-73.85214861574038,40.64627663415832],[-73.85221315727838,40.6463801523423],[-73.85226969112975,40.646486352691035],[-73.85231802613745,40.646594876183514],[-73.85235799885896,40.64670535594329],[-73.8523894741194,40.64681741847877],[-73.85241234546884,40.64693068494562],[-73.85242653554288,40.64704477242759],[-73.8524319963248,40.64715929523086],[-73.85242870930831,40.6472738661879],[-73.85241668556097,40.64738809796651],[-73.85239926161506,40.64748552927215],[-73.85237453098152,40.64758203920878],[-73.85234257502002,40.64767731015173],[-73.85230349887087,40.64777102855268],[-73.85225743110932,40.647862885971584],[-73.85220452332278,40.64795258009192],[-73.85214494961227,40.64803981571569],[-73.85207890601964,40.64812430573512],[-73.85203846602717,40.64824676739155],[-73.85200205819739,40.648369960827644],[-73.85198704980037,40.648440729641024],[-73.85196495171283,40.64851041183228],[-73.85193589438106,40.64857859599419],[-73.85190004934056,40.64864487956274],[-73.8518576282037,40.648708871193925],[-73.85180888141083,40.64877019307451],[-73.85175409675192,40.648828483152734],[-73.85174846522108,40.6488387254556],[-73.85174616040432,40.64886690982717],[-73.85172587398132,40.648912154569956],[-73.85169775768195,40.64894799320849],[-73.85167303933734,40.648969314683505],[-73.85165839001111,40.64900090037813],[-73.85163030849158,40.649021362775436],[-73.85161119411089,40.649043546699495],[-73.8515887121938,40.64906743355783],[-73.8515864377017,40.64908195165897],[-73.85159089132351,40.64909647844231],[-73.85157179971125,40.6491084123247],[-73.8515549863926,40.649104120322775],[-73.85154491289411,40.649095566046604],[-73.8515404206103,40.6490981222613],[-73.85153368679302,40.649100676084814],[-73.85152132519059,40.649111762743374],[-73.85150896387756,40.649123705806666],[-73.85150335327256,40.64912540752084],[-73.85149886566872,40.64912625478165],[-73.85145630361586,40.64910228394941],[-73.85143723187642,40.64910567656159],[-73.85139792829234,40.64912868809415],[-73.85138556695782,40.64914062946889],[-73.85137657351407,40.649150014353815],[-73.85138773436587,40.649174799374094],[-73.85137202165077,40.64917990359891],[-73.8513372511479,40.64918242117521],[-73.85132719860151,40.64916447157323],[-73.85132502493073,40.64913371840267],[-73.85132394460774,40.649114926170725],[-73.85130828776491,40.64909526036357],[-73.85129485181868,40.64908584648512],[-73.85124297023411,40.649075163510226],[-73.85118955810586,40.64907062091643],[-73.85113586059768,40.64907232460238],[-73.85108312952599,40.649080234851084],[-73.85103259417804,40.64909416725586],[-73.85098543265534,40.649113797019005],[-73.85094274440992,40.64913866652347],[-73.8509055246141,40.649168196000545],[-73.85089760175956,40.64920064337307],[-73.85089868871704,40.64921602004636],[-73.8509154173802,40.649257895882904],[-73.85093211912964,40.64931172852661],[-73.85093423750284,40.64936725172751],[-73.85092740820906,40.64941251427163],[-73.85091158726634,40.64946630593022],[-73.85090369682948,40.649484232308396],[-73.85088799002081,40.64948762868911],[-73.8508823818692,40.64948762141789],[-73.85087901364399,40.649489325338884],[-73.85086214644336,40.649509803763266],[-73.85083072973143,40.64951659533451],[-73.85082731757902,40.649537944762145],[-73.85080931543638,40.649564400966476],[-73.85080586316279,40.649603688120756],[-73.85080470275665,40.649620770167004],[-73.85079562923048,40.64966688284595],[-73.85079213977107,40.64972239826951],[-73.85079096686978,40.64974545838621],[-73.85077078166915,40.64974543219696],[-73.8507696594626,40.64974543074086],[-73.85076965564015,40.649747139694135],[-73.85077185391285,40.64976678811112],[-73.85078640831006,40.649777911286456],[-73.85078185995906,40.64980609272553],[-73.85070897081089,40.64980343611999],[-73.85070336667685,40.64980171988707],[-73.85068206689702,40.649798276161796],[-73.85066077351658,40.64979226925481],[-73.85061030166374,40.649794765719875],[-73.85059680888415,40.64981012328853],[-73.85058099294757,40.64986220594798],[-73.85058538497059,40.64990406580131],[-73.85058537349428,40.64990919031564],[-73.85059992406467,40.649922022467635],[-73.85058867347918,40.64993738194262],[-73.85057629463016,40.64995701192729],[-73.85057504998855,40.65001167603139],[-73.85058726080122,40.650068067076994],[-73.85059386659768,40.65012274137903],[-73.85060609083524,40.65017315317989],[-73.85060708653099,40.65022867442082],[-73.85060247877833,40.650283335830245],[-73.85058665633542,40.65033798099515],[-73.85057653598565,40.650349925193055],[-73.85055520793263,40.65035843925655],[-73.85053837294296,40.65036439663929],[-73.85052714912491,40.650368652354096],[-73.85052038960038,40.65038231104572],[-73.85049799039889,40.650368614454536],[-73.85047002729473,40.65033612046226],[-73.85042751079855,40.6502916490184],[-73.85039615267065,40.65027281689675],[-73.85037708349654,40.6502744998758],[-73.85037704901457,40.65028987559589],[-73.85039827326455,40.650311371311616],[-73.8504218051369,40.65033520302634],[-73.8504363098152,40.65036853425975],[-73.85043618918147,40.65042234676657],[-73.8504450863128,40.650455670706165],[-73.85042261012721,40.65047699482562],[-73.85039790929834,40.65048977594722],[-73.85036982654182,40.6505102397083],[-73.85033840378038,40.650519593652845],[-73.8503148248563,40.65053152198874],[-73.85026883423865,40.65053658715498],[-73.85024190234327,40.650543384403925],[-73.85021831217075,40.65056129146201],[-73.85019692461226,40.65059713849172],[-73.8501755472212,40.65062785999654],[-73.85017217294578,40.65063212640455],[-73.85015529624567,40.65065602145437],[-73.8501103731421,40.65068500381207],[-73.85006096796698,40.65071141779337],[-73.85005311362576,40.650713116511554],[-73.85004638150963,40.6507148155197],[-73.8500373928248,40.650722492016996],[-73.85002053333538,40.65073869935471],[-73.84997000591883,40.65076596656373],[-73.84991497447264,40.65080091441494],[-73.84985434458905,40.65083243986311],[-73.84978812176747,40.65085712398531],[-73.84972862977666,40.65088096213359],[-73.84968938316864,40.65087834833263],[-73.84968598790138,40.65089201019875],[-73.84968367444209,40.65092361226097],[-73.84961078670443,40.65092009973025],[-73.84957152059879,40.65092602763833],[-73.84954570943401,40.65093368092041],[-73.84951990723393,40.65093706441],[-73.84948962372054,40.65093873256878],[-73.84946832622873,40.65093443389225],[-73.8494526399356,40.650927579873596],[-73.84942572156439,40.65092925242037],[-73.84937404260538,40.65096933110832],[-73.84930217800296,40.65100938282328],[-73.84925726840824,40.651031532551066],[-73.84922351138034,40.65108102948909],[-73.84921448394412,40.65110578824765],[-73.84920545733442,40.65112969177365],[-73.84921658357294,40.6511689979878],[-73.84923897186151,40.651187818671495],[-73.84925128119139,40.65119893909633],[-73.84928261075808,40.65123143779363],[-73.84929598318138,40.65126903915777],[-73.8493149601344,40.651281836058224],[-73.84931501987289,40.65128187617578],[-73.84933405656909,40.651294714363324],[-73.84934183809,40.651324619678256],[-73.84934739431917,40.6513476892613],[-73.8493540686591,40.65137161386614],[-73.84936074751855,40.65139383119375],[-73.84939766406322,40.651434878950546],[-73.84942653541451,40.651461802297156],[-73.8494607418717,40.651484816524274],[-73.8494993834858,40.6515033161396],[-73.84954338486533,40.65151729414355],[-73.84958985306838,40.65152541370998],[-73.84963745408112,40.651527441741514],[-73.84992253316291,40.65165796360385],[-73.84997165682714,40.651650854344965],[-73.85002165217423,40.65165020427082],[-73.85007106583261,40.65165603227914],[-73.85011846133999,40.65166816894895],[-73.8502411355201,40.65157691801355],[-73.85029008960439,40.65159190568491],[-73.85034262272393,40.65159941087759],[-73.85039602622678,40.65160109665321],[-73.85044919461235,40.65159692811473],[-73.85050102724739,40.65158699155461],[-73.85055045115091,40.6515714926685],[-73.8505964432066,40.65155075229698],[-73.85063805134276,40.65152519978359],[-73.85065070642779,40.65151685776263],[-73.85066506410617,40.65151030715561],[-73.85068069223156,40.651505745126634],[-73.85069712041928,40.6515033089863],[-73.85071385420413,40.65150307205896],[-73.850730389923,40.651505041475794],[-73.85074622987415,40.6515091579602],[-73.85076089729733,40.651515297611745],[-73.85077395072341,40.65152327563563],[-73.85078499726184,40.65153285190447],[-73.85089682315038,40.65150012582235],[-73.85100570445081,40.651462073521756],[-73.85111120434759,40.6514188476647],[-73.85121289959325,40.65137062166863],[-73.8513103822068,40.65131758901065],[-73.85140326111059,40.651259962451135],[-73.8514911636992,40.651197973180075],[-73.85176596171381,40.65082762386004],[-73.85178606559366,40.65081563938234],[-73.85180837345854,40.650806184029406],[-73.85183234163792,40.6507994882397],[-73.85185738599799,40.65079571519768],[-73.85188289617753,40.650794956856934],[-73.85190832055771,40.650797242074304],[-73.85193296513548,40.65080252140057],[-73.8519562259434,40.650810665454806],[-73.85197753292577,40.650821474649725],[-73.85202131332599,40.65081555662374],[-73.8520630899218,40.65080396036269],[-73.85210160341674,40.65078703541983],[-73.85213569287832,40.65076529197382],[-73.85216433073315,40.65073938544982],[-73.85218665374157,40.650710096762204],[-73.85219704272757,40.65069056992712],[-73.85222767473088,40.65065671384354],[-73.85226445112396,40.65062661453292],[-73.85230658844733,40.65060091320431],[-73.8523531890403,40.65058015737547],[-73.85240326016371,40.650564789209135],[-73.85245573514798,40.650555136094184],[-73.85250949611584,40.65055140367126],[-73.85256339779563,40.6505536714523],[-73.85261629191827,40.65056189112669],[-73.85266705167787,40.65057588759039],[-73.8528487636855,40.65060697496117],[-73.8530321270976,40.65063180859032],[-73.85321677107362,40.650650338253335],[-73.85340232218205,40.65066252647495],[-73.85358840515596,40.65066834860523],[-73.85361016035165,40.65066612555288],[-73.85368048939515,40.65065610225162],[-73.85374956056322,40.65064188311303],[-73.85382105364447,40.65063807819081],[-73.85389268094113,40.6506399042083],[-73.8539636799562,40.65064734172693],[-73.8540332948805,40.65066031157172],[-73.85410078463795,40.65067867567418],[-73.85419248916321,40.650727177091966],[-73.85428814584006,40.650771027378646],[-73.85438734862342,40.650810040394475],[-73.85448967641302,40.650844050533095],[-73.85459469484117,40.6508729134246],[-73.85470195811675,40.650896506548534],[-73.85478828709508,40.65091700111205],[-73.85491085276722,40.65095207442381],[-73.85493600474521,40.6509587397294],[-73.85495939543755,40.65096843624971],[-73.85498040012433,40.65098090500993],[-73.85499845781027,40.65099581299404],[-73.8550130862077,40.65101276203888],[-73.85502353176706,40.65105908588088],[-73.85504280346328,40.65110373729042],[-73.85507048270996,40.651145746387364],[-73.855105968296,40.65118420068384],[-73.85514848944331,40.651218264905076],[-73.8551971225485,40.65124719913293],[-73.85525081124445,40.65127037487834],[-73.85530838934604,40.651287288733414],[-73.85536860618184,40.65129757330649],[-73.85543015376122,40.651301005202704],[-73.85549169518676,40.651297509876535],[-73.8555518936947,40.65128716325126],[-73.85558158621811,40.65127215166348],[-73.85561391773959,40.65126073243492],[-73.85564814467419,40.65125316819338],[-73.8556834798458,40.65124963290667],[-73.8557191105909,40.65125020788186],[-73.85575421744831,40.651254879895234],[-73.85578799300531,40.65126354149649],[-73.85583421026828,40.65127447842531],[-73.8558782271423,40.651289801364626],[-73.85591932942567,40.65130926169067],[-73.85595685020613,40.6513325436478],[-73.85599018068156,40.651359269471776],[-73.85605277954849,40.651398891474166],[-73.856110059907,40.65144293409928],[-73.85616148590397,40.65149098534042],[-73.8562065764492,40.65154259569042],[-73.85624490971604,40.651597282346444],[-73.85627612708785,40.65165453372631],[-73.85629993651342,40.65171381425416],[-73.85631611523944,40.65177456937026],[-73.85632451189518,40.65183623071892],[-73.85632504790928,40.651898221465174],[-73.8563177182455,40.65195996169096],[-73.85631557540167,40.65197067296034],[-73.85631053682584,40.652023478052534],[-73.85631458116656,40.65207633272216],[-73.85632763939533,40.65212833457159],[-73.85634948858683,40.65217859576157],[-73.85637975572332,40.65222625816946],[-73.85641792406223,40.65227050804065],[-73.8564633419576,40.65231058988219],[-73.85651523398525,40.65234581936204],[-73.85651776437722,40.65241568407641],[-73.85652917860583,40.65248503260996],[-73.85654936910224,40.652553211248296],[-73.85657814556652,40.65261957730301],[-73.85661523676059,40.65268350517021],[-73.85666029306424,40.652744392228044],[-73.85671288977001,40.65280166451748],[-73.85677253108621,40.65285478215317],[-73.85683865481013,40.65290324441287],[-73.85691063762744,40.65294659445808],[-73.85695671322287,40.65295928183714],[-73.85700489642691,40.65296604468783],[-73.85705388345801,40.65296670001528],[-73.8571023487833,40.652961230087016],[-73.85714898098715,40.65294978291303],[-73.85719251825749,40.65293266824055],[-73.8572317825299,40.65291034917237],[-73.8572657113651,40.65288342963567],[-73.85726563681222,40.65287640675912],[-73.85726691224602,40.65286945115519],[-73.85726951021353,40.652862712536994],[-73.85727337479547,40.65285633594712],[-73.85727842280996,40.65285045863579],[-73.8572845456028,40.65284520710673],[-73.85729286435037,40.6528400241542],[-73.8573022208872,40.65283599638766],[-73.85731234162965,40.65283324157832],[-73.85732293064898,40.65283184027631],[-73.85733367832411,40.65283183345544],[-73.85733382171513,40.652831845695324],[-73.85739480831009,40.652833768093146],[-73.8574556192318,40.65282975477209],[-73.857515262577,40.65281987119455],[-73.85757276548802,40.65280427857414],[-73.85762719002197,40.652783231246076],[-73.85767764845042,40.65275707251835],[-73.85772331773968,40.652726229071845],[-73.85789601477089,40.652803003396365],[-73.85814706896122,40.65291904009421],[-73.85828132383817,40.65299487215201],[-73.85839791574598,40.65313299835375],[-73.85852026658146,40.65331118940394],[-73.85856069416667,40.65353824112141],[-73.85857198690208,40.65372519794116],[-73.8586885326704,40.65388557791493],[-73.85876419753468,40.65403255472381],[-73.85876338041545,40.6540497717861],[-73.85875807991698,40.65416162683264],[-73.85885729088935,40.654228513878174],[-73.85892499802644,40.65425543381963],[-73.85900327710382,40.65428655623129],[-73.85915498446028,40.65440246887124],[-73.85926552902275,40.65463850860727],[-73.85927772471592,40.654704281936226],[-73.85929442176526,40.6547943290984],[-73.85927752346888,40.654835874895774],[-73.85929771926047,40.654854555395495],[-73.85930830140026,40.654887012723044],[-73.85932735900943,40.6549405703952],[-73.85935819582456,40.654964130932264],[-73.85941780123964,40.65498123674541],[-73.85948482249822,40.65501781938961],[-73.85950818550089,40.65504948214411],[-73.85957310250217,40.65507389441302],[-73.859608185786,40.6551039492784],[-73.85961223713473,40.65514717084688],[-73.85967017937716,40.65518789516097],[-73.85971498705484,40.65523000429877],[-73.85975838110183,40.65527594725721],[-73.85995906528784,40.65549029704351],[-73.86072952202068,40.65604681266782],[-73.86084030699917,40.656171574779336],[-73.86106223001468,40.65625196164984],[-73.86125486605471,40.65636346935283],[-73.86135193244344,40.65639462119139],[-73.86136381950391,40.65641475416545],[-73.86136875139083,40.65643518131181],[-73.86135850209618,40.65645937797597],[-73.86135294244768,40.65648094641161],[-73.86136322406489,40.65651084954582],[-73.86138863839427,40.65654285630898],[-73.86140130996169,40.656567739317474],[-73.86140125106603,40.65657808763938],[-73.86139225922118,40.65658721698256],[-73.8613603836126,40.65659420520724],[-73.8613045307785,40.65658897649182],[-73.86123700169347,40.656583680557056],[-73.86117420316046,40.6565728166245],[-73.86108773357661,40.65655950982152],[-73.86101561574246,40.65654210479491],[-73.86098888249678,40.656536966057864],[-73.86095970776489,40.656545741612504],[-73.86093087921438,40.65656129711511],[-73.8609086986064,40.656568296936186],[-73.86086488851126,40.6565610526285],[-73.86083111892172,40.656560627464415],[-73.86078799362444,40.656569935588315],[-73.86072304455814,40.65658863186233],[-73.86067414585953,40.656584592168365],[-73.86064784053598,40.65651297627988],[-73.86063722236815,40.656471847102075],[-73.86062404578783,40.65646529853612],[-73.86061669329688,40.65646465720711],[-73.8606142924695,40.65647560596047],[-73.86060742785921,40.65651814179871],[-73.86062302068675,40.656627870312775],[-73.86061557040892,40.65664054217473],[-73.8606030661496,40.656656474211246],[-73.86058123554959,40.656668799281576],[-73.8604949922559,40.65668444924552],[-73.86045768505315,40.65668638132817],[-73.8604428867467,40.65669698517337],[-73.86044003211461,40.65671737543685],[-73.86044847474012,40.65673099987053],[-73.86048143216688,40.65673998720513],[-73.86050971089199,40.65674718601982],[-73.86051434648239,40.65675339538324],[-73.86051503888419,40.65676700974299],[-73.86047711306266,40.656806488704994],[-73.86044742487597,40.65683653491454],[-73.86035088822705,40.656879346214865],[-73.8603057625893,40.65689748985411],[-73.86028077947795,40.65691752337284],[-73.86024448470064,40.65695316147406],[-73.86022643272067,40.65698470455728],[-73.86020839500954,40.657010374949245],[-73.86019280975664,40.6570177108356],[-73.8601594829453,40.657012263680926],[-73.86015025570757,40.65699537264268],[-73.86014272235799,40.65696135556655],[-73.86011860091386,40.65684538540275],[-73.86011027831917,40.656809583354786],[-73.86009989868656,40.656792992796554],[-73.86007981013421,40.65678226363566],[-73.8600677781954,40.65677986104971],[-73.86004168871455,40.65679426689914],[-73.8600329829866,40.656820523911236],[-73.86006870315983,40.65693949825033],[-73.86006234511068,40.65696372700675],[-73.86005569574453,40.656972255155544],[-73.86004870310464,40.656972549706346],[-73.86000758602339,40.6569700282926],[-73.85996142495954,40.656966294686775],[-73.85993091334905,40.65696583368845],[-73.85988145175504,40.656965126786346],[-73.85984572805579,40.65696766219388],[-73.85983363521488,40.65697706322063],[-73.85984591953131,40.65699662103987],[-73.85988581709242,40.657014209361755],[-73.85993417054081,40.65703803700544],[-73.85996243295558,40.65705261874056],[-73.86000010014952,40.657050111964246],[-73.86000819218502,40.65704974470691],[-73.86002338719283,40.65704871363448],[-73.86005446939392,40.65704144973343],[-73.86006924302431,40.65704267592158],[-73.86007499798225,40.657048611080185],[-73.86007068925908,40.65705804790283],[-73.86005194367071,40.657077486192705],[-73.86004275639088,40.65708727391376],[-73.86002730651437,40.65710430028364],[-73.85999101706163,40.65713697389709],[-73.85996128243944,40.657171465958285],[-73.8599439747916,40.65720924111902],[-73.85993882823614,40.65722282206983],[-73.85991520264206,40.657214449215495],[-73.85988237954867,40.657273603192934],[-73.85981027609678,40.65732241149387],[-73.85980008977891,40.65738015815456],[-73.85979094247182,40.65743201410934],[-73.85980671375958,40.6574565996864],[-73.85992336374099,40.657670448972304],[-73.85993713028272,40.6577053804811],[-73.8599389727954,40.65772017715055],[-73.85992218331278,40.65773519756526],[-73.85987781547442,40.65775218919616],[-73.85980115657037,40.657785608987005],[-73.85973220186881,40.65782348532875],[-73.85970571828656,40.65783698479464],[-73.8596662217733,40.65788620551943],[-73.85965275827449,40.657901138817024],[-73.85961945955233,40.65794353676303],[-73.85959244818615,40.65798845340186],[-73.85957204813253,40.65803535005439],[-73.85955850406121,40.65808366429431],[-73.85955197842004,40.65813281669303],[-73.8595551525131,40.6581994107544],[-73.85956518322575,40.658265609387946],[-73.85958200863529,40.65833100379521],[-73.85960552485871,40.65839519014286],[-73.85963558669374,40.65845777205664],[-73.85967919564258,40.658492276451646],[-73.85972750407745,40.658522936422955],[-73.85977993090684,40.6585493831648],[-73.85983584549714,40.65857129855149],[-73.85989457525864,40.658588418964314],[-73.85996520362487,40.65858969803888],[-73.8600352653629,40.658596616838594],[-73.86010398613435,40.65860909889533],[-73.86013583432316,40.658604968763164],[-73.86016814088232,40.65860502743937],[-73.86019996284054,40.65860927321134],[-73.86023037137079,40.658617582152424],[-73.86025847890083,40.65862971173924],[-73.86028735678481,40.65870650880419],[-73.86031051842252,40.65878442099177],[-73.8602702573438,40.65880541474422],[-73.86023343178883,40.65882979359526],[-73.86020052991847,40.65885723438061],[-73.86019761194486,40.65886085863634],[-73.86019553404446,40.658864804421725],[-73.86019435515915,40.65886895981075],[-73.8601941087293,40.65887320693173],[-73.86019480174534,40.65887742531081],[-73.86019641454934,40.65888149528953],[-73.86019890139266,40.65888530141887],[-73.86020219173365,40.6588887357341],[-73.86020619223859,40.658891700817456],[-73.86021078942917,40.65889411256133],[-73.86021585290148,40.65889590255416],[-73.86022123902497,40.65889702002095],[-73.86022679501679,40.65889743326365],[-73.86023236327554,40.65889713056018],[-73.86029526053451,40.658878559231425],[-73.86035440769741,40.658853854509246],[-73.8604087789183,40.658823444873214],[-73.86041955595435,40.65882052235249],[-73.8604295232441,40.6588162464986],[-73.86043839033097,40.6588107419142],[-73.86044589881959,40.65880416900834],[-73.86045182990571,40.65879671932188],[-73.86045601075224,40.658788609945915],[-73.86045831952597,40.658780077195495],[-73.86045868894777,40.65877136972304],[-73.86045710825309,40.65876274127247],[-73.86045362350556,40.658754443284806],[-73.86042536596945,40.65871191834974],[-73.86040490019246,40.65866687899925],[-73.86039260036114,40.658620148746664],[-73.86044378007746,40.65857546973958],[-73.86045469175004,40.65857644032014],[-73.86046566842475,40.65857609845264],[-73.8604764395868,40.65857445256228],[-73.86048673978615,40.65857154321115],[-73.8604963151795,40.658567442098864],[-73.8605049297862,40.658562250295255],[-73.86051237130377,40.65855609574975],[-73.86051845634012,40.658549130138006],[-73.86052303493311,40.658541525123965],[-73.86051785420756,40.65853995799853],[-73.86051308161676,40.65853776440968],[-73.86050884667526,40.65853500388525],[-73.86050526430733,40.65853175133803],[-73.86050243172824,40.65852809503301],[-73.86050042580597,40.658524134191886],[-73.86049930097543,40.658519976300674],[-73.86049908776116,40.65851573419267],[-73.86049979194901,40.658511522986664],[-73.86050139442915,40.65850745696269],[-73.86051208600026,40.65849767194643],[-73.8605246685869,40.65848929211362],[-73.8605388278257,40.658482526825594],[-73.86055420996257,40.65847754510597],[-73.86057043069094,40.6584744714177],[-73.86057677052074,40.65847834244881],[-73.86058216672731,40.658482969278815],[-73.86058646605079,40.65848822049946],[-73.86058954638425,40.65849394696883],[-73.86059630754212,40.658497079639424],[-73.86060367014312,40.65849929031976],[-73.86061141937022,40.65850051450927],[-73.86061932912588,40.65850071649003],[-73.86062716862882,40.6584998903689],[-73.86063470914749,40.65849806024945],[-73.86064173067383,40.658495279528665],[-73.86064802834234,40.65849162933905],[-73.86065341840745,40.658487216181385],[-73.8607199797675,40.65841629528753],[-73.86082324996381,40.65838623461244],[-73.86092445810512,40.65835234987711],[-73.8609407764582,40.658356723093114],[-73.86095588557657,40.658363139114414],[-73.86096934835649,40.65837141232698],[-73.86098077532198,40.658381303388566],[-73.86098983589231,40.6583925261528],[-73.8609962679457,40.658404755947295],[-73.86099988540248,40.6584176389662],[-73.86100058360856,40.6584308025059],[-73.86099834236325,40.65844386574712],[-73.86099352029507,40.65848373282954],[-73.86098115494,40.65852264546398],[-73.86096150789348,40.65855978039314],[-73.86093499480828,40.65859435196862],[-73.86090217660158,40.65862562877264],[-73.86089104154007,40.65863846266459],[-73.86088284859383,40.658652522821754],[-73.86087782365486,40.65866742158746],[-73.86087732306555,40.65868134134984],[-73.8608737230406,40.65869499377886],[-73.86086712834168,40.65870798157822],[-73.86085773087811,40.65871992679262],[-73.86084580412225,40.65873048180667],[-73.86083169515145,40.65873933946075],[-73.86077245605426,40.65875445179122],[-73.86071626321923,40.65877524398938],[-73.8606640511127,40.658801370289815],[-73.86061668800602,40.65883239622264],[-73.86057496153668,40.65886780583848],[-73.86053956561035,40.6589070102881],[-73.86051108886119,40.65894935761447],[-73.86049000486244,40.658994143594285],[-73.86047666425054,40.65904062344873],[-73.86047128889302,40.6590880242287],[-73.86047396819801,40.659135557668755],[-73.86048465762615,40.65918243329562],[-73.86053093216057,40.65922847419734],[-73.86057345614311,40.65927656694786],[-73.86061207311221,40.65932653460533],[-73.8606494405176,40.65932152672383],[-73.86068516149359,40.65931178680851],[-73.86071821069405,40.65929759443731],[-73.86074763946593,40.65927935699258],[-73.86077260308006,40.65925759796752],[-73.86079238497858,40.6592329419392],[-73.86080641734293,40.65920609664043],[-73.86081402182887,40.659168702174114],[-73.86081724695688,40.65913094173187],[-73.86081606738054,40.659093112162154],[-73.86081668200343,40.65907383103143],[-73.86082105396225,40.659054833769154],[-73.86082908607847,40.65903654262704],[-73.86084059981961,40.65901936416157],[-73.86085533926791,40.659003680197415],[-73.86087297680862,40.65898983934085],[-73.86094803799891,40.658950657192094],[-73.86102487572516,40.65891352586289],[-73.86116835978319,40.65880882206487],[-73.86121224375397,40.65876665611647],[-73.86124943397037,40.658720910074244],[-73.86127943194805,40.65867219711923],[-73.86130183561032,40.65862117019966],[-73.86131634467695,40.65856851327861],[-73.86132276468818,40.65851493216602],[-73.8613146395543,40.65848898311111],[-73.86130941531205,40.658462604856666],[-73.86130281823529,40.658430417913415],[-73.86130016093611,40.65839790415216],[-73.86129886152027,40.658352859651416],[-73.86128968762758,40.6583083492396],[-73.86127280308044,40.65826516768451],[-73.86124850937952,40.65822408602463],[-73.8611331913724,40.658159241919236],[-73.86101981543369,40.65809244126662],[-73.86100193456697,40.65807938832835],[-73.86098144500795,40.658068789899175],[-73.8609589209716,40.65806094299698],[-73.86093499368775,40.65805606752885],[-73.86090375083612,40.658056640224935],[-73.86081572030126,40.65806154396104],[-73.86072753647892,40.65806443903933],[-73.86066308603877,40.65806894561272],[-73.86059952811307,40.65807824992235],[-73.86053747698878,40.658092262042146],[-73.86050949236049,40.65813359870306],[-73.86047483240208,40.65817188963192],[-73.86043405988332,40.658206513091294],[-73.86038783682787,40.65823690689226],[-73.86020789424988,40.658294709763496],[-73.86017832817693,40.65830916491463],[-73.8601461763786,40.658319953726114],[-73.8601122166708,40.65832681519481],[-73.86007727060733,40.6583295833279],[-73.86004218360453,40.65832819115858],[-73.85989401628483,40.65830959271653],[-73.85983524905286,40.658297272790364],[-73.85982492317176,40.6582989748795],[-73.8598143686694,40.65829933342485],[-73.85980388479801,40.658298338260536],[-73.85979376880726,40.65829601760251],[-73.85978430751618,40.658292437248456],[-73.85977576918094,40.658287698712314],[-73.85976839588906,40.658281936345944],[-73.85977487655288,40.658263886965926],[-73.85977775441205,40.65824530378533],[-73.8597772719661,40.65824458373929],[-73.859776947474,40.65824381407215],[-73.85977678934381,40.65824301472711],[-73.85977680167288,40.658242206416276],[-73.85977698414177,40.65824141008419],[-73.85977733202243,40.658240646364916],[-73.85977783630076,40.658239935047526],[-73.85977848391022,40.658239294563266],[-73.85977925807029,40.65823874150801],[-73.85978013872138,40.65823829021218],[-73.85978110304457,40.65823795236952],[-73.85978327692636,40.65824031052289],[-73.85978595158183,40.658242348347926],[-73.85978904709346,40.65824400495529],[-73.85979247096874,40.6582452308463],[-73.85979612090377,40.658245989391816],[-73.85979988784007,40.658246257926855],[-73.85980365922319,40.65824602842769],[-73.85980732236582,40.65824530775169],[-73.85981076781485,40.65824411743231],[-73.85981389262176,40.658242493035786],[-73.8598166034187,40.658240483098396],[-73.85981881920827,40.65823814767616],[-73.85982047378371,40.65823555655052],[-73.85982151770709,40.65823278714311],[-73.85983888003491,40.65821144559353],[-73.85995685463865,40.658130104356474],[-73.8599720412316,40.65812936287107],[-73.85998683719971,40.65812665320693],[-73.86000080604713,40.658122055301845],[-73.86001353567895,40.658115704798625],[-73.86002465055871,40.6581077890435],[-73.86003382278713,40.65809854155906],[-73.86004078177533,40.65808823515511],[-73.86004532222748,40.65807717388057],[-73.86004731019716,40.65806568405352],[-73.86004364413394,40.65806399130901],[-73.8600404032225,40.6580618539145],[-73.86003767944304,40.65805933253135],[-73.86003555009906,40.65805649871888],[-73.86003407562332,40.658053432903465],[-73.86003329786278,40.658050222095966],[-73.86003323889099,40.65804695742213],[-73.86003390038148,40.658043731536644],[-73.86003526356042,40.6580406359932],[-73.86003728973938,40.65803775864633],[-73.8600399214134,40.65803518115782],[-73.86004308389299,40.658032976679294],[-73.86004668742395,40.65803120777594],[-73.86005062973462,40.658029924650904],[-73.860183216439,40.65800025010477],[-73.86019595403504,40.65799055132583],[-73.86020644856015,40.657979402826655],[-73.86021442004939,40.657967102019654],[-73.86021965584608,40.65795397705761],[-73.86022201627483,40.65794037807939],[-73.86021816255587,40.65793403248928],[-73.86021545297605,40.657927352543986],[-73.86021393581777,40.657920457275246],[-73.86021363811535,40.657913469551765],[-73.860241989531,40.657901889092486],[-73.86027223300124,40.65789353391313],[-73.86030373983068,40.657888577699424],[-73.8603358550621,40.65788712348001],[-73.86036791109125,40.657889201484906],[-73.86038387819447,40.657878698804446],[-73.86039799752608,40.65786675944539],[-73.86041004790772,40.65785357043793],[-73.86044971765408,40.65784219917318],[-73.86048734107383,40.65784589783807],[-73.86052526947988,40.657845335358495],[-73.86056267529413,40.6578405240074],[-73.86056480804389,40.657840661416614],[-73.86056694037397,40.65784052028056],[-73.86056901001629,40.65784010472061],[-73.86057095653332,40.65783942687195],[-73.86057272308308,40.657838506529025],[-73.86057425807897,40.657837370567655],[-73.86057551669617,40.65783605216001],[-73.8605764621807,40.65783458980614],[-73.86057706692264,40.65783302620955],[-73.86057731326238,40.657831407030216],[-73.8605771940064,40.65782977955126],[-73.86057671263718,40.65782819129814],[-73.86057588321167,40.65782668865085],[-73.86057472995066,40.65782531548953],[-73.86052898665972,40.65781587997985],[-73.86048529820442,40.65780189399377],[-73.86044444122331,40.65778360615706],[-73.8604071420188,40.65776134156833],[-73.86040537631261,40.657605820542194],[-73.8603868461704,40.65755532113983],[-73.86035941845276,40.65750722716502],[-73.86032360895186,40.6574624430169],[-73.86031029516802,40.65741807054214],[-73.86031635714431,40.65738435445231],[-73.86034164704868,40.65724790569815],[-73.86035030672483,40.657226067167805],[-73.8603737314803,40.65720987283242],[-73.86039455362618,40.65721291443165],[-73.86041574418148,40.65721343835726],[-73.86043678153418,40.65721143171267],[-73.86045714784349,40.65720694389202],[-73.86047634178675,40.65720008536438],[-73.86053263953053,40.6571807692062],[-73.86058792205802,40.657159821369504],[-73.86060930392519,40.65715545670078],[-73.86061974209731,40.657161699393306],[-73.8606101364379,40.65720541164137],[-73.86062372337481,40.65720545608306],[-73.86065806462685,40.6571742620336],[-73.8606628794075,40.657157439737134],[-73.86066429379977,40.6571402561821],[-73.8606622751865,40.65712310766863],[-73.86066039598416,40.657120401402345],[-73.86065916030238,40.65711748825222],[-73.86065860545165,40.65711445617885],[-73.8606587481852,40.65711139673355],[-73.8606595841932,40.65710840229413],[-73.86066108823286,40.65710556327557],[-73.86066321489074,40.657102965400036],[-73.86066589995379,40.657100687108525],[-73.86066906234844,40.65709879719243],[-73.8606726065884,40.65709735271639],[-73.8606764256579,40.657096397295355],[-73.86068040424286,40.65709595977752],[-73.8606844222128,40.65709605337343],[-73.86070268132728,40.65709518093784],[-73.86072054730532,40.65709218125849],[-73.86073759542829,40.65708712564521],[-73.86075342042031,40.657080134282495],[-73.86084264927314,40.65693129601333],[-73.86084426171547,40.656926866139656],[-73.86084678225495,40.65692268917735],[-73.8608501462141,40.65691887230773],[-73.86085426727323,40.65691551347211],[-73.86085903968538,40.65691269885858],[-73.86086434098992,40.65691050069037],[-73.86087003515479,40.65690897537276],[-73.86087597606713,40.6569081620455],[-73.86088201128256,40.65690808157864],[-73.86088798593687,40.65690873603702],[-73.86127520118565,40.657000906359436],[-73.86149375847887,40.65699993405769],[-73.86161371163618,40.65699651025297],[-73.8616291765529,40.65704785910269],[-73.8616382338067,40.65710008780087],[-73.86164080314504,40.657152733657746],[-73.86163686179094,40.65720533028685],[-73.8616264446454,40.65725741173673],[-73.8616170283211,40.657400646602206],[-73.86161656425834,40.65754406043007],[-73.86162505356428,40.657687328893566],[-73.86164247709802,40.65783012799273],[-73.86166879551338,40.6579721347869],[-73.86166935760654,40.65798234185929],[-73.86167213653512,40.65799233629853],[-73.86167705520685,40.658001840838196],[-73.86168397716848,40.65801059180264],[-73.86169271039103,40.658018346421834],[-73.86170301259718,40.65802488956633],[-73.8617145979824,40.658030039715506],[-73.86172714514386,40.65803365399336],[-73.86269762139088,40.65761837633356],[-73.86269778233539,40.65761830901176],[-73.86317083340404,40.65827651294904],[-73.86174759025212,40.65893835651107],[-73.861188754815,40.65925462588841],[-73.86030494564054,40.65963465530412],[-73.85938691846947,40.65977271538219],[-73.85851436393638,40.65989894246878],[-73.8576153718558,40.66011893315399],[-73.85793640911963,40.66137443712406],[-73.85802504232093,40.66172105009188],[-73.85811779269261,40.66203657079248],[-73.85842950791304,40.66345336093123],[-73.85753563345148,40.66359786251401],[-73.85659075119855,40.66374715959931],[-73.85611710208867,40.663808402637336],[-73.85568461221035,40.663867492875696],[-73.85611740229734,40.66550938010643],[-73.85618809594054,40.66584655512881],[-73.8564631194297,40.66704176389169],[-73.85667995639089,40.66792415917604],[-73.85670509094247,40.66802643960385],[-73.85684676228357,40.668602935333155],[-73.85722693630146,40.67009621263574],[-73.85724675781796,40.67017405168215],[-73.8572674460264,40.67025529429499],[-73.8572848668308,40.67032198990501],[-73.8573094780505,40.67041623336579],[-73.85763323108364,40.6716561940382],[-73.85855466622876,40.67151814610235],[-73.85947416458082,40.67138053153496],[-73.86038519854728,40.67125171098987],[-73.86077512791373,40.6728056227411],[-73.86107192565032,40.67401981439809],[-73.86114396036497,40.67433014744939],[-73.8613186358256,40.67502126881557],[-73.86139775932693,40.675336590483454],[-73.86171238651546,40.676610595974516],[-73.86202843089725,40.67788611453548],[-73.86225943089215,40.678816786156524],[-73.86234580535023,40.67916478614704],[-73.86140618634687,40.67922099276556],[-73.8607086187618,40.679263735809734],[-73.86046658753757,40.6792785624501],[-73.85952486262212,40.679345468416194],[-73.8585896258019,40.67940272939967],[-73.85819836034565,40.679430849068794],[-73.8577926836297,40.67945571614152],[-73.85721078550016,40.67948586434508],[-73.85683137043236,40.6795093383046],[-73.85653410305866,40.679527725297966],[-73.85439330700231,40.67966011368441],[-73.85398014767986,40.67968303546612],[-73.85335057286477,40.67986701654508],[-73.85267726102957,40.680079415082716],[-73.85223417083924,40.680207890968084],[-73.85168205505987,40.68036797739782],[-73.85099089282878,40.68056836766063],[-73.85014804258537,40.680808106977466],[-73.84930144925285,40.681046672407966],[-73.8484443463383,40.68129070363662],[-73.8478681763194,40.68148683212303],[-73.84757845129975,40.681579868280494],[-73.84671464241593,40.6818584931912],[-73.84583237438072,40.68210645072892],[-73.84529042325494,40.682230444826175],[-73.84520200269056,40.682250668650994],[-73.84513349880055,40.68226653350302],[-73.84505837855724,40.6822844518409],[-73.84496190679067,40.6823074553191],[-73.84451063724626,40.682415088341926],[-73.84408914893683,40.68252929856467],[-73.84323090375231,40.682775197560645],[-73.84237029108908,40.683018422215014],[-73.84151391931402,40.683261681456045],[-73.84134091906111,40.683310503082154],[-73.84119605663226,40.6833513668441],[-73.84063004126287,40.683513910571506],[-73.83978600226305,40.68375415853421],[-73.83894069323384,40.683993802968],[-73.83807769003315,40.68423890970228],[-73.8371765168474,40.68449539241853],[-73.83595082841032,40.684843546886015],[-73.83511671898272,40.68508493305055],[-73.83463115620022,40.68522321754759],[-73.83425993108531,40.68532893750008],[-73.83342190640434,40.68556778227131],[-73.83257747644114,40.68580634592297],[-73.83172298312515,40.68605070539833],[-73.83088556296508,40.68628654791147],[-73.83003934070088,40.68652935908597],[-73.8291824226466,40.68677080576231],[-73.82835620813941,40.68700280995246],[-73.8275302139173,40.68723948273673],[-73.82670197292126,40.68747320944752],[-73.82587322402716,40.68770864977386],[-73.82501128872681,40.687952318427946],[-73.82398034338131,40.68824526825732],[-73.82293216268151,40.68854300110572],[-73.82189346623468,40.68883822600447],[-73.82085264084236,40.689134383409026],[-73.81993922363728,40.68939369293801],[-73.81906075263923,40.68964244197441],[-73.81818710974092,40.689892074807005],[-73.8169264130452,40.69025014736652],[-73.8160748755888,40.690492270969166],[-73.81522826603552,40.69073347712807],[-73.81438437980432,40.69097195376603],[-73.81354014221486,40.69121136783586],[-73.81309863128277,40.69131810196269],[-73.81271762135624,40.69140780382239],[-73.81186315059246,40.69163008016463],[-73.81098810575406,40.69185504473452],[-73.81072587521027,40.69192242230356],[-73.8106329831089,40.6919473825769],[-73.81024426178661,40.691263586815616],[-73.80995601250524,40.690756113160546],[-73.80972326674764,40.69034634414422],[-73.80954787464135,40.69003754662618],[-73.80918425200626,40.6894004794722],[-73.80914461304407,40.68933103073322],[-73.80892417145985,40.68894480920424],[-73.80874358506338,40.6886258845929],[-73.8085765517067,40.68833089030068],[-73.80807342422307,40.68745282425876],[-73.80787469619212,40.68709833779392],[-73.8073362180269,40.686125446990225],[-73.80709063332455,40.68563031078395],[-73.80686072745624,40.68517995777451],[-73.8066060873639,40.68468114578401],[-73.80606202730917,40.68355436096259],[-73.80576840191371,40.68293239125048],[-73.80551811120921,40.68240821090303],[-73.80522682790051,40.68179814988038],[-73.80492976319466,40.68117697467274],[-73.80464517030194,40.680579889746795],[-73.8042828823602,40.67981735673116],[-73.80410226589215,40.679424550154074],[-73.80323027653603,40.677681057005906],[-73.80307520428957,40.677345601240006],[-73.80267769542516,40.67649796690424],[-73.80238906440171,40.6758884786802],[-73.80202521779665,40.67511427321637],[-73.80168194759725,40.67438384896005],[-73.80158716637021,40.67411585015759],[-73.80156450583127,40.67404794858076],[-73.80140210650738,40.67356131988001],[-73.80130166462119,40.67312152223224],[-73.80119461615126,40.67242246460575],[-73.80117234250913,40.67220503224504],[-73.80115934931574,40.6718938897182],[-73.8011553859723,40.67179912084403]]]]}}]}