{"type":"FeatureCollection","features":[{"type":"Feature","properties":{"district":"413"},"geometry":{"type":"MultiPolygon","coordinates":[[[[-73.74694320572226,40.63752920217572],[-73.74693970012704,40.637554234712894],[-73.74690473912774,40.63763197993122],[-73.74687791254622,40.63774792261008],[-73.74682802910833,40.63778360439622],[-73.74680851785257,40.63780060887076],[-73.74677389775728,40.63785323547336],[-73.74679450798166,40.637871694661044],[-73.74462107367462,40.63944618727514],[-73.74451492326654,40.639862223747265],[-73.74402594781115,40.64115379975443],[-73.74399063232025,40.641247069543525],[-73.74432114664377,40.6415831142625],[-73.74711666256898,40.64437184528725],[-73.7474602099074,40.644715755680174],[-73.74761799181103,40.64486212488392],[-73.74778293587187,40.64500383916201],[-73.74795480562643,40.64514069531479],[-73.74813335467614,40.64527249710731],[-73.74831832704052,40.64539905555084],[-73.74857178830541,40.64555028440587],[-73.75157384125373,40.647259301204464],[-73.75284151116354,40.6479793384664],[-73.75411086674627,40.648697665158586],[-73.7546575813913,40.649012096603386],[-73.75745462238545,40.65058135228943],[-73.75793937458067,40.65085330393862],[-73.76277911963999,40.65362193669587],[-73.76359897289865,40.654090901378424],[-73.7640629014175,40.65435626632863],[-73.76417770244836,40.654421500583815],[-73.76475455397448,40.654746896604614],[-73.7656689716414,40.655253468892326],[-73.76628008200626,40.65557821549787],[-73.76669593838936,40.655802847501775],[-73.76687597671938,40.655829985313304],[-73.76720566553973,40.65585683059431],[-73.76739097086562,40.655838168699916],[-73.7677065353223,40.65573088845502],[-73.7681199793464,40.65561019769322],[-73.76832740163579,40.655600115136224],[-73.76895177870296,40.65567036910689],[-73.76899654069909,40.65567863575669],[-73.76899113016135,40.65571447452986],[-73.76904904020921,40.65572658554485],[-73.76974364174501,40.655948254796556],[-73.77028620757204,40.65623209311805],[-73.77210626139305,40.65747848600846],[-73.77447688294156,40.658901828100305],[-73.77454472877838,40.65893817961971],[-73.7746032624106,40.65896999225892],[-73.77525307970758,40.659320044127334],[-73.77577403915085,40.659567173447286],[-73.77594268710796,40.65965855590122],[-73.77611580232053,40.65974495835606],[-73.7762931313586,40.659826254315675],[-73.77647441462007,40.65990232475959],[-73.77665938671085,40.65997305831726],[-73.77684777699542,40.660038351389076],[-73.77703930953912,40.66009810835793],[-73.77723370392862,40.660152241734245],[-73.7774306755585,40.66020067226168],[-73.77762993604803,40.66024332903317],[-73.77813479232492,40.66035909315625],[-73.77827915339134,40.66039457981241],[-73.77842164899438,40.660434198558484],[-73.77856207527296,40.66047789271492],[-73.77870023132529,40.66052559977168],[-73.77883592023035,40.660577251396404],[-73.7789689472067,40.660632773692456],[-73.77909912194465,40.66069208723189],[-73.77922625821333,40.660755107162956],[-73.77931050670335,40.66078567057544],[-73.77936947513591,40.66081184444005],[-73.78290398272095,40.66238535572669],[-73.78393981792671,40.66278283141949],[-73.78415657695768,40.662908590549385],[-73.78502513806313,40.6634210723976],[-73.7861847044556,40.663609553046214],[-73.78751177928284,40.66382524347171],[-73.78811679911226,40.66390588086962],[-73.78984347199764,40.66413599223429],[-73.78990759983269,40.664144538063304],[-73.78996736768528,40.66415328882475],[-73.79005980031765,40.664166907575364],[-73.79057832518731,40.66424330033598],[-73.79118919085124,40.66433323371405],[-73.79199464640314,40.664439276940364],[-73.79256433191536,40.66451427596951],[-73.79394317794937,40.66470238782219],[-73.79522630494566,40.664877425490154],[-73.79581914881794,40.66495562745158],[-73.79589079877502,40.66496348168354],[-73.79641492651469,40.66502093001601],[-73.7970129183231,40.66507324676438],[-73.79761237515024,40.66511252792935],[-73.79839107131876,40.66516199268622],[-73.799819543967,40.66525926147234],[-73.80009225770125,40.66526253259699],[-73.80122051023247,40.66527605705505],[-73.80180049621119,40.66525044104647],[-73.8018866747649,40.66524891739254],[-73.80203207689965,40.66524802533259],[-73.80183646415172,40.66588109373886],[-73.80170297937693,40.66626407029428],[-73.80168266553363,40.66632235257108],[-73.80160579231371,40.6663191854132],[-73.8015284675928,40.66631677381554],[-73.80026400837309,40.66627339547727],[-73.80000839100582,40.666263360544576],[-73.79982705736835,40.666256236971705],[-73.79930873030789,40.6662390891631],[-73.79866844850864,40.666219392646845],[-73.7981196220981,40.666202176716055],[-73.79753117118464,40.66618372628914],[-73.79698690826993,40.6661711588823],[-73.79637860153812,40.6661642763964],[-73.7958739653934,40.666156420089735],[-73.7952869811172,40.66615770082236],[-73.79494770919763,40.66616228309197],[-73.79383124669407,40.666180577144786],[-73.79305980869576,40.666193204081765],[-73.79002993744842,40.66632769837189],[-73.78948089727395,40.66636765162302],[-73.78814160929693,40.666478590424866],[-73.78752809522214,40.666529405134426],[-73.78691868554158,40.666585541863284],[-73.78687875843673,40.66658980956796],[-73.78630415892208,40.66665122050915],[-73.78590758247032,40.66669360915373],[-73.78506899604254,40.66678510465074],[-73.78441088562225,40.66685690487829],[-73.78366480515835,40.666924277038554],[-73.7824122435047,40.66702898669025],[-73.78161689872037,40.667075522750984],[-73.78031667239236,40.667176371826436],[-73.77966243393819,40.6672201318238],[-73.77921310930371,40.66725018269913],[-73.77896866271381,40.66726653499268],[-73.77841561076926,40.667303521966815],[-73.77769214435594,40.66735190291366],[-73.77697713998879,40.667390721298815],[-73.77615397994921,40.66743540512061],[-73.77527409197944,40.66745409831925],[-73.77520695307855,40.667455524491686],[-73.77445107675578,40.66747157651877],[-73.77343586685272,40.66745992711492],[-73.7722939722367,40.667446813034495],[-73.77188000349757,40.66742494813734],[-73.77153290525118,40.66740533950372],[-73.77108845288572,40.6673893541189],[-73.7701748204814,40.667315463763394],[-73.76699023485045,40.666971615112374],[-73.76620963379771,40.66687819626141],[-73.76544266287213,40.666786402812896],[-73.76440339146902,40.66667204152899],[-73.76347802322034,40.66657020436625],[-73.76286157160473,40.666502359937276],[-73.76258343378713,40.666471748384865],[-73.76196657757201,40.666403854427905],[-73.76168012284222,40.66637232485694],[-73.75997116537505,40.666184205574766],[-73.75902827673448,40.666080403288724],[-73.75804195752474,40.66597022563729],[-73.75795643664848,40.66595540339695],[-73.75791893000329,40.66601256162107],[-73.75776261257776,40.66625092092283],[-73.7576312961815,40.66645115660721],[-73.75731692780398,40.66704031588051],[-73.75699533361424,40.667741268564555],[-73.7567160246846,40.66856252687536],[-73.7566845479625,40.66875852213541],[-73.75643734291953,40.66966637874227],[-73.75640621302145,40.670372914920435],[-73.7564247873451,40.67063356409689],[-73.75646127228327,40.67109403158393],[-73.7564837456172,40.671489866373335],[-73.75646388294378,40.67168400256863],[-73.75636239259674,40.672429237110435],[-73.75618233924924,40.67337238313172],[-73.75606229081953,40.674196859931804],[-73.75581771153011,40.67575274273149],[-73.7557616922747,40.67588590942066],[-73.7556364696883,40.67621517858196],[-73.75562236539574,40.676258473477354],[-73.75549392468196,40.67662967318399],[-73.75523457805716,40.67728840924502],[-73.75484909670557,40.67792883838758],[-73.75417857011907,40.67884448578776],[-73.75399395089526,40.67909450721439],[-73.75372596150034,40.679457427867646],[-73.75345604286929,40.67982295635742],[-73.7532868997966,40.68005114483173],[-73.75323817129312,40.68011688600685],[-73.75321057852224,40.68015428817177],[-73.75268290987269,40.68086961686097],[-73.75247059935322,40.68118051436939],[-73.75225828619395,40.6814914114728],[-73.75180409215659,40.68240332349086],[-73.75154215522278,40.68304604266797],[-73.75125793539004,40.68373412593307],[-73.75103020622572,40.68422286736834],[-73.75055761405899,40.685071682496094],[-73.7502561578794,40.685613109946615],[-73.75008991197132,40.685923446360306],[-73.74944546764216,40.68667202206149],[-73.74884601444393,40.68744748426522],[-73.74856993160503,40.6878037382087],[-73.74755175432293,40.68934733665737],[-73.74728617701338,40.689737173105264],[-73.74624345579949,40.69127944485113],[-73.74595332097428,40.6916625651027],[-73.74510485066989,40.69278293485175],[-73.74487951537543,40.69309307771379],[-73.7448461056506,40.69313905611548],[-73.74487923239992,40.69320718198189],[-73.74533098490075,40.694196057454874],[-73.74573146504008,40.69509094188383],[-73.74602200954425,40.69575643706287],[-73.74618157884372,40.696121925981686],[-73.74649367299452,40.69679987384027],[-73.74681909257912,40.69752545216872],[-73.74712436881622,40.698198034670746],[-73.74741867955206,40.698859028442826],[-73.74773012115786,40.69955313633047],[-73.74804073698617,40.700239433685056],[-73.74832880870512,40.700887210562406],[-73.7486428642622,40.70158693935411],[-73.74895094683303,40.702265565104064],[-73.74925013986056,40.702928005994664],[-73.74955607983544,40.70361345157009],[-73.74985523061854,40.70427769174598],[-73.75015522936582,40.704944580524405],[-73.75047058182913,40.70563993053263],[-73.7507743590373,40.7063218369031],[-73.75121246970107,40.70730657957567],[-73.75137020738767,40.70768190764302],[-73.75139828668512,40.707748719552825],[-73.75184269862764,40.70882292095367],[-73.75230964054396,40.70995338687544],[-73.75245965550116,40.710316563650814],[-73.75318399386082,40.71205517561496],[-73.75357512132625,40.71299229615233],[-73.75360661855721,40.713071122660786],[-73.75370834622873,40.713324636739905],[-73.75401024530535,40.71383490137982],[-73.75404783955018,40.71387753991349],[-73.75407540973396,40.71390469522922],[-73.75435361771552,40.71426297519237],[-73.75470078350669,40.714710053322065],[-73.75588878021782,40.716298644131555],[-73.75725671443085,40.71813860166135],[-73.75832728672914,40.71958208986673],[-73.75912824213151,40.72064704102953],[-73.7591950058442,40.72073580755066],[-73.7594414294101,40.72106344375331],[-73.75938510501344,40.721098706672365],[-73.75867569082261,40.72159981601684],[-73.7579743023855,40.72209073610169],[-73.75728555042491,40.722570322363204],[-73.75654652443023,40.72308760946724],[-73.75577121005354,40.72364021589367],[-73.75496919462795,40.72415964730919],[-73.75409142333176,40.72469190628807],[-73.75445020134107,40.724956460047494],[-73.75468813821035,40.72511116056892],[-73.75487843416323,40.72522104094099],[-73.75500165047582,40.72528657267659],[-73.75516813979038,40.72535904012815],[-73.75555486694917,40.72552092693206],[-73.75566250684328,40.72557746652921],[-73.75590847134137,40.72570666126521],[-73.75618565966019,40.725895743252224],[-73.75661221914443,40.726207926526534],[-73.75670329167477,40.72622943266059],[-73.75663658046449,40.72624641079327],[-73.75655253396538,40.726270754933104],[-73.75612212917528,40.72643253575092],[-73.75526420905267,40.72672192212923],[-73.75440289041346,40.727053260124606],[-73.75404219507274,40.727214317229425],[-73.75378231424013,40.727330360139185],[-73.75347871589666,40.72746691978783],[-73.75317946995966,40.72760893136698],[-73.75288474592324,40.72775631448211],[-73.75259471001164,40.72790898597814],[-73.752219141375,40.72811234358087],[-73.75192413491128,40.728280032262575],[-73.75184238289984,40.72832650240095],[-73.75177021381606,40.72837020816667],[-73.7510657645479,40.7288183225633],[-73.75081066939501,40.728995038779026],[-73.75048295649863,40.729221294394065],[-73.7498098750692,40.7297467500574],[-73.7491718855846,40.730299068840274],[-73.74793423850974,40.73140119622198],[-73.74749692868379,40.73179105118333],[-73.74733126590083,40.73193874099602],[-73.74704531507682,40.732193653705934],[-73.74672140362712,40.73247715064415],[-73.74616259454761,40.732927220085024],[-73.74555368037484,40.733404318021414],[-73.74472417700727,40.734011030248524],[-73.74294785789961,40.73545655152901],[-73.74228431198432,40.73608640834005],[-73.74158944476719,40.736782009423116],[-73.74151636839602,40.73686036104066],[-73.74144628593064,40.73693874630504],[-73.74016951828855,40.73848189750859],[-73.73986995468267,40.7388669013278],[-73.73972244159039,40.739036089551455],[-73.73933151360777,40.739474474667006],[-73.73901210352393,40.73974647917534],[-73.73857175866203,40.740092123295796],[-73.73816047920391,40.7403764358172],[-73.73751038061047,40.74071544770105],[-73.736858942342,40.741050401043466],[-73.73560786737222,40.74169621950134],[-73.73539508764223,40.74180884410011],[-73.7343696584317,40.74235159855981],[-73.73375484853679,40.74274762831261],[-73.7337063066621,40.74278250143071],[-73.73366461514219,40.742813184268385],[-73.73241694613704,40.74369457640489],[-73.73232731716276,40.74377143341809],[-73.7322691805635,40.74381896274555],[-73.73106461880838,40.744888375884486],[-73.73062801836262,40.74536415823958],[-73.73043134633869,40.745584836424946],[-73.729931691068,40.74618812459035],[-73.72964619230399,40.746561914472785],[-73.72953448980192,40.74671639589149],[-73.72914593810157,40.74727379981291],[-73.72906670974076,40.74739095924633],[-73.72896183010444,40.74763286903575],[-73.7287195280344,40.748197080556785],[-73.72862207356985,40.74851209230475],[-73.7284917850379,40.749044707043105],[-73.72837798402641,40.74938116718953],[-73.72825381049505,40.74969372864579],[-73.7280535556574,40.750082150820546],[-73.72788401100424,40.750387483324076],[-73.72771356186327,40.75062689461179],[-73.72737889140159,40.75102956739991],[-73.72709389557976,40.75134160424129],[-73.72677739460185,40.75162309216987],[-73.72666529910174,40.75171358826786],[-73.72641472137151,40.75191587781291],[-73.72602966341618,40.75217435518616],[-73.72582988890102,40.75229172060215],[-73.72509445365739,40.75270759181926],[-73.72506847991923,40.75272184432867],[-73.72475823085924,40.7529081483264],[-73.72384451856351,40.75345681166769],[-73.72382698899249,40.75346908872827],[-73.72351867196416,40.75372143795812],[-73.723441354726,40.75379084518513],[-73.7232667341128,40.753947599497174],[-73.72299301325097,40.75421767099708],[-73.72279703168726,40.75443353817301],[-73.72264543527842,40.75460052402797],[-73.7224109479736,40.7549201892486],[-73.72207071370221,40.75549670313645],[-73.72180289210222,40.756069897449564],[-73.72176339637024,40.75613846660482],[-73.72161357071774,40.75639859489065],[-73.72159631478492,40.756427504330794],[-73.72145870261356,40.75665808054636],[-73.7212117612937,40.756979208491586],[-73.72111001482928,40.75711152581592],[-73.72096511710163,40.757293789168926],[-73.72063319399095,40.757616835558274],[-73.7203159529136,40.75789725862028],[-73.71998296988495,40.758160821513144],[-73.71967732307803,40.75837249941239],[-73.71956460720739,40.7584505604207],[-73.71917909620895,40.758666436944615],[-73.71897050365068,40.758783237036695],[-73.7187778771528,40.75887169217301],[-73.71831971818752,40.75908207567554],[-73.71767237065704,40.75931121152054],[-73.71685440444926,40.75952551401988],[-73.71613842612966,40.75965827919379],[-73.71612528233499,40.75966071430748],[-73.71498213956869,40.75978286502065],[-73.71455685901786,40.75980880899038],[-73.71426287737073,40.759826747867585],[-73.71351828105992,40.75983773083099],[-73.71332542144886,40.7597301895716],[-73.71244940664623,40.75924170421715],[-73.71085768998324,40.75819506464098],[-73.71054499726542,40.75799103432508],[-73.70782538631595,40.756216404324526],[-73.70527128316661,40.75477044095129],[-73.70346781850269,40.753683363033886],[-73.70273495703732,40.75325051681007],[-73.70217841679892,40.75288593949752],[-73.70169386961753,40.752536854544225],[-73.70163345826296,40.75249332918879],[-73.70162212271006,40.75242551789307],[-73.701347159168,40.75078058087181],[-73.70117316548689,40.74892430212394],[-73.70090127413349,40.747128544080745],[-73.70089340027842,40.74705726562533],[-73.70077960806647,40.74504145380032],[-73.70058164037681,40.74318384108607],[-73.70029222241429,40.74101060201284],[-73.70002140330563,40.739404166175696],[-73.70000906387347,40.739323412660944],[-73.70002020503291,40.73923654173212],[-73.70031835176928,40.73896808258171],[-73.70081147162335,40.738439152389795],[-73.70147073038119,40.73751156096427],[-73.70206036356689,40.73644275666602],[-73.70228084265764,40.73612579661876],[-73.70268794525971,40.73549022228653],[-73.70331490886622,40.734563256881906],[-73.70352249022645,40.73420794480355],[-73.70394463077642,40.73352626171288],[-73.70460114351185,40.73256974742794],[-73.70499536266581,40.73197055752244],[-73.70522165696268,40.73161963020312],[-73.70584734754668,40.7306728544],[-73.70648028266018,40.729711298728084],[-73.70709970142543,40.728747714553684],[-73.70766217239931,40.727830934507935],[-73.70856949081914,40.72763641792368],[-73.71043109508159,40.727241061968],[-73.71049995362073,40.72722708741339],[-73.71056285550216,40.72721887184926],[-73.71410391168185,40.726756335905016],[-73.71496944875852,40.726646610370075],[-73.71587508733234,40.726542439362674],[-73.7169328805703,40.726386415555616],[-73.71828706778764,40.72604111076803],[-73.72038627184617,40.72547455438072],[-73.72119265711754,40.725266546390934],[-73.72179658853722,40.72508603544036],[-73.72204637360309,40.72501961143908],[-73.72257879305457,40.72487767553388],[-73.72291170240636,40.72479394646473],[-73.72295712068639,40.72478244810872],[-73.72296233442388,40.72478112780454],[-73.72315163463553,40.724733207035264],[-73.7234275409418,40.72466335090138],[-73.72419675472065,40.72445460186071],[-73.72446654732678,40.72438137938462],[-73.72454972781851,40.7243602642163],[-73.72463422455458,40.72433644790643],[-73.7247179248701,40.724312605003966],[-73.72476424417486,40.72429802843151],[-73.72481053899416,40.72428340403658],[-73.72490160983834,40.724254476062924],[-73.72508488991814,40.72419561359954],[-73.72567196959442,40.72403765899333],[-73.72647559388683,40.72375249638655],[-73.7273282651796,40.72341196324152],[-73.72797157452256,40.72315911649544],[-73.72816233921213,40.723084140285536],[-73.72838891405445,40.72302142298123],[-73.72861253780427,40.722952848806],[-73.72883294897933,40.72287849794604],[-73.72904989021102,40.72279845752693],[-73.72926310749025,40.722712820948324],[-73.72947235151142,40.722621688347104],[-73.72965186962597,40.72253485814646],[-73.72975788452315,40.72248357940946],[-73.7300483083672,40.72232591485171],[-73.73032628902038,40.72215729678346],[-73.7303013204473,40.72209451698996],[-73.72966103127041,40.72048138422384],[-73.72924189859789,40.719345459601236],[-73.72917629515445,40.7191672145619],[-73.72883757452566,40.717933018510905],[-73.72856951532239,40.71695629277033],[-73.72855295495381,40.71689594610766],[-73.72852236530296,40.71678448063811],[-73.72850152454104,40.71670554622582],[-73.72736801316,40.712411131623035],[-73.72735961842656,40.712388941114966],[-73.72718876295177,40.71169261768821],[-73.72698520145934,40.7107763116524],[-73.72697146717219,40.71071450352947],[-73.72696515590698,40.710660709616356],[-73.72690004188742,40.70999683099999],[-73.72689487415279,40.709978573617974],[-73.72704696552918,40.70949875281068],[-73.72696135692496,40.707549087599055],[-73.72689497725982,40.70580017260442],[-73.72683525361235,40.704405699647396],[-73.7267775953371,40.70305929190163],[-73.72672841221141,40.702145735755636],[-73.72678961229367,40.70194545186659],[-73.72671302592892,40.70144663261414],[-73.72665409084117,40.70111265889129],[-73.72654435058581,40.69898264016624],[-73.72652452220491,40.69825809187225],[-73.72651147522069,40.69778119263475],[-73.72650269230223,40.69688607406993],[-73.72626254348815,40.690773253170136],[-73.72625831315968,40.69061086232333],[-73.72625886521544,40.690268927897904],[-73.72620259676737,40.68898434080928],[-73.72617495100407,40.68865003011012],[-73.72616338318788,40.688453617698464],[-73.7259961627549,40.6869320542882],[-73.7259409855958,40.68639910536157],[-73.72593196243002,40.68631194081726],[-73.72592635639243,40.68622520825674],[-73.72584330005733,40.6850154546013],[-73.72579787942314,40.68435384982523],[-73.72580147959418,40.684283780774656],[-73.72586264116339,40.683241080946495],[-73.72590660060473,40.682656605126816],[-73.72582367665031,40.68163575061304],[-73.72579858919681,40.6813866926251],[-73.72575419061091,40.68094591359061],[-73.72568736826791,40.6802504548632],[-73.72563005119694,40.679587951284134],[-73.72584106190583,40.67875212635903],[-73.72601116089172,40.67807833833198],[-73.72619464931373,40.677385591170946],[-73.72624013528315,40.6772210797103],[-73.72629437184834,40.677058112803856],[-73.72635726938027,40.67689696040465],[-73.726428723535,40.67673788891513],[-73.7265431725375,40.67648672911646],[-73.72671402999656,40.67608946199253],[-73.7269938317178,40.67543887036368],[-73.7271413426991,40.675095875343665],[-73.72744080392694,40.674428741349494],[-73.7275335842069,40.67421386361671],[-73.72755616356653,40.67416158768915],[-73.72753500302302,40.673930284795155],[-73.72779050114802,40.67148951396144],[-73.72788358626994,40.670796436623874],[-73.72792572850256,40.670097148020325],[-73.72799989246337,40.66940504514404],[-73.7281725558933,40.66871742933881],[-73.7282413121141,40.66802409750177],[-73.72822216974635,40.66731363955582],[-73.72826620785708,40.66660628634426],[-73.72827272254973,40.666429592083816],[-73.72821911958363,40.665914584453375],[-73.72814252038626,40.66551437427647],[-73.72811351396625,40.66534531443702],[-73.72785787219546,40.66506796968168],[-73.72787486759978,40.66469513271919],[-73.72780900717227,40.6646140933383],[-73.72777029188688,40.664064398418034],[-73.7278335238588,40.663976437444795],[-73.72781392327441,40.663223969476654],[-73.72781750949889,40.66311678348206],[-73.72833071875961,40.66304394373133],[-73.7281528165782,40.662454142505815],[-73.72804607970852,40.66239899654552],[-73.72793124411493,40.66174883510503],[-73.72759175840305,40.66109448773448],[-73.72720801965232,40.66042232119578],[-73.72680978650396,40.65979485612973],[-73.72644438674246,40.65916161542394],[-73.7262113990278,40.658478817399825],[-73.72602875977684,40.657998999375764],[-73.72592687674997,40.65773131985406],[-73.72566237306238,40.65699034309344],[-73.72556769770412,40.65672514308154],[-73.72554976612645,40.65639229281416],[-73.72550259072494,40.65551651557244],[-73.72498470712827,40.65425343540416],[-73.72505569053573,40.653507893640494],[-73.72509934582095,40.65234574831195],[-73.72522608107016,40.652001000147635],[-73.72649790179555,40.65166351440037],[-73.73028652972182,40.650368522674576],[-73.73051457235054,40.65031031200509],[-73.732072630971,40.65008747422038],[-73.73398259880699,40.649852209800315],[-73.7351350140652,40.64973203996289],[-73.73673508636625,40.649099816497596],[-73.73904482131434,40.6482011803446],[-73.74143706042345,40.64688917832163],[-73.74143890966147,40.646344843919],[-73.74143979626777,40.64608557627337],[-73.74144760108757,40.64594171768809],[-73.74146811266807,40.64556352707075],[-73.74148523672568,40.645247833246216],[-73.74162258209032,40.642716027427014],[-73.74166141317728,40.64219806168002],[-73.74205084952769,40.64147420452586],[-73.74142279314964,40.640503390753494],[-73.74227387226114,40.64012338094907],[-73.74125900067578,40.63889749943519],[-73.74033103329371,40.637260300957834],[-73.73955759631794,40.63586253426113],[-73.73947121626792,40.63570643182957],[-73.73986921326058,40.63524791272239],[-73.7399595757038,40.635143809876084],[-73.74000390414136,40.63530886479294],[-73.74017458119471,40.635276865844276],[-73.74020461190244,40.635264471197566],[-73.74065940309454,40.63521017918701],[-73.74067096192672,40.63520818619408],[-73.74066518462793,40.63518693665234],[-73.74077349047406,40.63516320006498],[-73.74076224312043,40.635132113442374],[-73.7407515090692,40.63513566247305],[-73.74075047652902,40.63510783169167],[-73.74090927878667,40.635074708065474],[-73.74089795782864,40.63505033234485],[-73.74096993673938,40.635034406682585],[-73.74097754781047,40.63505721601684],[-73.74103551855545,40.635048903116996],[-73.74103599640182,40.63507282016807],[-73.741003435741,40.6350797038189],[-73.7410090731667,40.63509797871411],[-73.74102049057879,40.63509756969175],[-73.74103068627748,40.635117593973646],[-73.74094556102501,40.6351382741897],[-73.74092804423935,40.63509257830915],[-73.7409091774957,40.635100797169265],[-73.74091019852338,40.6351253230734],[-73.74080494840042,40.63514713489762],[-73.74079465283724,40.6351183016819],[-73.7407742254765,40.63512253483126],[-73.74078781200114,40.635161034869945],[-73.74144329175073,40.6350896707889],[-73.74143089926346,40.63505926467392],[-73.74144428540662,40.63505621072893],[-73.74141290549495,40.634981311878526],[-73.74143545079093,40.63498000508878],[-73.74145671755534,40.63505515275881],[-73.74147588453758,40.635052515888866],[-73.74148827753694,40.635082624468154],[-73.74164684545,40.635047154725335],[-73.74170620982906,40.63503754626711],[-73.74169596702525,40.63500169042452],[-73.74168473420008,40.634949817062065],[-73.74164342495563,40.63495651488306],[-73.74163925353922,40.634943281588065],[-73.74155835740466,40.634959559206486],[-73.74155985134438,40.63497383940793],[-73.74150631647977,40.6349876571689],[-73.74151140179345,40.63500696830688],[-73.74148887105945,40.635010134048954],[-73.74146473729922,40.63494288932982],[-73.74148726801167,40.634939723592446],[-73.74150260999066,40.634975497603975],[-73.7415439289615,40.63496203669913],[-73.74152443720277,40.63491192994791],[-73.74155258937805,40.63491092104131],[-73.7415637294683,40.634941682338756],[-73.74162615809281,40.63493288779748],[-73.74161457382559,40.634895692719404],[-73.74162208492822,40.63489427956794],[-73.74163696338003,40.63492898100284],[-73.74169799427787,40.634917681064934],[-73.74169296264554,40.63488443245881],[-73.74170188456137,40.63488230762409],[-73.74171582274845,40.63493598163569],[-73.7417693079242,40.63492645827827],[-73.74175865356759,40.634881363115504],[-73.74177038312104,40.63488103262092],[-73.74179861322422,40.634981165934356],[-73.7417850007896,40.634982922735894],[-73.74177166228888,40.63493593751288],[-73.74170163141338,40.63494771014387],[-73.74171935824084,40.63499716137882],[-73.7417689924356,40.63498866620983],[-73.74178775322278,40.63502171947916],[-73.74178960650141,40.63502140366005],[-73.74191703776744,40.63499854340673],[-73.74190983244078,40.63497212328268],[-73.74192251205952,40.63496893601822],[-73.74191092746545,40.63493138312729],[-73.74188746485095,40.63493311732855],[-73.74188146598196,40.63490737136797],[-73.74195564830444,40.6348918129039],[-73.74196304325633,40.63492077771771],[-73.74193066017827,40.63492392193864],[-73.74193893678894,40.63496754285204],[-73.74197649311397,40.63496083650347],[-73.74198017896039,40.634978357110406],[-73.74202844071944,40.63497631535425],[-73.7420766353897,40.63497913039132],[-73.74212392448253,40.63498675324572],[-73.74216948526389,40.63499905129534],[-73.74221252506781,40.63501581057916],[-73.74227672031748,40.63502759119704],[-73.74233826673068,40.635045814438136],[-73.74239605573143,40.63507015206558],[-73.74244904641921,40.63510016570982],[-73.74249628431713,40.63513531476423],[-73.74253691856387,40.63517496612196],[-73.74255105060156,40.6351906633418],[-73.74256155551778,40.635207933688164],[-73.74256814017694,40.63522629524345],[-73.74257062083501,40.63524523564022],[-73.7425689282673,40.63526422635838],[-73.7425631097004,40.63528273747325],[-73.74255332749475,40.63530025244263],[-73.74253985461445,40.63531628252101],[-73.74252306701064,40.635330380397434],[-73.74250343313093,40.63534215267786],[-73.74248367894643,40.63534504490012],[-73.74246488116447,40.63535050050477],[-73.7424476082519,40.6353583545081],[-73.74243238256231,40.6353683693959],[-73.74241966453941,40.6353802423062],[-73.74246308645485,40.63539102508671],[-73.7424730954828,40.63535030539596],[-73.74250233638004,40.63535316996072],[-73.74248497581847,40.63543253207163],[-73.7424591859473,40.63542925858693],[-73.74246117623217,40.63539959830577],[-73.74242723337876,40.635394361538204],[-73.74238800510525,40.635498652252835],[-73.74236547732194,40.63555422299687],[-73.7424158673349,40.63556911716223],[-73.74239123952636,40.63563030012699],[-73.74242902740136,40.63563952115433],[-73.74243665568179,40.635641381566],[-73.74255329130561,40.63544145972722],[-73.74258539843592,40.63545335666131],[-73.74243638020496,40.63571275510764],[-73.7424012521536,40.635698675159965],[-73.74239929447103,40.63569789075805],[-73.74240752450436,40.63568531820014],[-73.7424271766669,40.63565529792831],[-73.74242234728744,40.63565374835403],[-73.74238343507989,40.635641262341046],[-73.74236603847491,40.63569612655007],[-73.74231340408035,40.63568798445806],[-73.74229683341744,40.635738911057324],[-73.7423786223836,40.63576777533862],[-73.74239293672987,40.63574151335905],[-73.74242065314762,40.635749566594974],[-73.74237215392348,40.63581654636627],[-73.7423473268347,40.6358104972117],[-73.74237284261773,40.63577498005138],[-73.74232890118601,40.63576250804894],[-73.7422982525127,40.63581270768582],[-73.74225903914292,40.635802565527904],[-73.74222751324393,40.63585661953514],[-73.74225305480935,40.63586261603758],[-73.74226142372578,40.63586488555207],[-73.74224555002114,40.63589351271554],[-73.74221169128423,40.63588340465844],[-73.74216425327465,40.63597042734467],[-73.74210982488282,40.636055042309465],[-73.742048615461,40.63613692405094],[-73.74198086044974,40.6362157575803],[-73.7419068204723,40.63629123963382],[-73.74185308308671,40.63630735660821],[-73.74177461114714,40.636379851241394],[-73.74179493313196,40.63639378438014],[-73.74174996948064,40.636427281392024],[-73.74173193357676,40.63641644731002],[-73.74158767703132,40.63655854584069],[-73.74162447593442,40.636584182102574],[-73.74162022758541,40.63659096318627],[-73.74157911971976,40.636566974605884],[-73.74147457060202,40.636669959882745],[-73.74149353052847,40.63667888356841],[-73.74146901914779,40.636708611807315],[-73.74150303906886,40.636727033914326],[-73.74152627906331,40.63670254547006],[-73.7415509289841,40.636717611663265],[-73.74150538778308,40.63676659116994],[-73.74148315487531,40.63675425995479],[-73.7414964246262,40.63673893255054],[-73.74146068735982,40.636717570128],[-73.74141752183525,40.636761151621286],[-73.74139723373034,40.636750384292526],[-73.74124959182478,40.63693970077002],[-73.74125735902771,40.63694121026321],[-73.74123471496888,40.6369885142915],[-73.74128985664709,40.6370038516969],[-73.74128626651051,40.63700999026669],[-73.74123208799256,40.63699585838951],[-73.74116780735311,40.637128283610664],[-73.74121818853517,40.63714421863281],[-73.74121385003308,40.63715006954368],[-73.74116148571113,40.63713378209738],[-73.74114586663188,40.637163069075],[-73.74118815325546,40.63719532936872],[-73.74118100663537,40.63719931639385],[-73.7411374012685,40.63716833925055],[-73.74102309003347,40.63727201246065],[-73.74111794174448,40.637468149794465],[-73.74110244693958,40.63747133180478],[-73.741023775441,40.63731282864599],[-73.74097870820641,40.63732023194315],[-73.74096487686366,40.637304775030245],[-73.7410942192873,40.63764635517622],[-73.74112989506911,40.637714333580114],[-73.74115278454305,40.63774285803806],[-73.74117306495577,40.637762706814414],[-73.74118644354532,40.63778238257542],[-73.74120095386145,40.63779949885774],[-73.74121658796493,40.6378157624306],[-73.74123335092192,40.63783032058136],[-73.7412534595919,40.63784915842056],[-73.74129078685051,40.637886033162424],[-73.74130372491103,40.63789881291862],[-73.74130566584384,40.637900414173636],[-73.74131825515441,40.63791080300436],[-73.74133615186152,40.637921948272414],[-73.74134845884916,40.637928808802165],[-73.7413540421292,40.63793180606118],[-73.74135964846246,40.637934813256024],[-73.74136748331281,40.63793824813917],[-73.74137195611465,40.63794167378476],[-73.74137979362123,40.637944253436395],[-73.7413829865628,40.63794426061754],[-73.74138764391637,40.63794427109212],[-73.74139661688322,40.63794343821338],[-73.7413999840108,40.63794259105179],[-73.74140223045107,40.637941741872375],[-73.74141346178014,40.63793664257892],[-73.74141683155499,40.63793494186146],[-73.74142020000137,40.63793409470224],[-73.74142244203142,40.637934099743944],[-73.74142468384156,40.63793410478511],[-73.7414448634185,40.63793500489506],[-73.74145382711923,40.63793673334509],[-73.74146279147759,40.637938462466025],[-73.74148518992929,40.63794534516734],[-73.7415086956139,40.63795564761407],[-73.74158142517845,40.63799510288182],[-73.74160828610627,40.638007976547776],[-73.74172246882154,40.6380560661764],[-73.74187696472138,40.63811791188339],[-73.74189040305608,40.63812221354043],[-73.74193747964237,40.63812658952003],[-73.74202490121685,40.63813618172353],[-73.74211119816735,40.638146625402165],[-73.74219748524882,40.63815963051531],[-73.74228377060037,40.63817349079624],[-73.74238797185478,40.638193369932914],[-73.74249440927582,40.63821496294795],[-73.74260419719927,40.638239979451996],[-73.74271621824596,40.638267563374036],[-73.74272966303367,40.63827015598186],[-73.74276445497063,40.63826169200679],[-73.74289350196126,40.63823550095236],[-73.74302365615817,40.63821273015821],[-73.74310107004374,40.638200944566286],[-73.74318072177344,40.638190018151704],[-73.74326148890695,40.638180804142834],[-73.74334449521903,40.6381724471286],[-73.74350517660064,40.63808397246391],[-73.74373884101567,40.6379691810838],[-73.74397128496236,40.63788001261504],[-73.74403815450623,40.63798607662274],[-73.74378537838442,40.63842873057241],[-73.74366064685465,40.63864715590285],[-73.74352389261922,40.6388866326334],[-73.74352226238186,40.63888948637497],[-73.74356355009013,40.638941682376114],[-73.74364746537921,40.63898884834823],[-73.7436661124192,40.63899599952025],[-73.7437342150463,40.63902211766415],[-73.74376618359547,40.63902032246141],[-73.74378684907374,40.63900571121336],[-73.74383148928244,40.63895978102234],[-73.74384645847977,40.638955394111385],[-73.74402450885476,40.638662006073034],[-73.74402804795427,40.638656173046385],[-73.74402997541294,40.638652996627954],[-73.74402564937421,40.638651566853184],[-73.74401611368735,40.63864841433797],[-73.74396627971574,40.63863193947478],[-73.74395937455596,40.63862876818507],[-73.74395663263603,40.63862033552954],[-73.74398391923127,40.638558557577696],[-73.7440357225226,40.63844127632458],[-73.74404183532327,40.63843549777736],[-73.74404519787969,40.63843509464803],[-73.74406202167818,40.6384330734961],[-73.7440786978076,40.63843492109954],[-73.74408094395534,40.63843494636959],[-73.74409080311895,40.63843505844218],[-73.74411229309374,40.63837937031172],[-73.74412476786969,40.63834704299231],[-73.74418327814676,40.63819542255748],[-73.74416787097158,40.63819157414318],[-73.74415629764302,40.638184220332185],[-73.74415773134845,40.63818058998152],[-73.7442212441808,40.63801970439652],[-73.74426333512348,40.63795441304689],[-73.74445896739218,40.63765511931137],[-73.74450503104408,40.637580533468956],[-73.74453083731137,40.637576320486254],[-73.74455328893069,40.63756953684877],[-73.74457350396692,40.63756103994351],[-73.74458136924333,40.63755678709537],[-73.7445892362508,40.63755167951653],[-73.74460273481121,40.6375406056634],[-73.74461624163659,40.63752696879785],[-73.74465002034728,40.63749031504769],[-73.74469396163165,40.63743489143145],[-73.74472891886523,40.637382865114816],[-73.74473117199707,40.63738030809266],[-73.74473230486358,40.63737689384957],[-73.74473345626622,40.63736920882572],[-73.7447323636809,40.63736151815023],[-73.74472796743875,40.637338446656145],[-73.7447279935795,40.6373316131981],[-73.74467585741209,40.63731383199304],[-73.7446865794609,40.63729575326492],[-73.74470130596343,40.63730140455627],[-73.74470379258358,40.63729391951148],[-73.74467432936497,40.63728511526777],[-73.7447089599057,40.637228390209685],[-73.74471387604667,40.63722840112419],[-73.74479558148506,40.637075029076314],[-73.74483896213269,40.63708698507491],[-73.74471275511699,40.6373070468944],[-73.74473447464213,40.637313227016115],[-73.74474271381361,40.63729406304523],[-73.74475964729616,40.637264204880566],[-73.74477993647052,40.63723606245674],[-73.74480358441023,40.63720963644894],[-73.74481145943253,40.637202820409826],[-73.74482045163961,40.63719686108083],[-73.74484067698694,40.6371858016248],[-73.74486538068545,40.63717646039715],[-73.74489231636284,40.63716968731279],[-73.74493270409731,40.63716379762372],[-73.7449685938785,40.637161314702624],[-73.7450011098689,40.637161386815265],[-73.74503024902826,40.63716486818917],[-73.74504257301128,40.63716745804193],[-73.7450560111387,40.63717175932898],[-73.74508287457542,40.637183776282555],[-73.74508334793245,40.637183979874756],[-73.74510078542984,40.63719150356782],[-73.74511757909558,40.637198374812606],[-73.74512766324746,40.63720010495741],[-73.74513662540484,40.63720183328462],[-73.7451455936865,40.63720270672319],[-73.74514667060373,40.63720259217462],[-73.74515344517592,40.63720187056335],[-73.74516353911322,40.63720103870264],[-73.7451725195586,40.63719849658074],[-73.74519496966802,40.63719171231217],[-73.74522578810813,40.63716363050058],[-73.74528780756869,40.637129703850775],[-73.7453095005182,40.637116571373966],[-73.74531990806938,40.63711175534461],[-73.74533233070197,40.637106647920646],[-73.74534457149674,40.63710182003393],[-73.74538544605647,40.637080882618605],[-73.74540060046333,40.637076001369515],[-73.74541408813889,40.63706748942104],[-73.74553205659527,40.63700539751783],[-73.74563429196273,40.636952665561424],[-73.74567138084421,40.63692968469286],[-73.74573546569786,40.63688370227774],[-73.74576131977517,40.63686667582152],[-73.74586695037759,40.6368054093537],[-73.74592203058515,40.636768801300626],[-73.74597825393188,40.63672621813699],[-73.74600637720452,40.636702363122346],[-73.7460322562672,40.63667850381423],[-73.74605477568903,40.63665378335182],[-73.74607359389105,40.636629488444704],[-73.74607393134657,40.63662905495421],[-73.7461014404632,40.636604124362705],[-73.7461221412761,40.63657948933198],[-73.74614353062222,40.63655520009009],[-73.74616559879836,40.636531263651484],[-73.74618833562963,40.63650769540596],[-73.74621173338764,40.63648450354504],[-73.7462365281768,40.63646265533114],[-73.7462638571203,40.63644221911167],[-73.74629219000667,40.636437267982636],[-73.74636290096286,40.63645664684186],[-73.74643086896393,40.63648106606855],[-73.74649547656968,40.63651030383285],[-73.74655613686444,40.63654409453187],[-73.74661229878846,40.63658213120237],[-73.74668073502421,40.63664751884673],[-73.74674269086128,40.63671655457192],[-73.74676319100284,40.63673491977858],[-73.74677936192228,40.63675564207833],[-73.74679074638061,40.636778135545555],[-73.74679702247562,40.636801764174045],[-73.74679801274411,40.636825859860075],[-73.74679368918032,40.636849741293034],[-73.74678417402852,40.63687273321968],[-73.74676973632697,40.636894185537024],[-73.7466521856608,40.63703299024168],[-73.74658986937197,40.637113263923396],[-73.74648181054775,40.63720049205404],[-73.74645973515285,40.63722797864705],[-73.74645394301919,40.6372598208814],[-73.74635020373714,40.63732924134781],[-73.74620675133018,40.637404511645165],[-73.74619472121913,40.63739962624346],[-73.7461388861924,40.63743378549262],[-73.74614917206588,40.63744973737841],[-73.74603620687036,40.637521836424064],[-73.74598653863283,40.6375368445499],[-73.74596746181412,40.63752114496137],[-73.74571961119184,40.637652335898416],[-73.74553630736408,40.63776963121729],[-73.74549226409496,40.637795989785346],[-73.74545481335466,40.63779861767835],[-73.74527138642927,40.63791590124552],[-73.74527129986737,40.637938577469335],[-73.7452379014123,40.63796171950587],[-73.74524280313449,40.63797738781086],[-73.74524489519087,40.63798603142327],[-73.74519377749353,40.63800913485923],[-73.74516813350594,40.6380430926546],[-73.74515886775076,40.63807741225223],[-73.7451621997371,40.63811218797323],[-73.74519182006657,40.638139770272474],[-73.74521617224808,40.63817019702108],[-73.74523479228016,40.63820288848338],[-73.74524732537716,40.63823722177219],[-73.74525353272965,40.63827254271665],[-73.74525371526057,40.638274904779884],[-73.7452547324771,40.638284457161404],[-73.74525761648863,40.63829378570421],[-73.74526230222195,40.6383026799218],[-73.74526868395016,40.63831093912749],[-73.7452766176783,40.63831837696282],[-73.74528592439229,40.63832482560245],[-73.74529639409818,40.6383301395409],[-73.74537980558603,40.638292461501],[-73.74567316004254,40.638124657428115],[-73.74551058251754,40.63794388103354],[-73.74566504490176,40.63783632594371],[-73.74571895695178,40.63782402657146],[-73.74602015126116,40.637643821516804],[-73.74614300250177,40.63758092290212],[-73.74615726236321,40.63758185216719],[-73.74617153825724,40.63758107883982],[-73.7461854820224,40.63757862177993],[-73.74619875359728,40.63757454091048],[-73.74621102931408,40.63756893575597],[-73.74622200979222,40.63756194301517],[-73.74628878934658,40.637526400898594],[-73.74635102409638,40.63748635705728],[-73.7463578508616,40.637479255978704],[-73.74638148396718,40.6374594486468],[-73.7464089339532,40.63744273998011],[-73.74643950901817,40.63742955107311],[-73.7464470959582,40.637423250769125],[-73.74645339578633,40.63741617500311],[-73.746458322692,40.637408380727926],[-73.74646168622701,40.637400118019734],[-73.74648289887548,40.6373699460152],[-73.74650999200165,40.637342642143814],[-73.74654231124003,40.637318865854304],[-73.74657199566333,40.637271326941104],[-73.746608864082,40.63722680185237],[-73.74665239719262,40.637185917721574],[-73.74667907572719,40.63716295145352],[-73.74673378669236,40.63710887496884],[-73.74678162543175,40.63705114067202],[-73.74683530686217,40.636993210729905],[-73.74689392766133,40.636938129307815],[-73.74690287397128,40.63692627973464],[-73.74691427137712,40.63691572159372],[-73.74692780549067,40.63690674612186],[-73.74694310298506,40.636899600899206],[-73.7469597418926,40.636894483020086],[-73.74697726324435,40.63689153365642],[-73.74699518373022,40.6368908341636],[-73.74701001385762,40.6368989811642],[-73.74702300459082,40.636908782767776],[-73.74703384113805,40.63692000146228],[-73.7470422609073,40.63693236539663],[-73.74704805986946,40.63694557496821],[-73.74705109750256,40.6369593100827],[-73.74705130019689,40.63697323791069],[-73.74705091320926,40.63701356757971],[-73.74704201936069,40.63705332515107],[-73.74702485005837,40.63709147611433],[-73.74699985204262,40.63712702776195],[-73.74701102456126,40.637128706359306],[-73.74703789175646,40.63713274210814],[-73.74706834853853,40.63713731882445],[-73.74706683315914,40.6371431662806],[-73.74712053589116,40.637151241026835],[-73.74713631440461,40.63705806080861],[-73.74715781614765,40.63706052352593],[-73.74714924495716,40.63712583134651],[-73.74715435857706,40.63712636360669],[-73.74713019853404,40.63721686084342],[-73.7471040262248,40.637211259241454],[-73.74712154262471,40.6371622757081],[-73.74706655408175,40.637154249733015],[-73.74706485737218,40.63716099927002],[-73.74702836260522,40.637155672643644],[-73.74700628446176,40.63715245056441],[-73.74699391257126,40.63715064468594],[-73.74699980656585,40.63735439191116],[-73.74694320572226,40.63752920217572]]]]}}]}