{"type":"FeatureCollection","features":[{"type":"Feature","properties":{"district":"408"},"geometry":{"type":"MultiPolygon","coordinates":[[[[-73.75670329167467,40.72622943266059],[-73.75661221914433,40.72620792652658],[-73.75618565966015,40.725895743252224],[-73.75590847134126,40.72570666126521],[-73.75566250684324,40.72557746652921],[-73.75555486694917,40.725520926932106],[-73.75516813979033,40.72535904012815],[-73.75500165047572,40.72528657267664],[-73.75487843416317,40.72522104094104],[-73.75468813821026,40.72511116056892],[-73.75445020134113,40.724956460047544],[-73.75409142333172,40.72469190628807],[-73.754969194628,40.72415964730919],[-73.75577121005348,40.72364021589367],[-73.75654652443023,40.72308760946724],[-73.75728555042481,40.722570322363204],[-73.7579743023855,40.72209073610174],[-73.75867569082257,40.72159981601689],[-73.75938510501327,40.72109870667239],[-73.75944142940995,40.72106344375331],[-73.75950094150228,40.721027372276986],[-73.76030623121804,40.72064664382269],[-73.76113827189994,40.72032917718589],[-73.7619699488974,40.72000361003488],[-73.76240333764017,40.71980858141102],[-73.76276615413128,40.71963876086785],[-73.76360774138153,40.71928214205503],[-73.76446951723548,40.7188903928793],[-73.76539794528497,40.718356032343245],[-73.76664095177614,40.717646613663334],[-73.76733228086881,40.717289796810775],[-73.76817990663018,40.716995220339015],[-73.76870175300171,40.71680689457041],[-73.76906210677178,40.716683767953576],[-73.76913914032887,40.71665679858554],[-73.7692253578,40.71662658799415],[-73.77007984747921,40.71632720242475],[-73.77110410783564,40.71597506275379],[-73.77192122006916,40.71568504495579],[-73.77275859222598,40.71539722095018],[-73.7735713516841,40.71512009536888],[-73.7744423816106,40.71490504363171],[-73.77529927897515,40.71469631405285],[-73.77571458374821,40.71459845492183],[-73.77618628360032,40.71448557420637],[-73.77712346906094,40.71426199408407],[-73.77730633862923,40.71420931681888],[-73.77800119699712,40.714051124132936],[-73.77886957497935,40.713849297629686],[-73.77957164742314,40.713674159736414],[-73.77972553639603,40.71363577002194],[-73.77998005181789,40.713574571277135],[-73.78042034087255,40.713468710154984],[-73.7805889280165,40.71342817566273],[-73.78178273970796,40.71313999319824],[-73.78227126504412,40.71302513007173],[-73.78236650031008,40.71300274319708],[-73.78247043241811,40.71297658102813],[-73.78262547451308,40.71293754849109],[-73.78356075669718,40.71271078835448],[-73.7844614449882,40.71249390498069],[-73.78535272198953,40.71228361703269],[-73.78575198481894,40.71216395260106],[-73.78616005924935,40.71206007134277],[-73.78657528627528,40.71197249327694],[-73.78699598642157,40.71190160924316],[-73.78742040690555,40.711847678460344],[-73.78784678413939,40.71181083316656],[-73.78843507108887,40.711998937804644],[-73.788446777674,40.71211187316659],[-73.78853072518541,40.71229906260586],[-73.78858168019974,40.71233184750617],[-73.78885026412176,40.71224961472445],[-73.78889325892806,40.712230816433504],[-73.7889320255149,40.712207288927964],[-73.78896567303008,40.71217957287051],[-73.78899342877136,40.71214830490448],[-73.78901465436168,40.71211420377694],[-73.78902886204831,40.71207805312967],[-73.78916019558514,40.71206006960299],[-73.7892891384763,40.712033123689764],[-73.78941412058747,40.71199753200062],[-73.79021544241479,40.711717045179554],[-73.79101410711641,40.71143258559912],[-73.7920285465067,40.7110693716988],[-73.79303800052341,40.71071107542559],[-73.79390405832146,40.71035998555669],[-73.79473052352915,40.71001246196618],[-73.79561668961846,40.709753079175215],[-73.79639418037786,40.70953157941239],[-73.79731400763595,40.70927019875677],[-73.79776810134145,40.709143188342004],[-73.79818392407525,40.70902439328083],[-73.79898152079225,40.708800992607394],[-73.79930425285333,40.708698231647325],[-73.80022185193236,40.70844580201638],[-73.80107699789636,40.70820173087513],[-73.80185728115559,40.707979875227],[-73.80278721401612,40.70771580305775],[-73.80449987465813,40.707227791563916],[-73.8065887278311,40.70663391001161],[-73.80849332990161,40.7060867460038],[-73.8090007105034,40.70594887440254],[-73.80968985330009,40.70574625548254],[-73.8105887763747,40.705496071828],[-73.81190436190145,40.70512394068013],[-73.81278059530027,40.704873963006264],[-73.81443931865432,40.70440215056366],[-73.81524272749374,40.704202439563694],[-73.81640046662227,40.704083353105254],[-73.8170276805223,40.704033499371604],[-73.81709738756452,40.70402980158789],[-73.81735529075503,40.70455013978489],[-73.81740010534986,40.70463605315338],[-73.81809905196828,40.7059737152302],[-73.81821670992073,40.70618123393685],[-73.81828566411745,40.706302850483354],[-73.81861275278246,40.70685339956127],[-73.81892102527362,40.70734990604437],[-73.81899305614097,40.70747190358618],[-73.8190501695226,40.70757022091521],[-73.8191072958379,40.70766853940728],[-73.8191613628179,40.70776033205814],[-73.81921543062933,40.70785211647473],[-73.819544262272,40.70843837380857],[-73.81970626876847,40.70869185355485],[-73.82026255989219,40.709538073272405],[-73.8203231300877,40.70961096082472],[-73.82039055040653,40.70968027696205],[-73.82048703139793,40.7097944308469],[-73.82064159701369,40.709971226871204],[-73.82077818973664,40.710156900289604],[-73.82103354404839,40.710427036396105],[-73.8217471552359,40.711040303814585],[-73.8226403115576,40.71175226865632],[-73.82285794486641,40.71193952843914],[-73.82306864237181,40.71213132661022],[-73.82327224065163,40.71232751446062],[-73.82346858226795,40.71252793978277],[-73.82365751444196,40.71273244727888],[-73.82383889061457,40.712940878381794],[-73.82394405983383,40.713233299344644],[-73.82426449164645,40.71381642504511],[-73.82428940517947,40.71387006610608],[-73.82456081264586,40.71425503067776],[-73.82469343908896,40.714443144362214],[-73.82483222413232,40.71463999291609],[-73.8254606066623,40.71554964559349],[-73.82552307493596,40.715653882248276],[-73.82555085096438,40.715708244877874],[-73.8255786285764,40.715762608675384],[-73.82559000587415,40.71577427139997],[-73.82562935223686,40.715863087931766],[-73.82568583683884,40.7159906107604],[-73.82573934567614,40.716115059285784],[-73.82578501465089,40.716224043545004],[-73.82582264149146,40.71634354436771],[-73.825896787801,40.71657903393007],[-73.82591946820173,40.71665106505513],[-73.82596492704243,40.7167923778138],[-73.82598535216047,40.71685586883061],[-73.82604892494174,40.71705347980798],[-73.82605632778775,40.71707649214224],[-73.82607486015918,40.71713409823345],[-73.82611005091512,40.71728481261807],[-73.82613323570718,40.718439761415],[-73.82630173847589,40.71866874696469],[-73.8262626195745,40.7188111263237],[-73.82622999040204,40.71895444915757],[-73.82620388997397,40.71909854427509],[-73.82618434950855,40.71924323956147],[-73.82617139238856,40.71938836218396],[-73.82616503413436,40.719533738798255],[-73.82616528268096,40.71967919542526],[-73.8261721374575,40.719824558641974],[-73.82618559031924,40.71996965481342],[-73.82620562524,40.72011431062279],[-73.82623221833042,40.72025835327795],[-73.82626533786727,40.720401610718206],[-73.82630562524324,40.72054512633324],[-73.82635366915243,40.72068725348343],[-73.82640938765113,40.72082774961012],[-73.8264726852849,40.72096637455673],[-73.82654345446329,40.72110289213105],[-73.82662157445283,40.72123706934349],[-73.82769059064475,40.72289294931728],[-73.82780750442232,40.72304573299999],[-73.82845583695364,40.72378648915884],[-73.82859005069406,40.72391506601697],[-73.82888845960532,40.72418645469433],[-73.82905103217786,40.7243257086],[-73.82920248385236,40.72444892499997],[-73.82941624768985,40.724607686604436],[-73.82965066805804,40.72477546585927],[-73.82995590250998,40.72498235069333],[-73.83034325870788,40.72523237215262],[-73.83063767399425,40.725418247750994],[-73.83088411166625,40.72558252993966],[-73.83104667472819,40.725690911113745],[-73.8314215862137,40.725964269604326],[-73.83171764908474,40.726221681522624],[-73.83185185248409,40.72635451438018],[-73.83202448610325,40.72654062244312],[-73.83213188918218,40.7266713380295],[-73.83224522103544,40.726825720977146],[-73.83232863295765,40.726946447301735],[-73.83244264428832,40.72712593176737],[-73.83253711695573,40.727287698362666],[-73.8326053085647,40.727417444104624],[-73.8328338102035,40.72784153259775],[-73.83286183222063,40.7278934438012],[-73.83288697475285,40.727942641740434],[-73.83291721272464,40.728001808888756],[-73.83372161521699,40.72957573497794],[-73.83396149710036,40.730033594184796],[-73.83466056746484,40.73138138466093],[-73.83476004998829,40.731573525109496],[-73.83501363328368,40.73204925848986],[-73.83518427449343,40.73238958899513],[-73.8355686478378,40.733115716187875],[-73.83583203446295,40.733619440629255],[-73.83592821910783,40.73381686110297],[-73.83600708985087,40.73397874182865],[-73.83612778610211,40.734241312003384],[-73.83635624984589,40.735008592150386],[-73.83636691671799,40.73512412537767],[-73.83654404683267,40.73704365874752],[-73.8367283334928,40.73847635021888],[-73.83674457519047,40.73860257057931],[-73.83715886754072,40.74008615191783],[-73.83722086498818,40.740296598223814],[-73.83738179052004,40.74084286734783],[-73.83744246521623,40.741067116672255],[-73.83753640699568,40.74138949619509],[-73.83755858590237,40.74146561973464],[-73.83758143729258,40.74156225918886],[-73.83767958355594,40.7419772525249],[-73.83772171963852,40.7423663677533],[-73.83769190533475,40.74323688305185],[-73.83768342741426,40.74330033971074],[-73.8376057886903,40.74331205412224],[-73.83731748888778,40.74334533416585],[-73.83723190021472,40.743355451791984],[-73.83714550424735,40.743364488336894],[-73.8367585175636,40.74340277934015],[-73.83612856589333,40.74343580720022],[-73.83591564875779,40.7434308938953],[-73.83590196952856,40.74337980611355],[-73.83586131872133,40.74322798453874],[-73.83517950437047,40.743072050768646],[-73.83386850953296,40.74277220641758],[-73.83296893052676,40.742593616599194],[-73.8320706479482,40.742450937826725],[-73.831639755564,40.74239913724233],[-73.8315594226786,40.7427847418807],[-73.83109709242216,40.742739757355245],[-73.83115549354874,40.74234091794378],[-73.83119872774698,40.741639041324],[-73.83124005591633,40.7409566917464],[-73.83128819430252,40.74026488714593],[-73.83130117254039,40.739561062186446],[-73.83034386597673,40.739477096931736],[-73.83039617561134,40.73916120628063],[-73.83090596522997,40.73913276389279],[-73.83099423089345,40.73856549499887],[-73.8311345171537,40.73856190697662],[-73.83053551231437,40.73752019476341],[-73.82946751997008,40.73702448275362],[-73.82809152577165,40.73708317577562],[-73.82794969086581,40.737819598737616],[-73.82796455084478,40.738503203950316],[-73.82790030270455,40.738502451922294],[-73.8276056949615,40.73850435197126],[-73.82752380283175,40.73851497233904],[-73.8274982660807,40.73851560386277],[-73.82745508787472,40.73851667115704],[-73.82740942220515,40.73852206745035],[-73.82731354044093,40.73853339963164],[-73.8272277268523,40.7385435406459],[-73.82713885943929,40.7385540432258],[-73.82705296119796,40.7385641933643],[-73.82701222480512,40.73856900854883],[-73.82695824838827,40.73858977330849],[-73.82687191771063,40.73862298472298],[-73.8266951412572,40.73869099132858],[-73.82657262730547,40.73873812213482],[-73.82646795954929,40.738778388157186],[-73.82639164786289,40.738807744776125],[-73.82633788204859,40.73882842831196],[-73.82630918153819,40.73884205939639],[-73.8262380227564,40.738875854766086],[-73.82614038177393,40.73892222990176],[-73.8260258503621,40.738976624909945],[-73.82597580462097,40.739000395214795],[-73.82591673225684,40.73904569712681],[-73.8258218972737,40.739118424832036],[-73.82581364114836,40.73912906034159],[-73.82568973736893,40.739288643077515],[-73.82564151284564,40.73935075464341],[-73.82560641650453,40.73939595598972],[-73.82556478812367,40.73944957218114],[-73.82556079322896,40.73945435957137],[-73.82540413323078,40.73948822575054],[-73.82497439992072,40.73944042625386],[-73.82494800874666,40.73956710550651],[-73.82481178421759,40.739630959899756],[-73.82485496149478,40.739829363929275],[-73.82498384473332,40.7403431380093],[-73.82512580651847,40.741043804562494],[-73.8252057209488,40.74144153680157],[-73.82527015101888,40.74175318469421],[-73.82536324751653,40.74219066605367],[-73.82537387667374,40.7422322404996],[-73.82528579782495,40.74220949618442],[-73.82445953257132,40.74194954046393],[-73.82357211430477,40.741663812847484],[-73.82301519477748,40.74148462222386],[-73.82170061887125,40.741035752554346],[-73.82121997489989,40.74087980520501],[-73.82100862805535,40.74080966018964],[-73.81948329912808,40.7402831022069],[-73.81890665524688,40.74009022639979],[-73.81863049147984,40.73999890355727],[-73.81774369335962,40.73970426131026],[-73.8171592827276,40.73951127497159],[-73.81664467778774,40.739352300036394],[-73.81593594227384,40.739127860871484],[-73.81522467102434,40.73897804826682],[-73.8151033194465,40.73895248526267],[-73.81504998686987,40.73894313388886],[-73.81499755690866,40.738932586124015],[-73.81489497030805,40.73891574365988],[-73.81407382042495,40.73878090207907],[-73.81322401726327,40.73870225494086],[-73.81227737824028,40.73866445142462],[-73.81139729095212,40.73862930726855],[-73.81040435576344,40.738589648300376],[-73.80941142178231,40.7385499718921],[-73.80893016705124,40.73853238038838],[-73.80844891323504,40.73851478687466],[-73.80805258455734,40.73850029446611],[-73.8075208191378,40.73848084797836],[-73.80657883867725,40.738447210987424],[-73.80564550910054,40.73841865259579],[-73.80471291520357,40.73839394870869],[-73.80466543261262,40.73839298548257],[-73.80461553498778,40.738391577879185],[-73.80363600519507,40.738360851998316],[-73.8026863206076,40.73833105162163],[-73.80180834303901,40.738302655789965],[-73.80132155403565,40.738284202245715],[-73.80089151195331,40.73826901554792],[-73.80000292415357,40.73823762439022],[-73.79911195723898,40.738206140471604],[-73.7982205892731,40.738174630695276],[-73.79729260620172,40.73818542883816],[-73.79684795775017,40.738235541315966],[-73.79640218706365,40.73828235819159],[-73.79611584773586,40.73833614069817],[-73.79588681695618,40.738376374998204],[-73.79533772922271,40.73849367277296],[-73.79440801750091,40.73874823083099],[-73.7936934138514,40.73895006226762],[-73.79297881668946,40.73915188124246],[-73.79291603145094,40.739167761478875],[-73.79285797037213,40.73917973289847],[-73.79202817595684,40.73940358109018],[-73.79111526433302,40.7396498394493],[-73.79020750137902,40.739894703953816],[-73.7893472725742,40.74012633775303],[-73.78865110248447,40.74032571468468],[-73.78848243499026,40.740368278160844],[-73.78759444360136,40.74061795836902],[-73.78673516821068,40.740841776052825],[-73.78669085316528,40.74085298646336],[-73.78664844682199,40.74086674864317],[-73.78577051200034,40.74111067938155],[-73.78484244557366,40.74136852993818],[-73.78400944120366,40.74159935688014],[-73.78349697154377,40.74174135985239],[-73.78311011851082,40.741848305644055],[-73.78216009718007,40.74211554946808],[-73.78176526826893,40.74221640532472],[-73.78137698877939,40.74231999390187],[-73.78121857584426,40.74236225059083],[-73.7810056636334,40.74241954133608],[-73.78068584916434,40.742505606788924],[-73.7803660354378,40.74259166314679],[-73.7796564130617,40.74272931055309],[-73.7785992477799,40.74290812265177],[-73.77805835666928,40.74298648913901],[-73.77579713376994,40.743317666176125],[-73.77573836927087,40.74332564716422],[-73.77569182427017,40.74333358876388],[-73.77551238297205,40.74335684250239],[-73.77486382138356,40.74345333664363],[-73.77444330451875,40.74351590014581],[-73.77403143121997,40.74356760122138],[-73.77362185174378,40.743630462619535],[-73.77321534791389,40.74370439610979],[-73.7728126768902,40.74378924942878],[-73.77241461002667,40.74388484522218],[-73.77162097960255,40.74415973136373],[-73.77156671903397,40.74417951555609],[-73.77153402313239,40.74419162537924],[-73.7714521884745,40.74422152252159],[-73.77137678488285,40.744251036003384],[-73.77038982320835,40.74473791368964],[-73.76937164122776,40.74522030908654],[-73.76857701220432,40.7455222048846],[-73.76772991425388,40.74577622617418],[-73.76770614589668,40.745722742720574],[-73.7676150802808,40.745526355319456],[-73.76697862905385,40.74422296823619],[-73.76687853596795,40.74409357920647],[-73.76676314860937,40.74397036280179],[-73.76663352576406,40.74385485265229],[-73.76649109698914,40.74374843018686],[-73.76633756085742,40.743652259095455],[-73.76617484756125,40.743567271686736],[-73.76556849810585,40.743258155027405],[-73.76515128883284,40.742437345759534],[-73.76431495559865,40.74067262683867],[-73.76361225485483,40.7391684115864],[-73.76316816538461,40.738261707932665],[-73.76268297179087,40.73725583672225],[-73.7625969477083,40.73708732642287],[-73.76253086189529,40.73691168014447],[-73.7624860927727,40.73673098195242],[-73.76246348376306,40.736547501089696],[-73.76246334552357,40.73636362530305],[-73.76248538629542,40.73618169518169],[-73.76252875788475,40.73600396069538],[-73.76273303467904,40.7352621626724],[-73.7624953394331,40.73473455947458],[-73.76340778358346,40.73446774237294],[-73.76471228638086,40.73408569972392],[-73.76374010476442,40.73291287255805],[-73.76369979170158,40.732864116848006],[-73.76434015017213,40.73275295525097],[-73.76491667613632,40.73265467280494],[-73.76501730571007,40.732637156839935],[-73.76515337418269,40.732613472682026],[-73.76555086053989,40.73254428344165],[-73.76564374465633,40.7325331267392],[-73.76558856174282,40.73246752103416],[-73.76528830379641,40.73211466455211],[-73.7648685309736,40.73166863966846],[-73.76435071526204,40.73115119213611],[-73.76381866735392,40.73068357380743],[-73.76327537744459,40.73024054111487],[-73.76234209839153,40.72953829070148],[-73.76160814438359,40.729047534943945],[-73.76114083680409,40.728794414264534],[-73.76024210995254,40.72830761156711],[-73.75993818300145,40.728158412321235],[-73.75831675582882,40.72736240761877],[-73.7578714145791,40.72710685148661],[-73.75684854803437,40.72635581267133],[-73.75678272715523,40.726305784862795],[-73.7567473961243,40.72627289598393],[-73.75670329167467,40.72622943266059]]]]}}]}