{"type":"FeatureCollection","features":[{"type":"Feature","properties":{"district":"405"},"geometry":{"type":"MultiPolygon","coordinates":[[[[-73.88770199270428,40.73429132275877],[-73.88710945094996,40.732744293338655],[-73.8867947302227,40.73192257854469],[-73.88628884601466,40.73060170311712],[-73.88569995617874,40.72872697147875],[-73.88565031539032,40.72849638226775],[-73.88561197887705,40.72834217769572],[-73.8855933098002,40.728274439975195],[-73.8850919561427,40.728360292418046],[-73.88461414612651,40.728403006690215],[-73.88416095447388,40.728443511119956],[-73.88409051696817,40.728449411728675],[-73.88353321141837,40.728497448057766],[-73.88297543383432,40.728540950784186],[-73.88208519865985,40.72861037535041],[-73.88172301765108,40.72863525402988],[-73.88130917687704,40.72868082652139],[-73.88089793649154,40.72874131193979],[-73.88088484652327,40.728743730217936],[-73.88049068212484,40.728816542046424],[-73.88008877489199,40.72890627421437],[-73.87969354088598,40.72901015891622],[-73.87865874826355,40.72939967698422],[-73.8783662923012,40.72951588663204],[-73.87789402726348,40.72971593038777],[-73.87699724188401,40.73004835314024],[-73.87628302360571,40.73031309391912],[-73.87538647267911,40.73059067287032],[-73.8750915415561,40.7306713632198],[-73.87495349518932,40.73061869577326],[-73.8747547553187,40.73054189175393],[-73.87408913174015,40.73028279187949],[-73.8731694263057,40.72995061869611],[-73.87235229539972,40.729655484845495],[-73.87154749998865,40.72936238282856],[-73.87146074249573,40.7293263741386],[-73.87143142313145,40.729241023372],[-73.87132455417441,40.72892989539711],[-73.87113283389877,40.728371719797266],[-73.87101127403585,40.72795761140166],[-73.87100156107077,40.727924524028644],[-73.8709308131908,40.72770320666988],[-73.87084539424183,40.72748459344074],[-73.87074561011444,40.727269538871305],[-73.87063185133093,40.72705885402548],[-73.87021135905727,40.72618732638213],[-73.86970765351231,40.72514643414158],[-73.86931025918213,40.724465990825465],[-73.86929270423025,40.72443592947432],[-73.86927215672416,40.72441183571603],[-73.86876817321776,40.72382090666133],[-73.868453052108,40.72348549408582],[-73.86821068530563,40.72325474863846],[-73.8676592737985,40.72266125662906],[-73.86730908346742,40.722289024023006],[-73.86711404562114,40.722076403898164],[-73.86705641381577,40.722013651463286],[-73.86657241077614,40.72148663694876],[-73.86604176152642,40.72090092260158],[-73.86547610936374,40.72028093775383],[-73.865238706778,40.71997671002763],[-73.86468729523524,40.719427075602376],[-73.86412297578198,40.71884480791707],[-73.86357111137092,40.71827667989171],[-73.86301850142435,40.71770788185701],[-73.862721951645,40.717428018945824],[-73.8624254052537,40.71714814705257],[-73.86213638216947,40.716876773998855],[-73.86183368326833,40.71659254334638],[-73.86152886655591,40.71631493670872],[-73.86122406383268,40.716037328764955],[-73.86062663290484,40.715487169565],[-73.86003789875775,40.714932235724135],[-73.85992855499961,40.71475627044785],[-73.85983356779448,40.71457492297631],[-73.85975358765751,40.71438923381072],[-73.85968907299396,40.714200293472466],[-73.85964031106872,40.71400921924124],[-73.85963616980666,40.71397813137194],[-73.85963511364042,40.71391991037822],[-73.85964254795842,40.71349314467935],[-73.85965416837627,40.713379961412514],[-73.85966066761631,40.71329464674517],[-73.85971313648841,40.71260553908367],[-73.85975932862962,40.711845059282254],[-73.85977666082577,40.71163381134059],[-73.85978389267622,40.71143032267563],[-73.85977617985922,40.711226356944614],[-73.85975346058552,40.71102288555944],[-73.85971586311456,40.71082085402347],[-73.85966362136904,40.710621210811354],[-73.85963516607262,40.710421604114885],[-73.85962505360848,40.71034616449101],[-73.85955858511612,40.70985056800515],[-73.85953948851738,40.709685841802575],[-73.85948456041913,40.70926256960275],[-73.85938681646334,40.708492313675244],[-73.85928511596993,40.707675918747405],[-73.85926363257646,40.70750345530025],[-73.85923858244145,40.70727274511009],[-73.85920276792697,40.70709204338418],[-73.85919485646384,40.707053550507176],[-73.85914149221188,40.70687406414214],[-73.85908198369157,40.70671079072312],[-73.8590106373112,40.70655001584793],[-73.8589277465748,40.70639247831476],[-73.85883371332724,40.7062388976189],[-73.85875876834946,40.706141432108865],[-73.85868006470538,40.70604569776172],[-73.85859767140244,40.70595177849803],[-73.85851166109214,40.705859756807385],[-73.85842210878099,40.70576971318553],[-73.85832909298354,40.70568172656366],[-73.85827681823903,40.70563616597642],[-73.85823279845748,40.70559168988512],[-73.85817736692826,40.705549604236815],[-73.85812511548458,40.705513569548074],[-73.85743062386592,40.70503461403372],[-73.8567325773891,40.70456147428644],[-73.8559200537607,40.70400324025779],[-73.85581295400105,40.703926400887156],[-73.85571454298014,40.70384282664999],[-73.85562587251538,40.70375342102256],[-73.85559770948579,40.70372622565153],[-73.85556678318521,40.70368052273584],[-73.85543954935126,40.70348741015396],[-73.85539423502298,40.70334863753442],[-73.85542839173296,40.70331819866338],[-73.855350187959,40.70301315061702],[-73.85531830284238,40.70267309507068],[-73.85529275904749,40.70259550128526],[-73.85529571509369,40.701991009108106],[-73.85538910514671,40.70197691630102],[-73.85630934017439,40.701823554730076],[-73.85722762717916,40.701651719352185],[-73.85727934041259,40.701212513322304],[-73.85739221059826,40.70121397886817],[-73.85827405761565,40.70122365923827],[-73.8589322439911,40.70132034475908],[-73.85823494965683,40.70283289067159],[-73.8581989070074,40.702911073863326],[-73.85831027471828,40.70285625247394],[-73.85854562060136,40.702747750821324],[-73.85888711913259,40.70262105372484],[-73.85922412107092,40.70253294591607],[-73.85977500875607,40.70244509856074],[-73.86013073353716,40.70242218978785],[-73.86039304425707,40.702443714274324],[-73.86065471261124,40.70246937119899],[-73.86091562622413,40.70249914954334],[-73.86117567304389,40.70253303651885],[-73.86143474136709,40.70257101741471],[-73.861692719961,40.7026130760771],[-73.86194949803264,40.702659194443555],[-73.8622049653039,40.702709352708055],[-73.86240747439689,40.702746786045495],[-73.86250595823272,40.702757135130796],[-73.86279295876842,40.702787292455945],[-73.86292104322227,40.702795356548165],[-73.86318135167318,40.702811744034655],[-73.86357092509184,40.702820004850125],[-73.86395992981411,40.702812072320725],[-73.86448983707216,40.702798334609874],[-73.8646174232959,40.70278118117877],[-73.86523787633986,40.70269776128267],[-73.86542856799173,40.70265357455423],[-73.86593559559086,40.702536087402194],[-73.86661677323276,40.702318945764276],[-73.86685544545527,40.702213736301616],[-73.86689054941344,40.702195466494786],[-73.86708473836924,40.70209440401082],[-73.86730253134523,40.70196174812116],[-73.86750686055011,40.70181677645937],[-73.86769599375062,40.70166072714314],[-73.8678684603743,40.70149500679386],[-73.8680230761879,40.7013211773261],[-73.86811291453716,40.70120431250146],[-73.8681850269878,40.70109305572474],[-73.86825461712084,40.7009779599718],[-73.86833175978241,40.700824132603785],[-73.86865024167528,40.69975963958517],[-73.8688673074056,40.699023015297534],[-73.8689484527443,40.69887198405468],[-73.86904305421797,40.69872514603076],[-73.86915051742807,40.698583517911366],[-73.86927004889216,40.69844806371776],[-73.86947865108122,40.69825790517258],[-73.8699033016364,40.697976624361324],[-73.87011743160717,40.697868011880544],[-73.87021129001747,40.69782775704265],[-73.87034161915908,40.69777185628251],[-73.87057393166037,40.697688900665234],[-73.87055458307884,40.697659873868695],[-73.87051403619705,40.69759907056631],[-73.8689176269075,40.69514656151423],[-73.87004292899788,40.694941484652794],[-73.87107552550496,40.69474674837072],[-73.87402053240673,40.69419129521762],[-73.87939315108166,40.69120963169446],[-73.87950641154781,40.69114676934525],[-73.8795613942397,40.69110478082617],[-73.88117469031516,40.68987258783472],[-73.88226665442768,40.689038551150354],[-73.88377698583253,40.687863411184445],[-73.88452250957424,40.686684749095754],[-73.88728392925601,40.685622475450096],[-73.88808341842545,40.68529363217126],[-73.888092663383,40.68528762792349],[-73.88829811172322,40.68515419321358],[-73.88908895286676,40.68464055300135],[-73.8896278757877,40.6842364542531],[-73.8901541873892,40.68500398980529],[-73.89063086789984,40.684700178550806],[-73.89166010659268,40.68404417790952],[-73.89258303102321,40.68349191088735],[-73.8927414244319,40.683670185663416],[-73.89344031315596,40.68445679053497],[-73.89398568665801,40.685070594710545],[-73.89404098783193,40.68513283510319],[-73.89414255485788,40.68524714627194],[-73.8941746326718,40.68528324817077],[-73.89491067388055,40.68450848683582],[-73.89504926837293,40.68436259853601],[-73.89530504882751,40.684080520067276],[-73.89554859438628,40.68379189231574],[-73.895614765645,40.68370742156887],[-73.89577945503007,40.68349718335825],[-73.89599727316035,40.68319687928008],[-73.89620169623382,40.6828914827548],[-73.8962863468764,40.682758382587416],[-73.89635898903512,40.68262086673396],[-73.89636799095423,40.682599757134305],[-73.89641909073782,40.68247987574135],[-73.89643010411488,40.68244635933586],[-73.89646625062909,40.68233642247549],[-73.89652644236399,40.68240329924178],[-73.89897687354357,40.68529769808378],[-73.90116155060393,40.68787793535575],[-73.9004246511309,40.68818389887701],[-73.90188776254891,40.691077720073444],[-73.9013984066204,40.69158999203796],[-73.90143958673724,40.691612105766],[-73.90155390238843,40.69167985893366],[-73.90176096608872,40.691807310892116],[-73.90207277431011,40.69199923130491],[-73.90278824707006,40.69241833920624],[-73.90354057071892,40.69284878179609],[-73.90386600541092,40.69303571222961],[-73.90428792777001,40.69327806874788],[-73.90504295361535,40.69370400676092],[-73.90579597009209,40.69412715551376],[-73.90491424259831,40.69507357133107],[-73.90480435382058,40.69514816958487],[-73.9042601841169,40.69570037144337],[-73.90466384753685,40.69593224652774],[-73.90500484768364,40.69611874628345],[-73.90540127730378,40.696350305883655],[-73.90576536020424,40.69654855512549],[-73.90611626003222,40.69675055713162],[-73.90652350712224,40.696976143617256],[-73.9068458346055,40.69716354931183],[-73.9072745239221,40.697399189723555],[-73.90756985226552,40.697571750473855],[-73.90802249245661,40.697825409137565],[-73.90877366102967,40.69825522669458],[-73.90953273138557,40.69867510512562],[-73.91106925939418,40.69956349728936],[-73.91180682191074,40.699946882523946],[-73.91067882737353,40.70104596956685],[-73.91142242657371,40.70148658801689],[-73.91216169738037,40.70192316410271],[-73.91290404121959,40.70236189129684],[-73.91180710069435,40.703434952026804],[-73.91254913908388,40.703873419836604],[-73.91329162431975,40.704312638547336],[-73.9140309747051,40.704749113035234],[-73.91477063847638,40.70518943777532],[-73.91551250506066,40.70562644465369],[-73.91589738629794,40.705854817130245],[-73.91625252031217,40.70606554297972],[-73.91660892379083,40.70627549467023],[-73.91664948178584,40.706299388125096],[-73.91699506801969,40.706502964578284],[-73.91736520321216,40.70672246900852],[-73.91773662905575,40.7069427389296],[-73.91808167671795,40.70714733011137],[-73.91810299645118,40.70715996945832],[-73.9184767093315,40.707381562737076],[-73.91884342572222,40.707597998402015],[-73.91922162603291,40.7078151343451],[-73.91956473351377,40.708023978397506],[-73.91995952930856,40.708257288523846],[-73.92070065918877,40.70869463012412],[-73.9214347597289,40.70912876570641],[-73.92189184698694,40.70939609671099],[-73.92074853049758,40.71053364895845],[-73.92112020108517,40.710735407815335],[-73.92122073526369,40.710790558556624],[-73.92154601695684,40.71104328353501],[-73.92181880306816,40.711782067447274],[-73.92223466477621,40.71285595436308],[-73.923139363493,40.713394728593684],[-73.92404011334023,40.71400831262909],[-73.92405909736993,40.71411156014769],[-73.92368352152525,40.714082841408384],[-73.9237491153489,40.71421127605506],[-73.92405223245956,40.71487024514025],[-73.92412241575497,40.71513804844535],[-73.92409931290926,40.71518070819945],[-73.92406244021406,40.71521806484688],[-73.92397375250839,40.71529766471737],[-73.92389709645263,40.71537152830833],[-73.92381513128578,40.71544130034131],[-73.92376389043945,40.71547971721002],[-73.92366895763215,40.71553556793828],[-73.92359834442345,40.71556125759538],[-73.92356011347104,40.71557516241944],[-73.92354470735609,40.71558267230701],[-73.92353323079858,40.71559062506352],[-73.9235275210041,40.71560508337108],[-73.92352747398412,40.71560519089218],[-73.92352547251085,40.71561660836801],[-73.92279196672435,40.71580026374778],[-73.92232970167701,40.7160765451726],[-73.92064258940539,40.71577319253156],[-73.92056920092949,40.71597116381629],[-73.92056821733102,40.71597197396814],[-73.92056808910688,40.71599107295833],[-73.9205690553611,40.716003708340814],[-73.92057300316701,40.716018775926415],[-73.92057861388699,40.716027424690914],[-73.92060425100044,40.716036007190134],[-73.92109482826223,40.71614176633621],[-73.92127646277744,40.716180378827715],[-73.92140714622643,40.71620977997188],[-73.92170005987498,40.716273771146106],[-73.92171847814694,40.71627748635208],[-73.92216958810194,40.716368481917],[-73.9222376112434,40.71638244049427],[-73.92228207681391,40.716483272992264],[-73.92232773956896,40.71659264412252],[-73.92234972562495,40.716646491391586],[-73.92235844722471,40.71666784003873],[-73.92235122384682,40.71667093290772],[-73.92241488477613,40.71680254042953],[-73.92248379312592,40.71695219661081],[-73.9225192815479,40.717018156253665],[-73.92259771919753,40.717165713129006],[-73.92267615785575,40.71731326927831],[-73.92279414745396,40.71753457614416],[-73.92305769386333,40.717761573641035],[-73.9232392822604,40.71792648806682],[-73.92342616708144,40.71809736800749],[-73.92346602654162,40.71813033432244],[-73.92346464691403,40.718136258832025],[-73.92344083317289,40.71814787807743],[-73.92344225406634,40.71815701845271],[-73.92344762772274,40.7181670448257],[-73.92345716590788,40.718178767496795],[-73.92346794587394,40.71819052550307],[-73.92347694825872,40.71820464345103],[-73.9234831417299,40.71821211273395],[-73.92349359141218,40.71822312334825],[-73.92350469094382,40.71823539603851],[-73.92351380173464,40.718246964631085],[-73.92352244013048,40.718259397012915],[-73.92353040240155,40.718272172040066],[-73.9235381027946,40.71828655749638],[-73.92354379439116,40.71829756611857],[-73.9235491556811,40.71830822321723],[-73.92355479997047,40.71831959132014],[-73.92355969685066,40.718332021214636],[-73.92356368450363,40.71834338771455],[-73.92356761226743,40.71835475534727],[-73.9235721422235,40.71836823890931],[-73.92357623361899,40.71838207298134],[-73.92357920969756,40.718397339170494],[-73.92358200882764,40.718413307347305],[-73.9235857756141,40.71843104039209],[-73.92358943705864,40.71844809002456],[-73.92359359652148,40.71846440102622],[-73.92360061655481,40.718483234703264],[-73.92360642980806,40.71850204127732],[-73.92361279629088,40.718523423944205],[-73.92361923640789,40.71854223093345],[-73.92362567165347,40.71855645354549],[-73.92363171765366,40.71856853339748],[-73.9236373013324,40.71858094682357],[-73.92364276737837,40.71859302629025],[-73.92365007474687,40.7186091949691],[-73.92365661849297,40.718620204150305],[-73.9236621693762,40.71863050068351],[-73.92366925753826,40.71864294140723],[-73.92367688864363,40.71865502230758],[-73.92368412977144,40.718666751645024],[-73.92368935133442,40.71867545377262],[-73.92369561174804,40.718686822276425],[-73.92370267524062,40.71869870461448],[-73.92371016687783,40.71870972329961],[-73.92371971500313,40.71872306526954],[-73.92372611395872,40.71873690203712],[-73.92373164800705,40.718750575730276],[-73.9237369052813,40.71875963739198],[-73.92374465735354,40.71877012535454],[-73.92375491761787,40.71878149600159],[-73.92376638207153,40.71879536242307],[-73.92378202677514,40.71880761933203],[-73.92379402849951,40.71881723611667],[-73.92380674671506,40.71883146354675],[-73.92382198001246,40.71885133913344],[-73.92383512191189,40.71886842183389],[-73.92384376878015,40.71888261909188],[-73.92385334923793,40.718899312447164],[-73.92386007813948,40.71891424672632],[-73.923867060324,40.718925265063945],[-73.9238745498032,40.718938219174746],[-73.92387958889012,40.7189501902924],[-73.92388855796298,40.71896318106368],[-73.92389434500984,40.71897400092776],[-73.92390285173973,40.71898715339079],[-73.92390904140784,40.71899728783265],[-73.9239164980205,40.71900741490262],[-73.92392427540283,40.71901719088017],[-73.92393252266965,40.71902927217007],[-73.92393867329353,40.71904275678717],[-73.92394312815335,40.719059446245694],[-73.92394603447985,40.719074000388545],[-73.92394786656745,40.71908640126872],[-73.92394943901748,40.71909883883328],[-73.92395050174608,40.719110887901316],[-73.92395341018396,40.719124559848694],[-73.92395484199791,40.719135015644696],[-73.92395519199897,40.71914956860123],[-73.92395903593702,40.71916233099276],[-73.92396381455423,40.7191754814911],[-73.92396786815661,40.7191910985113],[-73.92397016852638,40.71920740893999],[-73.92397140459882,40.71922442948235],[-73.92397268584811,40.719242188345454],[-73.92397287854028,40.71925991901526],[-73.9239733665381,40.71927800185399],[-73.92397434741095,40.719300434351034],[-73.923975051392,40.71931640984415],[-73.92397555119679,40.71932472185282],[-73.9239759929686,40.71934105735551],[-73.92397537276369,40.719356644987045],[-73.92397473793451,40.71937366429359],[-73.92397464452571,40.71939281825003],[-73.92397511878306,40.719412331591386],[-73.9239756048683,40.71943325082605],[-73.9239769537967,40.719453837419465],[-73.92397661433341,40.71947192842273],[-73.92397539769318,40.719490370820694],[-73.9239739334666,40.71950774088309],[-73.92397236754874,40.71952121989909],[-73.92397159621802,40.719533979241724],[-73.92397133400605,40.71954495643459],[-73.92397167174758,40.7195600313959],[-73.92397259069342,40.719574215330525],[-73.92397250096985,40.71959090999438],[-73.92397241310012,40.719605786490256],[-73.9239726121227,40.71961854764622],[-73.92397252474507,40.71963202763837],[-73.92397146819152,40.71964620959819],[-73.92397048345877,40.71965861866852],[-73.92396920047416,40.71967209837363],[-73.92396839140679,40.719686281166894],[-73.92396737063306,40.719699400359715],[-73.92396652595409,40.719714303327414],[-73.92396483831394,40.71973025043594],[-73.92396287796257,40.71974726819606],[-73.92396065776086,40.71976392643933],[-73.92395955005637,40.719779900735],[-73.92395877931119,40.719791949093455],[-73.92395747204438,40.71980702246525],[-73.92395506319704,40.71982208690061],[-73.92395208918448,40.719835367974106],[-73.92394815558514,40.71983978607477],[-73.92393107839399,40.719848473960646],[-73.9239151848211,40.71985570413726],[-73.9239047342698,40.7198611102737],[-73.92389553720264,40.71986770443723],[-73.923887824517,40.71987532107803],[-73.92388178984424,40.71988376897652],[-73.92387758468863,40.71989283604383],[-73.92387531462353,40.719902294646545],[-73.923875036641,40.719911907321304],[-73.92388228312807,40.719925286732966],[-73.92388648223763,40.71993940053649],[-73.92388751535545,40.71995385005907],[-73.92387879178463,40.71999048576771],[-73.9238754994155,40.72000198296995],[-73.92387060543055,40.72001827976284],[-73.92386637776903,40.720030685514594],[-73.92386102477133,40.720043442328404],[-73.92385634626137,40.720056919283415],[-73.92385294982428,40.72006718358588],[-73.92384777212693,40.720082605699815],[-73.92384479990298,40.72009429258565],[-73.92384064121741,40.720107410371135],[-73.92383860518689,40.72011874590211],[-73.92383686216763,40.72013186528539],[-73.92383575405651,40.72014816407836],[-73.92383927592601,40.720163790130776],[-73.9238439814355,40.720178336585256],[-73.92384926694834,40.720193243605905],[-73.9238545188003,40.72020639391733],[-73.92386045794112,40.72021812288259],[-73.92386683865386,40.720228419952385],[-73.92387461400544,40.720238357258616],[-73.92388254458832,40.72024868282669],[-73.92389186718331,40.72026307050047],[-73.92389831563021,40.72027479862767],[-73.92390557937951,40.72028792396472],[-73.92391134320896,40.72029893261337],[-73.923919623192,40.720312967119284],[-73.92392663773556,40.720326830581136],[-73.9239325067287,40.72033927098267],[-73.9239382293463,40.720354178287685],[-73.92394358934125,40.720366942181734],[-73.92395053233452,40.72038080559477],[-73.92395672000913,40.720393578913836],[-73.92396330913742,40.720407081406975],[-73.92397313388359,40.72042680078013],[-73.92397522267471,40.72043193484723],[-73.92398068897397,40.7204443650961],[-73.92398590472057,40.720457164576025],[-73.92399097924758,40.7204710004511],[-73.92399594529478,40.720485546568135],[-73.92400154887692,40.72050117398905],[-73.92400734237252,40.720517864827954],[-73.92401194196349,40.72053169988591],[-73.92401604747468,40.72054377843358],[-73.92402007071848,40.720554433451156],[-73.92402572591716,40.720566513021126],[-73.924031442296,40.72057804314311],[-73.92403673088523,40.720590122470604],[-73.92404162708038,40.7206039582255],[-73.92404601516307,40.72061675715634],[-73.92405097182021,40.72062970907903],[-73.92405651848789,40.720643905445044],[-73.92406161198596,40.72066005504247],[-73.92406499736778,40.72067070092617],[-73.92406956443814,40.720682950485994],[-73.92407539879353,40.72069414864517],[-73.92408331265636,40.72070782271433],[-73.92409116795606,40.72072168671976],[-73.92410265533746,40.720736076305336],[-73.92411410914988,40.72074959137746],[-73.92412503340009,40.72076060291327],[-73.92413761146997,40.72077395672545],[-73.92415022503648,40.720787274373826],[-73.92416013192474,40.72079760005121],[-73.92416866729903,40.720805954206114],[-73.92417901108867,40.720816631473376],[-73.92418902668676,40.7208258594164],[-73.92419991274564,40.720838141108395],[-73.92420812627603,40.72084915085149],[-73.92421586558348,40.720860880479755],[-73.92422166415653,40.72087259944865],[-73.92422716247574,40.720887344592064],[-73.92422996407744,40.720901367260005],[-73.92422897974355,40.720913064174084],[-73.92422615071281,40.72092316635874],[-73.92422252889321,40.72093432963914],[-73.92422096542764,40.720945666659325],[-73.92421698496803,40.72095949606067],[-73.92421177483013,40.72097170349518],[-73.92420577262753,40.720983559104226],[-73.92420803239803,40.72099385344102],[-73.92421469112433,40.72100859884609],[-73.92421781243866,40.721022432754275],[-73.92421220566209,40.72103005622572],[-73.92419805836238,40.72104311367083],[-73.92418927712029,40.72105285125015],[-73.92418312641989,40.721070388935466],[-73.92417833286811,40.72109130468776],[-73.92417554976501,40.72110282920404],[-73.924173039066,40.72111471458495],[-73.92416883628854,40.721135621344295],[-73.92416658089238,40.72115263958043],[-73.9241665305126,40.7211657600817],[-73.9241678189765,40.72117745028301],[-73.92416898638243,40.72119200260053],[-73.92417073109084,40.72120832957499],[-73.92417342397552,40.72122288406982],[-73.92418033038987,40.72123921444339],[-73.92418893863262,40.72125731200502],[-73.92419728792215,40.721273292023824],[-73.92420373531048,40.721286084094416],[-73.92420992474611,40.721297812702026],[-73.92421693970513,40.72131164867013],[-73.9242220506965,40.721323917846405],[-73.92422946953641,40.72133635807838],[-73.92423442657295,40.72134769888654],[-73.92423546427787,40.721362080407886],[-73.92423468847637,40.72137821691956],[-73.92423337602992,40.72138760861531],[-73.92423466510385,40.72139877629972],[-73.92423792617627,40.72141404148031],[-73.92424364921064,40.721429498256164],[-73.92425441686582,40.72144298588967],[-73.9242703432464,40.72145756667743],[-73.92428649522112,40.721470886636865],[-73.9243004514696,40.72147992768779],[-73.92431346186582,40.72148831107503],[-73.92432831367523,40.72150042414816],[-73.92433465308012,40.721511009309125],[-73.92444352813027,40.721604001910144],[-73.92447878546695,40.72162940597608],[-73.92450794340729,40.721658949062636],[-73.92453017594124,40.72169179425767],[-73.9245448532424,40.721727011103866],[-73.92456384149264,40.7217595198973],[-73.92457018370784,40.721771762389565],[-73.92458022893163,40.721784366819776],[-73.92458999565888,40.72179381955209],[-73.92460131260147,40.72180283203309],[-73.924614983339,40.72181307067524],[-73.924624964795,40.721820353570195],[-73.92463703551877,40.721832824294744],[-73.92464655219608,40.72184260135794],[-73.92466496643732,40.721855868967964],[-73.92468728877529,40.72186631144621],[-73.92471238383757,40.72187495465239],[-73.92473522014248,40.72188128199354],[-73.92475987801606,40.72188807926057],[-73.92477989916043,40.721893630779185],[-73.92479620262112,40.721898944825945],[-73.92481109912346,40.72190419596665],[-73.9248259823025,40.721909743451675],[-73.92483760061822,40.72191398343448],[-73.92485411518035,40.72192131513634],[-73.92487063133571,40.72192684609105],[-73.92488223617747,40.721933472982684],[-73.92489722918828,40.72194590990304],[-73.92491241131319,40.721960138811625],[-73.92492641966538,40.7219750876532],[-73.92493596992092,40.72198716971564],[-73.92494360336619,40.721998889842496],[-73.9249504772168,40.72201133084418],[-73.92495786103832,40.72202377100513],[-73.92496617943571,40.722036537446755],[-73.92497619924852,40.72205147430121],[-73.92498497838301,40.722065338342304],[-73.92499190408854,40.7220745647031],[-73.9250010864603,40.72208720421708],[-73.92501055154408,40.72210123120399],[-73.92501920171726,40.722113673358315],[-73.92502931769315,40.722127511294666],[-73.92504243690665,40.722143882515546],[-73.92505017933367,40.72215329820717],[-73.92505749462421,40.72216307263018],[-73.92507038683955,40.72218119971609],[-73.92508141547218,40.722194705700964],[-73.92508955921276,40.72220500384718],[-73.92510108236908,40.72222011237833],[-73.9251100169207,40.72223131132658],[-73.92512111551618,40.722246060066965],[-73.92512758968573,40.72225583511104],[-73.9251355914159,40.72226613316155],[-73.92514109473292,40.72227690720607],[-73.92514204061493,40.72227873520351],[-73.92514667659884,40.72229224573685],[-73.92515200046476,40.722305369730236],[-73.92515446906478,40.72232046365784],[-73.92515890839678,40.72233497587308],[-73.9251926884825,40.72237216632908],[-73.92519790324071,40.72239990394635],[-73.92519826243695,40.722427922537314],[-73.92519970342491,40.72243370924297],[-73.92519985799312,40.72243959771094],[-73.92519872182672,40.72244542357399],[-73.92519632663964,40.72245102421225],[-73.9251927392895,40.72245624329275],[-73.9251880599113,40.72246093513294],[-73.92518241912242,40.722464968767426],[-73.92517597437656,40.722468231603536],[-73.92516890556878,40.72247063256425],[-73.92516141001389,40.72247210463043],[-73.92515369693875,40.72247260671161],[-73.92514598164203,40.722472124792986],[-73.92513847948435,40.722470672326565],[-73.92513139987689,40.7224682898557],[-73.92512494043595,40.72246504388343],[-73.92508547471728,40.722470736068935],[-73.92505356249288,40.72252347233987],[-73.92504484590563,40.722538702893544],[-73.92503563051362,40.722555356429496],[-73.92502435259343,40.72257412482019],[-73.92501275326885,40.72259536016766],[-73.9250070708947,40.72260653201224],[-73.92499817485319,40.722622717515655],[-73.9249853074184,40.722646095037035],[-73.92497861842327,40.7226579420274],[-73.92497349319292,40.72266769075802],[-73.92496376779818,40.7226860996365],[-73.92495418387325,40.72270382442688],[-73.92494503875358,40.72272080199788],[-73.92493801596328,40.72273496315094],[-73.92493190430902,40.72274915119934],[-73.92492550837535,40.72276295207511],[-73.9249192447023,40.72277642803475],[-73.92491025310937,40.72279412590065],[-73.92489947071111,40.72281431807695],[-73.92489408651687,40.722824057923525],[-73.92488162462871,40.72284350953922],[-73.92487163418606,40.722865133410906],[-73.92486728971595,40.722876269935426],[-73.92485991737807,40.72289576055291],[-73.9248507721765,40.72291276609291],[-73.92484191126503,40.722929752552176],[-73.92483298043817,40.72294605445058],[-73.9248201520031,40.722964813599305],[-73.92481162925229,40.72297559541945],[-73.92480291900257,40.72298569327209],[-73.92479598408003,40.722994721117374],[-73.92478289780699,40.72301169610056],[-73.92477010438094,40.72303082365785],[-73.92476371392634,40.72304088784256],[-73.92475919488035,40.72304923224712],[-73.92474915338778,40.72306374154638],[-73.92473729610653,40.723081798210345],[-73.9247322648406,40.7230932942956],[-73.92472716263914,40.72310481730604],[-73.92472134948503,40.72311667306221],[-73.92471429210742,40.72312960017596],[-73.92470886951388,40.72314112297604],[-73.92470409832437,40.723152979412646],[-73.92469935023338,40.72316485395703],[-73.92469465093386,40.72317563944143],[-73.92468937072375,40.723186450847365],[-73.9246840907292,40.72319901843653],[-73.92467755167938,40.72321408888969],[-73.92467172269578,40.72322843910674],[-73.92466748617848,40.72323889101184],[-73.92466299526903,40.72325368403954],[-73.92465542950214,40.72327706499108],[-73.92465148338141,40.723291056256485],[-73.92464641233698,40.72330576765332],[-73.92464135468924,40.72332011887603],[-73.92463700588902,40.72333482957241],[-73.92463355938037,40.723346686872844],[-73.92462830986094,40.723362271469064],[-73.92462353707113,40.72337610019382],[-73.92461619335981,40.723390611414516],[-73.9246091811413,40.72340620356706],[-73.92459901536247,40.72342461262728],[-73.92458724029449,40.723444452316414],[-73.92457852282968,40.723459673953535],[-73.92457248802873,40.723469062557],[-73.92456370306807,40.723481267661455],[-73.92455402970803,40.72349435437913],[-73.92454380115511,40.72350691922124],[-73.92453545522275,40.7235189621102],[-73.92453179550157,40.72353045975511],[-73.92452702650351,40.7235409119757],[-73.92451734212503,40.72355224249971],[-73.92450004833418,40.723564171464865],[-73.92448364585586,40.72357205842321],[-73.92442298754928,40.72358997548378],[-73.92433693392304,40.723603840274016],[-73.92431405339129,40.72360475299913],[-73.92428938620994,40.72360446672842],[-73.92426185708126,40.72360304324084],[-73.92423205370932,40.72360184457879],[-73.92421456043472,40.72360131038229],[-73.92419565801896,40.72360124416283],[-73.92417725243772,40.723601699778364],[-73.92415838368628,40.72360262382578],[-73.92413821366368,40.72360384521042],[-73.92411350850506,40.72360519745644],[-73.92408962131456,40.723606802699344],[-73.92406814812678,40.72360804901164],[-73.92404589530696,40.723609601547174],[-73.92402933335615,40.723611679344394],[-73.92401788626985,40.72361270710632],[-73.92399970283373,40.72361454125043],[-73.92396961279084,40.723617178359504],[-73.92394908612668,40.7236185157391],[-73.923930467329,40.72361921492582],[-73.92390994245596,40.72361956087611],[-73.92389038913073,40.72361910718951],[-73.92387451846261,40.72361802452607],[-73.9238582081174,40.72361727595315],[-73.92383818294213,40.72361544353528],[-73.92382000424593,40.7236140892844],[-73.92380088889952,40.72361421166196],[-73.92377758195012,40.723615213960166],[-73.92374957358228,40.72361849133696],[-73.92373442057428,40.723620075485755],[-73.92371645160814,40.723621711543004],[-73.92369585379062,40.723623453407505],[-73.92367520963616,40.72362470069853],[-73.9236567779992,40.723626363914136],[-73.92363787416822,40.723628295694155],[-73.92362087514346,40.72363014865684],[-73.92360524914372,40.723631732474864],[-73.92358727926032,40.72363339481307],[-73.92356888400948,40.72363481545998],[-73.92354496100388,40.723636140628834],[-73.92352186735361,40.72363662100348],[-73.92350394758397,40.72363682537636],[-73.92348695034306,40.72363654402925],[-73.92347086659312,40.72363578566794],[-73.92345570360482,40.72363550553538],[-73.92344009144799,40.723636152195375],[-73.92342353042461,40.72363682569656],[-73.92340559749636,40.72363774974045],[-73.92338459834069,40.723639024217604],[-73.92335988204267,40.72364065572921],[-73.92333678844784,40.723642233869754],[-73.92331452065555,40.72364433473668],[-73.9232857321677,40.72364639607426],[-73.92326263887931,40.72364770481708],[-73.92323955595013,40.72364900418067],[-73.9232156674292,40.72365115872924],[-73.92319910696331,40.72365325399834],[-73.92318045240822,40.72365362971322],[-73.92316168646872,40.72365798461444],[-73.92313196363968,40.72365930649693],[-73.92311225761792,40.723657978589024],[-73.92309523824531,40.72365626431272],[-73.92307871521797,40.72365644325066],[-73.9230639895022,40.723657531884925],[-73.92304208793988,40.72366092122484],[-73.9230192156096,40.72366480461814],[-73.9229973006625,40.7236692924137],[-73.92296069104216,40.723669151660395],[-73.92293413428862,40.72366622495311],[-73.92291177917373,40.7236630847758],[-73.9228940991563,40.72366008392434],[-73.9228782646348,40.72365707442225],[-73.92286333147078,40.723653992982726],[-73.92284168885779,40.723648819493974],[-73.92282120441688,40.72364485213273],[-73.92279696737478,40.72364200819918],[-73.92277276322226,40.72364004714872],[-73.92274946035269,40.72363788834622],[-73.92272521021287,40.72363590028309],[-73.92270331567309,40.72363379568993],[-73.92268282968786,40.72363117052758],[-73.92266139852468,40.72362729263155],[-73.92264135287964,40.723622632809736],[-73.92261902301574,40.72361787210594],[-73.9225910700687,40.723613765327606],[-73.9225654605077,40.72360982144681],[-73.9225472838386,40.72360750421991],[-73.92252815613823,40.723607077392586],[-73.92250766649268,40.72360761309198],[-73.92248576885883,40.72360837182316],[-73.92246382345046,40.72360912281177],[-73.92244518019781,40.72360982174184],[-73.92242698747033,40.72361014269693],[-73.9224027446284,40.7236115486635],[-73.92237991082247,40.72361334373441],[-73.9223579754138,40.7236155263935],[-73.922332312687,40.723616968243654],[-73.92231088437032,40.72362049228775],[-73.92229897219241,40.723624356631106],[-73.92228718990185,40.7236393865536],[-73.92227765618821,40.72365354584831],[-73.92226569405534,40.72366983729137],[-73.9222504231605,40.723682208549995],[-73.9222335939774,40.72369018502912],[-73.92221447025179,40.72369689898156],[-73.92219483821054,40.723703692665104],[-73.92218107895404,40.72370758255233],[-73.9221624363503,40.72370883092493],[-73.92214330961285,40.723707557018905],[-73.92211958242353,40.723703696735036],[-73.92209209376516,40.72369741950512],[-73.92207557393216,40.723693725417064],[-73.92205808443215,40.72368995762854],[-73.92204156421312,40.7236865967461],[-73.92202457287912,40.72368257850218],[-73.92200805343332,40.72367855990529],[-73.92199290694339,40.72367528069428],[-73.92197822194713,40.72367222728506],[-73.92194937192383,40.72366586734545],[-73.92193051002874,40.72366146016261],[-73.92190663116514,40.723655896822194],[-73.9218844207231,40.7236496050296],[-73.92186508809644,40.723643657777984],[-73.92184672311063,40.72363876458834],[-73.921827861557,40.72363407862433],[-73.92181088183057,40.72362957335632],[-73.9217966703229,40.723626295256985],[-73.92178292005327,40.72362252175746],[-73.92177011786588,40.723618640678154],[-73.92174780344952,40.72361165489257],[-73.92172496836353,40.723603463393445],[-73.9217073045583,40.7235970302494],[-73.92168728296143,40.72359220777679],[-73.92166491956553,40.72358588015455],[-73.92164260329807,40.72357936375735],[-73.92161793603518,40.7235699900937],[-73.92159279369619,40.72356146311668],[-73.92156812636095,40.723552162484],[-73.92155162134364,40.72354622581713],[-73.92153369523002,40.723541360350886],[-73.92152506816113,40.723539238272856],[-73.92151256626029,40.72353225912908],[-73.921486949024,40.723524443794034],[-73.9214709053492,40.723519056415434],[-73.92145391613036,40.723513308877074],[-73.92143787220593,40.72350739060132],[-73.92141367858315,40.72349788219037],[-73.92138901309325,40.72348631153243],[-73.9213762485606,40.72348004485345],[-73.92135392698678,40.72346893581708],[-73.92133302612838,40.72345708828381],[-73.92131254152825,40.723443683702136],[-73.9212912061004,40.72342915325771],[-73.92127212628817,40.72341862170841],[-73.92125212089489,40.72341059388093],[-73.92122604087233,40.72340446181538],[-73.92120999375894,40.723401838925106],[-73.92119296392283,40.723399386572325],[-73.92118449107767,40.72339796182077],[-73.92117737878503,40.723396765166385],[-73.92116223129221,40.72339442232],[-73.92114660949116,40.723392268452045],[-73.92111823163248,40.72338714262953],[-73.92110354670845,40.723384115577836],[-73.92107559652347,40.723377837788576],[-73.92106094777891,40.72337475748273],[-73.92104814300374,40.72337257872846],[-73.92102531663218,40.723367952401404],[-73.92100388693072,40.72336299381727],[-73.92098062255118,40.72335784516732],[-73.92094175031826,40.723349011096545],[-73.92092660336755,40.72334622745652],[-73.92091050915249,40.723342866704094],[-73.92089539860557,40.723339839836036],[-73.92088071312551,40.72333729841571],[-73.920855107482,40.72333023011722],[-73.92083556108088,40.72332385049381],[-73.92081926712201,40.72331977760239],[-73.92079877381362,40.72331437886099],[-73.92077504504502,40.723312030060406],[-73.92075174076678,40.72331009533827],[-73.92073356094131,40.72330981277065],[-73.92072305946157,40.72331188555314],[-73.920713915833,40.72331682364286],[-73.92070138952488,40.72332990807303],[-73.92069126659267,40.72334176065748],[-73.92068249285093,40.7233543167779],[-73.92067277335123,40.723366692824825],[-73.92066419891653,40.723380329461406],[-73.92065949702015,40.72339273476355],[-73.92065537238098,40.72340688827035],[-73.92065131037478,40.72341929451566],[-73.92064757931325,40.72343134030372],[-73.92064320943335,40.72344303552036],[-73.92063256961372,40.72346251540562],[-73.92062640317948,40.723471029222054],[-73.9206242227211,40.723474035997484],[-73.92061613696751,40.7234844582956],[-73.92059962790074,40.723502151143286],[-73.92058373536948,40.72351948322607],[-73.92056693765393,40.72353048468238],[-73.92055874473749,40.723532703953154],[-73.92054338097527,40.723533152877685],[-73.92052520159484,40.723532077540746],[-73.9205124013345,40.723526656584085],[-73.9205074882824,40.72352720268005],[-73.92048789086978,40.7235342130439],[-73.92046642086576,40.72354345574561],[-73.92045519421173,40.72354794055604],[-73.92043873457803,40.723554242095545],[-73.92042646021662,40.72355448557352],[-73.9203969262659,40.72360543367653],[-73.92037064169669,40.72368111331819],[-73.92027538340737,40.72366078553608],[-73.9205319833439,40.72294034239256],[-73.92006712173477,40.72274304844903],[-73.9190389757071,40.72252449328512],[-73.91789308455651,40.722270696218764],[-73.91655467946697,40.72200550648011],[-73.91645860077394,40.72207564060043],[-73.9164584231399,40.72207576678676],[-73.91645824620025,40.72207586600181],[-73.9163500230956,40.722136949962994],[-73.91634995236875,40.72213698559482],[-73.91623184722106,40.72218737371782],[-73.91623175271317,40.72218740933226],[-73.91623166966652,40.72218743607615],[-73.91610667900834,40.722225824474855],[-73.91610654838857,40.72222586006289],[-73.91610640677094,40.722225886261405],[-73.91597755003271,40.722251691275645],[-73.91423632914547,40.72277369421527],[-73.91384828309035,40.72289841235398],[-73.91316969805791,40.72308152589652],[-73.91257187743852,40.72323963495005],[-73.91134506901571,40.72418216995197],[-73.90971646081488,40.72544595612683],[-73.90889173791572,40.726068425976784],[-73.90804680880517,40.72673388791034],[-73.9074099735685,40.72720873888088],[-73.90730013750303,40.727294369914745],[-73.90716705244449,40.727388653787465],[-73.90712253078468,40.727424728437995],[-73.90706867295428,40.727466522772694],[-73.90693049911576,40.72757603027489],[-73.9067302812899,40.72773268283056],[-73.9057242363777,40.728520019586355],[-73.90557740103739,40.728636684315525],[-73.90518057919772,40.72895657697393],[-73.90421888938035,40.73012526891651],[-73.90416853267317,40.73018659103327],[-73.90259650842539,40.732104428346],[-73.901079709003,40.73391463477944],[-73.900910948234,40.734126036736036],[-73.90071138865115,40.734358727804],[-73.90066250499751,40.734422597622725],[-73.90060814934425,40.73448385508016],[-73.9005485620062,40.734542229331026],[-73.90048400643168,40.73459746227724],[-73.90041476803798,40.73464930970919],[-73.9003411528722,40.73469754264856],[-73.90026348646647,40.734741947568615],[-73.90018211221347,40.73478232813398],[-73.90009738990209,40.734818505802515],[-73.9000096941265,40.7348503206149],[-73.89982513106335,40.734931395019714],[-73.89963257895796,40.73500235830322],[-73.89943348532013,40.735062590668626],[-73.89922944768975,40.735111598271686],[-73.89902209966382,40.73514908398636],[-73.89878646142799,40.7351767929129],[-73.8987863429133,40.73517681090158],[-73.8987862131798,40.735176820169066],[-73.89854787096642,40.735191900926274],[-73.89854772823891,40.73519191018201],[-73.89854758662686,40.73519191005727],[-73.89830812742746,40.73519418444118],[-73.89830799682723,40.735194184325856],[-73.8983078669028,40.735194174327056],[-73.89806910146103,40.73518361662663],[-73.89806895986156,40.73518360829249],[-73.8980688299364,40.735183598796],[-73.89783236941891,40.73516035418248],[-73.89691188038617,40.73508660132856],[-73.89659952200017,40.73509450345161],[-73.89602931590736,40.73501789160908],[-73.8951013347047,40.73502118309019],[-73.89492421708373,40.73500772168097],[-73.89474847999331,40.73498281500748],[-73.89474827940192,40.734982787349786],[-73.89474809027577,40.73498275149379],[-73.89457557913671,40.734946555040395],[-73.89457544857858,40.7349465286192],[-73.8945753193575,40.734946492315146],[-73.89440759654316,40.734899323149065],[-73.89424644899582,40.73484181316727],[-73.89415835505042,40.73480779168287],[-73.89393780540267,40.734726210044684],[-73.89370905653054,40.73465745278428],[-73.89347408234102,40.73460217804845],[-73.89323494452191,40.73456081205582],[-73.89301088115073,40.734523575198104],[-73.89278405666076,40.73449596224911],[-73.89255554589468,40.73447812630978],[-73.89232644055762,40.73447014025988],[-73.89175016416739,40.73448480973209],[-73.89138497925177,40.7345049890541],[-73.89113852797301,40.734512969164555],[-73.88993450671488,40.734559956743425],[-73.88910318982454,40.7345923964626],[-73.88852285967548,40.734531160016154],[-73.88770199270428,40.73429132275877]]]]}}]}