{"type":"FeatureCollection","features":[{"type":"Feature","properties":{"district":"403"},"geometry":{"type":"MultiPolygon","coordinates":[[[[-73.86272021413627,40.766670642291594],[-73.8622404805114,40.76628308650678],[-73.86215785661608,40.76619175843227],[-73.86216751063282,40.76604799421457],[-73.86201493096901,40.76589092640036],[-73.86176874419914,40.7655940045214],[-73.86153844305356,40.765342532217396],[-73.86123668797846,40.76496061610255],[-73.86043337753607,40.76386888237241],[-73.86001698324064,40.76326428551794],[-73.85975083755996,40.762877839697396],[-73.85949072401196,40.76256261590183],[-73.85941339464092,40.76248326584287],[-73.85922062954077,40.76248274448259],[-73.85915607632674,40.76251963069978],[-73.85907893429899,40.76252283227178],[-73.85892056378711,40.76240640118618],[-73.8589919726669,40.7622465237093],[-73.85898423330167,40.76217147447227],[-73.85892298116526,40.76212234601831],[-73.85879204218752,40.762279338747874],[-73.85867190067488,40.7625222705091],[-73.85864510487953,40.7625143959092],[-73.8587652597761,40.76226519185015],[-73.85888722660167,40.76213360939796],[-73.85883984926517,40.76210532221626],[-73.85871170031797,40.76223376195525],[-73.85869110268213,40.76222119100361],[-73.85884371506253,40.76205876677933],[-73.85861915281767,40.76193559750166],[-73.85854218610565,40.76202689869028],[-73.85853208671439,40.76202176133278],[-73.85848087980737,40.76208269986155],[-73.8584728970466,40.762092199502646],[-73.85846125776055,40.76210605116523],[-73.85846562406165,40.762108802281084],[-73.85840968995652,40.76217335587746],[-73.85840137386248,40.76218304340309],[-73.85833010331002,40.76226606561124],[-73.85832178366047,40.76227575647716],[-73.85824801150531,40.762361693692974],[-73.85823701549575,40.76237450260441],[-73.85816550201325,40.762457807026365],[-73.85815675448194,40.76246799574327],[-73.85808172268874,40.76255539983287],[-73.85807451529587,40.762563795399366],[-73.85800186654676,40.76264842076973],[-73.85799432848358,40.7626572007308],[-73.85793183124312,40.76273000386088],[-73.8579233217447,40.76273991559771],[-73.85786819436694,40.7628041311838],[-73.85785943105923,40.76281433962633],[-73.85780092280245,40.76288249356545],[-73.8577925082393,40.76289229618268],[-73.85773856385593,40.76295513258399],[-73.85773293366576,40.76296169214847],[-73.85767843741588,40.76302774852711],[-73.85768965370647,40.76303630520386],[-73.85765473550131,40.76307982335047],[-73.85777497705219,40.76313883513044],[-73.85786962130263,40.76318528376025],[-73.85788103101137,40.76319088449289],[-73.85796457866395,40.76323188698932],[-73.85805470915611,40.76327612040076],[-73.8581503402828,40.76332305366202],[-73.85815280980249,40.76332426607275],[-73.85816421516049,40.7633298629187],[-73.8582546465724,40.76337424480376],[-73.85826783630067,40.76338071714778],[-73.8583521972594,40.76342211890628],[-73.85841538749088,40.76345313042364],[-73.85848633958462,40.76336934637901],[-73.85850081255367,40.76337643308266],[-73.8583431930898,40.76356256095815],[-73.8583294889102,40.76355585127613],[-73.85839531409535,40.76347705912193],[-73.85835070774874,40.76345478950214],[-73.85833811315572,40.76344850284819],[-73.85825256869713,40.76340579359079],[-73.85824130988924,40.76340017281026],[-73.85813903143377,40.76334910996568],[-73.85812806185174,40.763343633267475],[-73.85805097087311,40.763305145872685],[-73.85803917550638,40.76329925703968],[-73.85795122908831,40.76325534913179],[-73.8579424353982,40.76325095932687],[-73.8578624550102,40.76321102718364],[-73.85784979492286,40.76320470688996],[-73.85777061710769,40.763165177065126],[-73.85775931084058,40.763159532557424],[-73.85763896535806,40.763099449136554],[-73.85760068461886,40.76314040113621],[-73.85758834275435,40.763133551992354],[-73.85683888767876,40.7640001791159],[-73.85697078354377,40.764066067569004],[-73.85696356005906,40.764074427864095],[-73.85667482296249,40.76393018832551],[-73.85668299736253,40.76392072858553],[-73.8568029095629,40.763980845461006],[-73.8568542711157,40.76392254390498],[-73.8568614984466,40.7639143405932],[-73.8569147794775,40.76385386154637],[-73.85692072928053,40.76384710808935],[-73.85697496834045,40.76378553994485],[-73.85698123309146,40.76377842904012],[-73.85702898289607,40.76372422680541],[-73.85703613508417,40.76371611067029],[-73.8570833368248,40.76366252975657],[-73.85708959006746,40.76365543189858],[-73.85713828854433,40.763600153937496],[-73.85714523353694,40.76359227023215],[-73.85719464267632,40.763536184982655],[-73.85720087844679,40.76352910686493],[-73.85724903760324,40.763474439657635],[-73.85725666284314,40.76346578332082],[-73.8573064329135,40.7634092878635],[-73.85731353865422,40.76340122325134],[-73.8573599019776,40.7633485942394],[-73.85736795853816,40.76333944992329],[-73.85741662254372,40.763284208488066],[-73.85742519879133,40.76327447243912],[-73.85747258321608,40.76322068737509],[-73.85747974744928,40.76321255480931],[-73.85752810581147,40.76315766039702],[-73.85753555803856,40.763149201508156],[-73.85755915752334,40.76312241178563],[-73.85754793823739,40.76311556570062],[-73.85758285470705,40.76307290062675],[-73.85746422874624,40.76301478272017],[-73.85737359701506,40.762970378519775],[-73.85718496153115,40.76287796096639],[-73.85717606894373,40.76287360381509],[-73.85709111499472,40.762831982000755],[-73.85708275835427,40.762827888020325],[-73.85698207201673,40.76277855800114],[-73.85697105684368,40.7627731613804],[-73.85688415508106,40.7627305839388],[-73.85682507576564,40.76270163909831],[-73.85682436749572,40.7627012924444],[-73.85675571120355,40.76266765415112],[-73.85674350314682,40.76266167353735],[-73.85669035289098,40.76263563285975],[-73.85660302514762,40.76273141742979],[-73.85658675388665,40.762722840616995],[-73.85678236897394,40.76250827740595],[-73.85679858034509,40.76251682329218],[-73.85671169399481,40.76261568695268],[-73.85676092870285,40.76263982619022],[-73.85677318780927,40.76264583651775],[-73.85682558798105,40.76267152710064],[-73.85683660817756,40.762676930945254],[-73.85688788040733,40.762702067932224],[-73.85690044326871,40.76270822738657],[-73.85698999028764,40.76275213105268],[-73.857093112109,40.76280268870143],[-73.8571052940205,40.762808661539346],[-73.85718716696891,40.76284880177718],[-73.85719629175136,40.76285327497594],[-73.85728240762107,40.76289549705733],[-73.85729174591332,40.76290007370898],[-73.85738067827535,40.76294367543143],[-73.85738951453459,40.76294800770329],[-73.85747499963068,40.76298991927094],[-73.85748453691465,40.762994594993394],[-73.85760424103287,40.76305328178998],[-73.85763578363803,40.76301232196501],[-73.85765037085217,40.76301917337571],[-73.85770844688945,40.76295039528091],[-73.85771567256865,40.762941835082195],[-73.8577674057337,40.76288055227819],[-73.85777623039986,40.76287009799029],[-73.85783497417715,40.76280051049906],[-73.85784136597684,40.76279293800183],[-73.85789701323506,40.76272701849254],[-73.85794433453312,40.76267096217056],[-73.8579670241406,40.76264408345745],[-73.85797500186926,40.762634632093295],[-73.85804511463152,40.76255157517649],[-73.85807199787612,40.76251972926981],[-73.85813288714928,40.7624475987091],[-73.85814120057232,40.76243775087746],[-73.85817631004326,40.76239629472579],[-73.85781983960797,40.76222613389062],[-73.85780788234457,40.76222042710124],[-73.85768834790841,40.76216337376076],[-73.85767257608804,40.76215584576041],[-73.85752950976799,40.76208756021184],[-73.85746004192646,40.762054402298546],[-73.85737149406718,40.76201213779648],[-73.85735065780428,40.762002192447056],[-73.85718801666114,40.76192456393177],[-73.85716303201012,40.76191263777112],[-73.85700279567362,40.761836155339545],[-73.85698328892113,40.76182684448689],[-73.8568380003565,40.761757495881106],[-73.85677632095467,40.7617280559228],[-73.8566745713554,40.76167949006424],[-73.85665617597317,40.76167070874811],[-73.8566119581344,40.761649542256905],[-73.85662772941473,40.76162906239339],[-73.85677893407333,40.7617009740635],[-73.85679154181352,40.7617069699137],[-73.8568855747746,40.76175169107672],[-73.85690054310565,40.76175880925637],[-73.8569901420736,40.76180142237399],[-73.85700272542279,40.76180740560625],[-73.85709011251139,40.7618489668521],[-73.85710534258351,40.761856210471656],[-73.85719139863384,40.76189713707591],[-73.85720516241746,40.76190368279387],[-73.8572941135809,40.761945985785225],[-73.85730868889539,40.76195291847597],[-73.85739929667307,40.761996009469634],[-73.85741179997494,40.76200195637224],[-73.85750467757556,40.762046126614116],[-73.85751841919013,40.7620526618804],[-73.85761007668326,40.762096253065614],[-73.85762293989332,40.76210236942375],[-73.85771566634001,40.762146469114334],[-73.85773024174476,40.76215340057888],[-73.85781948124897,40.76219584021952],[-73.85783323591059,40.762202381997646],[-73.85819433066433,40.76237410798393],[-73.85827164316142,40.762287628353064],[-73.85828092005566,40.76227725147657],[-73.85836158949382,40.76218701562466],[-73.85844323288791,40.76209568948002],[-73.85845113676602,40.76209946500907],[-73.85851749742335,40.7620149107001],[-73.85850740298706,40.76200806491604],[-73.85858526218242,40.761917009098845],[-73.85712133534516,40.76118890387295],[-73.8562732064007,40.76090240843051],[-73.85530266029681,40.76064958475243],[-73.85506330176585,40.76028069935278],[-73.8549509176938,40.76010749608958],[-73.85478273759597,40.75984830026858],[-73.8543740628019,40.75967625525498],[-73.85383440117525,40.75942697780752],[-73.85367460705187,40.7593246483548],[-73.8534638665457,40.75918417821491],[-73.85344025221384,40.759168437240675],[-73.85329998990152,40.759059694081245],[-73.85310513961214,40.758889006219206],[-73.85292476593854,40.758711007572224],[-73.85266339433447,40.75839773878712],[-73.85259274259862,40.7582978916142],[-73.85247220682943,40.758120200983306],[-73.8523427288433,40.757886732654725],[-73.852336246321,40.7578732453589],[-73.85228434030685,40.757763606322726],[-73.85219116885825,40.757566795358656],[-73.85216508055517,40.75745967329723],[-73.8521279822266,40.757388722747],[-73.85198263070764,40.757110736312235],[-73.85190049072922,40.756866404551175],[-73.85186598797831,40.75665599220421],[-73.85186185168486,40.75632741023819],[-73.85195919019114,40.75568967049665],[-73.8520877788442,40.75507857173263],[-73.85212758415018,40.75475092010097],[-73.85213571376238,40.75445515024401],[-73.85215428489192,40.75404789266422],[-73.85215566839517,40.75346523394958],[-73.85216144692167,40.7533819947198],[-73.85205504551975,40.753128416673874],[-73.85189746326805,40.75275285966746],[-73.85203991625944,40.7527103580458],[-73.85212221099154,40.75268551939617],[-73.85220450565967,40.75266068186034],[-73.85260432584019,40.75254196654916],[-73.85455552256398,40.751961918531684],[-73.85583495566055,40.751577272459095],[-73.85876324974912,40.750716971805],[-73.8611170766244,40.75002422836654],[-73.86175071446834,40.7499675912559],[-73.86272633846329,40.74986793792892],[-73.86418475868956,40.7497195881935],[-73.86655661117896,40.74946414915033],[-73.86734126566604,40.74939167514626],[-73.86751412923923,40.74937570748272],[-73.86845757659223,40.749263820940634],[-73.86942458603255,40.74915685101761],[-73.86973913840436,40.749126269924695],[-73.87037881278428,40.74906407805931],[-73.87097053249674,40.748999242326455],[-73.87135648544827,40.748956950801265],[-73.87184095898117,40.74890557664934],[-73.87237256353667,40.7488515513314],[-73.87277356856244,40.74881295798523],[-73.87330310096111,40.748758124638776],[-73.87370098283743,40.748717318977754],[-73.87398293746284,40.748685668471445],[-73.87462946351044,40.748613927918946],[-73.87543236162973,40.748527359521646],[-73.87555643147171,40.74851360855174],[-73.87625180213054,40.74843885011346],[-73.87647953043887,40.74841640211017],[-73.87692458255374,40.74836898861516],[-73.87741612492385,40.74831937334506],[-73.87834312554384,40.74822266004264],[-73.87845779335424,40.74821481086849],[-73.87927779959739,40.748124092472615],[-73.87983894920066,40.748061724539966],[-73.88020648025613,40.74802497969269],[-73.88113747601093,40.747927293495415],[-73.88207112127155,40.74782992681813],[-73.88256876956024,40.74777784590987],[-73.88299918288799,40.747734402423845],[-73.8839357946289,40.74763024201541],[-73.88485538533254,40.74753481156736],[-73.8857874052002,40.747439753991905],[-73.88671656253132,40.747341462519465],[-73.88764663725344,40.747244839375725],[-73.88778326883971,40.74722892623384],[-73.88867766206656,40.74713427734865],[-73.88957128360839,40.74703905370306],[-73.89050129214401,40.746941939212405],[-73.89143128620483,40.746844736452324],[-73.89175048792613,40.746811727134286],[-73.89232090526336,40.74675274743125],[-73.89358818947528,40.746620460536526],[-73.89416507461735,40.746563230504854],[-73.89444688750346,40.746535270813006],[-73.89489689828707,40.74728105726348],[-73.89524044951642,40.74785040207635],[-73.89547085005789,40.748205655352976],[-73.89554649212168,40.74832228640396],[-73.89564469814476,40.748473705578085],[-73.8956727864848,40.74851821242745],[-73.8957024792063,40.748566072085154],[-73.89573080028957,40.74861505141136],[-73.89615573567092,40.74933460151946],[-73.89631037800208,40.749627709370976],[-73.89673437675525,40.750520429233084],[-73.8972443746733,40.75130055442341],[-73.8974219698374,40.751541618216],[-73.89733247626982,40.7517890264152],[-73.897264822315,40.751938132237576],[-73.8972777435533,40.75203977276474],[-73.89729378479981,40.75214115589084],[-73.89732244935323,40.7522870439648],[-73.89735757518913,40.7524321127198],[-73.89746858723605,40.75273119920309],[-73.89752108776024,40.752832376769135],[-73.89803715732462,40.753769672224415],[-73.89806831793359,40.75385336122711],[-73.89809119371843,40.75393858292629],[-73.89810565752265,40.754024863730926],[-73.89809029781773,40.75406682615651],[-73.89806843121234,40.754107084937814],[-73.89804037333418,40.754145058949135],[-73.89800652918245,40.754180200043905],[-73.89796738728224,40.75421200096725],[-73.897923512633,40.754240002678266],[-73.89813750855961,40.75429370045388],[-73.89819026447626,40.75429852735173],[-73.89824145288293,40.75430936802648],[-73.89828989541253,40.754325972923915],[-73.89833447690637,40.75434795979611],[-73.89837417108488,40.754374822500566],[-73.89840806417232,40.75440594265153],[-73.89856071509658,40.75460456579557],[-73.8985946564138,40.75465698723501],[-73.89862401170794,40.7547109860183],[-73.89864865470433,40.75476633017532],[-73.89866847997291,40.75482278247594],[-73.89912091444084,40.755306291324175],[-73.89925857125111,40.7555350745096],[-73.89955938193738,40.75623909745896],[-73.89972650438982,40.756541866817244],[-73.89982149541241,40.7569852820244],[-73.89982406572348,40.75700815575267],[-73.89986642960562,40.75738507256327],[-73.89985862123196,40.75762476118327],[-73.89984804489752,40.757703210625756],[-73.8998335252937,40.757781293776375],[-73.89981659068424,40.75787604591484],[-73.89979560092769,40.75797032764739],[-73.89974831504072,40.75811422613843],[-73.89969415509078,40.75825671673106],[-73.89963319317602,40.75839760962539],[-73.89956551035594,40.75853671761677],[-73.89949119693256,40.75867385497243],[-73.89941035185058,40.7588088390257],[-73.89906072889895,40.759328016412255],[-73.89882449633093,40.75967880175103],[-73.89866137866714,40.75992101787413],[-73.8984920500695,40.76016673426973],[-73.89825240295752,40.76051448685452],[-73.89791145232911,40.761020349147735],[-73.89789528110552,40.7610445056278],[-73.89742736744724,40.761746738660634],[-73.89731957511427,40.761902282268224],[-73.89727167665444,40.761971139798426],[-73.89706081799254,40.76227539812007],[-73.89670622763173,40.762742258751445],[-73.89641138403464,40.76315008327044],[-73.89624744731556,40.76333274771649],[-73.89608492465551,40.763473754704535],[-73.89598406502796,40.76354311003805],[-73.89585991874085,40.76362847361529],[-73.89557704382763,40.76382796806639],[-73.89542447794862,40.763947245818144],[-73.89527479388136,40.76408559863975],[-73.89524936761863,40.76411230109546],[-73.89516836997808,40.76419736223056],[-73.89506657695074,40.764331328290496],[-73.89505758652855,40.764346538151976],[-73.89499458888929,40.76445315402315],[-73.89495796501971,40.76466580209843],[-73.89495497551854,40.76466832063701],[-73.89480222557943,40.765134886028996],[-73.89464325993836,40.76560092500155],[-73.8946062741715,40.76570935460731],[-73.8945602113229,40.76581508609791],[-73.8944998080285,40.765919714849815],[-73.89443225945358,40.76601124286751],[-73.89432372021464,40.76614647173559],[-73.89349605945462,40.76595093000095],[-73.89307516292304,40.765973430209506],[-73.89266781311643,40.76598968407649],[-73.89239443284752,40.76600398220735],[-73.89212103446779,40.76602190660705],[-73.89181857243598,40.76604413210693],[-73.89173006762898,40.76605063524762],[-73.89144489747314,40.76607465413451],[-73.89165463928464,40.76615653615902],[-73.89183535796347,40.76622708004954],[-73.89107078785666,40.76627533857336],[-73.89051357791098,40.766325211056035],[-73.89029034589534,40.766345197795744],[-73.88925619495024,40.76652072836363],[-73.88881653866369,40.76659534946127],[-73.88835471177596,40.76669771329829],[-73.88777877319735,40.76682329668761],[-73.8877066182002,40.7668385980517],[-73.88762452917416,40.766865200690624],[-73.88713429376332,40.76698296557493],[-73.886719460335,40.76709131286618],[-73.88667620356284,40.76710325881038],[-73.88602554198904,40.76728295820276],[-73.88564823426103,40.7674076907792],[-73.88506266082882,40.767598942589615],[-73.88439729428212,40.76784217036955],[-73.88426804184341,40.76789476500395],[-73.88382864042879,40.768073553299146],[-73.88340538017512,40.76825883134807],[-73.88298620952668,40.76844940935366],[-73.88257124328716,40.76864523513559],[-73.88216059511214,40.76884625507621],[-73.88175437769536,40.76905241372016],[-73.88135270207368,40.769263655028716],[-73.88095567827271,40.769479921161896],[-73.8805634150475,40.76970115290331],[-73.8802016158719,40.76990418959963],[-73.87961158784404,40.77023244796615],[-73.87899337079557,40.77057183493608],[-73.87857684020065,40.77077532064481],[-73.87840490558162,40.77085109631249],[-73.87823050989377,40.770923548689915],[-73.87805376425078,40.770992631611904],[-73.87787478114872,40.77105830025195],[-73.87769367477094,40.77112051357565],[-73.87751056051002,40.77117923194161],[-73.876966207862,40.77134114507102],[-73.87608949707972,40.77153690308751],[-73.87601656518724,40.77155104405041],[-73.87530191904975,40.77165785251754],[-73.87487214042049,40.77170504733075],[-73.87435976191047,40.77174250939628],[-73.87388653313506,40.77176030749537],[-73.87334310907232,40.77176283276387],[-73.87277047367117,40.77173433179253],[-73.87226383019136,40.77169488432436],[-73.87174590573046,40.77162233690807],[-73.87143357341982,40.77157646722152],[-73.87094689798658,40.77145073718759],[-73.87092704254687,40.77144560691909],[-73.87071447492598,40.77139069003703],[-73.87016128312277,40.771208985879355],[-73.86962970454361,40.771006365975744],[-73.86943719763977,40.77092448203024],[-73.86889382724557,40.77064902189754],[-73.86809873503378,40.770172008652395],[-73.86728193815132,40.76965000329159],[-73.86606875954975,40.76879618215536],[-73.86550588718985,40.76834576833849],[-73.86509294082853,40.76801531524004],[-73.86484009584302,40.767792055213725],[-73.86473884284932,40.76770264928903],[-73.86458486962489,40.76756669037988],[-73.86404975698171,40.767063947613885],[-73.86353063445014,40.76657622420636],[-73.86340214931712,40.76645551226386],[-73.8632180525856,40.76625081641753],[-73.8631233369352,40.76630229370256],[-73.86306673382649,40.76633381395502],[-73.8629844849958,40.766379617097186],[-73.86297348714794,40.76642428351213],[-73.8628129073477,40.76650540111619],[-73.86272021413627,40.766670642291594]]]]}}]}