{"type":"FeatureCollection","features":[{"type":"Feature","properties":{"district":"502"},"geometry":{"type":"MultiPolygon","coordinates":[[[[-74.07346627066252,40.57838568589763],[-74.07345235029628,40.57838146400744],[-74.0734369851189,40.57839568418814],[-74.073422284811,40.5784103080231],[-74.07340826824951,40.57842531790992],[-74.07339495255152,40.57844069457204],[-74.07338235571389,40.578456419402336],[-74.07337751844594,40.57845929629371],[-74.0733722356986,40.57846167607407],[-74.0733665968554,40.578463519819636],[-74.07336069570323,40.57846479714755],[-74.07335462647943,40.57846548722387],[-74.07334849309815,40.578465577920156],[-74.07334239355201,40.578465066828436],[-74.07333643243895,40.578463963933636],[-74.07333070316156,40.578462288944756],[-74.0733253059379,40.57846006525194],[-74.07332032496554,40.57845733351126],[-74.07331584532238,40.578454135885764],[-74.07331194199432,40.578450528450176],[-74.0733086761243,40.57844656645025],[-74.07330610403751,40.57844232021253],[-74.07330426821294,40.57843785621916],[-74.07330319905448,40.578433250006604],[-74.07330291158644,40.5784285774562],[-74.0733034140223,40.57842391529114],[-74.07330469502114,40.57841934058235],[-74.07331420346311,40.57840459208318],[-74.07332463446704,40.57839021038672],[-74.07333596236282,40.57837622985256],[-74.0733481590608,40.57836268199397],[-74.07334703225152,40.57835279863807],[-74.07334515012117,40.57834298277625],[-74.07334252105662,40.5783332684115],[-74.0733409073627,40.57832719800366],[-74.07334007906594,40.57832103646096],[-74.07334004853416,40.57831484190815],[-74.0733408134175,40.57830867549517],[-74.07334152248276,40.57830590226112],[-74.07334236696877,40.57830259586161],[-74.07334469475148,40.57829666232213],[-74.07334777133936,40.578290930847665],[-74.07335157262345,40.57828545640336],[-74.07335605669653,40.57828029279285],[-74.07336118472098,40.578275488289336],[-74.07336690379651,40.57827109016993],[-74.07337316189488,40.57826713967987],[-74.07337989556207,40.57826367756945],[-74.07338704462865,40.57826073436732],[-74.07339453332243,40.578258338266764],[-74.07341048150207,40.57825641220944],[-74.07342624827156,40.57825375834991],[-74.0734417751959,40.578250386609966],[-74.07345960990148,40.57823289685066],[-74.07347805846352,40.57821577995175],[-74.07349710639637,40.578199050329765],[-74.0735026389054,40.578196640060824],[-74.07350852334758,40.578194777555645],[-74.073514668353,40.57819349286028],[-74.07352097748905,40.578192807647824],[-74.07352734903539,40.57819273052735],[-74.073533681265,40.57819326390929],[-74.07353987705248,40.578194398976805],[-74.07354583684445,40.57819611669529],[-74.07355146657478,40.578198393000676],[-74.07355667809306,40.578201188747684],[-74.07356138742045,40.57820446194013],[-74.07356551979392,40.57820815935153],[-74.07356901187015,40.57821222272224],[-74.07357180930835,40.57821658842596],[-74.07357386347465,40.57822118747167],[-74.0735751468232,40.5782259466667],[-74.07357563510095,40.5782307898005],[-74.07357532163515,40.578235643332086],[-74.07356610854268,40.578249761920446],[-74.07355619533521,40.578263603192354],[-74.07354559978785,40.57827714736778],[-74.0735343346205,40.578290372994466],[-74.07352241805086,40.57830326314022],[-74.0735199987435,40.57830567895665],[-74.07350986543717,40.57831579785896],[-74.07349669675456,40.57832795971463],[-74.07353135170506,40.578347845577156],[-74.07356653230441,40.578367186621556],[-74.07360222645721,40.578385973305984],[-74.07363841745595,40.57840419810186],[-74.0736996934535,40.57843498022389],[-74.07376053874323,40.578466256634314],[-74.07382094607223,40.57849802465797],[-74.0738809055482,40.57853027927601],[-74.07394041277513,40.5785630183142],[-74.07406033780543,40.578627397387294],[-74.07418094820493,40.5786910292133],[-74.07430257821704,40.5787577113009],[-74.07430790841198,40.57876125411872],[-74.07438401619959,40.578802481799265],[-74.07446028819835,40.57883936042374],[-74.07454539912841,40.578884811947404],[-74.07462334758766,40.57892820057845],[-74.07470110047474,40.57896342623969],[-74.07481070714091,40.57902120169422],[-74.07508288192615,40.5791601587558],[-74.07499413073515,40.5792365574165],[-74.07492909104914,40.579171260321985],[-74.0748231878456,40.57909893296449],[-74.07480676226291,40.579092025696454],[-74.07478997100371,40.579085651072994],[-74.07477284308207,40.579079819126804],[-74.07475540795504,40.57907454290587],[-74.07473769880751,40.57906982892212],[-74.07471974443402,40.579065687208534],[-74.0747015773599,40.57906212410979],[-74.07468800489842,40.579060139165136],[-74.07467460447475,40.57905756004724],[-74.07466142311903,40.57905439510227],[-74.0746485023713,40.579050655192574],[-74.07463588772636,40.57904635134571],[-74.07462361809428,40.579041500457],[-74.07461173941246,40.5790361162341],[-74.07460028663816,40.57903021792035],[-74.07458930110093,40.579023824754984],[-74.07457881710285,40.57901695966728],[-74.07456887026298,40.57900964407816],[-74.07455949444534,40.57900190209004],[-74.07454666036014,40.578987206518974],[-74.07453317848523,40.578972854467196],[-74.07451906179989,40.57895885966357],[-74.07450432746315,40.5789452406923],[-74.07448899504459,40.5789320102729],[-74.07447307994603,40.57891918749344],[-74.07445660063782,40.57890678457135],[-74.07443957713214,40.578894817241235],[-74.0744249992943,40.57888615200667],[-74.07440993884526,40.57887798230015],[-74.07439442348486,40.57887032167336],[-74.07437848377197,40.57886318618929],[-74.07436215136033,40.57885658839182],[-74.074345454168,40.57885054082766],[-74.07432842692495,40.57884505620623],[-74.07431110216152,40.57884014539582],[-74.07429351108699,40.578835816752694],[-74.07427568952454,40.57883207829482],[-74.07426066418718,40.57882996792165],[-74.0742458121771,40.578827234392165],[-74.07423117920446,40.57882388471313],[-74.07421680900728,40.57881993058347],[-74.07420274268361,40.57881538102339],[-74.0741890255155,40.57881025325913],[-74.0741756966256,40.5788045581551],[-74.07416279646655,40.57879831712905],[-74.07415036416721,40.57879154657381],[-74.07413808612743,40.57878360002793],[-74.07412628574855,40.57877524373028],[-74.0741149845796,40.57876649240983],[-74.07410420131792,40.578757365153],[-74.0740939627893,40.578747879700714],[-74.07408428615156,40.578738053967776],[-74.07407519230351,40.5787279107249],[-74.07406669862326,40.57871746838916],[-74.07405882380822,40.57870674621456],[-74.07404582592638,40.578695571158505],[-74.07403220847772,40.57868482956412],[-74.07401800049178,40.57867454520154],[-74.07400322703648,40.57866473598014],[-74.07398791515534,40.57865541796519],[-74.07397209167434,40.578646609567315],[-74.07395578869172,40.57863832802132],[-74.07393903412809,40.57863058805156],[-74.07392185897939,40.57862340387791],[-74.07390268867505,40.578616131021704],[-74.07388314529085,40.57860945497498],[-74.0738632635544,40.57860338693955],[-74.07384307577864,40.57859793996188],[-74.07382261580663,40.57859312005109],[-74.07380191528604,40.57858893489309],[-74.07378101047931,40.57858539267331],[-74.0737599334711,40.57858249889963],[-74.07374662046949,40.57857738841363],[-74.07373369993405,40.57857172047098],[-74.07372121429091,40.5785655131378],[-74.07370920047453,40.57855878565632],[-74.07369769673865,40.578551558273325],[-74.07368673738576,40.578543854588645],[-74.07367635847415,40.57853569652559],[-74.07366659189495,40.578527112711434],[-74.07365746469745,40.5785181249079],[-74.07364900987565,40.57850876559474],[-74.07363842048949,40.578497026886836],[-74.07362722877563,40.578485615079046],[-74.07361545145487,40.578474550096495],[-74.07360310700233,40.57846384884761],[-74.07359021389335,40.578453528408374],[-74.07357679631478,40.57844360467852],[-74.07356287208142,40.578434093561725],[-74.07354846340155,40.57842501028872],[-74.07353359424245,40.57841637092686],[-74.073518289883,40.57840818584659],[-74.07350591302189,40.578401751752835],[-74.07349309093149,40.57839584432032],[-74.0734798634038,40.578390484464734],[-74.07346627066252,40.57838568589763]]],[[[-74.06436003721248,40.588267891174986],[-74.0644088166617,40.588238924315945],[-74.0645875231508,40.588403157415854],[-74.06454186133774,40.58843399239447],[-74.06436003721248,40.588267891174986]]],[[[-74.05498867839447,40.60666069691195],[-74.05499916476869,40.60664574478428],[-74.05503373135764,40.60665982614352],[-74.05505194098815,40.60663386097302],[-74.0550195433676,40.60662066296677],[-74.05505591012937,40.60656880569483],[-74.05510403532163,40.60658841067178],[-74.05517251016464,40.60649076734946],[-74.05528719697126,40.606538890078916],[-74.05516001122363,40.60673049185365],[-74.05498867839447,40.60666069691195]]],[[[-74.19614123102053,40.634792758993704],[-74.1929756774532,40.633142832519844],[-74.19267764229556,40.6329864660793],[-74.1920996012195,40.63266893335377],[-74.19151630640994,40.63235702965883],[-74.19092785232876,40.63205080546727],[-74.19033433426848,40.63175031033222],[-74.18973584833743,40.631455592879036],[-74.18913249163083,40.631166700912715],[-74.18852436165704,40.63088368106139],[-74.18791155687735,40.63060657912072],[-74.1872941765053,40.630335439928345],[-74.18667232049144,40.63007030735652],[-74.18591916918037,40.629746445758],[-74.18517065902253,40.62941640239796],[-74.18442687726797,40.62908021567727],[-74.18368791092843,40.628737925050885],[-74.18190235713591,40.62775580720642],[-74.18033424842396,40.62683463017525],[-74.17993706113884,40.62660129652013],[-74.17954470699722,40.626362354117994],[-74.17951262568036,40.62634362487914],[-74.17950589940286,40.626339212949745],[-74.17911934851915,40.62608823881927],[-74.17834020760044,40.62549627227675],[-74.17808820191244,40.62526042651791],[-74.17787066710403,40.62504585232074],[-74.177815021471,40.62499096290203],[-74.1777529863654,40.62493844985084],[-74.17610052859047,40.62340624288056],[-74.17519625732282,40.622706243879776],[-74.1749032855397,40.62252910713546],[-74.1745970625859,40.62236401199189],[-74.17427887985586,40.6222117923562],[-74.17395016779946,40.62207316851805],[-74.17361244094332,40.621948740869996],[-74.17326730843233,40.62183898386305],[-74.17270752202464,40.6217115382827],[-74.17236261023876,40.6216357988652],[-74.17207113004659,40.62157862058549],[-74.17181178095925,40.62154338375484],[-74.17095546513751,40.62144218062774],[-74.1698574068933,40.62131238690497],[-74.16953656511413,40.62127050011007],[-74.16923624546466,40.62121643367124],[-74.16888894311735,40.62115114334984],[-74.1687847205829,40.62112402854464],[-74.16847311342414,40.62104581530473],[-74.16808086339644,40.620936256187214],[-74.16769710361498,40.620790274752345],[-74.16742666689824,40.62067728407179],[-74.16603193306253,40.62009453454093],[-74.16570682521464,40.619954036436205],[-74.16484190385371,40.61957240490361],[-74.16394094976245,40.619143261934965],[-74.16337391839663,40.618854590281046],[-74.1623477632941,40.618342156552075],[-74.1616180742892,40.61794606368576],[-74.16050069212343,40.617247900283566],[-74.15983178936418,40.61681614574849],[-74.15910521538211,40.616321565153456],[-74.15861741726604,40.615939315916215],[-74.1579267386242,40.61545742460436],[-74.15737383656335,40.61503191082921],[-74.15651187880528,40.61435448200973],[-74.15479265275785,40.61303223093468],[-74.15474080231684,40.61299231789839],[-74.15386832335898,40.612320627590584],[-74.1537911672324,40.61225561225211],[-74.15371834287455,40.61220628185267],[-74.15317275341836,40.611761521753024],[-74.15120348249143,40.6102649953819],[-74.15031900766338,40.609592814688085],[-74.15018666517093,40.60949781115461],[-74.14968423824625,40.6092005379404],[-74.149099517847,40.60888255698404],[-74.14886961338834,40.608771577548666],[-74.14839614982166,40.60855544350162],[-74.14823886652663,40.608494144804084],[-74.14788926774686,40.60835789214081],[-74.14759095329067,40.6082574343828],[-74.14724381882993,40.60814211774673],[-74.14628177431099,40.60788627373098],[-74.14549903589783,40.60773037847919],[-74.14456101095875,40.607615025579996],[-74.14394558213112,40.60759048548953],[-74.14355036507004,40.60757472391175],[-74.14287916735698,40.60758543877459],[-74.14184449222984,40.60764154712315],[-74.1408864119255,40.607693493897195],[-74.13984265168817,40.60774631044312],[-74.1390029483852,40.607791067395354],[-74.13806929825363,40.607840823962555],[-74.13713678899336,40.60789051177448],[-74.13640797387673,40.60792967169984],[-74.13616287514257,40.60794418253677],[-74.13494258233787,40.60800696469978],[-74.13400909133689,40.608054981972934],[-74.1330793880416,40.60810279729911],[-74.13210459722356,40.608152923603924],[-74.13156873408577,40.608181172361114],[-74.1309400232729,40.60821431241553],[-74.12983323759023,40.60830394329485],[-74.12874897506448,40.608391741031916],[-74.12784267146692,40.60850028947291],[-74.12742960813658,40.60854976033676],[-74.126743615609,40.60863191472392],[-74.12650911524472,40.60866290830635],[-74.12630497842636,40.608699642945595],[-74.12520040380808,40.608898405014926],[-74.12514563249178,40.608908471012185],[-74.12452618787435,40.609022318954196],[-74.12398126112029,40.6091352185804],[-74.12350639197315,40.60923360219735],[-74.12326521987741,40.60929134754636],[-74.12252324810149,40.60946899970985],[-74.12247214696787,40.60948123504755],[-74.12135179626246,40.60976526815922],[-74.1209847227257,40.60986713086813],[-74.11995510266242,40.61017339900131],[-74.11837527387618,40.610666813413744],[-74.11742781366871,40.61093273506458],[-74.1169152638732,40.61103809341323],[-74.11678874132109,40.611061021910515],[-74.11657338760254,40.61110396004219],[-74.1163561722905,40.611141054878075],[-74.1161373683003,40.61117225981055],[-74.11591725054483,40.61119753563248],[-74.11569609558859,40.61121685058638],[-74.11547418136762,40.61123018033021],[-74.1152517866413,40.61123750819343],[-74.1150291908366,40.61123882496901],[-74.11480667363357,40.61123412900243],[-74.11458451461309,40.611223426194016],[-74.11425488230795,40.611213766576164],[-74.11392544671725,40.611190763968814],[-74.1135976182838,40.61115444864286],[-74.11327277879106,40.61110493518042],[-74.1129522981178,40.61104245345092],[-74.11263747381062,40.61096736676253],[-74.11113638144946,40.61058606049667],[-74.11082654354688,40.61050691535172],[-74.11047956502077,40.61041865614496],[-74.11000934118236,40.61033620554732],[-74.1094569652844,40.61028543866748],[-74.10890146223976,40.610251584996384],[-74.10885268251273,40.61025010953572],[-74.1084895851977,40.61024455829759],[-74.10812641669472,40.61024367474834],[-74.10776328028379,40.61024745913928],[-74.10740027951036,40.61025591055519],[-74.10703751733539,40.61026902642799],[-74.106675096923,40.610286803027826],[-74.10549389024749,40.61034361757797],[-74.10429495465007,40.61038212983743],[-74.10337597017384,40.610413471762335],[-74.10290182444864,40.6104291028299],[-74.10239596981226,40.6104480281834],[-74.1018122545728,40.6104698627694],[-74.10165478069662,40.61047575358824],[-74.10138596828358,40.61048580754603],[-74.10082806942178,40.610506671840085],[-74.10003616590062,40.61053628231086],[-74.0994698982082,40.61055810137319],[-74.09938453032048,40.61056138993357],[-74.09776968763877,40.61062359294035],[-74.09730455685586,40.610627320965385],[-74.09721750729024,40.610628017665164],[-74.09592704571823,40.61063834748243],[-74.0955582976852,40.61062477803715],[-74.09519027076243,40.61059466398733],[-74.0948248911882,40.61054805736024],[-74.09446404943557,40.610485219312984],[-74.09410959109384,40.610406552122214],[-74.09305685619925,40.61011993573754],[-74.09081541062314,40.609236585566876],[-74.09045495931394,40.60909452637675],[-74.08949370131715,40.608686933258554],[-74.0887463865131,40.60837004626907],[-74.08796268696004,40.6080518279623],[-74.08716421604898,40.60772760222118],[-74.08672997103233,40.60755127011719],[-74.08542756314277,40.60702239052929],[-74.08490002512106,40.606890132547235],[-74.08406781698558,40.60668148534083],[-74.08355131601716,40.60655198637114],[-74.08341933374216,40.606522508661435],[-74.08280949863452,40.60641097906998],[-74.08155470123603,40.60629029656758],[-74.08014765564371,40.60624583521186],[-74.07778089565538,40.6061710088579],[-74.07714696587202,40.606145234230546],[-74.07656734735326,40.606121664158294],[-74.0758492212917,40.606037070885534],[-74.07551714010003,40.60599795004029],[-74.07543239714383,40.605987966842996],[-74.07478942201685,40.605870212009215],[-74.07399965308095,40.605725567958316],[-74.07358326664053,40.60562106745149],[-74.07335207366755,40.60556304427184],[-74.07151493323373,40.60497785691174],[-74.0700036821387,40.60437929947801],[-74.06914030987431,40.6040397187304],[-74.06898118280081,40.60398191996941],[-74.0666288063531,40.603105365705765],[-74.06550663190987,40.602719880430016],[-74.06508514161266,40.60259994990577],[-74.06400081370627,40.602291398571],[-74.06350565660136,40.602150054328064],[-74.06260772836667,40.60194557709118],[-74.06212499089307,40.60185548740163],[-74.06209266513986,40.601690745145945],[-74.06206703967105,40.60156014773275],[-74.0619561793392,40.601236455447086],[-74.06108414059953,40.59981639317767],[-74.06128970029472,40.59974897469781],[-74.06192002670613,40.59954224118968],[-74.06206342364942,40.59949479462592],[-74.06284072918095,40.59923759972508],[-74.06375933358142,40.59893485952199],[-74.06362622625214,40.59875241525653],[-74.06357947124482,40.59869677168176],[-74.06329953647843,40.598363606087126],[-74.06289600027026,40.59786222777072],[-74.06248200318181,40.597347652401574],[-74.06205558683958,40.596849011240074],[-74.06173882953804,40.59641123111862],[-74.0605601754049,40.594911514274806],[-74.06150776397281,40.594367590112114],[-74.06181815757961,40.594189417840056],[-74.06260093582085,40.59358190633349],[-74.06318609945225,40.59310857750507],[-74.06328259119084,40.59306815939663],[-74.06336050557306,40.59290655690686],[-74.06417895969571,40.592341448548765],[-74.06444785486082,40.592139418535616],[-74.06533801183039,40.5914348591445],[-74.0657763656931,40.591062809884676],[-74.06656173018017,40.59039622314074],[-74.06662559502347,40.59034201970419],[-74.06667370775737,40.590294723561016],[-74.06874839258653,40.58825506740616],[-74.06902539020494,40.58799111108644],[-74.06928738301274,40.58771779238392],[-74.06953355989754,40.58743586778396],[-74.06976321751429,40.58714614497133],[-74.06997575324532,40.586849477136155],[-74.07021169317746,40.58656661426753],[-74.07119772340371,40.58536311010494],[-74.07131150581861,40.58520705138404],[-74.0714436987433,40.58505838271947],[-74.07159293267544,40.584918952080855],[-74.07175747448791,40.58479040696384],[-74.0719351994526,40.58467412807065],[-74.07215609353575,40.584534930743196],[-74.07236670021453,40.584385959769754],[-74.07256592173572,40.5842279009277],[-74.07275277824965,40.58406152787724],[-74.0729264086931,40.58388770634697],[-74.07353379846664,40.583310912341226],[-74.07364508896902,40.58319515040617],[-74.07412410006059,40.58272365250516],[-74.07469685118663,40.582126386264335],[-74.0747511641769,40.58206698033417],[-74.07525161728388,40.58151956716398],[-74.0767304009687,40.58020394952771],[-74.07772692194403,40.579317343166856],[-74.07780237408417,40.579250212935655],[-74.07787147926861,40.57918975848513],[-74.07915092380901,40.57804997273607],[-74.07954298859444,40.57778348006538],[-74.07994727549337,40.57752743256082],[-74.08036305216821,40.57728231694468],[-74.08078953901085,40.577048565532635],[-74.08171591430917,40.57652039187309],[-74.08243930568071,40.57610793973531],[-74.08290752607691,40.57583530219964],[-74.08334217563856,40.575579661539486],[-74.08376838818906,40.57533179757971],[-74.0842588883326,40.575044576587665],[-74.08488808684162,40.574678175935844],[-74.08545852270234,40.57432917815158],[-74.08580203485118,40.57413471505944],[-74.08769737595837,40.57306188404076],[-74.08778171028229,40.57301917361747],[-74.08791939165785,40.5729494451846],[-74.08813355299466,40.57282772022692],[-74.08833888007261,40.57269721992514],[-74.08853447613053,40.572558506074095],[-74.08871950343267,40.57241223424376],[-74.088766266508,40.57237448501528],[-74.08881407698172,40.57232494606333],[-74.08917857027056,40.571947289049874],[-74.08941764592073,40.571720783525514],[-74.08946037717645,40.57168029837468],[-74.0894625259192,40.57160934520611],[-74.08970621316897,40.57136298723555],[-74.090277603058,40.570781016117365],[-74.09107091185476,40.569929195854755],[-74.09204451580729,40.56889233874066],[-74.09275074305309,40.56809604838547],[-74.09277058223982,40.56794341060323],[-74.09387294850102,40.568408942908526],[-74.09460596825294,40.568789623772844],[-74.0953463096093,40.56918138886719],[-74.09608851930984,40.56956030529562],[-74.09682166846447,40.56994779822793],[-74.09756635004224,40.57034244443881],[-74.09832014934612,40.57073153076877],[-74.0990495449777,40.57111078210972],[-74.09978756649436,40.571503844195824],[-74.10054051318492,40.571881912826115],[-74.10127150779999,40.572278465012865],[-74.10202930939958,40.57266167917268],[-74.10277197148322,40.57304662240315],[-74.10352244245155,40.573428284113334],[-74.10426936968626,40.5738112682866],[-74.10470979141776,40.57400593940494],[-74.1052429037728,40.573094039891096],[-74.1048925340589,40.5729151640624],[-74.10306235025081,40.571924855219216],[-74.10391626530945,40.570894293252366],[-74.1039260189981,40.5702995956552],[-74.10408196769664,40.5702958919211],[-74.10423741509481,40.570285669942294],[-74.10439189301121,40.57026896050573],[-74.10454493618545,40.570245813937134],[-74.10469608367924,40.57021629995025],[-74.10484488026572,40.570180507435744],[-74.10499087780033,40.570138544194386],[-74.10513363657111,40.57009053661156],[-74.10527272662341,40.57003662927688],[-74.10540772905468,40.56997698454847],[-74.10553159110705,40.56991415115203],[-74.10565064124897,40.56984612374942],[-74.10576450537745,40.5697731161184],[-74.10587282569004,40.569695357686726],[-74.10597526180933,40.569613092810755],[-74.10607149185262,40.569526580007306],[-74.10616121344317,40.56943609114146],[-74.10624414466061,40.56934191057169],[-74.10662152584793,40.568915066706175],[-74.10660439393166,40.56877826876844],[-74.10547294557227,40.568255342666504],[-74.10466931614015,40.56787712745819],[-74.10386985559651,40.56750064951886],[-74.10307036662634,40.56712282512834],[-74.10208938262846,40.56664840365472],[-74.10154961567143,40.566385856523254],[-74.10078650997818,40.56601481909908],[-74.10002280975408,40.56564348829699],[-74.0989520165496,40.5651239930238],[-74.09763008129978,40.56448217054441],[-74.09797134911209,40.56411183211553],[-74.09825721085363,40.56379016257764],[-74.09853536126535,40.563477946105984],[-74.09882059631892,40.56315951905838],[-74.09888549100218,40.56308701946264],[-74.09904988089484,40.562903364819476],[-74.09935114974265,40.56257141434154],[-74.09964346773398,40.56224906056918],[-74.09996375179708,40.561884555993366],[-74.10027053915648,40.56154646516372],[-74.10071271691454,40.56104934258486],[-74.10080815177479,40.56094204763278],[-74.1012385736835,40.560468000667655],[-74.10152273507835,40.56015149400911],[-74.1017373268586,40.55990557835623],[-74.10199170414835,40.56001489293935],[-74.10224304158545,40.560128224399676],[-74.10249123013779,40.56024552358007],[-74.10273616213739,40.560366739602195],[-74.10297773132703,40.5604918198885],[-74.10321583303445,40.560620709985386],[-74.10345036383897,40.56075335418775],[-74.10368122198966,40.56088969496001],[-74.10390830732686,40.561029673163006],[-74.1041315213253,40.56117322807924],[-74.10484627124498,40.561595239413094],[-74.1055764550874,40.561989973492665],[-74.10617237048167,40.562296332829504],[-74.10690692431889,40.56266704603569],[-74.10710400861026,40.562769883393294],[-74.10786795862475,40.56314558825776],[-74.10861594087223,40.56352836334725],[-74.10936214501801,40.563908937765504],[-74.11013947171949,40.56431066683213],[-74.11211239787428,40.56550555775877],[-74.11351522329294,40.56368981921875],[-74.11429866700617,40.56267572408429],[-74.11471796792458,40.56293248751071],[-74.11509939950626,40.56316607073662],[-74.11617422464388,40.56380273188883],[-74.11630003926271,40.56387921043613],[-74.11636336408688,40.5639156379861],[-74.11641052729098,40.563943515913444],[-74.1172129034508,40.56441776378097],[-74.11804055353461,40.56492164205976],[-74.11876038871955,40.56535522432635],[-74.11948009742046,40.56577955271753],[-74.12024008986266,40.56622746568493],[-74.1216663634852,40.5670884600854],[-74.12309281139778,40.56796636645468],[-74.12329206152012,40.56807586384377],[-74.12359663185322,40.56823998127303],[-74.12395063694647,40.56843071865579],[-74.12489904372298,40.568949142444666],[-74.12418560387265,40.56942453772848],[-74.1235840138025,40.569832528649016],[-74.12345153036637,40.56992053293236],[-74.12341648885675,40.56994919623066],[-74.12320988266326,40.57008812580194],[-74.12314997152241,40.57013107766729],[-74.12309848397543,40.570167587163944],[-74.12278967273436,40.57042984476904],[-74.12259644928587,40.57059643316355],[-74.12216856569736,40.570939493740454],[-74.12162564000378,40.571501393868246],[-74.12144535705913,40.57177561468056],[-74.12138731344967,40.57209221107222],[-74.12138815410025,40.57222366825377],[-74.1213575435243,40.572372611911305],[-74.12135751975748,40.57237271128154],[-74.12135750783654,40.57237280075498],[-74.12134254805521,40.572523871079284],[-74.12134352069292,40.5726756622047],[-74.1213435208247,40.572675734744934],[-74.12136044698721,40.57282674373953],[-74.1213929926679,40.572975548789685],[-74.12160439170627,40.57355591988306],[-74.12170075509383,40.57383202775916],[-74.12183079829734,40.57421708896579],[-74.12185333597442,40.574653181396734],[-74.12172623919746,40.574906985080915],[-74.12209602127048,40.575132587375364],[-74.1226437541449,40.57548301968052],[-74.12276058008656,40.57556662573636],[-74.12276069843986,40.5755667068618],[-74.12276084030218,40.575566787962096],[-74.12289120580702,40.57564050035768],[-74.12289127729666,40.57564054584926],[-74.1228913599734,40.57564058144467],[-74.12303304205982,40.57570264747391],[-74.12303319642892,40.57570271917887],[-74.12303336131093,40.57570277277928],[-74.12318352348287,40.57575177194205],[-74.12318366483865,40.575751816185885],[-74.12318380727913,40.57575185288965],[-74.12333936470007,40.57578694076455],[-74.12333955329608,40.575786986130176],[-74.12333973043283,40.57578701291225],[-74.12349756483707,40.57580793332597],[-74.12405836162013,40.57583287168289],[-74.12515895689145,40.57588135397186],[-74.1253527570123,40.5759010430203],[-74.12567267803898,40.57598444694706],[-74.1266568893801,40.57628493291633],[-74.1270674702399,40.57640521866883],[-74.12746749841895,40.57547991024965],[-74.12749282458184,40.57542515778847],[-74.1275266186025,40.57537313121725],[-74.12756838799784,40.57532458869407],[-74.12761752419082,40.57528023763031],[-74.12767331100603,40.57524072431519],[-74.1277349354833,40.57520662455348],[-74.1278471150734,40.5751675762501],[-74.1281479757139,40.575056538578664],[-74.12914464419512,40.57473005414282],[-74.12928320200088,40.57468248236041],[-74.13094048782861,40.57410601019759],[-74.13195383538311,40.573742530618354],[-74.13251620369,40.57355762267835],[-74.1326491996102,40.57351620682444],[-74.13278436253678,40.57347909372988],[-74.13292145365635,40.573446349350256],[-74.13306022978897,40.57341803142665],[-74.13324007200376,40.57338227778516],[-74.13342107438392,40.57335010812877],[-74.13360311375399,40.57332154348114],[-74.13378606699898,40.5732966040147],[-74.13427749308929,40.573238228360545],[-74.13461855662266,40.57319771268463],[-74.13579193392479,40.57305194983349],[-74.13635343242755,40.57299130958063],[-74.13704258187798,40.57290845220838],[-74.13813873693235,40.5727796429606],[-74.1384659707023,40.572739887373245],[-74.1402400878657,40.5725273721192],[-74.14110631340851,40.572422552633284],[-74.14184764649323,40.57233261396787],[-74.14418588207509,40.57203741000506],[-74.14580474206126,40.571847769480925],[-74.14699057739088,40.57201332097942],[-74.14723568362837,40.571461058997585],[-74.14802148734654,40.57141057506486],[-74.1501459479378,40.57127406178277],[-74.15163713591767,40.570746928820625],[-74.15262870233359,40.57038244341253],[-74.15794134537157,40.56842937856895],[-74.15860044576925,40.56818705154715],[-74.16103653590581,40.56729134017303],[-74.162622057179,40.56669466178307],[-74.1643866512156,40.56562486153036],[-74.16442737614669,40.56533798372595],[-74.16446748891072,40.5650552025488],[-74.16456764519961,40.564349133161336],[-74.16493603934988,40.56367288711128],[-74.1647556775845,40.56296797148082],[-74.16476587210579,40.56293577451059],[-74.16480732192885,40.56265226381822],[-74.16485214996642,40.56234564184505],[-74.16485726079661,40.56231375078337],[-74.16498687003751,40.561504976087754],[-74.16499479811397,40.56145550263103],[-74.16499616553936,40.5614469703727],[-74.16530167900939,40.56100328062592],[-74.16555013572531,40.560642448222374],[-74.16591981713817,40.56029041026981],[-74.16688972022499,40.560476605365686],[-74.16982582382225,40.56109042060473],[-74.17014729329493,40.56113078677121],[-74.1704674823617,40.561176693073065],[-74.17078622697387,40.561228116200326],[-74.17110336371154,40.5612850295822],[-74.17125098216974,40.56132026379566],[-74.1715081866496,40.56139773056195],[-74.17177723900598,40.561492415865885],[-74.17185166522756,40.56152092302042],[-74.17191921399476,40.56155171983517],[-74.17225507663773,40.56170483715598],[-74.17346451822075,40.56228693624431],[-74.1742166231723,40.562572971726425],[-74.1747920243117,40.562798132747076],[-74.17489480870245,40.56283901559334],[-74.1750004144386,40.56287547720736],[-74.1751085148576,40.56290740480354],[-74.17521877569325,40.5629346998334],[-74.17533085578172,40.562957277648984],[-74.17544440842943,40.562975068411035],[-74.17564144945825,40.56300412405232],[-74.17583673693201,40.56303940003665],[-74.17602993340013,40.563080835408705],[-74.17622070530665,40.56312835853146],[-74.17640872271883,40.563181887334224],[-74.17659366074243,40.56324132932091],[-74.17758036744722,40.563755440234324],[-74.17839813942562,40.567110638818],[-74.17907699960921,40.56987500000229],[-74.17936919981332,40.570548313398064],[-74.18312593889618,40.57226059189905],[-74.1834662119469,40.572193200155],[-74.18382521362537,40.57207349435332],[-74.18474207611786,40.57171462550536],[-74.1857085213456,40.572335534281684],[-74.18591977263794,40.57245730314569],[-74.18602714496609,40.5725004743427],[-74.18609921761899,40.57252801696912],[-74.18627702752893,40.57276513287528],[-74.18646174499175,40.57299915853808],[-74.18665327775,40.57322997698208],[-74.18685153013699,40.57345747283374],[-74.18705640312413,40.57368153237913],[-74.18726779437029,40.57390204362085],[-74.18748559827321,40.574118896333914],[-74.18770970606387,40.57433198212826],[-74.18794000573521,40.574541194480844],[-74.1881763822238,40.574746428811764],[-74.18841871742485,40.57494758252839],[-74.18866689025201,40.57514455507725],[-74.18892077669713,40.57533724799407],[-74.18918024989303,40.575525564952976],[-74.18922271731388,40.57532143603617],[-74.18912508246194,40.57461069967051],[-74.18903536677662,40.57388172255656],[-74.18900967352658,40.57324985612923],[-74.18903989578367,40.57266650614205],[-74.18909431441936,40.57218640956888],[-74.18919660916917,40.57173053717699],[-74.18925126691926,40.57133550394108],[-74.18919537970363,40.57093120677367],[-74.19013294194149,40.57103735259132],[-74.19025182346083,40.5710571385718],[-74.19010880856297,40.57159530506392],[-74.19006957785837,40.571761480977656],[-74.18997517565342,40.572310462635066],[-74.18992058886269,40.57279962059879],[-74.18989637115425,40.573282622184834],[-74.18992214125727,40.57393531746385],[-74.18998091618703,40.57449487949786],[-74.19006026676978,40.574893069081604],[-74.1903770210932,40.576318523404325],[-74.19046207035011,40.57667912022072],[-74.19064053007153,40.57668502852011],[-74.19176844245112,40.57662363562067],[-74.19363299112548,40.57726170888834],[-74.19749800008749,40.57885900058811],[-74.19887622636102,40.57930361863374],[-74.20058400025056,40.57951100041147],[-74.20294999980203,40.58010200008033],[-74.20441199948044,40.58017000092054],[-74.20539891465494,40.57984245705172],[-74.2060284124251,40.579764267145656],[-74.20596154294695,40.58004699376596],[-74.20598641215831,40.58007698896952],[-74.20600309864412,40.58020374451832],[-74.20601270293518,40.58025255975394],[-74.2060116443702,40.580278228910245],[-74.20599824576975,40.58030169740601],[-74.20598907320323,40.58031812675778],[-74.20598602922108,40.58033853769384],[-74.20598768121006,40.580366848459846],[-74.20599414424598,40.58039520069123],[-74.20599255081491,40.58041038393609],[-74.20598341988567,40.5804239328708],[-74.20594660290547,40.58045087268151],[-74.20592159850311,40.58046900201946],[-74.20591861496264,40.580485222586965],[-74.20591753329502,40.58051246237602],[-74.2058970544074,40.58053231652669],[-74.20589079814889,40.58055520746575],[-74.20582069215298,40.58060282864602],[-74.20577550769039,40.58063808215239],[-74.20576494221697,40.58065581066178],[-74.20575982767907,40.58067672805665],[-74.20575734259258,40.58070605258617],[-74.2057549623511,40.58072804280369],[-74.20575332946555,40.580745845277804],[-74.20576270054559,40.580763216256365],[-74.2057719724298,40.58078740018295],[-74.2057744110879,40.580808904141975],[-74.2057678712305,40.580833480262285],[-74.20574692749514,40.58085583744449],[-74.20574262948877,40.58086785251209],[-74.20574379921233,40.58088201088246],[-74.20574206147629,40.58090714934333],[-74.20573808837699,40.58094432179433],[-74.20572403289714,40.58096568893236],[-74.20569702651665,40.58097961010315],[-74.20565901048455,40.58099448746801],[-74.20561757191867,40.581008287362145],[-74.20557469907166,40.58102626850595],[-74.20544302999238,40.58105345690753],[-74.20541737057084,40.58106948698306],[-74.20541159080946,40.5810911307876],[-74.2054067987036,40.58112048305454],[-74.20539291124267,40.581137871518635],[-74.20537706597224,40.58114039268934],[-74.20535699520654,40.58114631121061],[-74.20532229370883,40.58116907939583],[-74.20528796822211,40.58120288159023],[-74.20527220884884,40.58122913856368],[-74.20526958813122,40.581258449083066],[-74.2052693620202,40.58129433506071],[-74.20527202154237,40.581351142376626],[-74.20526700378377,40.581373875096325],[-74.20524920561914,40.58140403613966],[-74.20521287714367,40.581442847347],[-74.20516545262045,40.58147469990009],[-74.20513750637973,40.58150451182147],[-74.20512521495195,40.58152628417273],[-74.20512231077558,40.58154731837971],[-74.20511158049035,40.581572371863096],[-74.20508136987236,40.58159946880283],[-74.20506947324102,40.5816328263077],[-74.20506822436067,40.58165989952387],[-74.20507853137714,40.58168619337082],[-74.20508976059683,40.581691516357104],[-74.20510800400596,40.581698963999415],[-74.20512209441732,40.581722982230815],[-74.20512367296963,40.58178121933488],[-74.20511888390119,40.581818629267104],[-74.20509095824308,40.58185340856778],[-74.20507422735601,40.58188229076435],[-74.20507012398778,40.58191489052492],[-74.2051018651468,40.58198215641986],[-74.20512510854432,40.58202005039081],[-74.20513077033338,40.58203820588253],[-74.20513225919503,40.58206652147043],[-74.20512670482992,40.582083628816804],[-74.20510505123288,40.582106643192766],[-74.20509671037522,40.58212909904518],[-74.20509542302041,40.58216596746615],[-74.20509339544918,40.58219054972934],[-74.20508854474824,40.58220819057296],[-74.20506897543812,40.582225322262666],[-74.20505645907889,40.582257403454854],[-74.2050551441379,40.58228572454974],[-74.20504263125663,40.58231887289935],[-74.20503506784873,40.58236590499735],[-74.2050190317369,40.58239318352109],[-74.20500227903965,40.582414585032716],[-74.20499119588318,40.582456815132645],[-74.20498291791678,40.58249957364165],[-74.20498022302566,40.5825348438233],[-74.20496559453855,40.582563721078174],[-74.20488662231854,40.582634391005975],[-74.204876875487,40.58265578050772],[-74.20486430388439,40.582669693831434],[-74.20483141014503,40.582684178643646],[-74.20480198335234,40.58268583469778],[-74.20477815309634,40.58268480833309],[-74.20476976291063,40.58269123515758],[-74.20476280082798,40.58270620731297],[-74.20476216027058,40.58272597764934],[-74.20476221924581,40.58274521315642],[-74.20475597011267,40.58276445890027],[-74.20473569721067,40.58278052411798],[-74.20472240233876,40.58278695967882],[-74.2047091190272,40.58279766940703],[-74.20470286889555,40.58281638089695],[-74.20470294422896,40.58284095890215],[-74.2047163529982,40.58287138976343],[-74.20472623268154,40.58289381379049],[-74.20474594990972,40.58292476698973],[-74.20475094130767,40.5829525420855],[-74.20474959018415,40.582969107836156],[-74.20473981443627,40.582980880157486],[-74.20472511173136,40.58298518171875],[-74.20471181593878,40.58299161727982],[-74.20470483416038,40.58300017809828],[-74.20470347483324,40.583014071426476],[-74.20470352560267,40.58303063518133],[-74.20471128061833,40.58304558278632],[-74.20472604416001,40.58306105098276],[-74.20473588871454,40.58307171899802],[-74.20474573327542,40.58308238801755],[-74.20475417505162,40.58309305853102],[-74.20475561223768,40.58310427678507],[-74.20474934341482,40.583117111697646],[-74.2047445073956,40.58314009485865],[-74.20474316697577,40.58315986711144],[-74.20473901192635,40.58317590193016],[-74.20472712204158,40.583183938583346],[-74.20470539425226,40.583182908959586],[-74.20466404415026,40.583181913784465],[-74.20463814971185,40.58319371480826],[-74.2046241736578,40.58320656293839],[-74.20461932144231,40.58322420426543],[-74.20461938037171,40.5832434380964],[-74.20461943766996,40.58326213952032],[-74.20460617051475,40.58327765697911],[-74.2045970827756,40.58328515337065],[-74.20458940764408,40.583295853097525],[-74.20458104289209,40.58331082891119],[-74.2045434173058,40.58338195838191],[-74.20453023988733,40.58342686275453],[-74.20451503396659,40.58349634887408],[-74.20451027225019,40.58354284236184],[-74.20449984308473,40.58357011082889],[-74.20447402884258,40.58360809223284],[-74.20442721397744,40.583653590033364],[-74.20440076433692,40.58371294584217],[-74.20439877211814,40.58374874716527],[-74.20439752718517,40.58380004333514],[-74.20440188741982,40.583850794275186],[-74.20441389194123,40.58388015932939],[-74.2044470555811,40.58395383355987],[-74.20445697556899,40.58398961536119],[-74.2044683523493,40.58404302507523],[-74.20448598348868,40.58407932556064],[-74.20453808215633,40.584156707339226],[-74.20461476082494,40.58425167733641],[-74.20463030601351,40.58429332454335],[-74.20463390208104,40.5843232388015],[-74.20462977804404,40.584349427207925],[-74.20460253447358,40.584378328050164],[-74.20442145408362,40.58451917255617],[-74.2043977140958,40.584548067115556],[-74.20437680805169,40.584586573846906],[-74.20436433899084,40.58463414937085],[-74.20436167594352,40.58468010435914],[-74.20436741459895,40.58472337263741],[-74.20439629985478,40.58477301110784],[-74.2044139254873,40.584807175103855],[-74.204424569888,40.58485043465096],[-74.20442328538292,40.58488837239223],[-74.20441781684248,40.584933798287075],[-74.20441939116992,40.58498989770936],[-74.20444200119024,40.585050232887],[-74.20443857102863,40.58507428404462],[-74.20442602919894,40.58509781515093],[-74.20441210120488,40.58512722633852],[-74.20441081363558,40.585164095243805],[-74.2044221001769,40.585196298688935],[-74.2044004957285,40.585456911678996],[-74.20441040927363,40.58549002122287],[-74.20441471663779,40.58552367532751],[-74.20440428309323,40.5855493396899],[-74.2043636722888,40.5855617015822],[-74.20434127305658,40.58557028979713],[-74.20432588794972,40.58558100271257],[-74.20431982332869,40.58559826957165],[-74.20431893886209,40.58560078425933],[-74.20431867099312,40.58560760722017],[-74.20431828965745,40.58561734925493],[-74.20431854925825,40.58561845381997],[-74.20432254891583,40.58563550794471],[-74.20434224520218,40.58565898271245],[-74.20435071666948,40.58567927108772],[-74.20435009526344,40.58570491849572],[-74.20433621964567,40.585751428175186],[-74.2043075773417,40.58578139976756],[-74.2042452874235,40.585808759236905],[-74.20417383515822,40.58581957345866],[-74.20413954560352,40.58583619705367],[-74.20411999295422,40.58585920699784],[-74.20411940258332,40.58589554107593],[-74.20414124971829,40.585935040136775],[-74.20417076912072,40.58596277116577],[-74.20420542329498,40.5860135582316],[-74.20422356877545,40.586040151159565],[-74.20425943665484,40.586081229374045],[-74.204274942826,40.586110054127154],[-74.20427713544649,40.58613943613126],[-74.20425570487673,40.586236183160636],[-74.20425857092106,40.58625648200883],[-74.2042586542666,40.58628373175744],[-74.20425381709462,40.58630618080722],[-74.20423984358409,40.58632009772122],[-74.20422026477975,40.586335092766475],[-74.20421541115921,40.58635166523307],[-74.20420228531184,40.58641420214262],[-74.20420240620946,40.58645374030307],[-74.2042169336981,40.58662068340203],[-74.20423545614085,40.58671896233107],[-74.20423706725386,40.58679107820028],[-74.20424560837007,40.5868300793691],[-74.20424571295503,40.58686427519916],[-74.20424585675664,40.5869112935229],[-74.20425040456472,40.58702348818827],[-74.20425812875469,40.587257499513825],[-74.20426533002895,40.587320535043176],[-74.2042921520311,40.587382466177985],[-74.2043541224735,40.58747959965386],[-74.20437820036997,40.58756077074906],[-74.20438266473565,40.587645183248284],[-74.20438579358988,40.587752037899975],[-74.20438319127666,40.58781722686209],[-74.20437917821553,40.58788028165817],[-74.20438633322323,40.587928356346346],[-74.20439762296981,40.58795291439132],[-74.20442567594075,40.587959276352564],[-74.20449018740175,40.5879698476157],[-74.20454212228171,40.587993264463805],[-74.20456465389368,40.58802741969463],[-74.20457893934689,40.58811502004521],[-74.20458065694791,40.58821760368281],[-74.2045514329175,40.58828711473205],[-74.20449833794224,40.588342776187886],[-74.20443395174989,40.58837281241721],[-74.20441023417295,40.58840918713109],[-74.20440523678175,40.58841960213347],[-74.20437829683353,40.58842228556085],[-74.20435234809428,40.588428423042515],[-74.20432814673387,40.58843783572686],[-74.20430639800263,40.58845024931971],[-74.20428773567988,40.58846530207764],[-74.20427270360548,40.588482555349216],[-74.20426173983127,40.588501506357545],[-74.20425516385599,40.588521602851884],[-74.20425316731408,40.58854225920019],[-74.20425580839115,40.5885628734552],[-74.20426123461074,40.58859481624069],[-74.20426068074411,40.588627023001976],[-74.20424399205666,40.58864017779601],[-74.20422490770453,40.588651279210595],[-74.20420385801403,40.58866007692316],[-74.20418131762771,40.58866637255681],[-74.20415692240479,40.58872020424664],[-74.20413021376592,40.58877339392447],[-74.20412195357059,40.58882725081276],[-74.20412200969584,40.58888147457861],[-74.20413038139179,40.58893532146066],[-74.20414695384775,40.58898805286587],[-74.2041714997651,40.58903894549939],[-74.20420368247498,40.589087301286824],[-74.20432302142393,40.589136617473564],[-74.20457422072934,40.58871913932566],[-74.20470529848622,40.588772370830746],[-74.20446810314506,40.58918269561888],[-74.20443548400931,40.58921839779449],[-74.2046460894321,40.58928574546605],[-74.20440892551585,40.58970676381176],[-74.20420300609156,40.589642971741874],[-74.2041007534238,40.58984275741269],[-74.2038588660927,40.590249525361855],[-74.20369974335796,40.590199906474986],[-74.20394167611985,40.589807396399515],[-74.2038855045637,40.589786110239075],[-74.20265866971876,40.590722145782586],[-74.2026340159661,40.59069814897179],[-74.20260466544026,40.59067745013532],[-74.20257136674729,40.59066057720901],[-74.20253496919152,40.5906479605462],[-74.20249640111362,40.59063992194176],[-74.20245664621352,40.59063666642455],[-74.20241671846067,40.59063827702813],[-74.2023776362332,40.59064471267339],[-74.20234039634423,40.59065580921559],[-74.20230594861812,40.59067128363169],[-74.20227517166538,40.59069074123804],[-74.20221688832659,40.5907469534116],[-74.20215374431567,40.590800027043066],[-74.20208602964809,40.590849718360055],[-74.20201405533443,40.59089579912525],[-74.20246775956737,40.590838825360166],[-74.20258622729119,40.590876710641574],[-74.20305254911503,40.591140541810056],[-74.2029634019564,40.591230922776866],[-74.2024549506313,40.590951125852165],[-74.20202733920699,40.59099907929216],[-74.20206727337371,40.59114453377145],[-74.20208857970908,40.591178592152374],[-74.20210693333235,40.59121363537036],[-74.20211289702719,40.59121799044847],[-74.20211784375948,40.591223031746985],[-74.20212163974655,40.591228622926096],[-74.20212418232715,40.591234612774706],[-74.20212540273818,40.59124083929983],[-74.20212526797349,40.591247134107526],[-74.20212378167746,40.59125332695727],[-74.20212098404596,40.59125925036588],[-74.20211695073955,40.59126474413692],[-74.20210582304179,40.59128520454715],[-74.20209021838282,40.591303888189564],[-74.20207060766744,40.59132023123994],[-74.2020239800381,40.591332929147484],[-74.20197947681247,40.59134947435849],[-74.20193764227687,40.59136966452105],[-74.20189898808043,40.59139325270487],[-74.2018717090535,40.59143112837175],[-74.20185112965906,40.59147138873564],[-74.20183760010951,40.59151334868555],[-74.20182829431488,40.59154386227379],[-74.20182573146035,40.591575128655634],[-74.20182998203508,40.59160628799038],[-74.20184092915534,40.59163648337985],[-74.20185827177798,40.59166488443391],[-74.20188153297832,40.591690710106604],[-74.20192266922304,40.59171525501776],[-74.20195886492745,40.5917439687678],[-74.2019893996557,40.59177627984625],[-74.20200349813028,40.59178076479522],[-74.20230284591754,40.59146932177457],[-74.20231743569836,40.59147698486408],[-74.20228727877038,40.59150864109849],[-74.2023164576832,40.591523965102944],[-74.20230864003051,40.591532521207405],[-74.20228057909593,40.591516341166454],[-74.20210009098125,40.591703902359],[-74.20202032457773,40.59178671501974],[-74.20205960871616,40.591808854189736],[-74.20200944557338,40.59186029996124],[-74.2019436762175,40.59182367412013],[-74.20175478948575,40.59201732481863],[-74.201824436096,40.59205295636981],[-74.20178248226541,40.59209513428554],[-74.20172160160581,40.59205302167929],[-74.20130339394389,40.59253148864074],[-74.20128925984356,40.59252433525535],[-74.20092540496357,40.59286637930506],[-74.200748808064,40.59275033941996],[-74.20068976792471,40.592749953459894],[-74.2006312785556,40.59275609880725],[-74.20057457670872,40.592768645519286],[-74.20052086134051,40.59278732829704],[-74.20047126826117,40.59281175209462],[-74.20042684611835,40.5928414004722],[-74.20042886471924,40.592886454567335],[-74.20042345954954,40.59293134623515],[-74.20041071584495,40.592975367443046],[-74.20039083458549,40.59301782388608],[-74.20036412932713,40.59305804593738],[-74.2003310212562,40.593095399210135],[-74.20029203254796,40.59312929456314],[-74.2002254073941,40.59316618690712],[-74.20015656826536,40.59320063639584],[-74.20004403599033,40.59328578497598],[-74.19993703428638,40.5933749804864],[-74.19983581331716,40.593468014412146],[-74.19974060973512,40.5935646692645],[-74.19965164612869,40.59366471908878],[-74.19956913050166,40.593767929992744],[-74.19949325578663,40.59387406069308],[-74.19942419939409,40.593982863079816],[-74.19936212279688,40.59409408279576],[-74.1993889882595,40.59413827009468],[-74.19942322768605,40.59417938809803],[-74.19946424899256,40.59421672575869],[-74.19947352137704,40.594221152386574],[-74.19948165564861,40.59422672972612],[-74.19948840892857,40.59423329124542],[-74.19949357957233,40.59424064102621],[-74.19949701319092,40.5942485596139],[-74.1994986072604,40.594256810569775],[-74.19949831418322,40.59426514753105],[-74.19949736362592,40.59428427800714],[-74.19949236457526,40.594303039100915],[-74.19948344879725,40.5943209362905],[-74.19947085129925,40.59433749782512],[-74.19945632117715,40.59435115761525],[-74.19943168324005,40.594384589687564],[-74.19939999864567,40.594414373605446],[-74.1993621758987,40.59443965535511],[-74.19932799055627,40.59445624323021],[-74.19929116182526,40.59446913040098],[-74.1992108242351,40.59454360947813],[-74.19902465726125,40.594676448018326],[-74.19894864455,40.59478000776058],[-74.19889498982688,40.594878816481916],[-74.19888888242194,40.59490475729197],[-74.19887443541106,40.594944927760565],[-74.19886101146743,40.59495263926234],[-74.19879713413988,40.594950186581315],[-74.1987714026433,40.59496389749152],[-74.19876805458152,40.594968174786146],[-74.1987323255373,40.595011798310665],[-74.19869662340403,40.59506396411409],[-74.1986732421609,40.59511440080822],[-74.19865548667404,40.595172514367285],[-74.19863211254352,40.59522551307096],[-74.1986255626401,40.595283607757814],[-74.19863022280651,40.59534339203784],[-74.1986281079241,40.595386103187515],[-74.19860922087025,40.59544080192663],[-74.19858473171686,40.595495511516035],[-74.19856137143587,40.5955527810125],[-74.19852902294922,40.59560237843229],[-74.19849556327543,40.59565539452891],[-74.19845423987306,40.595701590662124],[-74.19842750755885,40.59575544935386],[-74.19840296649915,40.595793074654935],[-74.19835042032791,40.59583331199806],[-74.19830796614374,40.59587609225719],[-74.19825315828015,40.59590950059462],[-74.19822305871907,40.59596165540655],[-74.19819183483914,40.59601295975849],[-74.19815500349986,40.59606256480118],[-74.1981204131753,40.59611216596816],[-74.19808246637238,40.596163481879756],[-74.19804451037233,40.5962122352612],[-74.19800880011675,40.59626183715093],[-74.19800105800269,40.59629601782277],[-74.19799668454347,40.59633275472057],[-74.1979654616297,40.596384057331676],[-74.1979622670407,40.59644043839581],[-74.19795002851603,40.59647035480391],[-74.19791431640478,40.596519104275174],[-74.19788395473394,40.596548332682055],[-74.19787729703567,40.59655474226988],[-74.19787520651842,40.59655675454974],[-74.1978729711544,40.596558466195674],[-74.19783497175457,40.59659269895036],[-74.19780037992409,40.59664144528403],[-74.19776795444966,40.59666541828981],[-74.19772992710935,40.59669025448851],[-74.19768636210588,40.59673645419586],[-74.19763717716219,40.59677668374967],[-74.1976047161768,40.596788699343655],[-74.19759350961732,40.59678871861313],[-74.19755768499304,40.59679988289571],[-74.19754872963588,40.596803316062406],[-74.1975184758747,40.59680336806592],[-74.19751357718859,40.596798986539554],[-74.19751448668937,40.59734918605743],[-74.1975223843042,40.59736454835049],[-74.1975145823943,40.59737737894767],[-74.19747654174134,40.59739624784591],[-74.19745764465601,40.597442417132456],[-74.19745448312739,40.59750137003357],[-74.19745243314723,40.59755775899415],[-74.19745486880362,40.59761499280538],[-74.19748305460232,40.59766363165805],[-74.19748879495057,40.59770377227247],[-74.19749670929889,40.597724259603595],[-74.19748106813593,40.597738813644625],[-74.19743296363771,40.59776453888169],[-74.19738378828139,40.597805642809554],[-74.19737603240732,40.59783214021459],[-74.19736166383329,40.597891115541444],[-74.19734391981282,40.597946680064055],[-74.19731269637089,40.597992873841015],[-74.19729933937751,40.59802023827353],[-74.19730619713813,40.59805952224113],[-74.19733439377842,40.59811157955105],[-74.1973760161972,40.59815677490273],[-74.19741764372807,40.59820368020505],[-74.19743893252095,40.59846083455496],[-74.19838181294861,40.600861783693716],[-74.19875958205294,40.60171197517643],[-74.19918333889072,40.602358736484696],[-74.20014866759907,40.60368335009892],[-74.20138527472524,40.60463696620865],[-74.20221849851052,40.60596967961671],[-74.20281628374592,40.60827082796752],[-74.20273927047201,40.60883221176368],[-74.20267299169078,40.60982786123209],[-74.20230179014106,40.61187564203926],[-74.20244374449518,40.613284693932165],[-74.20064229730261,40.61603323707634],[-74.20045324444631,40.616327997309156],[-74.20058986446027,40.61702892738964],[-74.20069001303489,40.617041571428025],[-74.20076290801349,40.617053401544666],[-74.20080892377666,40.61707296732968],[-74.20082804386344,40.617094288551066],[-74.2008304096492,40.61713528402824],[-74.20083723821065,40.61716943818859],[-74.20084742522633,40.61720273241632],[-74.20084535241513,40.617259111485744],[-74.20084328605802,40.617317198337034],[-74.20084680818461,40.617370150367975],[-74.20086267588442,40.617428205883186],[-74.20087629624591,40.617484557529544],[-74.20087646075416,40.61753922321953],[-74.20087662783489,40.61759474363903],[-74.20089136968652,40.617651092820346],[-74.20089938404898,40.6177065995252],[-74.20090739710211,40.617762105058844],[-74.20091423238277,40.617798822398825],[-74.20090986705068,40.61783812184232],[-74.20087858490696,40.61787234209648],[-74.20087301283657,40.61788345684644],[-74.20089110022774,40.6179338213954],[-74.20089346564384,40.61797481737108],[-74.2009002735356,40.61800213770701],[-74.20089138557002,40.61802863224649],[-74.20087690516617,40.61805940754912],[-74.20087478740132,40.618100410856066],[-74.20084680817132,40.61811498084645],[-74.20081543372864,40.6181193059801],[-74.20078290449888,40.61811167572048],[-74.20076379764046,40.61809462546149],[-74.20074009349516,40.61804000038069],[-74.2007085566909,40.61798966096718],[-74.20069507526787,40.617979433723505],[-74.20064125203865,40.617973549564375],[-74.20058410068674,40.61797877385484],[-74.20055275649818,40.61799249424079],[-74.20054156331818,40.617997639493765],[-74.20048674969225,40.61803531795131],[-74.20043867109608,40.61807554666433],[-74.20041529080609,40.618128547283845],[-74.20038742362465,40.618180698137564],[-74.20036292502175,40.61823455375417],[-74.20034850652021,40.61828582927003],[-74.20035203856247,40.618342198554906],[-74.20036566101867,40.61839940280882],[-74.20039607974422,40.618450598997526],[-74.20042313487257,40.61850094798345],[-74.20044231269767,40.61854191414957],[-74.20048393619722,40.618591382983496],[-74.20051657149038,40.618634034632194],[-74.20056712603832,40.61867152928337],[-74.20063669653429,40.61869532553035],[-74.20070737819523,40.61871655559234],[-74.20077247709379,40.61874462938255],[-74.20080841793947,40.61876762952123],[-74.20083991450633,40.61880430260748],[-74.20083441496878,40.618839333202075],[-74.20081542374747,40.6188607203286],[-74.20075835642864,40.61889413252741],[-74.20071136905621,40.618924964571235],[-74.20069799274238,40.618949758130945],[-74.20069592745546,40.61900869970151],[-74.2006904952546,40.6190659376812],[-74.20068053952241,40.61911037142236],[-74.20068071414828,40.6191684543471],[-74.20069092927311,40.619210290849644],[-74.200707892184,40.61925980264977],[-74.20071472324886,40.619294811037484],[-74.20073954753296,40.61934943365857],[-74.20075316134255,40.619388013817584],[-74.20075764740828,40.61940406969285],[-74.20077574921811,40.61945955827698],[-74.20079832794012,40.6195124770134],[-74.20082091697915,40.619568812988696],[-74.20085806260191,40.61961999729904],[-74.20089632653287,40.61967032608135],[-74.20093569892516,40.61971638192273],[-74.20096499633087,40.619767581088375],[-74.20097296280487,40.61980685896747],[-74.20097089773077,40.61986579936502],[-74.20097552827615,40.61991447794763],[-74.20099363018717,40.619969966997544],[-74.20101618955653,40.62001605287525],[-74.20102868350114,40.62007069699085],[-74.20103548328753,40.62009545580539],[-74.2010265753963,40.620115117034054],[-74.20100533126885,40.620133091369404],[-74.20099525859278,40.62013823470563],[-74.20098303339518,40.6201732768939],[-74.20098217389362,40.62019625134565],[-74.20098095847078,40.620228800715424],[-74.20098449202942,40.620285169967964],[-74.2009868438432,40.62032189396027],[-74.2010037523626,40.62035346912213],[-74.20104077573242,40.62036365348478],[-74.20106882599731,40.620372146742355],[-74.20106997469229,40.62038154027522],[-74.20105206983467,40.62039182169915],[-74.20099715575664,40.62039618804572],[-74.20092318554512,40.620400588846316],[-74.20084920460141,40.62040157235687],[-74.20077407925909,40.6203948700695],[-74.20070002640486,40.620371936466405],[-74.20064051727076,40.620339582561286],[-74.2005798912496,40.62030808480556],[-74.2005361350731,40.62029534783727],[-74.2005058812991,40.620299672101424],[-74.20046674061955,40.6203304908553],[-74.20045783099053,40.62035015204202],[-74.20046240094987,40.62037833153626],[-74.2004905276733,40.620412448564885],[-74.20050515347535,40.62043035923814],[-74.20049514742536,40.62045771109389],[-74.20047052940541,40.620472275124996],[-74.20043245103147,40.62048429892023],[-74.2004280019192,40.62049541101701],[-74.20043709346751,40.62053639476123],[-74.20045955296382,40.62055002196397],[-74.20052688004162,40.620572967453924],[-74.20056725122802,40.62057802157765],[-74.2006412284865,40.62057618469394],[-74.20071518908162,40.62056836900865],[-74.20077347485075,40.62056655893312],[-74.20084750825824,40.62058265733031],[-74.200873315822,40.62059115522388],[-74.20087674494054,40.62061335623637],[-74.20087689917773,40.62066460634069],[-74.20089935755496,40.620677379227956],[-74.20092966672648,40.620691847354934],[-74.2009296950112,40.62070124334971],[-74.20092192004205,40.62072517341119],[-74.20093094529156,40.62074394905506],[-74.2009826019348,40.62077460874518],[-74.20099047807776,40.62078399101926],[-74.200986158669,40.62083866452991],[-74.20100089721804,40.62089415945388],[-74.20102119611153,40.620934268820825],[-74.20106836913781,40.62096493681482],[-74.20108983459889,40.62102041996109],[-74.20112138194689,40.621073322938386],[-74.20112483433911,40.62110321215277],[-74.2011271819975,40.62113823002901],[-74.20113848207161,40.62116810551271],[-74.20114977443346,40.62119541848185],[-74.20117906131713,40.62124234611244],[-74.20119716912667,40.621299543408576],[-74.20121079614697,40.621357602273115],[-74.20123113821022,40.62141223379602],[-74.20123130559566,40.62146775419274],[-74.20123366361864,40.6215061871304],[-74.20125847310119,40.62155483087242],[-74.20128883426644,40.62158638193453],[-74.20133145358055,40.62159399488351],[-74.20138303786867,40.62159988381733],[-74.20143239998035,40.62161260896555],[-74.20143578875675,40.621621144839686],[-74.20142240959545,40.62164508475245],[-74.20140225479615,40.621652808314366],[-74.20132939502018,40.621654643728526],[-74.20130810779165,40.62165809826738],[-74.2013014781412,40.621690567655946],[-74.20129941204375,40.62174865448866],[-74.20129622163314,40.6218058897284],[-74.20128966370712,40.621861420223226],[-74.20128300465908,40.62188364055955],[-74.20126628533909,40.62191527404922],[-74.20126518935844,40.62192381777968],[-74.20125970677961,40.62196397340695],[-74.20124305586253,40.62201866901108],[-74.20123089203481,40.622074210989666],[-74.20122657597591,40.622129739230274],[-74.20123122680735,40.62218525127244],[-74.20124484631347,40.622240748117015],[-74.20126182328333,40.62229453061908],[-74.2012776856667,40.62235002353268],[-74.20129466953999,40.62240636871143],[-74.20131276554284,40.62245929518202],[-74.20132414578998,40.62251564899565],[-74.20132319150876,40.62257117185279],[-74.20131102145736,40.62262415132091],[-74.20128760353833,40.62266519191287],[-74.20127534263133,40.62268827628623],[-74.20128435897726,40.62270448888565],[-74.20130229725306,40.62270531271328],[-74.20137624811906,40.6226932241284],[-74.20145020839273,40.62268455273996],[-74.20152419915728,40.622686132026836],[-74.20154553334764,40.62269805202331],[-74.20156132642025,40.62273048328372],[-74.20156709844586,40.62278599384614],[-74.20157400062897,40.6228440637802],[-74.20158537727028,40.6228995656866],[-74.20160235599974,40.62295334762982],[-74.20161933837984,40.623008838529095],[-74.20162847442849,40.62306434318714],[-74.20163201104117,40.62312156545762],[-74.20163217876436,40.62317708584379],[-74.20163346671166,40.62323260543753],[-74.20163139695063,40.62328983636715],[-74.20162484432528,40.6233470775039],[-74.20161267733178,40.62340176478694],[-74.20159939399505,40.62345730875988],[-74.20158494435559,40.62349833368165],[-74.20156258549943,40.623518873765626],[-74.20151667919954,40.623536890418904],[-74.20144495652622,40.623544704868365],[-74.20137209129264,40.62354483252268],[-74.20134408905345,40.62355256864449],[-74.20133404548373,40.62356796088931],[-74.20133748521877,40.62359357979337],[-74.2013801947627,40.623630234252474],[-74.20140831691215,40.62366178852983],[-74.20141176249717,40.623689116386316],[-74.20139733073567,40.623736121038306],[-74.20136497069711,40.62378571911532],[-74.20132924492225,40.62383446834321],[-74.20127892559044,40.62387641076865],[-74.20122634786168,40.62391323207225],[-74.20117823304422,40.623943211524455],[-74.20113576602957,40.623986847937665],[-74.20109892401528,40.62403730801042],[-74.20107662790329,40.624078346589954],[-74.20108128389592,40.624135568085435],[-74.20109042715043,40.624193634790124],[-74.20108835947418,40.624251722108674],[-74.20110421636812,40.624305505577325],[-74.2011391215753,40.62435584063698],[-74.2011448901549,40.62441049648298],[-74.20114394150578,40.624467727779844],[-74.20113962867154,40.62452410955827],[-74.20113418927694,40.624579639746074],[-74.20111978609876,40.62463603984598],[-74.20110537966264,40.624691585718104],[-74.20108872991592,40.624746280778176],[-74.2010709587324,40.624801832530565],[-74.20105655441867,40.62485737839185],[-74.20104439249307,40.62491377506337],[-74.20103671160895,40.62496930916377],[-74.20103015573068,40.625025694354655],[-74.20102247739622,40.625082083182676],[-74.20101367409124,40.625136765682086],[-74.20100853518748,40.625173923753216],[-74.20100599469507,40.625192299776465],[-74.20099607727869,40.62524954440219],[-74.20098504239097,40.62530764805932],[-74.20097848041371,40.62536232546361],[-74.20098195802592,40.625400756433514],[-74.2010100798537,40.625432310803916],[-74.20103706792995,40.62545959750216],[-74.20105176401941,40.625500571377785],[-74.2010609057428,40.62555778435094],[-74.20106108071656,40.62561586723588],[-74.20106236889201,40.625671385648005],[-74.20106365794909,40.62572690405819],[-74.20106158505429,40.625783282578666],[-74.20105950832713,40.625837952140785],[-74.20106080033446,40.6258951795096],[-74.2010766627469,40.62595067243102],[-74.20109587274136,40.62600103377323],[-74.2011318960846,40.62605051331091],[-74.20117014779794,40.62609571577239],[-74.20118252353662,40.62611021520705],[-74.20120831355544,40.62611187836906],[-74.20121615531617,40.626053771069856],[-74.20141670667755,40.62607051339337],[-74.20139260637572,40.626248890542136],[-74.20098625565407,40.62934414810653],[-74.20080479681282,40.62933257144444],[-74.20075483895435,40.629594634113666],[-74.20062123354481,40.62958763810715],[-74.20061121332972,40.62961071848028],[-74.20057987864897,40.62962956455009],[-74.20052497747263,40.629640764644236],[-74.2004768171585,40.62965707750525],[-74.20045119063913,40.6297100803018],[-74.20043565877462,40.62976477328612],[-74.20042573785118,40.62982116595355],[-74.20042366560959,40.629877544435665],[-74.20042495421659,40.62993306282823],[-74.20042510042924,40.62998174919884],[-74.20042414785866,40.63003812623085],[-74.2004231933758,40.630093647359814],[-74.20042223823515,40.63014916966228],[-74.20041343977792,40.63020555986704],[-74.20040812771613,40.63025010069474],[-74.20072572130096,40.63027755837209],[-74.20072594069032,40.630272707744034],[-74.20072724875224,40.630267957653146],[-74.20072960672405,40.63026344886128],[-74.20073294473042,40.630259314979725],[-74.20073716385447,40.63025567850982],[-74.20074213906857,40.630252647212956],[-74.20074772293984,40.63025031091692],[-74.20075374999861,40.630248738854405],[-74.20076004164197,40.63024797761102],[-74.20076641142674,40.63024804974522],[-74.20077267059405,40.63024895311922],[-74.20077863366282,40.63025066096299],[-74.20078412392657,40.63025312266721],[-74.20078897868977,40.630256265282945],[-74.20079305408846,40.630259995683524],[-74.2007962293544,40.63026420332411],[-74.20079841039296,40.630268763517684],[-74.20079953257236,40.63027354112961],[-74.20079956263814,40.63027839458254],[-74.20079849969899,40.63028318005158],[-74.20079169384545,40.63035012431856],[-74.20079005315361,40.63035455934285],[-74.20078744887678,40.630358718089845],[-74.20078395648346,40.63036248004453],[-74.20077967717852,40.630365736190186],[-74.20077473497078,40.630368392167945],[-74.20076927307885,40.630370371010976],[-74.20076344978159,40.63037161537481],[-74.20075743383049,40.63037208919947],[-74.2007513995604,40.63037177875416],[-74.20074552183678,40.630370693035005],[-74.20073997098847,40.6303688635049],[-74.20073490787206,40.63036634318127],[-74.20073047921011,40.63036320509997],[-74.20072681333946,40.63035954019848],[-74.20072401649226,40.630355454680924],[-74.20072216971731,40.630351066940385],[-74.20071695354503,40.63032060770476],[-74.20040311643059,40.6302923622676],[-74.20038928301825,40.63037472640579],[-74.20037487473545,40.630430272152545],[-74.20036382796738,40.630484957305946],[-74.20035614844025,40.630541345554214],[-74.20034398232109,40.63059688738882],[-74.20033518820867,40.630654986373294],[-74.20032975474894,40.63071222376298],[-74.20032768364499,40.6307694569691],[-74.20032224115988,40.63082413235175],[-74.20030671047274,40.63087882631454],[-74.20028669542484,40.63093438131202],[-74.20027229016034,40.63099078177008],[-74.20025788164567,40.63104632699598],[-74.20024347054529,40.63110101849615],[-74.20023018131249,40.631155707537864],[-74.20021577082558,40.631210399032774],[-74.20020248154825,40.63126508807066],[-74.20018694655926,40.63131892795882],[-74.2001869542459,40.63132149046952],[-74.20018462159052,40.631328669464374],[-74.2003614865723,40.63138247947054],[-74.20037246488177,40.631363241240656],[-74.20037677742717,40.63135953802385],[-74.20038183732188,40.631356431870785],[-74.2003875040384,40.63135400904795],[-74.20039362019662,40.63135233684364],[-74.20040001593391,40.63135146169958],[-74.20040651362345,40.63135140792094],[-74.20041293280633,40.63135217700133],[-74.2004190952044,40.63135374758119],[-74.20042482967115,40.63135607604138],[-74.20042997694448,40.631359097713975],[-74.20043439407051,40.631362728679015],[-74.20043795837341,40.63136686809461],[-74.20044057086253,40.6313714009977],[-74.20044215898159,40.6313762014973],[-74.20044267862407,40.631381136270036],[-74.20040427577656,40.63145567723904],[-74.20040053113111,40.63145946830877],[-74.20039601758441,40.631462737350375],[-74.20039085857923,40.63146539495755],[-74.20038519521148,40.631467368446074],[-74.20037918237088,40.63146860384232],[-74.20037298450549,40.6314690673587],[-74.2003667711233,40.631468746318504],[-74.20036071215681,40.6314676495019],[-74.20035497331538,40.63146580690618],[-74.20034971155307,40.63146326892531],[-74.20034507077612,40.63146010497168],[-74.200341177907,40.631456401577545],[-74.20033813941329,40.631452260028695],[-74.20033603839586,40.6314477935941],[-74.20033493231615,40.63144312442811],[-74.20033485142454,40.63143838022971],[-74.20034581238164,40.63141313645196],[-74.2001726540773,40.63136108053117],[-74.20015700674327,40.631429166609166],[-74.2001381058405,40.63148215761595],[-74.20010798593165,40.631532606123855],[-74.20006776010999,40.631577946658204],[-74.2000207995478,40.63162073620276],[-74.19997047608236,40.63166353224671],[-74.19991789471179,40.63170120597367],[-74.19986082809596,40.63173888914811],[-74.19980488565277,40.63177742339819],[-74.19975342724327,40.63181595033339],[-74.19969860102778,40.63185277480116],[-74.19967512075753,40.63187416899689],[-74.19958138195453,40.63194368775795],[-74.19922396189571,40.63225066089301],[-74.19888910947913,40.63251435831517],[-74.19883067612236,40.632568535059946],[-74.19873485571277,40.632666794815115],[-74.19866491964214,40.63270694404839],[-74.1986224779907,40.63273751485443],[-74.19856749095442,40.63275667127848],[-74.19851002065438,40.63278155006336],[-74.19843746918995,40.63278358127591],[-74.19836881353599,40.63276869835965],[-74.19832726985605,40.632745649515144],[-74.19826974218489,40.632751466661475],[-74.19821461415938,40.63272297020554],[-74.19816703201201,40.632707803230375],[-74.19810959489672,40.632744118795195],[-74.19802961165125,40.632770941434416],[-74.1979746931524,40.632812971028414],[-74.1979948616341,40.632864401208565],[-74.19800501580839,40.63291394198325],[-74.19804275496193,40.63298440351187],[-74.19805286271,40.63301806026762],[-74.19802519933923,40.63302919247008],[-74.19799781017961,40.63301497822944],[-74.19797020414234,40.63298643442796],[-74.19794511599567,40.63296360404983],[-74.19789751678047,40.632942718558006],[-74.1978274903918,40.63295237012149],[-74.19778250599002,40.63296960247878],[-74.19776508231382,40.633000129761825],[-74.19775809969099,40.63305032055847],[-74.19772903870756,40.633058232673136],[-74.19770276146171,40.6330561336548],[-74.1976642835045,40.63305262557788],[-74.1976370156922,40.63303265843228],[-74.19762382900957,40.6330155261288],[-74.19759937359306,40.63299483946171],[-74.19756559078947,40.6329927528078],[-74.19752525486102,40.6329956809903],[-74.19748588306179,40.63300718565718],[-74.19745584458948,40.63300223349009],[-74.19741266033506,40.63299373015774],[-74.19737034865,40.63299228883626],[-74.19734396061332,40.63299814705069],[-74.19733619473185,40.63301603002666],[-74.19730814299756,40.63304824390113],[-74.19725657936105,40.63306143716114],[-74.19718940178169,40.63308299576456],[-74.1971237751068,40.63309978681019],[-74.19707850776288,40.633127264611744],[-74.1970676955196,40.63317255299441],[-74.1970787258872,40.633201126093574],[-74.19705849226054,40.633233326505575],[-74.19701788360436,40.633250073940644],[-74.19695382042866,40.633266862209574],[-74.19688667132364,40.63329795164533],[-74.1968773141207,40.63330630692547],[-74.19683989933517,40.63334568417225],[-74.1967853063197,40.63339223926938],[-74.19673700560328,40.63345188785856],[-74.1967356218844,40.63351264729165],[-74.19677329807709,40.63356261819884],[-74.196812498079,40.63359829056721],[-74.19683918664111,40.6336339843414],[-74.19683613958836,40.633661389759816],[-74.19682844442745,40.63370309905259],[-74.19684567386697,40.633712600616164],[-74.19687387722567,40.63373161277131],[-74.19687865668357,40.63376138772176],[-74.19685211476107,40.633775728580375],[-74.19680681896227,40.63379367643484],[-74.19676624635005,40.633822337875806],[-74.19673661579249,40.633849788779536],[-74.19671009202068,40.633870085731694],[-74.19666632451205,40.63387611742805],[-74.19659916785935,40.63390482360588],[-74.19655856614008,40.63392395463443],[-74.19653191269559,40.63390017372156],[-74.19650375364512,40.63389664812052],[-74.19643195482828,40.63394204064812],[-74.19636647018068,40.63400767458951],[-74.19631031190843,40.6340542321294],[-74.19626673782375,40.634125785430214],[-74.19620920479908,40.63423667672442],[-74.19619378048938,40.63430937308793],[-74.19617678891326,40.63438088149434],[-74.1961754221726,40.63444759653932],[-74.19617398735552,40.634491678202316],[-74.19620359550302,40.634686050233924],[-74.19619879725322,40.63473021017537],[-74.19616074043171,40.6347781047905],[-74.19614123102053,40.634792758993704]]]]}}]}