{"type":"FeatureCollection","features":[{"type":"Feature","properties":{"district":"6"},"geometry":{"type":"MultiPolygon","coordinates":[[[[-74.0018112196766,40.69223801288133],[-74.0017983989209,40.69227001601037],[-74.0017436211104,40.692406749705704],[-74.00169989306643,40.69238276713675],[-74.00179431981024,40.69218477678905],[-74.00077305722617,40.69189575732643],[-74.00068438967635,40.69189781478948],[-74.00062303530208,40.69204149066767],[-74.00019040386195,40.691896447130354],[-73.99991517300599,40.69176723001051],[-73.9995127413903,40.69165145081166],[-73.99936540129032,40.69161307827304],[-73.9992881956255,40.6915939599273],[-73.99920161806008,40.6915718343478],[-73.99910057272565,40.691536973994076],[-73.99893829000432,40.69149514503465],[-73.9984527178269,40.69136998347773],[-73.9980304864498,40.6912537228764],[-73.99776924445032,40.69119469786097],[-73.99623278034554,40.69075777458656],[-73.99436092830196,40.69023948008458],[-73.99236367043248,40.68969012377716],[-73.99262286020617,40.68916054883613],[-73.99268552762904,40.689033246531444],[-73.9929288895587,40.68851942162269],[-73.99300451644851,40.68836463604006],[-73.9932683000288,40.687824451828675],[-73.99333822964888,40.687678796934044],[-73.99360423213133,40.68712723004837],[-73.99378736930753,40.68675596693527],[-73.99392929615871,40.686452871649244],[-73.99133249694542,40.685448406236276],[-73.99105866535291,40.685341695531456],[-73.98912840728988,40.68458945307363],[-73.98909813359096,40.68463558160563],[-73.98906873902816,40.68468037183525],[-73.98881926271115,40.685060508613674],[-73.98878796565076,40.685108199324],[-73.98871156032757,40.68522461847978],[-73.9882043700478,40.6850273069239],[-73.98656303359623,40.68438875563924],[-73.9866146181507,40.68431430418872],[-73.98672263904915,40.68415839945851],[-73.98683005166254,40.68400337172883],[-73.98688953761969,40.68391751427004],[-73.98693991315557,40.68384480615883],[-73.98699520009424,40.68376501032037],[-73.98479805243343,40.68290922903039],[-73.98437410797816,40.683542454872025],[-73.98422146200325,40.683483044840685],[-73.98415401035763,40.683456793379456],[-73.98408792084524,40.683431071789336],[-73.9840150709397,40.68340271803375],[-73.98396120172796,40.683381751998105],[-73.98391125220776,40.68336231148898],[-73.98289143124384,40.68296538346897],[-73.98241638197133,40.682780566098856],[-73.9828543607517,40.68214896346191],[-73.98273169276668,40.68210143311217],[-73.98264212211302,40.682066727345216],[-73.98257285695057,40.682039890007275],[-73.98242465588426,40.6819824661365],[-73.98196634457487,40.68180488026769],[-73.98187894494288,40.68177101523413],[-73.98055579589798,40.68125830407289],[-73.98046155443667,40.681222546757006],[-73.980035101483,40.68185262673866],[-73.97961680019226,40.68249126971076],[-73.97918390577772,40.68312883797307],[-73.9787602246292,40.68376544448331],[-73.9787036808143,40.683744323378356],[-73.97666659384522,40.68297221530131],[-73.97656872289868,40.68282705904318],[-73.97620908230057,40.68272954968124],[-73.97395601638297,40.68226973238774],[-73.97422671395748,40.681504639536705],[-73.97439144135481,40.68104617024671],[-73.97397757588926,40.68098327596868],[-73.97410448721824,40.680649672444055],[-73.9745039588364,40.680733203324706],[-73.97514316722851,40.68087190530678],[-73.97469118307227,40.680266616804786],[-73.97431048177958,40.67973482307142],[-73.9735088335376,40.67863912096963],[-73.97305251679792,40.67799867738018],[-73.972716150203,40.677522810687115],[-73.97244492512212,40.67716200860385],[-73.97188596838814,40.67639465297712],[-73.97142292782652,40.67575463415902],[-73.97104919104332,40.675237112802854],[-73.97112531789693,40.675155501764124],[-73.97119384438331,40.67507007549095],[-73.97125444197523,40.67498124356773],[-73.9713068201651,40.6748894319059],[-73.97135072835128,40.67479508084997],[-73.97138595557111,40.67469864259565],[-73.97141233296492,40.67460057951783],[-73.97142973410558,40.67450136177949],[-73.9714648989501,40.6743034195093],[-73.97147829164894,40.67410323818026],[-73.97146965956765,40.67390289809744],[-73.97143919475185,40.67370450697068],[-73.97138150478172,40.673509706889206],[-73.97138143710455,40.67350949009136],[-73.9713813456609,40.673509280323785],[-73.97135857708443,40.67345549907091],[-73.97131974922823,40.673364188539736],[-73.97127585160321,40.67327421917477],[-73.9712269638064,40.6731857540704],[-73.97117317447965,40.67309895359348],[-73.97111458166131,40.67301397507575],[-73.9710512910713,40.67293097256291],[-73.97098341745725,40.67285009651772],[-73.97091108387278,40.672771493547685],[-73.97087894439643,40.672713174847274],[-73.97040734461683,40.67264721942837],[-73.97050262523625,40.67244549349118],[-73.97085440635162,40.671864364774464],[-73.97132526324152,40.67124822489415],[-73.97181594654776,40.67062947530539],[-73.97231720913472,40.67002909756794],[-73.97281990665296,40.669427177525776],[-73.97332284253048,40.668824923260985],[-73.97382528468601,40.66822308814442],[-73.97433093591853,40.667621235090934],[-73.97483327616695,40.667022098028006],[-73.97533714558615,40.66641909603208],[-73.97583132218901,40.66581507972622],[-73.97633386169186,40.66521360353871],[-73.97684516808849,40.66460638201076],[-73.97734253034932,40.66401189776933],[-73.97784275025629,40.663401769463896],[-73.97834945228702,40.66279901541485],[-73.97885475852149,40.66220183282875],[-73.9793505994623,40.66159482160271],[-73.97965353410329,40.66124323373114],[-73.97970619848498,40.66126178471184],[-73.97976183599971,40.66127433109118],[-73.97981927318216,40.6612806082499],[-73.97987729860822,40.661280483794634],[-73.9799346884463,40.6612739603502],[-73.97999023230784,40.66126117559766],[-73.98004275868367,40.66124239908757],[-73.98009115972907,40.661218026840494],[-73.98013441461062,40.661188572897416],[-73.98017161103716,40.66115465847807],[-73.98223034213153,40.66214149279386],[-73.98459157289206,40.663283741423335],[-73.98695101815666,40.66442521280717],[-73.98931273086802,40.66556633781365],[-73.99166282836197,40.666704262801794],[-73.99173365210994,40.666736595442295],[-73.991794990939,40.66676621759866],[-73.99403554705295,40.66784825355523],[-73.99640281104523,40.669008413751186],[-73.99659299188623,40.66909319417758],[-73.99675243792547,40.66906050136716],[-73.99684490483776,40.66903132477127],[-73.99692988574586,40.669174847033865],[-73.99696465059323,40.669234549029184],[-73.99711624688483,40.66947331064312],[-73.99757732200003,40.670199484385186],[-73.99761846622799,40.67026414228635],[-73.99764837108138,40.67031143752357],[-73.99771474276974,40.67041544836314],[-73.99787130022749,40.67066149969138],[-73.99798931584861,40.67084208175772],[-73.9982251010497,40.67120286840644],[-73.99834388719201,40.67139010012664],[-73.99845678080484,40.67156804322797],[-73.99854128054417,40.67170468865696],[-73.99861887970057,40.67183017256491],[-73.99868108236406,40.67173915760382],[-73.99876941058922,40.67160204710525],[-73.99892591239067,40.671414905508094],[-73.9993110109892,40.67077263904692],[-73.9996213997329,40.67012716789315],[-73.99962813665822,40.67011307681162],[-73.99991082007475,40.669498668421916],[-74.00030337808879,40.66871689249724],[-74.0010566411318,40.668945681717474],[-74.00141527103162,40.66835941434724],[-74.00221506816538,40.66857863744141],[-74.00289483876944,40.66734846594961],[-74.00319075274841,40.66726319981512],[-74.00369462000522,40.667427611208595],[-74.00363026351536,40.66756752335669],[-74.00398842006275,40.667665641641165],[-74.0044025343906,40.66777908632278],[-74.00510111198017,40.66797532110053],[-74.00510227346261,40.66797564772838],[-74.00547017208592,40.66795127142837],[-74.00552727453992,40.66789920471168],[-74.0058636618068,40.66799376258587],[-74.0059727524965,40.667882110514505],[-74.00600224394499,40.667890140099864],[-74.00625672030735,40.66733674047034],[-74.00622652289191,40.667334059986786],[-74.00677393930584,40.66618450518195],[-74.0068367667257,40.66620124353748],[-74.00687149182457,40.66612869098109],[-74.00686089617069,40.666123761742526],[-74.00685152653963,40.66611755769344],[-74.00684364461942,40.66611025210948],[-74.006837470547,40.66610204903124],[-74.00683317676007,40.6660931775661],[-74.00683088318064,40.66608388548861],[-74.00683065386617,40.666074432320976],[-74.00683249522051,40.66606508208424],[-74.00683635581484,40.66605609592471],[-74.00684212782448,40.66604772481991],[-74.0068496500402,40.666040202569526],[-74.00685871237108,40.66603373926484],[-74.00686906171184,40.66602851542173],[-74.00688040901227,40.66602467693854],[-74.00689243734965,40.66602233102149],[-74.00690481078085,40.66602154319053],[-74.00691718372452,40.6660223354491],[-74.00692921061288,40.66602468566994],[-74.00693999404717,40.66602960086955],[-74.0069495553536,40.666035811817984],[-74.0069576288326,40.666043145919254],[-74.00696399012966,40.666051399365976],[-74.00696846246996,40.66606034280296],[-74.0069709215707,40.66606972770085],[-74.00697129909508,40.66607929326228],[-74.00696958455104,40.66608877366951],[-74.00696582558336,40.666097905470785],[-74.00696012664937,40.666106434901806],[-74.00695264611672,40.666114124937664],[-74.00694359186178,40.666120761879064],[-74.00693321549396,40.66612616129142],[-74.00692180536299,40.666130173129936],[-74.00690967854602,40.66613268590906],[-74.00689717203666,40.66613362980093],[-74.00688463337985,40.66613297857561],[-74.00684990953975,40.66620481646161],[-74.00689986821112,40.66621917196066],[-74.00675322002549,40.666534813010976],[-74.0063074518396,40.66749425113167],[-74.00625751609195,40.66759470124978],[-74.00604596458894,40.668053242978075],[-74.00531907552737,40.66955428536658],[-74.00475388692328,40.670721359447796],[-74.00543926529352,40.670921468238674],[-74.00602851417166,40.66978474577676],[-74.00661572118399,40.66862315627225],[-74.00680345938899,40.66859137516594],[-74.00754821618384,40.66705174573376],[-74.00779653349619,40.66715977077744],[-74.00708724287807,40.66859135803337],[-74.00985411855622,40.66852362833563],[-74.01154017543327,40.66508591975687],[-74.01574872882654,40.664568336291815],[-74.01690267361082,40.66484660284165],[-74.0174444605099,40.66526799635199],[-74.0178871914939,40.66585046628554],[-74.01857605010876,40.67039241387013],[-74.01876336878675,40.671075874494576],[-74.01933946871777,40.671624948422796],[-74.01888283363327,40.6716016662056],[-74.01751037086694,40.67103453098434],[-74.01668768368869,40.66543706676711],[-74.01657536097834,40.66503853784009],[-74.01648665554497,40.664930508953994],[-74.01602551776006,40.66486304878832],[-74.0159369853455,40.66547079172169],[-74.01227967872792,40.66573241415908],[-74.01087664028975,40.668601615763706],[-74.0103568366731,40.66864283538869],[-74.01033845947936,40.6690781954482],[-74.0105598064476,40.66919052506985],[-74.01091024340414,40.66919049236966],[-74.01087343978188,40.66971011555861],[-74.01154288031563,40.66978434275053],[-74.01162173117001,40.67011434644752],[-74.01151443463279,40.670407022879004],[-74.01162527521356,40.67058102827607],[-74.01406219828165,40.66970583843664],[-74.01424926931875,40.66972860473736],[-74.01424180477498,40.669808370538995],[-74.0117535050969,40.67065775707597],[-74.0117719119657,40.670703053912895],[-74.01179735456279,40.67074633145569],[-74.01182946198804,40.6707869587856],[-74.01186776617632,40.67082434361879],[-74.01191170872058,40.67085794094097],[-74.0119629072948,40.670888446293475],[-74.01201873922638,40.67091380529653],[-74.01207831743129,40.67093361503217],[-74.01214069529996,40.67094756075205],[-74.01220488173772,40.67095542087839],[-74.01226985691285,40.670957070525],[-74.01233458846136,40.670952483481244],[-74.01239804788985,40.6709417326288],[-74.01245922691851,40.67092498878344],[-74.01251715350165,40.670902517981155],[-74.01257090727259,40.67087467725066],[-74.01261963416778,40.67084190894061],[-74.01309824698099,40.67105495991243],[-74.01355198671438,40.67125693437729],[-74.01359839287176,40.67122691731314],[-74.01365024645949,40.671202612723015],[-74.01370634525983,40.671184584102896],[-74.01376281091305,40.67117359468631],[-74.01382077477412,40.67116897108871],[-74.01387900570526,40.671170811514024],[-74.01393626689661,40.671179076872185],[-74.01399134213443,40.67119359160899],[-74.01427407257722,40.67137929867941],[-74.01508006471083,40.67068567379825],[-74.0151998057007,40.67075402766455],[-74.01436920648223,40.671454796156276],[-74.01412302856022,40.671669334137555],[-74.01387273763245,40.671880761760626],[-74.01423289452782,40.672130000513256],[-74.01559644489554,40.670970477517535],[-74.01568625497515,40.671038834929035],[-74.01428722178991,40.67224118300007],[-74.01422923190441,40.67220720499051],[-74.01297587792189,40.673327918721135],[-74.01336378218144,40.673591536934595],[-74.0139510936524,40.67311158819357],[-74.01511918663962,40.67215699596933],[-74.01632099922307,40.67290826956389],[-74.01457946720949,40.674414017071776],[-74.01496392184575,40.67467763029443],[-74.01543956638726,40.67427288215883],[-74.01670765236585,40.67319377442196],[-74.01816839280795,40.6719392411039],[-74.0188009477692,40.67225076484888],[-74.01727138470127,40.673608645805764],[-74.0172928251957,40.67362821502487],[-74.01775247096367,40.67404772289269],[-74.01779805190311,40.67401589897342],[-74.01781515223432,40.67403035799541],[-74.01789301471658,40.67396526455034],[-74.01787971614986,40.67395658985112],[-74.01794428080245,40.67388282049713],[-74.01798111223526,40.67389963805484],[-74.01801077320536,40.67391318105255],[-74.01795760572409,40.67398694866529],[-74.01792341013326,40.673975384193504],[-74.01783604921188,40.674040479131975],[-74.01785694945181,40.674057830595906],[-74.01780187203198,40.67409544141262],[-74.01811536390225,40.674342701682505],[-74.01813640520821,40.674358645475365],[-74.01815361390008,40.67437706242554],[-74.01816649709572,40.674397425048305],[-74.01817468579964,40.674419150131726],[-74.01817794547213,40.674441615441054],[-74.01817618274666,40.67446417753949],[-74.01804519537194,40.67476791076828],[-74.01802399440481,40.67485275836337],[-74.01803004073724,40.67492410782776],[-74.01803574975763,40.67495881684368],[-74.01800916427283,40.6749935314212],[-74.01801676669672,40.67500943950532],[-74.01792370591389,40.67507598132659],[-74.01798640472792,40.67512514362125],[-74.01783447572687,40.675258223014445],[-74.01814986189117,40.675467879415066],[-74.01819544347494,40.67544039314011],[-74.01822964241143,40.67546208190104],[-74.01829802655334,40.675459179181594],[-74.01841235821725,40.67536544943177],[-74.0183195782651,40.675302812545496],[-74.01826302409965,40.67535022318112],[-74.01817070905504,40.675290905663445],[-74.01838692796325,40.67509684652105],[-74.01847522178701,40.67515319139717],[-74.01842277826971,40.67520810133496],[-74.01852163355447,40.67526871258786],[-74.01875661352109,40.67505645403515],[-74.01876748039159,40.675050365970186],[-74.01877955344202,40.6750457806302],[-74.01879247780117,40.675042832794986],[-74.01880587357506,40.675041609112306],[-74.01881934701306,40.67504214555053],[-74.0188325020817,40.67504442634185],[-74.01884495210555,40.67504838444552],[-74.01885633113297,40.67505390351835],[-74.01886630469238,40.67506082133471],[-74.01887457962391,40.675068934554645],[-74.01888091269623,40.675078004700715],[-74.0188851177562,40.67508776516813],[-74.01888707120078,40.6750979290605],[-74.01888671560987,40.67510819762346],[-74.01888406143448,40.675118269025724],[-74.0184103133308,40.6755190609859],[-74.0184181404245,40.67553816770555],[-74.01842953733544,40.67555620342164],[-74.01844426126516,40.67557278389928],[-74.01846199853573,40.67558755590584],[-74.01848237127125,40.675600204736135],[-74.01853710727022,40.67576879050003],[-74.01853486370456,40.675787338055336],[-74.01852843521321,40.67580530956279],[-74.01851801605162,40.675822161952276],[-74.01850392106729,40.675837385971185],[-74.0184865761866,40.675850521573444],[-74.01846650554307,40.67586117182144],[-74.01844431564001,40.67586901488101],[-74.01842067702204,40.67587381374664],[-74.0183963040124,40.67587542340383],[-74.01801753445856,40.67588437755789],[-74.01797410870938,40.67594882365627],[-74.0179383868369,40.676015955910515],[-74.01791065223304,40.67608524178577],[-74.01789112493157,40.67615613166152],[-74.01787995986275,40.676228063191694],[-74.01787724562261,40.67630046576516],[-74.01788300377014,40.67637276503228],[-74.0178971886546,40.67644438746119],[-74.0179196877776,40.676514764887266],[-74.0179727864565,40.676512828695834],[-74.01797685009383,40.6765679162062],[-74.01910890308608,40.676544281888326],[-74.01912142196913,40.67661558463831],[-74.01976925613235,40.676613224917496],[-74.01995197864672,40.67710301045022],[-74.01908257386326,40.67713956404772],[-74.01914183574368,40.67772313432801],[-74.01918927313335,40.6777411827305],[-74.01919098767968,40.67774327118008],[-74.0192189273765,40.67777728854665],[-74.01917743946899,40.67782694900719],[-74.01908763812084,40.67783123639893],[-74.0190825764446,40.6778314788135],[-74.01906541502093,40.67785015211908],[-74.01904108711268,40.67787662401794],[-74.01903387384746,40.67787699846317],[-74.01843040661606,40.677908321362466],[-74.01842965849697,40.677927584823315],[-74.01841103183169,40.67840712178119],[-74.0185950422009,40.67839777362943],[-74.0186253260616,40.67836958152584],[-74.01862787070775,40.67836958111389],[-74.01862981462028,40.678369580799156],[-74.01864991332967,40.67838487583748],[-74.01866235777157,40.67839434600332],[-74.01895405840415,40.67838148630472],[-74.0189832211535,40.67835244073799],[-74.01898995247258,40.67835329318087],[-74.01902137413651,40.67837720491493],[-74.0194723889745,40.67835833705073],[-74.01953856537543,40.67830195259375],[-74.01966200306937,40.678385638959135],[-74.01966312651498,40.67838820127078],[-74.01955208101641,40.67848217760085],[-74.01951841750089,40.67845912061603],[-74.01942864377901,40.67840019839325],[-74.01942574949798,40.678400282310754],[-74.0193650147007,40.678402029978415],[-74.01927942798388,40.67840449444375],[-74.01927671763752,40.678406772436965],[-74.01927485273424,40.678408339468426],[-74.01924689963592,40.67843183337372],[-74.01924241195326,40.678431834124325],[-74.0192065036038,40.67840792437247],[-74.01912079360895,40.67841256190968],[-74.01906401917526,40.678415634574485],[-74.01903261122402,40.67844297275559],[-74.01903013778114,40.67844265854769],[-74.01902587989507,40.6784421191425],[-74.01899445934592,40.67841991686225],[-74.01899029164359,40.67842001639152],[-74.01898714122163,40.67842009213138],[-74.01885085228989,40.67842335720715],[-74.01884757078854,40.6784260174145],[-74.01882433869423,40.678444853676275],[-74.01881607949576,40.678451550104064],[-74.01881159159171,40.678451550837906],[-74.01878017201003,40.6784302022202],[-74.01877503939653,40.678430320997286],[-74.01871751760083,40.67843166874793],[-74.01863319772814,40.678433642172855],[-74.01863191295386,40.67843476230362],[-74.01860179179243,40.67846098090607],[-74.0185999818873,40.678460981198654],[-74.01859505982533,40.678460981994235],[-74.01856476167906,40.67843963246634],[-74.0185105917507,40.67844051183524],[-74.01840544610997,40.67844222006246],[-74.01841786210217,40.678549551395044],[-74.01827026139368,40.67855421845979],[-74.01828314900892,40.678728289412284],[-74.01834068826905,40.6787286722697],[-74.01838313797539,40.67874482169834],[-74.01857882788785,40.6789830794726],[-74.01943955737208,40.678933293624425],[-74.0194562003954,40.678932452374234],[-74.01947279933658,40.678933700185446],[-74.0194889048376,40.67893700327787],[-74.01950408089836,40.67894227223195],[-74.01951791667994,40.67894936440922],[-74.01953003762637,40.678958087813655],[-74.01954011560478,40.67896820628963],[-74.01954787778762,40.67897944591442],[-74.01955311403968,40.678991502414206],[-74.01955568260601,40.67900404940075],[-74.01955551395007,40.67901674720756],[-74.01955261263596,40.679029252084796],[-74.01928128102026,40.679648140595596],[-74.01906833429716,40.67976074797672],[-74.0189281398833,40.67984430561382],[-74.01899105471419,40.67990499370397],[-74.01772532572437,40.6806619026738],[-74.0176473508547,40.68060189084184],[-74.01757049494158,40.68065064812441],[-74.01746928837112,40.680614731701105],[-74.0168483693633,40.680985758987845],[-74.01678833950203,40.68102196579521],[-74.0152008227914,40.68197941993083],[-74.01532059864759,40.68211072878072],[-74.01508295187081,40.68225409932074],[-74.01486782800738,40.68238321404747],[-74.01282000398867,40.68362241649749],[-74.01262428290782,40.68346869639188],[-74.01212285893645,40.682962177851024],[-74.01213481688791,40.68290592802533],[-74.01410549647974,40.6817125193757],[-74.01360863270277,40.68122194672836],[-74.01387398777986,40.68100981331911],[-74.013742066444,40.68091770134314],[-74.013018354221,40.68041237401454],[-74.01186281377171,40.68139847955079],[-74.01060858082337,40.68246876026819],[-74.00967108558879,40.6832687277152],[-74.0100860394785,40.68365543104365],[-74.01077312339376,40.68435861554113],[-74.0117827220121,40.68375999549946],[-74.0119325991106,40.68388774915519],[-74.01217596614644,40.684095186131245],[-74.01011625467784,40.6853415982394],[-74.00878590130925,40.68614660280169],[-74.00869559889541,40.686193318012876],[-74.00859803329713,40.68625256408518],[-74.00835446532174,40.68640020025087],[-74.00816414527883,40.68617471716172],[-74.00798184065677,40.68627582209608],[-74.00793441476988,40.686281943481426],[-74.00788712164156,40.68624579479362],[-74.00782695474203,40.68624062883449],[-74.00776833635145,40.686249136671755],[-74.007717074958,40.68626442901858],[-74.00754474403935,40.68631824409119],[-74.00701988682658,40.686526417696875],[-74.0064414683233,40.686288490232336],[-74.00588224183227,40.68619576839124],[-74.00566680246698,40.68669807883398],[-74.00562986330395,40.686784206043804],[-74.00783293766679,40.687385055162935],[-74.00742012154092,40.6882062904361],[-74.00500373315074,40.68760598540106],[-74.00459270521766,40.68821522298681],[-74.00678438439806,40.688826879958455],[-74.00636461225267,40.68966966913975],[-74.0038203885371,40.68892964469954],[-74.00340921558495,40.68961326116032],[-74.00575900670344,40.69023640001643],[-74.0053420962491,40.69109160297808],[-74.00297565370533,40.690426575920924],[-74.00196321926838,40.690136379460924],[-74.00185304524616,40.69038798724462],[-74.0009615685494,40.6901287683503],[-74.00069905841875,40.690611858419274],[-74.00479415294552,40.69176162037463],[-74.00440941259978,40.69252880089208],[-74.00196938592104,40.69184320882024],[-74.00181765040728,40.6922219624816],[-74.0018112196766,40.69223801288133]]]]}}]}