{"type":"FeatureCollection","features":[{"type":"Feature","properties":{"district":"12"},"geometry":{"type":"MultiPolygon","coordinates":[[[[-73.96236596889439,40.72420906161443],[-73.96200744865075,40.72399190160817],[-73.96207271943857,40.72388030090569],[-73.96246790011057,40.72413157960146],[-73.96247195112905,40.72417498927368],[-73.96244340911427,40.724199785481524],[-73.96239043044633,40.724193567186944],[-73.96236596889439,40.72420906161443]]],[[[-73.96128450788372,40.730159062204386],[-73.9612826200821,40.73006102501049],[-73.96134184244276,40.73006367758824],[-73.96140472395243,40.730061052264176],[-73.96140171917759,40.73011102611357],[-73.9616867065907,40.73008186880128],[-73.96191028747243,40.72996258061557],[-73.96188586360671,40.72995256566809],[-73.96195920452797,40.72985966844819],[-73.96202496266523,40.72988542223795],[-73.96197794944985,40.729944018749954],[-73.96221474459279,40.72991693577691],[-73.96241964278757,40.72980120811426],[-73.96248546579243,40.72971116761521],[-73.9625493395233,40.72974406784672],[-73.9624778771383,40.72983696605579],[-73.96245157418112,40.72982838012021],[-73.96226735368352,40.72993124823965],[-73.96225228876577,40.7299855669821],[-73.9621946350352,40.72997597375577],[-73.96220156915895,40.729954099237304],[-73.96194409928032,40.729986894374925],[-73.9617072421667,40.730121194792396],[-73.96135279077708,40.730151957053366],[-73.96128450788372,40.730159062204386]]],[[[-73.96197039369788,40.73157711168562],[-73.96197040783946,40.7315523326702],[-73.96171289480758,40.73156611384529],[-73.96169848245741,40.73153234139498],[-73.96167446772442,40.731481254055495],[-73.96199050226615,40.73146656570862],[-73.96199800352301,40.73149325315437],[-73.962900068031,40.73144780167759],[-73.96290258567535,40.73142874114966],[-73.96320076537572,40.73141740062488],[-73.96319829673003,40.731350686907916],[-73.96328098663882,40.73134308883662],[-73.9632809740348,40.73136596207113],[-73.96355911991348,40.731335553391766],[-73.96355164152972,40.73126311974466],[-73.9636593923288,40.73124981148223],[-73.96369938139063,40.7314366195574],[-73.96358410965732,40.73145755028242],[-73.96356661657303,40.73137177115247],[-73.96328095722949,40.73139645960533],[-73.96329343161838,40.73149557932865],[-73.96290754784937,40.73151642296405],[-73.96291505478298,40.731533580101036],[-73.96197039369788,40.73157711168562]]],[[[-73.96051732602348,40.74410534108139],[-73.96056856858465,40.744029666585575],[-73.96067204645489,40.744051215856366],[-73.96064863700752,40.74413031711164],[-73.96051732602348,40.74410534108139]]],[[[-73.96421230395704,40.74660431797426],[-73.96427364752464,40.746541844552596],[-73.96433729322393,40.746545726593354],[-73.96437765404313,40.74649508803904],[-73.96444522752651,40.746410425260784],[-73.96458318426947,40.74645440067351],[-73.96458702399427,40.746515898544786],[-73.96454518192589,40.74656415047313],[-73.96447543657699,40.746640833198015],[-73.96437443772187,40.74670453064321],[-73.96433758671752,40.74673484818156],[-73.9642725620221,40.746751308084235],[-73.96421616682368,40.74683700083118],[-73.9641598028843,40.74686554735975],[-73.96412514486175,40.74684576060551],[-73.96413382933497,40.7468127961656],[-73.96421192462765,40.74666667680318],[-73.96421230395704,40.74660431797426]]],[[[-73.95763576836282,40.74840634746513],[-73.957493440047,40.74833646476307],[-73.95751889321009,40.748303619592434],[-73.9576668047197,40.74837347901905],[-73.9577265433446,40.748294061895905],[-73.9578395394205,40.74833800337541],[-73.9576883184342,40.748535026871835],[-73.95757650467837,40.7484885253785],[-73.95763576836282,40.74840634746513]]],[[[-73.9355679704974,40.77191877803628],[-73.93565635283767,40.77175639643522],[-73.93552163065328,40.77171629355845],[-73.93556621751405,40.77162911588921],[-73.93585195294749,40.77171600199284],[-73.93580987642521,40.77179936862196],[-73.93569833888495,40.77176690312413],[-73.93560853449772,40.77193127768467],[-73.9355679704974,40.77191877803628]]],[[[-73.94180032729426,40.769046926624874],[-73.94256806142144,40.76850590573169],[-73.94285528620705,40.76830349440948],[-73.94321923520107,40.76789264385337],[-73.94381427322762,40.767220912050064],[-73.94422343089225,40.766664977889995],[-73.9448402665221,40.76582362839098],[-73.94623787959827,40.76428501454993],[-73.94657165080055,40.76391755826108],[-73.94662141408685,40.763862772081126],[-73.9468246022838,40.763617633234624],[-73.94708876929523,40.76329892108695],[-73.94788268389203,40.76236569759217],[-73.94792979664216,40.762310316259956],[-73.94832459591146,40.76184623000167],[-73.9487778940647,40.76131457086531],[-73.94914738541928,40.7608812159893],[-73.94943175563205,40.76054861736164],[-73.94971226700021,40.76032891738497],[-73.95008262637685,40.760047470463476],[-73.95033358814476,40.759856755553756],[-73.95126005908772,40.75881011637192],[-73.95148626283064,40.7586664553521],[-73.95171190411023,40.75846249420154],[-73.95177822025997,40.75840254987715],[-73.9520923302263,40.75799314034503],[-73.95217663423699,40.75783133644015],[-73.9522114634206,40.75758363983309],[-73.95254079336877,40.75709531453745],[-73.95312156546173,40.75652380482729],[-73.95322009963168,40.75642684181784],[-73.95326888610992,40.75638104410349],[-73.95330696035853,40.75634432712769],[-73.95334556462879,40.75631137566757],[-73.95340583051988,40.75625853187739],[-73.95409527736307,40.75565492894557],[-73.95507326928161,40.75479868255497],[-73.95519503183567,40.754774523476385],[-73.9557941523772,40.75416154740884],[-73.95692404304612,40.75296116039393],[-73.95721003531293,40.75271535683181],[-73.95791452493187,40.75210985452551],[-73.95860755756425,40.751613323987094],[-73.95868495443514,40.7515737774219],[-73.9590324860946,40.75138642277138],[-73.95902757442488,40.75129736985114],[-73.95955875930795,40.75081459776215],[-73.95990187081871,40.75055851535377],[-73.96039170572536,40.750256186117475],[-73.96081286928421,40.74990061693904],[-73.96083011462245,40.74988767839759],[-73.96084436008086,40.74987277731821],[-73.9608552255558,40.74985631130038],[-73.9608776210587,40.749827570801386],[-73.96090586319525,40.74980198197352],[-73.9609392003413,40.749780225821276],[-73.96095994787893,40.74976641305419],[-73.96098341649387,40.74975540364507],[-73.96100895824021,40.74974750155263],[-73.96103586793579,40.74974292494553],[-73.96106340263144,40.74974180017923],[-73.9610908021226,40.74974415830736],[-73.96111730993758,40.749749934224404],[-73.96114219422249,40.74975896846325],[-73.96116476794676,40.749771011597744],[-73.96132845481047,40.74960095762467],[-73.96153855464473,40.749723119840674],[-73.96138656171422,40.74988050283607],[-73.96140909889691,40.74989974574011],[-73.96142702682998,40.74992161262421],[-73.96143982789111,40.749945472144844],[-73.96144713248036,40.7499706354261],[-73.96144427028229,40.74998853329439],[-73.96143797780489,40.75000591637867],[-73.96142839190827,40.75002240659329],[-73.96141572108549,40.750037645272336],[-73.96140024092799,40.7500513009709],[-73.96138044746658,40.750063516289515],[-73.96136340132804,40.750077929797804],[-73.96134951969928,40.75009418874145],[-73.96111060141877,40.7506004699009],[-73.96068557958185,40.75120193696811],[-73.96001132395902,40.751831517335226],[-73.9598906175869,40.75209747762284],[-73.95957156605824,40.7528047159003],[-73.95950079995129,40.75295638169334],[-73.9590161662748,40.753595059957576],[-73.95892671120951,40.753562492361596],[-73.95845836805675,40.753949236505065],[-73.95768072860075,40.75482196116583],[-73.9568947695998,40.75570399582663],[-73.95646348773006,40.75618798254583],[-73.95598563410063,40.75672422530528],[-73.95565513164131,40.757095105725995],[-73.95559286273466,40.75722280017375],[-73.95556724766547,40.75725766668642],[-73.95553464377036,40.75729603446851],[-73.95550425524475,40.75733345607273],[-73.95544904151345,40.75739555553165],[-73.95534193818226,40.75752113556847],[-73.95499406068451,40.75792901965761],[-73.95390795119141,40.75920087485093],[-73.95384294876447,40.75923894538794],[-73.95378145676383,40.759323082228555],[-73.95374760585473,40.75936393792611],[-73.95366241810713,40.75947973411368],[-73.95361272256534,40.759502149014324],[-73.95332321617923,40.75974596468759],[-73.95339140733955,40.75979676235788],[-73.95312451504947,40.76005275842971],[-73.9529778821611,40.75996210737449],[-73.95248457912031,40.760460110515474],[-73.95208632266514,40.76086215490759],[-73.95187667298384,40.76124558279821],[-73.9516250497398,40.76167886360593],[-73.95097191594412,40.76249450750771],[-73.95093734928088,40.762570495237995],[-73.95073068782703,40.76275822543396],[-73.95037548074446,40.76317384507802],[-73.94997191750257,40.763646030317226],[-73.94920376022777,40.76426964383294],[-73.94908628791565,40.76426402727513],[-73.94881315316405,40.764610754468876],[-73.94770109012802,40.76602239732533],[-73.94655273893119,40.76736820506423],[-73.94591458905606,40.768213939018864],[-73.94585112333094,40.768247750235716],[-73.9458445142382,40.76832122825158],[-73.94575361333564,40.76830167142723],[-73.94570357268658,40.768327934311664],[-73.94559658535877,40.768470865005284],[-73.94548114289289,40.76862477943799],[-73.9456272109345,40.768692953179055],[-73.94556302048748,40.76880177602729],[-73.94540491850024,40.76873217303875],[-73.9453820817897,40.768763203048],[-73.94524510341354,40.768773268310575],[-73.94515704221519,40.769118317751854],[-73.94509065794169,40.7692137208156],[-73.94472353220708,40.769734058381616],[-73.94472478497455,40.769786271535025],[-73.9446729328337,40.76981996805356],[-73.94456161517566,40.76988639592755],[-73.94427007063555,40.77014053525487],[-73.94400423956336,40.770293982151],[-73.94320414114229,40.7709923997488],[-73.94281710960279,40.77141086070245],[-73.94257830301011,40.771701856718664],[-73.94212674646828,40.7720347005096],[-73.94136990742406,40.772309150827894],[-73.94088707211625,40.772372516278764],[-73.94056957420625,40.77261475896431],[-73.94027460921222,40.77294743739572],[-73.94017959804104,40.77295931559457],[-73.94007665751654,40.77292618635813],[-73.94001157258354,40.772842360552765],[-73.94018451224514,40.77256490680435],[-73.94028207924197,40.7723014069914],[-73.94027766722355,40.77171314173969],[-73.94020021779653,40.77112830566291],[-73.94022870389077,40.77085226166454],[-73.94027985829325,40.77067071100996],[-73.9403553347751,40.770496574371236],[-73.940826053003,40.76991215676575],[-73.94111778718026,40.76941440857483],[-73.94121934173002,40.76933434312249],[-73.94125975382602,40.76930887939284],[-73.94180032729426,40.769046926624874]]],[[[-73.93804640603439,40.7808295442757],[-73.9379013362394,40.78074999617273],[-73.93779448726416,40.78078125875562],[-73.93779944179563,40.78103133979683],[-73.93764631821483,40.781001215893035],[-73.93765365963812,40.78079000755298],[-73.93759894622623,40.78046784086164],[-73.93779269036342,40.78035790421251],[-73.93823773509402,40.780259079465516],[-73.93839622591739,40.780262433391364],[-73.93861200821945,40.780338955869134],[-73.93923746178234,40.77973339405857],[-73.939318219876,40.77971800182705],[-73.93953015793254,40.779527620260666],[-73.93958378972476,40.77957647400733],[-73.93943238100775,40.779812200274776],[-73.93949329752056,40.7798736913156],[-73.93937515379676,40.7799787718494],[-73.9393052849678,40.779951224552285],[-73.9392178962528,40.78001352022164],[-73.93872802926595,40.780510743704774],[-73.93883951845037,40.78059924980004],[-73.9388286341011,40.78076345123038],[-73.93874423089275,40.78104387604242],[-73.93830097951646,40.78136208436519],[-73.93808213268714,40.78141843777737],[-73.93796757721645,40.78128933406044],[-73.93804948921756,40.78105580604264],[-73.93806723089932,40.78094470269827],[-73.93804640603439,40.7808295442757]]],[[[-73.96780043386224,40.802205647789606],[-73.96787565308851,40.80135337026437],[-73.96798532597124,40.801397367997666],[-73.96858360812678,40.801635470266675],[-73.96874607838886,40.80140488922613],[-73.96883286534863,40.80126940944115],[-73.96905554890613,40.800960811824055],[-73.9695044712999,40.800329993411346],[-73.96876163771415,40.80001813513335],[-73.96868398283485,40.79998553299277],[-73.96855917698228,40.79993313678194],[-73.96829895131498,40.79982388571142],[-73.9681979737929,40.79978182189068],[-73.9681094593755,40.79974426332526],[-73.966661817404,40.79913228126566],[-73.96712019330276,40.798504791344186],[-73.96720447985459,40.798385140934286],[-73.96725110730875,40.79832040816505],[-73.9672975959172,40.79825586866063],[-73.9673752121769,40.79814811351204],[-73.96742322154395,40.79808146306939],[-73.96747677191871,40.79800711857815],[-73.96757916779936,40.79786706142384],[-73.96889775030958,40.798424519418255],[-73.96900282533456,40.79847194754934],[-73.96945603445009,40.797837893652215],[-73.96935443193911,40.797796065032436],[-73.96803818598575,40.79724949292592],[-73.96819711439419,40.797029583192035],[-73.96827440951078,40.79692262809848],[-73.96847628661934,40.79664328824872],[-73.96719528029749,40.796109376404814],[-73.96663870707472,40.79587739461947],[-73.96562824572818,40.79545621939875],[-73.96449804695487,40.794885385926726],[-73.96441354607002,40.79484270783939],[-73.96430242608078,40.794786582761645],[-73.96384388511188,40.794604547733265],[-73.96282149737728,40.79423723569145],[-73.96235980150668,40.79485206056085],[-73.96189985460923,40.79547927056389],[-73.96144060655736,40.79611082718414],[-73.96097971807905,40.79673864454806],[-73.96074785024219,40.79705597565527],[-73.96052271735674,40.797368469462754],[-73.96003018503222,40.798038107897305],[-73.959536589343,40.79871852602356],[-73.95907669072292,40.79935223392784],[-73.95861879322837,40.7999770261549],[-73.95833304956655,40.80036505351128],[-73.95828723141587,40.800348222635],[-73.95823844607334,40.80033721454176],[-73.95818796535937,40.80033231620926],[-73.95813710499678,40.800333655008465],[-73.9580871911204,40.80034119639607],[-73.95803952497027,40.8003547437704],[-73.9580011128696,40.80037468744822],[-73.95796588556207,40.800397778195325],[-73.95793428730343,40.800423724813946],[-73.95790671648123,40.80045219995453],[-73.95788352085609,40.800482844648954],[-73.95786499295254,40.800515272439206],[-73.9553665162024,40.79946642641657],[-73.95530363920513,40.79944050069727],[-73.95525763649196,40.79942119889465],[-73.95522296477984,40.799406646617776],[-73.95276726978318,40.798372092071915],[-73.95253186754347,40.7982697426928],[-73.95246092785285,40.79824249401055],[-73.95237419062775,40.798209771248],[-73.95094228349505,40.79760311767092],[-73.9497477308443,40.79709700160138],[-73.94965953983721,40.79702366676857],[-73.94964927992402,40.79700997772367],[-73.94964184462158,40.79699527207764],[-73.94963740293308,40.79697988409108],[-73.9496360558163,40.796964163534064],[-73.9496378338891,40.79694846773569],[-73.94963943376814,40.79690574069439],[-73.94963735447405,40.796864829012826],[-73.94962853507622,40.796824439147635],[-73.94961311505942,40.79678520983688],[-73.94959133829167,40.79674776146418],[-73.94956354916678,40.79671268624794],[-73.94953018715762,40.79668053887585],[-73.94942287815631,40.796606384160924],[-73.94968682996507,40.796216985381015],[-73.95015821226993,40.79558773150459],[-73.95062885475737,40.794959591376575],[-73.95111102372377,40.794285035824664],[-73.9516026543104,40.793607805614265],[-73.95207127078626,40.79298117248618],[-73.95252222638756,40.79234762222539],[-73.9529774055357,40.791719693168254],[-73.95309827606809,40.79155275291276],[-73.95316044994834,40.79146688188661],[-73.95343683861161,40.79108514137197],[-73.95388917080936,40.790470499057065],[-73.95439919191298,40.789774908667894],[-73.95481723816654,40.78920474437029],[-73.95321006333317,40.788532932667884],[-73.95278684813579,40.788354533065196],[-73.95173179999213,40.787909784757176],[-73.95160507341991,40.787856615073785],[-73.95145371330068,40.787793758454754],[-73.95109765381451,40.78764366433807],[-73.95103228037425,40.787616104653445],[-73.94998054201649,40.78717271184781],[-73.948869636301,40.78667343060138],[-73.94869238228651,40.7865937644481],[-73.94839517770056,40.78646018501432],[-73.94861743055624,40.78616195707154],[-73.94865477786347,40.78611184061874],[-73.9488266709926,40.78588117501923],[-73.94838537009689,40.78569590689229],[-73.94829422981526,40.78565764398123],[-73.94711541919843,40.78516273803999],[-73.94658817755167,40.78494137695899],[-73.94708951916724,40.78424490579509],[-73.94644497283197,40.78397317857834],[-73.94592185993703,40.78375279885747],[-73.94472264526928,40.78324757264161],[-73.94422334927886,40.783933307634555],[-73.94331889400084,40.78517329787538],[-73.94197008908779,40.78459020003805],[-73.94277817955152,40.78417061034998],[-73.94296286622115,40.7840583462104],[-73.94296296104693,40.78405828259772],[-73.94296306800118,40.784058211284886],[-73.94315891947426,40.78392443909154],[-73.94334442349084,40.78378225170651],[-73.94351860829235,40.78363245768272],[-73.94366016099482,40.78348641207269],[-73.9437910333343,40.78333438142868],[-73.94391060654847,40.78317706758405],[-73.94401834847464,40.783015210274414],[-73.94405439380215,40.782964358046065],[-73.94395460163102,40.78291552015399],[-73.94389324605929,40.7828877273327],[-73.94383256609905,40.782859089475124],[-73.94376005340587,40.7828289322202],[-73.94367358284843,40.78271662373114],[-73.94364823538969,40.78265616183603],[-73.94388068102455,40.781532043364535],[-73.94387075988708,40.781273026571775],[-73.94371468850565,40.78062981552904],[-73.94360047475412,40.780159099466346],[-73.94343876735986,40.77976324196603],[-73.94246425347032,40.78003250004437],[-73.94245164079229,40.78003430168433],[-73.94243881234526,40.78003457368873],[-73.94242608715956,40.780033309293096],[-73.94241378169747,40.78003053994164],[-73.94240220198307,40.78002633450528],[-73.94239163599177,40.780020797568895],[-73.94238234648849,40.78001406683028],[-73.94237456449305,40.780006309675954],[-73.94236848353493,40.77999771901812],[-73.94236425484041,40.77998850849729],[-73.9421202220567,40.77947255637259],[-73.94211585211751,40.77946438174761],[-73.94211320944687,40.779455789679886],[-73.94211235847256,40.77944698964448],[-73.94211331994062,40.77943819618646],[-73.94211607040975,40.77942962369055],[-73.94212054282282,40.77942148115429],[-73.94212662814175,40.77941396709273],[-73.942134178006,40.77940726469866],[-73.94214300834957,40.77940153737634],[-73.9427297339572,40.77925724765569],[-73.94271884616596,40.77920845248203],[-73.94271719257608,40.77915897634143],[-73.94272480674314,40.779109823845616],[-73.94274153404183,40.779061993032556],[-73.94276703480712,40.779016455101406],[-73.94280079138252,40.778974134422896],[-73.94284211823455,40.77893589059344],[-73.94289017621892,40.77890250014509],[-73.94294398952175,40.77887464106211],[-73.94300246547327,40.77885287901502],[-73.9426553074297,40.77812496557434],[-73.94245741056957,40.77740747334814],[-73.94229506198639,40.77733196248331],[-73.9422805004479,40.7773474382288],[-73.94231968904005,40.777452519267236],[-73.94236333715754,40.77744701092432],[-73.94245545698132,40.77774786433379],[-73.94242853953916,40.777752827567355],[-73.9424249119559,40.77774232006625],[-73.94238999173223,40.77774727878945],[-73.94235943486034,40.777753899191865],[-73.94236233471005,40.77776495916501],[-73.94233541821181,40.77776881637426],[-73.94224111393387,40.77747017411584],[-73.94228549380644,40.77746024282696],[-73.94224050534213,40.77733414682119],[-73.94225579604492,40.77731646027752],[-73.94211982454031,40.77725556641191],[-73.94218537013923,40.777163808762445],[-73.94230970713218,40.77721971988089],[-73.94229368333204,40.77724293624799],[-73.94243403895558,40.77730046148639],[-73.94242964535687,40.777288948951806],[-73.9423378939154,40.77724890117783],[-73.94238467141948,40.77717109710218],[-73.94232882921817,40.77715521622072],[-73.9422762272684,40.777133879410954],[-73.94222778317057,40.77710745887845],[-73.94218434199162,40.777076415510265],[-73.9421466615231,40.7770412908348],[-73.94211539906212,40.77700269757488],[-73.94209109994581,40.77696130895903],[-73.94207418803877,40.776917846977256],[-73.94200266722274,40.7761853173829],[-73.94208160457377,40.77595701631722],[-73.9424010094905,40.775726927526314],[-73.9425876964068,40.77521895652824],[-73.94293043781397,40.77467626803599],[-73.9433389475049,40.774211192590826],[-73.94366431814802,40.77384076417699],[-73.94396084370877,40.773530420092115],[-73.94436393440742,40.77310853879255],[-73.94487889596707,40.772569562007455],[-73.94561514012511,40.77194302658784],[-73.94640418919069,40.77126904561942],[-73.94690764133767,40.77073391172373],[-73.9474897545637,40.77011515401921],[-73.94808633406548,40.76947479321901],[-73.94866416477923,40.76885762389705],[-73.94908536768654,40.76827827079586],[-73.94937332131504,40.76788219105455],[-73.949579120714,40.76762893017974],[-73.950069793031,40.76702508788092],[-73.9506634515425,40.76638071134955],[-73.95122497666563,40.76577119897362],[-73.95176480900405,40.76516371184333],[-73.95230963181133,40.764554288606185],[-73.95336559963583,40.76336817091186],[-73.95441826078606,40.76218410495124],[-73.95573621640321,40.761024392847766],[-73.95587222339073,40.76090471211576],[-73.9563091763419,40.7605083675544],[-73.9563331896777,40.76048658556405],[-73.95697841727663,40.75989675394356],[-73.9573173758794,40.759592212256734],[-73.9575986944528,40.759342318257964],[-73.95763772742102,40.75930673989846],[-73.95800496616825,40.758971999629495],[-73.95818604432436,40.75881172025356],[-73.95824543566668,40.75875900865984],[-73.95833351948285,40.75868387955003],[-73.95835374983784,40.75866662516292],[-73.95842620189634,40.75860387250446],[-73.95845501743894,40.75858090219769],[-73.95849119541683,40.75854590332806],[-73.95854329679058,40.75849562293599],[-73.95877790822699,40.758270920848915],[-73.95905574721682,40.75792987282024],[-73.95917118465763,40.757864108601105],[-73.95918103286087,40.75785611105263],[-73.95965770876657,40.757260145123404],[-73.95966400300107,40.757211412187054],[-73.96003900990617,40.75672535023904],[-73.96036455140823,40.75626941113357],[-73.96065638180474,40.75592314955037],[-73.9607970991498,40.75580477274081],[-73.96079722985934,40.75580465585217],[-73.96102790867165,40.75561058457924],[-73.96162927534917,40.7551523842593],[-73.96176227368043,40.755000253229454],[-73.96213559058086,40.75457323147347],[-73.96219381838414,40.754504315153426],[-73.96223125165591,40.75452213042204],[-73.96268703046536,40.754004373286804],[-73.96289729202545,40.753765517094486],[-73.96286896769232,40.753742509157064],[-73.96316074049744,40.75341220732832],[-73.96373572283169,40.752783775777196],[-73.96470952841109,40.751719415095934],[-73.96494444755467,40.751462643217145],[-73.96532405586477,40.75104771827219],[-73.96791272994395,40.747970935642314],[-73.96811893399276,40.74772582975005],[-73.96817376101073,40.747666753741925],[-73.96823574753464,40.7475912183927],[-73.96836519324148,40.74743349462028],[-73.96823171715788,40.74736847648939],[-73.96829622113238,40.74729565136723],[-73.96829811451529,40.74728339500301],[-73.96830191005901,40.74727329924477],[-73.9683161371577,40.74727402435948],[-73.96832610433424,40.747252034096405],[-73.96834696591318,40.74724121831021],[-73.96836118844783,40.74721814498392],[-73.96840008314163,40.7471669539644],[-73.96843139158786,40.747129456620435],[-73.96846363690706,40.74709412848581],[-73.96847691942939,40.74707250080586],[-73.96850064035854,40.747044384507376],[-73.9685148595502,40.747032843998234],[-73.96853479000781,40.74700039777971],[-73.968544278662,40.746988142312894],[-73.9685888522455,40.74694344358094],[-73.96859169569566,40.74693334705046],[-73.96860023472267,40.74692109131994],[-73.96860971997528,40.74691460310325],[-73.96861730876945,40.74689945527544],[-73.9686391246467,40.74687927414427],[-73.96866379796644,40.74684681981253],[-73.96867043421345,40.74683600998012],[-73.9686922519053,40.74680860795781],[-73.96870458089755,40.746800682796376],[-73.96871076544427,40.74678826391731],[-73.96875271240373,40.746742715216875],[-73.96894301109302,40.746518335696685],[-73.96896670537514,40.746530500297],[-73.96897366849493,40.74652900683407],[-73.968988992317,40.74650579149492],[-73.9689998159544,40.746501935275134],[-73.96900302810094,40.746490808379455],[-73.96901641754052,40.746481152086446],[-73.96901961115921,40.74647243890278],[-73.96907193333249,40.74641298300652],[-73.96913096118847,40.74634071530684],[-73.96921135921276,40.74624451530401],[-73.96923432172326,40.746222284011615],[-73.9692470758419,40.74620778199381],[-73.96925028881702,40.746196171442854],[-73.96932591437388,40.7461040877106],[-73.96933228026558,40.74610167233767],[-73.9693392445918,40.74609265608855],[-73.96938290644789,40.74603594902514],[-73.96940022327871,40.74602084326566],[-73.96940086652106,40.746014027130144],[-73.96941753399555,40.74599696633216],[-73.96943292389886,40.745976988728884],[-73.96946210038307,40.745944577633786],[-73.96952046125196,40.74586904111666],[-73.96955059658644,40.74583882769375],[-73.9695974026117,40.74578278411198],[-73.96962370583407,40.7457467167946],[-73.96963204180261,40.745743305646165],[-73.9696948777757,40.745666796891115],[-73.96969678845922,40.74565700029312],[-73.9698756140306,40.7454447891378],[-73.96990575265258,40.74545820514532],[-73.9699122797576,40.745451759436406],[-73.96993139614953,40.74546300192006],[-73.96992704959052,40.745467792035186],[-73.96997377026275,40.74549574743079],[-73.97004758904896,40.745402861299496],[-73.97009123175708,40.745351129151125],[-73.97012962576954,40.7453053665945],[-73.97021602288636,40.745200579033],[-73.97033931161249,40.74504963202264],[-73.97032571321422,40.745036949464584],[-73.97032571931103,40.74502326140034],[-73.97037811940515,40.74495230558344],[-73.9704425548898,40.74487037651231],[-73.97046063703624,40.7448647433909],[-73.97047240576438,40.744866241747815],[-73.97050560032659,40.74482376425946],[-73.9705687722909,40.74473186530626],[-73.97062381510653,40.74465642621021],[-73.9707883477664,40.7444062176905],[-73.97085704434353,40.74443263739735],[-73.97087688233857,40.74444557343115],[-73.97088963376717,40.744447729702074],[-73.97089742067709,40.74445473677991],[-73.9709094613216,40.74445635209429],[-73.97091724845437,40.7444633603435],[-73.97092858032359,40.74446336320436],[-73.97094062960419,40.74447144402558],[-73.97098222712366,40.744407634720076],[-73.97101392396074,40.74435861480527],[-73.97111438123977,40.74420436093265],[-73.97078276128684,40.74404724688703],[-73.97077757716114,40.7440466247195],[-73.97075833953681,40.74403919038248],[-73.97075084955141,40.74402980466494],[-73.97071823494039,40.744016927848335],[-73.97070578720823,40.74400256198694],[-73.97070317531687,40.74399049490893],[-73.97072277474861,40.7439695157214],[-73.97074257272034,40.7439483246602],[-73.97075061382013,40.7439486336107],[-73.97076123524714,40.74394210764184],[-73.97079209694716,40.743956009932695],[-73.97079892989305,40.74395279700395],[-73.9708358740414,40.74396967223827],[-73.97083595486517,40.743969703586124],[-73.97087357851338,40.74398767476958],[-73.97095964992808,40.74402569698725],[-73.97096300193468,40.744023672775015],[-73.97117346753164,40.74410753500842],[-73.97118193576082,40.74410323270803],[-73.97120616502984,40.744066029846785],[-73.97127362462311,40.74396474842377],[-73.97135752941868,40.743838455359636],[-73.9712342398151,40.743784646190406],[-73.97120546301967,40.74377151030149],[-73.97128101831679,40.74365194205151],[-73.97135563409175,40.74353964934961],[-73.97149421270419,40.74333467446526],[-73.97163772240417,40.74311720098483],[-73.97167921200818,40.74305446405994],[-73.97188888913065,40.74272481985312],[-73.97176261327057,40.74267267153485],[-73.97174059715825,40.74266358001168],[-73.9717750124804,40.74261591214474],[-73.97195955856255,40.742337921543836],[-73.97204926316714,40.741887753776396],[-73.97206949682797,40.74178890593495],[-73.97210163980682,40.74162320206111],[-73.97215263572176,40.74138858760137],[-73.97219804813784,40.74114466869194],[-73.97228618248496,40.740738273576525],[-73.97228992099217,40.740721039031946],[-73.97221282599375,40.740711663608444],[-73.97219567275302,40.740709579461566],[-73.972182685701,40.7407062799098],[-73.97216848387873,40.740693120300676],[-73.97216477368657,40.74067572212931],[-73.97216549760822,40.740672165050086],[-73.97221525425901,40.74042656351957],[-73.97222515614335,40.74041669693134],[-73.97223504317165,40.740413403402165],[-73.97223566211005,40.740405415225375],[-73.97219641647789,40.74040257925303],[-73.97221685422328,40.740307625061696],[-73.97226753642127,40.74031374327732],[-73.97227001334156,40.74030857434587],[-73.9722533231916,40.74030010555497],[-73.97224837803643,40.74029117185887],[-73.97229979590863,40.74003496274316],[-73.97231030439093,40.74001851267499],[-73.97233141721729,40.74001090819987],[-73.97243888981417,40.740021749973415],[-73.97265743803038,40.73922275427715],[-73.9726552896889,40.73917826848021],[-73.97265060379681,40.73905826571571],[-73.97264431062416,40.73901746233549],[-73.97264512721948,40.73895866831118],[-73.97264674830737,40.73884587151254],[-73.97263256455166,40.73878946955031],[-73.97263100998644,40.738740265008275],[-73.97262787457534,40.7387090614698],[-73.97262630543385,40.73866586408464],[-73.97262792189811,40.73859386916873],[-73.97262084766358,40.73852066549372],[-73.97261929656231,40.73846306804612],[-73.97262753952515,40.73840038598757],[-73.9726388480015,40.73839530977735],[-73.9726383333126,40.738379685976675],[-73.97262807328735,40.73836796724557],[-73.97262452608501,40.73824336345716],[-73.97263274644142,40.73823242426234],[-73.97263327107365,40.73822383329863],[-73.9726225471807,40.73821706821194],[-73.9726194686601,40.738044278245106],[-73.97261474017301,40.738029869348225],[-73.97260609997485,40.73793867228892],[-73.97261872947438,40.73791467680082],[-73.97261242656461,40.737897872571835],[-73.97260457307685,40.737822273075835],[-73.97261404225637,40.73779827633345],[-73.97260621196624,40.73766627757054],[-73.97259038224679,40.736769654842426],[-73.97258292456105,40.73674468459367],[-73.97257979798512,40.73669068907689],[-73.97257525871026,40.73664650893166],[-73.97255622610959,40.73646148552768],[-73.97256333684314,40.73644588163222],[-73.97248994174741,40.735803280107795],[-73.97251016786021,40.735787129859794],[-73.97286939178467,40.73577086128574],[-73.97441385816532,40.73641439385913],[-73.97445975070463,40.7362940197185],[-73.97441677354789,40.736277726106934],[-73.97441154346602,40.73628527904697],[-73.97439952343315,40.73628408358729],[-73.97402692104305,40.73612576724569],[-73.97404679254475,40.73609992943224],[-73.97442932366876,40.736260633491625],[-73.97442775474427,40.736266199041545],[-73.97446647047286,40.73627845683008],[-73.97450376013228,40.736064588444215],[-73.97447471755301,40.73606238071315],[-73.97444082924062,40.73605047915458],[-73.97443372879957,40.73605371636713],[-73.97414062018392,40.73595565666492],[-73.97415127634781,40.735933792668256],[-73.97444722336765,40.73603347295418],[-73.97444828612832,40.73603779235672],[-73.97447828183081,40.73604418545125],[-73.97450488285943,40.73604228103946],[-73.97451459772599,40.735894598411406],[-73.97450793938161,40.735796945772556],[-73.97448854079063,40.735875680246544],[-73.97445077717819,40.735869129966886],[-73.97446233335455,40.73583114456839],[-73.97424982468374,40.735797182020164],[-73.97424630658303,40.73578011045604],[-73.97425866775502,40.735766268164014],[-73.9744704050787,40.735797872255304],[-73.97446962023734,40.73578786807202],[-73.97447775431193,40.73578786166622],[-73.9744715494167,40.7357272237581],[-73.97446537767371,40.735666886063875],[-73.97439223918198,40.73566753456842],[-73.974391854932,40.7356719481348],[-73.97426375884302,40.73567147429338],[-73.97426474799444,40.73567587660696],[-73.97419233708438,40.73568012679825],[-73.9741895600019,40.73565991276949],[-73.97415747430529,40.73565784198292],[-73.97414616523469,40.73567162151051],[-73.97409287937954,40.73564072502899],[-73.97409007994668,40.73564465423467],[-73.97341869582557,40.735367737300315],[-73.97343881801847,40.735341217814224],[-73.9732803029099,40.7352733654282],[-73.97305698712047,40.73517745341573],[-73.97280661710461,40.735523918521324],[-73.97293673973685,40.735599249299824],[-73.97293031926458,40.73560761439685],[-73.97276308380353,40.73550508747374],[-73.97299695202484,40.735186506891296],[-73.97296395268094,40.7351690661775],[-73.9729318560978,40.73520531236917],[-73.97288512856933,40.73518020390205],[-73.97286403116163,40.7352122670154],[-73.97283745943461,40.73519971670459],[-73.97294520758682,40.735065170071294],[-73.97296719785798,40.735078430767],[-73.97294519031814,40.73510770051329],[-73.97299560236587,40.73512793798328],[-73.97297083635605,40.73515721697145],[-73.97300291199267,40.73517256003543],[-73.97303684713711,40.735127947647705],[-73.9732989504614,40.73524235507728],[-73.97332187458159,40.735201918664984],[-73.97331638345146,40.7351963427822],[-73.97329897672444,40.73517681588381],[-73.97327881634085,40.735147527414476],[-73.97327241144065,40.73511893385163],[-73.97327700851476,40.73507919579851],[-73.97329627362966,40.7350408566427],[-73.97332929043579,40.735010877894474],[-73.97336870942675,40.73498927476286],[-73.97341821248351,40.73497115816128],[-73.97345945915032,40.73496837685138],[-73.973522708343,40.73497536084711],[-73.97354472883961,40.73494432610164],[-73.97444065082591,40.73531677190073],[-73.97442616184162,40.73523421918374],[-73.97441126714118,40.73517824595467],[-73.97439063081423,40.73509213293327],[-73.97437417946838,40.73503063633963],[-73.97435054998022,40.734942312634],[-73.97431559737869,40.734803677193625],[-73.97427147926832,40.734630608981576],[-73.97425543467872,40.734566885863444],[-73.9742119222655,40.73440586894305],[-73.97418317281985,40.73430095691666],[-73.97416917978899,40.73423971229525],[-73.97415110840346,40.73416396616626],[-73.97410591714225,40.7339935435477],[-73.97406016216327,40.73381107244249],[-73.97402174588258,40.733663893934576],[-73.97399237089736,40.73355457475643],[-73.97395905029711,40.73342116553862],[-73.97394321924938,40.733403088863405],[-73.97393531356985,40.73336607678416],[-73.97390702695188,40.73334971660841],[-73.9739013771137,40.73332733730516],[-73.97389120382256,40.73330926190467],[-73.97386631865598,40.73331097608695],[-73.97386292958613,40.733291182396236],[-73.97385275193642,40.733282571401205],[-73.97384483854886,40.73326536111392],[-73.97386520802412,40.7332464280398],[-73.97385730036494,40.73321630363872],[-73.97384145962661,40.73321974036578],[-73.97384937381277,40.73323265510645],[-73.97383126846691,40.73324556510929],[-73.97380976846561,40.73324899937312],[-73.9737837578338,40.733227481208246],[-73.97380298847435,40.73321198753997],[-73.97378376867172,40.73319993432455],[-73.9737645264947,40.73321284338803],[-73.97374076899372,40.73320938893725],[-73.97372718707769,40.733219714351065],[-73.9737079516958,40.7332136852051],[-73.97368984982607,40.733218850603635],[-73.9736762757606,40.733205933888215],[-73.97369438098609,40.73319560901117],[-73.97369212859806,40.73317409625022],[-73.97371588914251,40.73316979674732],[-73.97372607356357,40.73315947055964],[-73.97373739762322,40.733143119372535],[-73.97375776032726,40.733139684863026],[-73.97377813922655,40.73312419146039],[-73.97380529755272,40.7331207579871],[-73.97381887171846,40.733099247654756],[-73.97384036797052,40.73310355629607],[-73.97387206174017,40.73309495480681],[-73.97386810776207,40.73306568719578],[-73.97377030826173,40.73268844617701],[-73.97367702799252,40.73231023074896],[-73.97364735766624,40.73217549326411],[-73.9736273640125,40.732107445607994],[-73.97360833346643,40.73204268972983],[-73.97353969289706,40.731764332823616],[-73.97352137914282,40.731690164781426],[-73.97341321730858,40.73128241642885],[-73.97338181410147,40.731236023919564],[-73.97336591000702,40.73122001994853],[-73.97334064688684,40.73118304166213],[-73.97331715426381,40.73115792717328],[-73.9732832111114,40.7311126759087],[-73.97323625417937,40.73105692674119],[-73.97320012915412,40.73101663239024],[-73.97314592791604,40.7309608809963],[-73.97309858148473,40.73091367989087],[-73.97305304853825,40.73086730325318],[-73.9730060597536,40.73082313241324],[-73.97291929100193,40.73075024150283],[-73.97283215562857,40.73068148080725],[-73.97274611643171,40.73060583194708],[-73.97264270492411,40.730523537807514],[-73.97255990007292,40.730458093618296],[-73.97247970053022,40.730400807363026],[-73.97245936471903,40.73038632937784],[-73.97233277439516,40.73029657246832],[-73.97224018578775,40.730230497638715],[-73.97223370120912,40.73022567784338],[-73.97208918590233,40.730118357041825],[-73.97205385214976,40.730086650432675],[-73.97201026033457,40.73004517148778],[-73.97196340301248,40.730000377217664],[-73.97190238512808,40.729930708644616],[-73.97185608949049,40.729875550267415],[-73.97182992841674,40.729845691972976],[-73.97174822357015,40.72974201454473],[-73.97174494790077,40.72973454858868],[-73.9717002903813,40.72966570245412],[-73.97162729998558,40.729557884146175],[-73.97157719441826,40.72946913613542],[-73.97151882628016,40.729351361740314],[-73.97150816031574,40.729323966492565],[-73.97147994907228,40.729249577196],[-73.97145716122309,40.72916940755814],[-73.97143981566717,40.72909584986463],[-73.97143221814216,40.72906361904436],[-73.97142139208238,40.7289958439724],[-73.97141235109775,40.72887985602181],[-73.9714065967207,40.7287944713059],[-73.97140617908519,40.72871876425123],[-73.97141946379276,40.72856882754421],[-73.9714271844355,40.72848582588513],[-73.97145269559661,40.7283414333133],[-73.9714566218295,40.72831923801447],[-73.97147343819987,40.7282092559282],[-73.9715104844795,40.72800276340419],[-73.97155553514953,40.7277031085983],[-73.97156931647098,40.7276937671986],[-73.97157278760145,40.72764591976786],[-73.97158965149985,40.72764003369343],[-73.97161872706997,40.72765055818597],[-73.97163586152148,40.7276479741215],[-73.97165160075588,40.72764321253479],[-73.97168514866583,40.72740588663671],[-73.97158604106329,40.72739693305286],[-73.97156114365914,40.727394688247806],[-73.97153686592743,40.72739296510097],[-73.97152076789627,40.72738616573731],[-73.97151282181258,40.7273743080787],[-73.97149260058237,40.727373123351526],[-73.97149039092855,40.7273500976075],[-73.97162697271706,40.7266284534996],[-73.97179602053025,40.726713679656925],[-73.97185671303774,40.72675868546642],[-73.97191244217859,40.72679100927031],[-73.97197685059938,40.72683035620182],[-73.9720501534717,40.726880946797536],[-73.97329796772085,40.727428008859945],[-73.97566782613222,40.72846253250951],[-73.9758124489941,40.728519767622686],[-73.97619632425227,40.7286619770294],[-73.97690436305611,40.72895782427807],[-73.97753843835022,40.72922624841992],[-73.97802697950837,40.72943305961013],[-73.97805542869894,40.729383086324376],[-73.97853582898902,40.72874608561045],[-73.9789986199442,40.72810574685337],[-73.98132471371855,40.72908575711841],[-73.98085431375432,40.729723554953715],[-73.98306946971987,40.73065522606764],[-73.98544389943544,40.731657807262906],[-73.98494550599996,40.732349672818195],[-73.98444065692914,40.73303325645467],[-73.98354866538571,40.73426072372817],[-73.9842687898511,40.7345649360005],[-73.9843597568627,40.73460335567738],[-73.984772312638,40.73401232328114],[-73.98524200507504,40.733372376445814],[-73.98582094075698,40.73361631515925],[-73.98589439635731,40.73364726632348],[-73.98600799009002,40.733695137641966],[-73.98615670722745,40.73375781069054],[-73.98667933181486,40.73397805490508],[-73.98718049670539,40.733292147761865],[-73.98757195204115,40.73345699067865],[-73.98877931684075,40.73396539973867],[-73.98828600367436,40.73465900253083],[-73.98986198872072,40.735326099687384],[-73.98989412861509,40.735269576579086],[-73.9899192845276,40.73521104117217],[-73.98993724242032,40.73515099155573],[-73.98994784940251,40.73508993858327],[-73.9899510153268,40.73502840188922],[-73.98994671327453,40.73496690509696],[-73.9899029603612,40.734434790137136],[-73.99075396816642,40.73483915457386],[-73.99119899401006,40.7350123685837],[-73.99171498773387,40.73521530116937],[-73.99121075933671,40.73588818669869],[-73.99075240029164,40.736530904989685],[-73.99033070212454,40.73713186031715],[-73.99222484880735,40.73791698491016],[-73.99544725833123,40.7392683845801],[-73.99501798608524,40.739860011752725],[-73.99786128446578,40.741056368825646],[-73.99828702268512,40.74046982206007],[-73.99871270610068,40.73988087804506],[-73.99918495757352,40.7392428368023],[-74.00201937835227,40.740444089406466],[-74.0015553138766,40.741080025861656],[-74.00441531031542,40.742284119057594],[-74.00454794834305,40.74233986195382],[-74.00488574149894,40.742481822457506],[-74.00500556094481,40.742532177555546],[-74.00699029090701,40.74336665171858],[-74.0072331907485,40.74346942815327],[-74.00693150727997,40.743894906600424],[-74.00681150036226,40.744061323613096],[-74.0069758866101,40.74413089094141],[-74.00825890831676,40.74467384339015],[-74.00837173923544,40.74396898182455],[-74.0085170792844,40.74317447186054],[-74.0086990229636,40.742361723963505],[-74.00879080588835,40.742375144226294],[-74.00889339864406,40.74238416769196],[-74.00901826641196,40.74243747858323],[-74.00915345169425,40.74249618755625],[-74.00909156846193,40.742886149072554],[-74.00924013575025,40.74289951841009],[-74.00924074160112,40.74291316086358],[-74.00962015348912,40.74295124838993],[-74.00956843411765,40.74325778472655],[-74.00958464345703,40.74326352048325],[-74.0121194002866,40.74351661218273],[-74.01213726936176,40.74353192705941],[-74.01214813183593,40.74355930154771],[-74.0120900828903,40.743897637649034],[-74.01206903486668,40.7439224935485],[-74.01202085006399,40.743939770208996],[-74.01197763342873,40.74393556042114],[-74.00951201767367,40.74367609376045],[-74.00948868364232,40.743695681682276],[-74.00943800870864,40.743971255473234],[-74.0093942693211,40.74396871683835],[-74.0090420750423,40.74393387125523],[-74.00890032962842,40.7439179270962],[-74.00880283523887,40.744439347624365],[-74.00872780058874,40.7448582329102],[-74.00872986359421,40.74488153782985],[-74.00893975844275,40.74490921733261],[-74.00957440612908,40.74499290866298],[-74.00961227924414,40.74499790315071],[-74.00955832929749,40.74528882529887],[-74.00991660813456,40.74532725500723],[-74.00993436677696,40.745317078102005],[-74.00993796184932,40.745296701410595],[-74.00994341816717,40.74526576973655],[-74.00995048769146,40.745225690321085],[-74.00995852601345,40.74518011964677],[-74.00996759959419,40.74512868110861],[-74.0099735068339,40.7450951941159],[-74.00998135739343,40.745050682388644],[-74.00998917273142,40.7450063842596],[-74.00999822601715,40.74495505930228],[-74.00998685784818,40.744944164215354],[-74.00986948474728,40.744933917707314],[-74.0098721108548,40.74491650212594],[-74.01016790535392,40.744942329709765],[-74.0101646519737,40.74496392462993],[-74.01005375656217,40.74495423493008],[-74.01003848384612,40.74496345807833],[-74.0100236125255,40.745046345318194],[-74.01001404323709,40.74509967661572],[-74.01000814033458,40.74513257676576],[-74.00999930170606,40.745181839791215],[-74.0099925052406,40.74521971906441],[-74.00998320132659,40.745271573088864],[-74.00997743638767,40.74530370360911],[-74.0099739502192,40.745323135109416],[-74.00999095379996,40.74533668617151],[-74.01046920011868,40.74538676602916],[-74.01048835594965,40.745375715094845],[-74.01049187417472,40.745355167013976],[-74.01049693441198,40.74532561543098],[-74.01050332781192,40.745288270909015],[-74.01051171655331,40.74523927525849],[-74.01052083436335,40.74518602135901],[-74.01052681665284,40.74515108070628],[-74.01052968455846,40.74513433251278],[-74.0105504475589,40.74501305720761],[-74.01053188168761,40.74500298237196],[-74.01041700660257,40.74499358270352],[-74.01041937209388,40.74497682417123],[-74.01076419780692,40.745005032020956],[-74.01076156046138,40.74502372618368],[-74.0106062154019,40.74501101647447],[-74.01058579200931,40.74502044656174],[-74.01056801091906,40.74513793282657],[-74.01056370849734,40.74516636225337],[-74.01055056928827,40.74525318207801],[-74.01053978205329,40.74532445541953],[-74.01053373534738,40.74536440745716],[-74.01053106537704,40.745382050389644],[-74.01054520392155,40.7453921350118],[-74.01110359804885,40.745447670244126],[-74.01111624163289,40.74543612462561],[-74.0111246622997,40.74537776220261],[-74.01113010029034,40.74534322832571],[-74.01113887006922,40.74528754863202],[-74.01114545795528,40.745245720718714],[-74.01115627315944,40.74517704715629],[-74.01116113418436,40.74514617646117],[-74.01117183119825,40.74507825828352],[-74.01115328709841,40.74506864307043],[-74.01104281748226,40.74506096342376],[-74.01104459150831,40.74504621240219],[-74.01138769974182,40.74507311268278],[-74.01138567845325,40.74508800814163],[-74.0112303805723,40.74507583066286],[-74.01121085294055,40.74517080418534],[-74.0112059244744,40.745194770630945],[-74.01118816871943,40.74528112609186],[-74.01118102964986,40.74531584944158],[-74.01116675082788,40.74538529798206],[-74.0111541917691,40.74544637808411],[-74.01116709976122,40.74546035254014],[-74.01173958552815,40.745519918190354],[-74.01179527645735,40.74515466698517],[-74.01178273500794,40.74513495612853],[-74.01166900853472,40.74512733119157],[-74.01167067583798,40.74511397733999],[-74.01183642872417,40.74512596367891],[-74.01177458786391,40.74552484642155],[-74.01177025765053,40.74555278403776],[-74.01176635449525,40.745577980043656],[-74.0117827582809,40.74560157225559],[-74.01171897530912,40.74593984499795],[-74.01171123496545,40.74596125915188],[-74.01167885505596,40.74597946181612],[-74.01163451251732,40.7459783948063],[-74.01055524902243,40.74587110442307],[-74.01055133475727,40.74590288399986],[-74.01012821388646,40.745857238929176],[-74.01012821162075,40.74584233546322],[-74.00994668462282,40.74581951444579],[-74.0099480791384,40.74580017091213],[-74.00946389855972,40.74575014365962],[-74.00945236676583,40.745817473388485],[-74.00944165126164,40.745880035252895],[-74.00943562211822,40.745915242718674],[-74.00942443646915,40.74598054836323],[-74.00941900727406,40.74601224727732],[-74.00940745668301,40.74607969560925],[-74.009401558017,40.74611413662922],[-74.00939067734767,40.746177655911936],[-74.00938523645611,40.74620942686076],[-74.0093804226021,40.74623753680819],[-74.00937637598555,40.74626116385942],[-74.0093636273423,40.74633560197741],[-74.01153382764763,40.74656775471247],[-74.011567829226,40.74657945216911],[-74.01159123434022,40.74660150547614],[-74.01158846879171,40.746628074402345],[-74.01153307246702,40.746966826948174],[-74.01151183018257,40.74698460360064],[-74.01148373087554,40.74699058876545],[-74.01144491250467,40.74698628502863],[-74.00924314658675,40.7467627907539],[-74.00913736259926,40.74735976280317],[-74.00956047962374,40.74740279960471],[-74.00956103476231,40.747387733595396],[-74.00956765300357,40.74738787745338],[-74.00956826626557,40.74737108340675],[-74.00955039867242,40.74737070611299],[-74.00955155415365,40.74733934176806],[-74.00996384996873,40.747377803012704],[-74.00995838445456,40.74741167208301],[-74.00990669970037,40.74740684960861],[-74.00990158912964,40.74743848434909],[-74.01135675337726,40.747592418347],[-74.01139477623487,40.74761090210883],[-74.0114067393552,40.74763055006822],[-74.01134693158474,40.74797620599535],[-74.01133174441692,40.74800057534217],[-74.0113035299375,40.748014571909074],[-74.01126611253964,40.74801371918134],[-74.00905847901343,40.74778564533301],[-74.00894606502322,40.74841189316889],[-74.00897918405973,40.748412709627104],[-74.00897918237624,40.74840021938065],[-74.00907100927556,40.74840976720658],[-74.00907390770351,40.748395061701],[-74.00941511636567,40.74842958691745],[-74.00941607672534,40.7484369350381],[-74.00952336741516,40.74844795680843],[-74.0095188236012,40.74847354043612],[-74.01116687561544,40.74864504676633],[-74.01119472751151,40.74865681411407],[-74.01121561813416,40.74867799224373],[-74.01121562130412,40.748696821175976],[-74.01114914281891,40.74902574726506],[-74.01113289942985,40.74904163383118],[-74.01110891182985,40.749049875919766],[-74.01107797059215,40.749051643117426],[-74.0099481793803,40.74893198800587],[-74.00956174747358,40.7499699751995],[-74.00925340917918,40.749985205722105],[-74.00910453215725,40.750371069730505],[-74.01067737532614,40.751022674477085],[-74.01056463476439,40.75132146210147],[-74.00900098259454,40.75064818378276],[-74.00870618650585,40.75142680500349],[-74.00873137829981,40.75146589496991],[-74.0086672907182,40.75162819722093],[-74.00862089839437,40.75165257792264],[-74.00853256925024,40.7518836093045],[-74.00876004993508,40.75194801420727],[-74.00914082120002,40.75209759409922],[-74.00912661123245,40.75211689573511],[-74.00874567715042,40.75196439532719],[-74.0086511593681,40.75193951261581],[-74.0086431823763,40.751956502032115],[-74.00896912527918,40.75207679147891],[-74.00895742294804,40.75209022513113],[-74.0090389596997,40.752125155650056],[-74.00904909796247,40.75211834944319],[-74.00910757975159,40.75213971211202],[-74.00910596820009,40.752142124949636],[-74.00905774009662,40.75221435124337],[-74.00899734911651,40.75218910594731],[-74.0090076280833,40.75217684223697],[-74.00892887650475,40.75214400187035],[-74.00891472422606,40.752163628476005],[-74.00867223768388,40.752062250000904],[-74.00859053101699,40.75202810543455],[-74.00858095760466,40.75204388241179],[-74.00866456561995,40.75207286787702],[-74.0093408924528,40.752355609545724],[-74.00932795206229,40.75237350304632],[-74.008478955728,40.75201857192007],[-74.00842636447226,40.75215785023945],[-74.00881779819426,40.75232434585436],[-74.00880273703076,40.7523448540374],[-74.0088394166214,40.752358816534866],[-74.00885173565307,40.75234228177313],[-74.00986566961524,40.75276341313944],[-74.00984627922618,40.752785441959595],[-74.00988922619958,40.75280368102833],[-74.00990631519599,40.75278041119854],[-74.0099905581975,40.75281618714928],[-74.00992010631792,40.75291212551456],[-74.00997058797022,40.75293356415334],[-74.00991916275493,40.753003591459375],[-74.00978913116427,40.75294837008787],[-74.00988774868318,40.75281407765349],[-74.00983854674402,40.752794967983235],[-74.00983056913984,40.75280346424475],[-74.00882994505393,40.75238001600731],[-74.00883632714998,40.752371521109716],[-74.00879210090847,40.7523521383797],[-74.00868792219572,40.752493998628566],[-74.00835352838843,40.75235073934249],[-74.00801152240531,40.75325645210968],[-74.00790245613032,40.753542611512046],[-74.00773872468986,40.75397215781875],[-74.00761949611852,40.75428184177427],[-74.00774404830214,40.754336801931885],[-74.00759618989146,40.75453055073434],[-74.00747157990921,40.754477019921445],[-74.00729394650313,40.754723184451045],[-74.00728499944323,40.75473556820334],[-74.00741362036906,40.754789302669614],[-74.00727181174769,40.7549855945354],[-74.00714468360972,40.754932481173604],[-74.00695917416678,40.75518079484957],[-74.00680635763683,40.75539177564048],[-74.00670291840636,40.755532367491114],[-74.00657767658517,40.75570687143413],[-74.00647435577088,40.75584955345522],[-74.00620548925967,40.7562208434686],[-74.00610422181595,40.7563605196208],[-74.00596691029224,40.75655814243305],[-74.00592383847429,40.756620235634394],[-74.00580938168251,40.756789341981126],[-74.00541885841005,40.75732314034936],[-74.00521187705773,40.75723199854007],[-74.00480392560185,40.75780984316488],[-74.00496777078658,40.75788416444813],[-74.00527894797891,40.75802855492844],[-74.0050310513664,40.758357016473305],[-74.0069642874931,40.75916005756179],[-74.00699375268466,40.75917614764281],[-74.00701038304962,40.759203720386836],[-74.00700358904015,40.75923187034123],[-74.00652959987842,40.759874751241384],[-74.00650687640183,40.75989203231737],[-74.00647588371956,40.7598936012682],[-74.0064435290131,40.75989046046477],[-74.00631515935251,40.75984282204481],[-74.00450483093914,40.75908499655288],[-74.00420629125391,40.759501707688564],[-74.00390742032769,40.75937569218368],[-74.00380657835007,40.759510731466186],[-74.0040798895684,40.759626044742895],[-74.00424697128062,40.759699214171576],[-74.0042024743225,40.759761071881954],[-74.00414863814689,40.759835914170964],[-74.00424487588262,40.75988657316676],[-74.00425967856717,40.759875307678705],[-74.00431889425076,40.75991068576361],[-74.00426869650673,40.75995927951609],[-74.00421059345653,40.75992456661018],[-74.00422266067,40.75991310304382],[-74.00413171622799,40.759861642396196],[-74.00411162007795,40.75989300730739],[-74.00366891453541,40.75970596957674],[-74.00357251040076,40.75984655897331],[-74.00392854933564,40.76000301972061],[-74.003825595952,40.76013313666701],[-74.003588009112,40.76045170695143],[-74.0033848822989,40.76072887070651],[-74.00313338991401,40.76107834509648],[-74.00278691552613,40.76092896970349],[-74.00233528130057,40.7615437270018],[-74.00454520983433,40.76249280194501],[-74.00455814361389,40.76250787607552],[-74.00455641560922,40.76252426502523],[-74.00444951527277,40.76266456720016],[-74.00442709659245,40.76267570735653],[-74.00439976203518,40.76267135909899],[-74.0022008207327,40.76172843222664],[-74.00178824022314,40.76229452014182],[-74.00153309066981,40.76264459812778],[-74.00375735037694,40.76358224164074],[-74.00361214794175,40.7637770439099],[-74.001386036986,40.762850095002065],[-74.00097308022016,40.76342027172584],[-74.00314976988994,40.76433288868739],[-74.00294809515722,40.764616835931506],[-74.00306161234066,40.764665782653594],[-74.00313458336224,40.76464959820689],[-74.00316194577044,40.764612610454805],[-74.00322275585363,40.764638037670395],[-74.00315587058185,40.76473050988013],[-74.00314652966799,40.76473628138387],[-74.00313606019273,40.764740796432726],[-74.00312475154531,40.76474393022517],[-74.00311291631085,40.76474559613918],[-74.00310088163013,40.76474574812681],[-74.0030889801569,40.76474438198694],[-74.00106364220511,40.76388820826305],[-74.00073105253733,40.76375528636159],[-73.99992712367728,40.763406528479514],[-73.99963853555371,40.763569070990975],[-73.99962263458187,40.76355908121064],[-73.99951767096823,40.76370627918046],[-73.99944642217315,40.763806194578656],[-73.99943330724619,40.76382391019716],[-73.99915098087908,40.76420525958287],[-74.00227436642373,40.76552518109975],[-74.00228802371481,40.76556154379539],[-74.00205713831564,40.76587739041879],[-74.00202454330335,40.765893266570565],[-73.99919997246741,40.76470191498269],[-73.99910832564545,40.76466249985771],[-73.99888473174988,40.76456937704867],[-73.99857638530538,40.76499860727096],[-73.99859978707626,40.76507334028612],[-73.99863487876344,40.765085794737914],[-73.9986653047344,40.765104480747354],[-73.99868637477219,40.765137394267924],[-73.998695730373,40.76517476567974],[-73.99868870694561,40.76520857045002],[-73.99866764711378,40.7652370353431],[-73.99863371556073,40.76526016874142],[-73.99858924105146,40.76527617880701],[-73.99848276468684,40.765297536984576],[-73.99843830371466,40.76531621383403],[-73.99840202518251,40.765350909087715],[-73.99835829733873,40.765418048763934],[-73.99829119846429,40.76552107275892],[-73.9982709030835,40.76555223341343],[-73.9982816070953,40.76556777493493],[-74.00154217871203,40.76694470253285],[-74.00157335385268,40.76697719221087],[-74.0015618057548,40.76699649936847],[-74.00139437159497,40.76723004773319],[-74.00136434612979,40.76724936397127],[-74.00131469636004,40.76725112005011],[-74.00129391014994,40.767241458241756],[-73.9981567843898,40.76589403537427],[-73.99814818647367,40.76590560707514],[-73.99806675905354,40.76587188113588],[-73.99772134825697,40.76634912055595],[-73.99737808447966,40.76682338587715],[-74.00062837395305,40.76820311105888],[-74.000650167862,40.768220373786825],[-74.00064950530418,40.76824523610574],[-74.00045489336716,40.768504195680194],[-74.00041765393195,40.7685124799646],[-74.00038586489076,40.76850419593204],[-73.99715588949212,40.76712869617297],[-73.99681598463503,40.76760062185933],[-73.9964571540504,40.76809881579582],[-73.999728191901,40.76947350663387],[-73.99973590247853,40.7695061773317],[-73.99955518930786,40.76975080774024],[-73.99951552161613,40.76976756583799],[-73.99947253734024,40.76976421547192],[-73.99707176039311,40.76873264357703],[-73.99702628821073,40.76879551562402],[-73.99715035477146,40.76884738771358],[-73.99701071413826,40.769028790653806],[-73.99689311312369,40.76897962932219],[-73.99657126439577,40.769424568274005],[-73.99902682832902,40.77046327298224],[-73.99876206914315,40.77082505670939],[-73.99631327022085,40.76979883633659],[-73.99588004351685,40.770400579515005],[-73.99601693196199,40.77045484888637],[-73.99590077425034,40.77061312350113],[-73.99576733283618,40.77055459595407],[-73.99542474436302,40.771031615168134],[-73.99575648212901,40.771160668465974],[-73.9957085906995,40.77122581253311],[-73.99579774020454,40.77128256276425],[-73.99581687579044,40.771256516415725],[-73.99591283603844,40.77129785562394],[-73.99592803670673,40.77127510283781],[-73.99600175749052,40.77130746533072],[-73.99589990100937,40.77145029858229],[-73.99589260894886,40.77144708702481],[-73.99585437252811,40.77149918074863],[-73.99579117748779,40.77147551882058],[-73.99582805886243,40.77142166722259],[-73.99572993314408,40.7713788187939],[-73.99575123412828,40.771354282277386],[-73.99562982240307,40.77132529262824],[-73.99562306904366,40.771336957513036],[-73.99530566365357,40.77119600490969],[-73.99512395556886,40.77145073826726],[-73.99499014482076,40.771440709806654],[-73.99495733353699,40.771449190697886],[-73.99493501659009,40.77146814607559],[-73.99492385794417,40.771485605937656],[-73.99492582120637,40.77151604240567],[-73.99500915438725,40.77160733994432],[-73.99497830771196,40.771645249473465],[-73.9949768849473,40.771658774923495],[-73.99707328169315,40.77254286890211],[-73.9968729144914,40.77281748122877],[-73.99477407930823,40.77192954753038],[-73.99444501293384,40.77237712658849],[-73.9954551499559,40.772802675029276],[-73.99622972001936,40.773128975045495],[-73.99612087994667,40.773275391093186],[-73.99434191991621,40.77252478194361],[-73.99424979228651,40.77252648513829],[-73.99416328456306,40.772487191021455],[-73.99383108203092,40.77293178785083],[-73.9938875450246,40.77295574416407],[-73.99389125243704,40.77295519487691],[-73.99396258551457,40.77294465390911],[-73.99401262480514,40.77288284612953],[-73.99412205808243,40.77292405852363],[-73.99413665258861,40.77290187017444],[-73.99430134239114,40.77297002866411],[-73.99428153513446,40.77299380156694],[-73.99437655275096,40.773039551101554],[-73.99431863468713,40.773121440270394],[-73.99429402982382,40.77315624399199],[-73.99502327586075,40.77348119657636],[-73.99507108796963,40.773414138666006],[-73.99508939189286,40.773388475039326],[-73.99501396371679,40.77335803492454],[-73.99505028469918,40.773297153190036],[-73.9962406518988,40.77378979139785],[-73.99619583747098,40.773852356184264],[-73.99610846880843,40.77381631601527],[-73.99610778142996,40.77381737760125],[-73.99606316808179,40.77388688661024],[-73.99612697773726,40.773913354621016],[-73.99612850482784,40.77391398490333],[-73.99612636140223,40.77391671365438],[-73.99609880736975,40.773951805299276],[-73.99611835102779,40.773960323961546],[-73.99617945997379,40.77398695435169],[-73.99609524522621,40.774086186437806],[-73.99605125275335,40.77406889580338],[-73.99557226516114,40.77387073139446],[-73.9939369418221,40.77317951096707],[-73.9938629532914,40.77326952907245],[-73.99382334505351,40.77338176688285],[-73.99376791399207,40.773483994507956],[-73.99369930927804,40.773562152155684],[-73.99362279521324,40.77363229021255],[-73.99352782764133,40.77371444646875],[-73.99344341917197,40.77377054967849],[-73.99341175671518,40.773802612424106],[-73.99335894150748,40.77392688015482],[-73.99262266386542,40.77497405603712],[-73.9925778427661,40.774956016359596],[-73.99252774395154,40.775002110440035],[-73.99246974581534,40.77502415955196],[-73.99240383719187,40.77501814039085],[-73.99226708903541,40.77511603385873],[-73.9920590849371,40.775497598695026],[-73.99212537239492,40.775509075053535],[-73.99222686779699,40.775482211026315],[-73.9923293466088,40.77546890095871],[-73.99236175680113,40.775501899766816],[-73.99238604296033,40.775557179922245],[-73.99208768471269,40.77598397082155],[-73.99201877991071,40.77607334073558],[-73.99142953190217,40.77687956054547],[-73.99092717414969,40.77756687876315],[-73.99073041339479,40.777560550242754],[-73.99039616003651,40.77758506567923],[-73.99010126597662,40.7779964575168],[-73.9896488729282,40.77862756000916],[-73.9892009588643,40.77925239865175],[-73.98920068089922,40.77925278678201],[-73.98917577843804,40.779287524015956],[-73.9890851947859,40.77940759766221],[-73.98886861740003,40.77969292291159],[-73.98887187449976,40.77971373825319],[-73.98921902288048,40.779697895712154],[-73.98927785904425,40.77972343927124],[-73.98940905418013,40.77973770647215],[-73.98949861492703,40.77972504438994],[-73.98959649338822,40.77969814668358],[-73.9896798129025,40.77967756865823],[-73.98975270293786,40.77967124471432],[-73.9898422478065,40.779680752670835],[-73.98994430227148,40.77969659276877],[-73.99004010212055,40.779707677195844],[-73.99013797752482,40.77969976970497],[-73.9902233684564,40.77968236171395],[-73.99033584033221,40.779661794395174],[-73.99043059869709,40.779664972553114],[-73.99050764615505,40.77966813912405],[-73.99062219939678,40.77967606441193],[-73.9907450695054,40.77967132868682],[-73.99087211428218,40.77964600764407],[-73.99096167222429,40.77963968425452],[-73.99105747282952,40.77965235262594],[-73.99115742949704,40.77966977560665],[-73.99124281740437,40.779671367587284],[-73.99125531828965,40.77965078301924],[-73.99129488712012,40.77963020920907],[-73.99132196764988,40.77963179604157],[-73.99135945556947,40.779585882834986],[-73.99155105922745,40.77957482093496],[-73.99141982585964,40.77975528028724],[-73.98888614411696,40.77987889853291],[-73.98893965670626,40.7799561784406],[-73.98892610353074,40.780059292516405],[-73.98891168026461,40.78009603764939],[-73.98891166067366,40.7801223662678],[-73.98891926146842,40.78022609434386],[-73.98838105020263,40.78098107404599],[-73.98823241384697,40.781233144215754],[-73.98821042083165,40.78122548254226],[-73.98814418135409,40.78136567132738],[-73.98813788174478,40.78137928127419],[-73.98812746168686,40.78140179694506],[-73.98804128806725,40.78158596085139],[-73.98810029382462,40.78160287830547],[-73.98807644914505,40.78165093500181],[-73.98801805997222,40.78163418881061],[-73.98796079284213,40.78177098703173],[-73.98791968459238,40.78183347821599],[-73.9878772872501,40.78189205133493],[-73.98647480368594,40.78391657371892],[-73.98625187003545,40.78423876424563],[-73.98611372725296,40.784438911877544],[-73.98561580396368,40.785141862595225],[-73.98546581197026,40.78536070057562],[-73.98617270496545,40.786068452258874],[-73.98645586240198,40.78591921908159],[-73.98707234561559,40.785189638820306],[-73.98711901394266,40.78521031850171],[-73.98649778102359,40.785951202887425],[-73.98616462880626,40.7861218824485],[-73.98612842248589,40.78623900133132],[-73.98607113521973,40.78624070602679],[-73.98602727478912,40.786228964236905],[-73.98609763784941,40.786058225698135],[-73.98542932126942,40.78541394218482],[-73.98508113773205,40.78592193511063],[-73.98519883325449,40.785966552197955],[-73.98517050238989,40.786013334158355],[-73.98521621867364,40.786030501816604],[-73.98525509797992,40.78597620551176],[-73.98524273937656,40.785972572150925],[-73.98524962933016,40.78596313985603],[-73.98528177918674,40.785978620950246],[-73.98524003288452,40.78603585813697],[-73.98568388524217,40.78622212391986],[-73.98571752900456,40.78617599466898],[-73.98576566029752,40.78619627485881],[-73.98568287192252,40.78630978621333],[-73.98563627093054,40.78629015014688],[-73.98567072256466,40.786242911993995],[-73.98561523764435,40.78621964571548],[-73.98520511880037,40.78604766921296],[-73.98521103560748,40.78603955488388],[-73.98516263994709,40.786020999267365],[-73.98513163631205,40.78606029702015],[-73.98501696406484,40.7860142376984],[-73.98493597820354,40.78613072065117],[-73.98465507883023,40.786534741808154],[-73.98574378790103,40.78657008285492],[-73.98589227228327,40.78642652901978],[-73.98594285499497,40.786452847880525],[-73.98594956155668,40.786487113464126],[-73.98581237352651,40.786616865357274],[-73.98513520970326,40.78658761839311],[-73.9846194285841,40.786586016350014],[-73.98369521623664,40.787915281312905],[-73.98234664147552,40.78985478127541],[-73.98188645946547,40.7905165804327],[-73.98139174468552,40.79122824600533],[-73.98128937370952,40.791375509433216],[-73.98094708354064,40.7918678937827],[-73.980537679464,40.79245681262518],[-73.98043434256005,40.79259428309694],[-73.98013222578648,40.79299376588592],[-73.98004684397988,40.79311352566668],[-73.9792882208298,40.79417763216351],[-73.97828949152756,40.79558676046106],[-73.97779475503206,40.7962846297721],[-73.97685207845194,40.797631348393374],[-73.97639951930557,40.7982732106927],[-73.97628527884254,40.79843523541025],[-73.97583055785236,40.799092280913435],[-73.97578169321191,40.799156256780485],[-73.97579140130196,40.79920962788639],[-73.97576219486481,40.79926017354946],[-73.97554385822,40.79952825114008],[-73.97526783234454,40.79993284953191],[-73.97508668067891,40.80018953363319],[-73.97496436808184,40.80036963419408],[-73.97483924436003,40.80055824326287],[-73.97466556722725,40.800813514734344],[-73.97448722520987,40.801057428896996],[-73.97414361823468,40.801516895341344],[-73.9739409836669,40.80180902586418],[-73.97389989052462,40.80188986353137],[-73.9737747724601,40.802045845948754],[-73.97372060455763,40.80216781528042],[-73.97361322463902,40.80229685988735],[-73.9735422772157,40.802356411250486],[-73.97336671067802,40.802630113346645],[-73.97320518045738,40.80283005827647],[-73.97312859120993,40.80297471550882],[-73.97307070537943,40.80305554844759],[-73.97303522902074,40.80307397374209],[-73.97292317001968,40.80324982284404],[-73.97286807262154,40.80332073417621],[-73.9728717908152,40.80335618764548],[-73.97255429829629,40.80379863465031],[-73.97217237241797,40.80431907695924],[-73.97205095521868,40.80453037601023],[-73.97195292438504,40.80461970955434],[-73.97181849483565,40.80471754270211],[-73.97179980150743,40.804785615486196],[-73.97171200727094,40.80493169127671],[-73.97162049569336,40.80504229439955],[-73.9716111339144,40.80509618747454],[-73.97144210961521,40.80533442683998],[-73.9712908330033,40.80552870753339],[-73.97110765852304,40.80579013967689],[-73.97046512144398,40.80662431761259],[-73.97021400799224,40.80693570615354],[-73.96988290614696,40.80736478848145],[-73.96977288943359,40.80752528214136],[-73.96955934797353,40.80779550099915],[-73.9691117356584,40.80840637006915],[-73.96909103244369,40.80843016507858],[-73.96900989340095,40.8083968355481],[-73.96887354922883,40.808340827332195],[-73.96878048375369,40.80829733287782],[-73.96869503618561,40.80827016719946],[-73.9682020766569,40.80807528473694],[-73.96704704613556,40.80762157319623],[-73.96701144070975,40.807605209927495],[-73.96696206590441,40.80758617705037],[-73.96689691643655,40.80756107003808],[-73.96664195853288,40.80745506886894],[-73.96677726349716,40.80726846286131],[-73.96650112198108,40.80714745527827],[-73.96658253539036,40.807035854879814],[-73.96609862551418,40.80683365522625],[-73.96634245055436,40.806511680423746],[-73.96582739505247,40.80629684049511],[-73.96539706986458,40.80612076698756],[-73.96530851676917,40.80608040059635],[-73.96553625506817,40.80576670855666],[-73.96576398968247,40.805453005999375],[-73.9659854274573,40.80514685028543],[-73.9662158506705,40.804828266431024],[-73.96645846032554,40.804498376387365],[-73.96670106824162,40.80416847693711],[-73.96695095465164,40.80382775326219],[-73.96714132734354,40.80356816157363],[-73.9675749745301,40.802927253707246],[-73.96769077760646,40.8026817463327],[-73.96780043386224,40.802205647789606]]]]}}]}