{"type":"FeatureCollection","features":[{"type":"Feature","properties":{"district":"6"},"geometry":{"type":"MultiPolygon","coordinates":[[[[-73.75670987234344,40.72617907294693],[-73.75684298218758,40.726139173536836],[-73.75694267899924,40.726111206777006],[-73.75717355719084,40.72604644303123],[-73.75752561081813,40.72594768712853],[-73.75806895198158,40.72586094974978],[-73.75831902160827,40.725829947948796],[-73.75913199148789,40.725729965094494],[-73.75916455468156,40.72572936008492],[-73.75972199944209,40.725719013741575],[-73.75993748941181,40.72572207464003],[-73.76017755143141,40.72573526341966],[-73.7604258906846,40.72574421774842],[-73.76085266632244,40.725793517148986],[-73.76091128057986,40.72580028451483],[-73.76105145039438,40.7258171533186],[-73.7611934920798,40.72584169087756],[-73.7613289348411,40.72586508712402],[-73.76183652955967,40.72594870616876],[-73.76206298857909,40.72598601411276],[-73.76181677755856,40.72600393943156],[-73.76102756078586,40.72589417902573],[-73.76081777012031,40.72596183941428],[-73.76101040161944,40.72598192486364],[-73.76120303411732,40.72600200948991],[-73.76169065806221,40.726068866688955],[-73.76179048019074,40.72608255282699],[-73.76202768605962,40.726110157777946],[-73.76240124226538,40.72616114971419],[-73.76365793900423,40.72633499300091],[-73.76370118216931,40.72634014476268],[-73.76374839974068,40.72634577022127],[-73.76389734240563,40.72636441242415],[-73.76442258318274,40.72644232026464],[-73.76471618992905,40.72648102065054],[-73.76503755265895,40.72648815398174],[-73.76544843586294,40.72647468051812],[-73.76569706928036,40.726454492252444],[-73.76572646691633,40.726452107009216],[-73.76617100056225,40.7264160133911],[-73.76624447037194,40.726402790040005],[-73.76635197856926,40.72638795156628],[-73.76642476188793,40.72637480092178],[-73.76647302255321,40.72636819051787],[-73.766778729022,40.726323338710685],[-73.76718337136506,40.726264383709825],[-73.76772698218991,40.72616882189278],[-73.7684664339199,40.72603882926914],[-73.76861803623585,40.72601217704091],[-73.76924074796108,40.725902701255386],[-73.76975275207718,40.725785231869224],[-73.76991329336563,40.72574839859547],[-73.77139578147347,40.725350501341545],[-73.7716326895581,40.725274405141455],[-73.77165390451617,40.725267590828786],[-73.77224702944203,40.72507707319131],[-73.77286784140506,40.72486798512597],[-73.7734855589084,40.724624952301156],[-73.77372529470102,40.72453062989241],[-73.77423835459858,40.72431652314541],[-73.77437108686583,40.72426113211039],[-73.77496975263935,40.7239880614154],[-73.77524876630201,40.72384316223311],[-73.77548473594732,40.72372061487251],[-73.77587312866021,40.723472821410944],[-73.77605631092645,40.72335594008404],[-73.77623801412783,40.72330543224208],[-73.77644992557315,40.72326148517316],[-73.77666634739504,40.72323123344165],[-73.77688494892591,40.72321500638751],[-73.77710340647685,40.72321282747678],[-73.7773194290387,40.72322442993139],[-73.77787601889116,40.72303670349571],[-73.7780376589082,40.72328426871487],[-73.77781693007607,40.723339142894936],[-73.77759997905262,40.723410575978235],[-73.77738999307255,40.72349836775463],[-73.77719009810122,40.72360188150904],[-73.77700327925395,40.72372000868374],[-73.77683220647316,40.72385121527638],[-73.77667910900038,40.72399361329242],[-73.77654571365134,40.72414504672784],[-73.77643312801824,40.72430318263869],[-73.77634189042865,40.7244656470973],[-73.77523387160828,40.725237533326336],[-73.77556110392923,40.72596986472823],[-73.77596177545821,40.7268128490196],[-73.77672825752802,40.7284300811242],[-73.77754793617318,40.730136777312175],[-73.77757506882061,40.73019327580718],[-73.77848636086493,40.72994389542772],[-73.77936529420842,40.72970186813217],[-73.78024774689752,40.7294598237606],[-73.78022194347342,40.72940533758315],[-73.7794101837246,40.727691517276405],[-73.78033718660049,40.72743939919839],[-73.7804853287694,40.727751583605084],[-73.78079910579524,40.72842524109364],[-73.78113444601009,40.72915588797654],[-73.78116055033684,40.72921275860039],[-73.7820585138444,40.728918896780336],[-73.7829225314464,40.728635948891046],[-73.78360140145269,40.728412820280674],[-73.78397695358828,40.72829139717868],[-73.78482734370947,40.728011714745826],[-73.78568492825598,40.72773019277459],[-73.7861901751838,40.72756357461063],[-73.78655584623328,40.727441503897204],[-73.7873833959026,40.727171981753536],[-73.78825003810303,40.726886973180974],[-73.78911280728494,40.72660016750077],[-73.78964444761402,40.72642499910215],[-73.78998042227505,40.7263172452983],[-73.79085659843834,40.72602748929787],[-73.79169223061054,40.725792385078286],[-73.79174472669789,40.72578885039587],[-73.79180419123847,40.72577480205682],[-73.79332157475596,40.72528516391806],[-73.79421259991464,40.724983926732286],[-73.7951156173967,40.724675877094434],[-73.79588157175418,40.72441407279331],[-73.7967520003268,40.72411701185253],[-73.79760902179588,40.72382450447765],[-73.79847197230467,40.72352973111002],[-73.79845264571667,40.72347817145295],[-73.79782841674351,40.72203121424894],[-73.7972325828327,40.72060910507939],[-73.79809865451473,40.72034496660863],[-73.79887416543293,40.72013565879942],[-73.79901311191831,40.72016477141204],[-73.79849233169205,40.71870685007741],[-73.79809522732708,40.71754225181438],[-73.7980479249926,40.71740839712385],[-73.79748800094221,40.7175725036835],[-73.79743396646454,40.717588340302136],[-73.79638163342676,40.71789653994166],[-73.79595669033023,40.71802972902218],[-73.79564837869151,40.71813390266372],[-73.79480794807097,40.71837515892389],[-73.794407931384,40.71845264535582],[-73.79261036702599,40.7187165317117],[-73.79201457113803,40.71889608670759],[-73.79192038118471,40.718913685045464],[-73.79182512228324,40.71892755842972],[-73.7917290487298,40.71893766982499],[-73.79163241738047,40.71894399229969],[-73.7915354858074,40.71894650892984],[-73.79143851277287,40.71894521299717],[-73.79130294931575,40.71893182957424],[-73.79116788398545,40.71891579364524],[-73.79103340648203,40.71889711545064],[-73.79089960601578,40.718875807790944],[-73.79099991062435,40.71881897451653],[-73.79115949051305,40.71873143439018],[-73.79126073657179,40.71867314125527],[-73.7912132915219,40.7186140639268],[-73.79115955383516,40.71855819320888],[-73.7910998957956,40.71850591614692],[-73.7910347306977,40.71845759489027],[-73.79096450998306,40.71841356418379],[-73.79088971975132,40.71837412913271],[-73.79081087848589,40.718339562861104],[-73.79072853236111,40.71831010482499],[-73.79064325182873,40.71828595909309],[-73.79055562766624,40.718267292933206],[-73.79042765014754,40.7182663368873],[-73.79029998124098,40.71825951147211],[-73.79017308551873,40.71824684152452],[-73.79004742473886,40.71822837314894],[-73.78992345616462,40.71820417354954],[-73.78980163090027,40.71817433078559],[-73.78968239224919,40.71813895345107],[-73.78956617410044,40.718098170279255],[-73.78945339934975,40.718052129674376],[-73.78934447836033,40.71800099917131],[-73.78923980735756,40.717944964845074],[-73.78913976732115,40.71788423057112],[-73.7890447222664,40.71781901735084],[-73.78895501802965,40.7177495624831],[-73.78887098101005,40.71767611870053],[-73.78879291698176,40.71759895324985],[-73.78872110998155,40.717518346919164],[-73.78865582127536,40.71743459301615],[-73.7885972884078,40.71734799630073],[-73.78854572433815,40.71725887187584],[-73.78870730869966,40.71718500267861],[-73.78887866951625,40.71712230816981],[-73.7890577550498,40.71707182036825],[-73.78924225441614,40.71703430027252],[-73.78942972936098,40.717010131390325],[-73.78961770719295,40.71699938072271],[-73.7896243660603,40.716817093142275],[-73.78965158473054,40.71663388888818],[-73.78969965299667,40.7164517938813],[-73.78976836545071,40.71627284401595],[-73.78985708473067,40.71609907120445],[-73.78996471686375,40.71593236646463],[-73.79008975346211,40.71577443761588],[-73.79023036896095,40.71562676623852],[-73.79041267273864,40.71546551978891],[-73.79060939857266,40.71531340255153],[-73.79081933294059,40.71517151189782],[-73.7910410560704,40.71504080025274],[-73.79127298820526,40.71492206563289],[-73.7914161932517,40.71483794666454],[-73.79154801588956,40.71473754401901],[-73.79166388426903,40.71462226322502],[-73.79175971913483,40.71449449142041],[-73.79183231599302,40.714357402362545],[-73.7918796618861,40.714214757299025],[-73.79190118919942,40.71407056081462],[-73.79189768019849,40.71392867014842],[-73.79187112261083,40.713792500252325],[-73.7919997474599,40.713984037633836],[-73.79199978185603,40.713984092142404],[-73.79214850154256,40.71416876687831],[-73.79214859496885,40.714168883981124],[-73.792148701409,40.714168993401174],[-73.7923165131356,40.71434498509466],[-73.79231665491203,40.714345130261634],[-73.79231680880079,40.71434527444527],[-73.79250247682353,40.71451103417285],[-73.79250255960457,40.714511105688736],[-73.7925026415305,40.71451116899422],[-73.7927045376443,40.714665241946065],[-73.79270462045284,40.714665304750405],[-73.79270471471062,40.71466536740785],[-73.79292062858929,40.7148062804757],[-73.79292084170267,40.71480642577023],[-73.79292107799309,40.71480655200833],[-73.79314903694576,40.71493343025916],[-73.79333298185152,40.71527820662538],[-73.7937400950945,40.71609918706503],[-73.79461843097782,40.71585052241811],[-73.79494581695245,40.71651789901973],[-73.79582468289298,40.71626657952911],[-73.79473558364596,40.71405677418496],[-73.79390266493596,40.71237014770797],[-73.79475527292823,40.712066819796604],[-73.79561222405019,40.71380657827377],[-73.79650012035835,40.71355402624814],[-73.7969121469218,40.71343621934129],[-73.79700497458632,40.71340223595458],[-73.7970904093075,40.71335506510786],[-73.7971638078803,40.71329640808603],[-73.79722154134964,40.713229151550394],[-73.79726158349682,40.71315693802224],[-73.79830660514847,40.71287263536192],[-73.79902108500401,40.71351360990537],[-73.80039356335226,40.71294144353757],[-73.8012419142657,40.71250288491952],[-73.80138435168207,40.71267394872701],[-73.80259341636078,40.71253893368147],[-73.80242787315422,40.71204071185089],[-73.80349326517883,40.711071331760174],[-73.80425087800604,40.710389763989774],[-73.80484079634434,40.709337983959735],[-73.80501247652543,40.70947333468668],[-73.80762188329243,40.70873059540984],[-73.80998265695769,40.70807007371352],[-73.80968900830584,40.70737709353875],[-73.809348003711,40.70668543950542],[-73.81201248584306,40.70594494480858],[-73.81211120424959,40.70669836654284],[-73.81215496691352,40.707045855613124],[-73.81238947351332,40.70878576893035],[-73.81243092461143,40.70909333509088],[-73.8133268117695,40.709027045649],[-73.81636510046502,40.708800185061364],[-73.8165240781598,40.708794999618],[-73.8166830890125,40.70880320447442],[-73.81668331483557,40.70880322292699],[-73.81668353977943,40.708803240875596],[-73.81683991076513,40.708824697588206],[-73.81705433324655,40.70889980772502],[-73.81726001637622,40.7089902852844],[-73.81745417027963,40.709095168971814],[-73.81763426662262,40.70921307927192],[-73.81779816550174,40.709342346803034],[-73.81839811924687,40.70978933737147],[-73.81893384728083,40.710118688404705],[-73.81906740670502,40.710187795882405],[-73.81912373959952,40.7102170080395],[-73.81918007345217,40.71024620978368],[-73.81936611273962,40.70961861844647],[-73.81938978823848,40.70945860813509],[-73.81940933840961,40.709345815641306],[-73.819429874412,40.7092187788293],[-73.82009424608421,40.70959365660553],[-73.8202387569877,40.709666907383394],[-73.82041647307302,40.709758191504136],[-73.82048703139793,40.70979443084687],[-73.82070510115726,40.70989825069204],[-73.82086245319637,40.71006718417317],[-73.82106830425855,40.71027920347146],[-73.82131391780284,40.710548220305306],[-73.82160752566207,40.71079948004671],[-73.82187623037187,40.711029426198806],[-73.82275867015508,40.711735828551895],[-73.82292195476752,40.71186758118076],[-73.82308129807758,40.71200209914686],[-73.82323661920685,40.712139314192605],[-73.82338783931641,40.71227915669155],[-73.82353488171685,40.71242155588245],[-73.8236776716893,40.71256643931079],[-73.8238161367491,40.71271373345752],[-73.82395020660489,40.71286336357975],[-73.82411227647015,40.71307212734794],[-73.82415919338547,40.713132559774955],[-73.82394405983251,40.71323329984718],[-73.82426449164649,40.71381642504511],[-73.82428940517953,40.71387006610603],[-73.82456081264718,40.714255030175195],[-73.82469343908902,40.71444314436217],[-73.82483222413238,40.714639992916034],[-73.82546060666236,40.715549645593455],[-73.82552307493724,40.71565388174565],[-73.82555085096443,40.715708244877845],[-73.8255786285764,40.715762608675384],[-73.82594383097832,40.71564729873295],[-73.82607431986516,40.715611467036084],[-73.82617518753929,40.715584829932205],[-73.82625020254231,40.715565023849294],[-73.82895450390424,40.714845341819824],[-73.82925263379846,40.714761225346706],[-73.82951946441096,40.714676736083206],[-73.82955920455164,40.71466415315297],[-73.82989578755911,40.71457124264734],[-73.82994548776108,40.71455901404551],[-73.83029209344288,40.7144752172658],[-73.83053294761805,40.7144169872914],[-73.83079198212278,40.71436295060893],[-73.83090255363659,40.714334935831076],[-73.83097820817336,40.714313605287636],[-73.83103141767987,40.71433672526145],[-73.83106922178843,40.7143539563043],[-73.83115849768505,40.714393367050114],[-73.8312588892133,40.7144412600086],[-73.83145866919799,40.71455444993737],[-73.83223132316317,40.7151197492349],[-73.83228655428489,40.71507836940347],[-73.83240842259414,40.71498706445214],[-73.8331468464259,40.71443381777842],[-73.83303465304152,40.714306620723484],[-73.83255380242105,40.71379057653556],[-73.8334098365486,40.71333171108329],[-73.83370267684876,40.713183636645326],[-73.83367385745849,40.71315712118082],[-73.83364281403972,40.713128558159994],[-73.83365280588174,40.71312338779746],[-73.8337218019125,40.71308768254468],[-73.83377766945752,40.713057732121904],[-73.83379048912582,40.713050859062754],[-73.83434178395584,40.71275519695809],[-73.83492642853938,40.71247379790684],[-73.83611476582809,40.71182514687444],[-73.83640857617405,40.71164176976264],[-73.83640880086867,40.71164162617602],[-73.83640902552135,40.711641499677114],[-73.83671639080272,40.71147031625224],[-73.83671661544889,40.71147019193059],[-73.83671685306552,40.71147007533358],[-73.83703669303644,40.711311803655654],[-73.8370368815126,40.71131170508137],[-73.83703708295923,40.71131161423171],[-73.8373681783795,40.71116692878268],[-73.83770894133323,40.71103648427055],[-73.8380575606343,40.71092087278387],[-73.83952312732589,40.71049645145666],[-73.83972439908847,40.71039876558755],[-73.8397802516746,40.71038552408019],[-73.84019199323602,40.710276829415896],[-73.84024206327211,40.71026193169076],[-73.84069154199021,40.71015321406149],[-73.84133936543044,40.709946234362405],[-73.84263067991336,40.709432977234485],[-73.84271890205099,40.709398073375745],[-73.84299091278348,40.70928692814337],[-73.84314625301297,40.70922345641893],[-73.8432588082512,40.709168179635995],[-73.84348630366168,40.709055775292484],[-73.84356973293404,40.709019609484926],[-73.84381825734701,40.70891182012506],[-73.84417281256174,40.70877842134382],[-73.84453738780353,40.708661054970214],[-73.84491011169675,40.7085603313706],[-73.84528898563842,40.708476679497984],[-73.84567198149114,40.708410366124184],[-73.84615958377633,40.70835082054831],[-73.8466572411161,40.708318642341034],[-73.8468183810312,40.70831209741233],[-73.84697970229179,40.7083091022593],[-73.84714106989627,40.708309659388384],[-73.84730234888872,40.708313767898964],[-73.84746340425329,40.70832142456621],[-73.84762410122775,40.70833262298348],[-73.8485783874081,40.708438720828106],[-73.84876725233303,40.708444578931164],[-73.84895712548158,40.708438137522236],[-73.84914591506968,40.70841932047818],[-73.8493315614799,40.708388333680105],[-73.84951207404207,40.70834566137514],[-73.85042905370643,40.7080870670551],[-73.850590510987,40.70803988342437],[-73.85110121675432,40.70790098302179],[-73.85268225647766,40.70741814532197],[-73.85275370562559,40.70739714706135],[-73.8528369086014,40.70741289532079],[-73.85362230057252,40.7075892715245],[-73.85399326402762,40.70766271168684],[-73.8539933815456,40.707662729928835],[-73.85399349972515,40.7076627476691],[-73.8543716226819,40.7077194729481],[-73.85475503981823,40.707758967114806],[-73.85514158233053,40.70778085899518],[-73.85552876814208,40.707784974732796],[-73.85552916924769,40.70778497523621],[-73.8555295602647,40.70778495813659],[-73.85591565974381,40.70777133124107],[-73.85629899308621,40.7077401665255],[-73.85667714366824,40.70769187446614],[-73.85824308915691,40.70758568892575],[-73.85910690525459,40.70751661248521],[-73.85919931790035,40.70750922134201],[-73.85926363257646,40.70750345530025],[-73.8593405180417,40.70749067195587],[-73.8622022626054,40.707279713117195],[-73.86228204359585,40.707377261565],[-73.86257544525502,40.70774935190968],[-73.86304119385743,40.708329350328164],[-73.86350797635146,40.708910799490575],[-73.86377571607089,40.709246773566754],[-73.8638406021596,40.709327040431724],[-73.86397327963518,40.70949117127626],[-73.86408248765697,40.70962219868323],[-73.86432753780267,40.70993293062537],[-73.86444678921029,40.71008415905728],[-73.86500982001613,40.71077690893361],[-73.86207872622305,40.71220106006355],[-73.86963639929745,40.71329756819313],[-73.87103965408342,40.71329238177849],[-73.87161765672188,40.71329024016711],[-73.87302887799927,40.71325963993643],[-73.87359275961126,40.713233919524285],[-73.87353947039901,40.71250945339402],[-73.87349027351974,40.711824452688184],[-73.87538942232366,40.71171290668977],[-73.87542954058823,40.712415745593354],[-73.87754317530853,40.7121953168566],[-73.87921471721931,40.71202548996425],[-73.87934284463914,40.71272649166934],[-73.87935441694444,40.712795880464604],[-73.88003307539412,40.7136539031522],[-73.88229550252674,40.7134296060829],[-73.88372202269407,40.71328348903625],[-73.884260128109,40.71330377118044],[-73.88435098707318,40.712230173879185],[-73.88507555748993,40.71216105560909],[-73.88519763113945,40.712166273922364],[-73.88622785566164,40.71220238191266],[-73.88637649719176,40.71220771468924],[-73.88687942974398,40.71222318540812],[-73.8884200071041,40.712269957780016],[-73.88877304406869,40.71228017782719],[-73.88912231450703,40.712290864752674],[-73.89367393205147,40.712430025389594],[-73.8940186874513,40.712440554910145],[-73.8950646952866,40.712479562728895],[-73.89590386058431,40.712506959230225],[-73.89621914072605,40.71252205747248],[-73.8971033871457,40.71255773656981],[-73.89768322593335,40.71258029827394],[-73.89935504310641,40.7126470139414],[-73.89989489937973,40.712668930632425],[-73.90018380438279,40.71268065843979],[-73.90041148118858,40.712689900077336],[-73.90059587850163,40.712697385241135],[-73.90224267787127,40.71275983293486],[-73.90293472949233,40.71278607329184],[-73.90376943967865,40.71281703180084],[-73.90480270690918,40.71285405478968],[-73.90489449550572,40.712856815110555],[-73.90537582225075,40.712876581563485],[-73.90540963379716,40.713028301917156],[-73.9054391551748,40.71316076920546],[-73.90556258981181,40.71371463369176],[-73.90571002363244,40.71436797510688],[-73.90571821624198,40.71440428358261],[-73.90574342578783,40.714516011076775],[-73.90748453693556,40.715313024119965],[-73.90780462962763,40.71556509090263],[-73.90810924025949,40.71586822725987],[-73.90870235210856,40.71645845626102],[-73.90980349683686,40.717652212487316],[-73.9098402723269,40.71769362178805],[-73.90965980075472,40.717793155829355],[-73.90968707643444,40.71782298362227],[-73.90973929366895,40.71788009312676],[-73.90976221454703,40.71790516039228],[-73.91070197305983,40.7189329167814],[-73.91132095140532,40.71962422959147],[-73.91188889330829,40.72026283067445],[-73.91245967231046,40.720930534319365],[-73.9129842038643,40.7216008488896],[-73.91331372559377,40.72207734997202],[-73.91347489807315,40.72230245321118],[-73.91384828309035,40.72289841235398],[-73.91316969805791,40.72308152589652],[-73.91257187743852,40.72323963495005],[-73.91134506901571,40.72418216995197],[-73.90971646081488,40.72544595612683],[-73.90889173791572,40.726068425976784],[-73.90804680880517,40.72673388791034],[-73.9074099735685,40.72720873888088],[-73.90730013750303,40.727294369914745],[-73.90716705244378,40.72738865429005],[-73.90712253078468,40.727424728437995],[-73.90706867295428,40.727466522772694],[-73.90693049911576,40.72757603027489],[-73.9067302812899,40.72773268283056],[-73.90572423571705,40.72852001958581],[-73.90557740103739,40.728636684315525],[-73.90518057919772,40.72895657697393],[-73.90421888938035,40.73012526891651],[-73.90416853333383,40.73018659103382],[-73.90259650842539,40.732104428346],[-73.90107970834231,40.73391463477888],[-73.9009109488947,40.73412603673661],[-73.90100066620842,40.73430449503421],[-73.90095451009411,40.735633777641276],[-73.9009010681421,40.73703689421238],[-73.90085728815924,40.73809514324507],[-73.90084207214424,40.738462960685496],[-73.90178463186975,40.73848843263816],[-73.90180919386572,40.738563771813325],[-73.90082784048019,40.73904459516877],[-73.90080309270871,40.73915812815458],[-73.90164198440968,40.738744974026886],[-73.90266922652772,40.7384919580539],[-73.90279106337668,40.738450727150976],[-73.90312203074674,40.738338722087406],[-73.9036579086447,40.738143715466016],[-73.90364752587297,40.738217368845355],[-73.90363949847357,40.73828259509887],[-73.90364393186395,40.738474768266734],[-73.90369228513966,40.738505467063575],[-73.90376968754528,40.73854794863268],[-73.90326137267473,40.739882129027045],[-73.9037985289263,40.739900292554964],[-73.90351364614574,40.74055266268478],[-73.90348029883332,40.74062420739331],[-73.9032260795718,40.74116962677735],[-73.90372696646621,40.741231957801176],[-73.90429525380085,40.741295663955036],[-73.90461895243898,40.74133195351719],[-73.90490107756055,40.741364460784894],[-73.90550402414839,40.74143394579242],[-73.90607552485004,40.74149739383393],[-73.90633974227518,40.74152673146315],[-73.90682518088876,40.741581749544785],[-73.90755490407157,40.74166456390587],[-73.90833930256719,40.74175692479381],[-73.90928996658397,40.741866963652235],[-73.90944905207269,40.74188702615605],[-73.91019157628583,40.7419721020058],[-73.91077874945938,40.74204401307129],[-73.91108799102643,40.74207798583611],[-73.91133060444572,40.74210793477739],[-73.91198704145127,40.742188979112385],[-73.91260406120968,40.7422649752324],[-73.91294973672068,40.74230698426126],[-73.91291177174189,40.74243255259084],[-73.91289084235353,40.742482249709454],[-73.91285505744789,40.74254001722375],[-73.91280207686737,40.742672706250445],[-73.91371317678882,40.74277604389298],[-73.91386852973454,40.742795220322435],[-73.9140065338487,40.74281114698078],[-73.91494506640255,40.74292582030148],[-73.91577285634895,40.743034889063],[-73.91587765927255,40.742998101486485],[-73.9158469227176,40.74313849609749],[-73.91556557130292,40.74457898493602],[-73.91530672423987,40.745871986986934],[-73.91523180958869,40.746246198978646],[-73.91430315287249,40.746138351238564],[-73.91337263886903,40.746030566981446],[-73.91298000829443,40.74797497812785],[-73.91288052862564,40.74846761515682],[-73.91285284305897,40.74860471476038],[-73.91280973619853,40.748818173695746],[-73.91188826526415,40.74871449109712],[-73.91164202699213,40.748684576279764],[-73.91176417937521,40.74844159657421],[-73.91182081376861,40.74834287284813],[-73.9118261067593,40.748333645199814],[-73.91182625005447,40.748333393350066],[-73.91182635657442,40.748333132760806],[-73.91187504060794,40.74822079610472],[-73.91190979122955,40.7481053949353],[-73.91190983969577,40.7481052247657],[-73.91190987538643,40.74810505408376],[-73.91193027727665,40.747988209749785],[-73.90991866800246,40.74776435511738],[-73.90955355340522,40.74739508622116],[-73.90890135550434,40.74882794482431],[-73.90801589355775,40.748590210086654],[-73.90770539588523,40.749296877464054],[-73.90760295750066,40.74953003638337],[-73.9083934683913,40.74994582704013],[-73.90831863140076,40.75011921423528],[-73.90804279015482,40.750009817025465],[-73.9077727408931,40.74989214782864],[-73.90750914457844,40.74976649653357],[-73.90699995622818,40.75085256575161],[-73.90611042385154,40.75062410517191],[-73.90525018444829,40.75256492898073],[-73.90607483241531,40.75291347035774],[-73.90586440330034,40.753403848745975],[-73.90584174839478,40.75346292188466],[-73.90583072061631,40.75352457806047],[-73.90583188725586,40.75358679586771],[-73.90584501751853,40.75364751873433],[-73.90567156137007,40.7538471719806],[-73.90551242216426,40.75405422058587],[-73.90536837229575,40.75426777433949],[-73.90524007371137,40.7544868611854],[-73.90512802762697,40.754710463699894],[-73.90523516998836,40.75530391402389],[-73.90529369398506,40.75562807132211],[-73.90618856794441,40.75553168334138],[-73.90625415807007,40.755895550236865],[-73.90640508072799,40.75673285589598],[-73.90646810018757,40.757082474102184],[-73.90557464043904,40.757177631244375],[-73.90510230924642,40.757227797609445],[-73.90484694951769,40.75725491632308],[-73.90459249045993,40.7572815505639],[-73.9036778494739,40.757377234318724],[-73.90278581583767,40.757471731076514],[-73.90189898088786,40.75756434336755],[-73.90134618626077,40.75762263857963],[-73.90095630734235,40.75766543444558],[-73.90070155513044,40.757686659806815],[-73.90051916404215,40.75770828032529],[-73.90028590875313,40.75773338966259],[-73.89996692905218,40.7577677260026],[-73.8998335252937,40.757781293776375],[-73.89970129880811,40.757795311893005],[-73.89921206771193,40.75784765542885],[-73.89819224617767,40.75795482752411],[-73.89719125290716,40.75806005488136],[-73.89626218681788,40.75815848400844],[-73.89597574529142,40.75660809601123],[-73.89505218497632,40.75671050094225],[-73.89466106097451,40.7545834372867],[-73.89456107787625,40.754030886212924],[-73.89438750549266,40.753071623806534],[-73.89433755869197,40.75279551885522],[-73.89433037415527,40.752755836374476],[-73.89432229684732,40.75271152432619],[-73.89424708397557,40.75229902280093],[-73.89414679912636,40.75174895715802],[-73.89405409344549,40.75124045322713],[-73.89403734275183,40.751148542496246],[-73.89397587795585,40.750811407134954],[-73.89360735862296,40.748770681260176],[-73.8927082658752,40.74886306775721],[-73.89175154923076,40.748964642388884],[-73.8908189230654,40.74906071008007],[-73.8899028829061,40.749163927217644],[-73.88897616540564,40.74925683513949],[-73.88906212654572,40.74918805545914],[-73.88888809749153,40.7482529368405],[-73.88881269608997,40.74784775318844],[-73.88875599147393,40.74754305739901],[-73.88867766206572,40.747134277851224],[-73.88778326883886,40.74722892673642],[-73.88764663725344,40.747244839375725],[-73.88671656253132,40.747341462519465],[-73.8857874045385,40.747439754493826],[-73.88485538467171,40.747534811566695],[-73.88393579462802,40.747630242518],[-73.88299918222715,40.74773440242318],[-73.88256876956024,40.74777784590987],[-73.88207112127155,40.74782992681813],[-73.88113747601093,40.747927293495415],[-73.88020648025523,40.74802498019526],[-73.87983894853893,40.74806172504185],[-73.87927779893565,40.748124092974486],[-73.8784577926934,40.7482148108678],[-73.87834312554384,40.74822266004264],[-73.8774161242621,40.748319373846954],[-73.8769245825528,40.748368989117765],[-73.87647953043887,40.74841640211017],[-73.87625180213054,40.74843885011346],[-73.87555643147171,40.74851360855174],[-73.87543236162973,40.748527359521646],[-73.8746294628496,40.748613927918235],[-73.87398293746188,40.74868566897402],[-73.87370098283648,40.74871731948033],[-73.87330310096014,40.74875812514138],[-73.87277356856244,40.74881295798523],[-73.87237256353667,40.7488515513314],[-73.8722203893478,40.74815723664804],[-73.8721553044176,40.74787209894318],[-73.87206844641415,40.74748065142843],[-73.87196437474539,40.74698438405785],[-73.8719442337582,40.746904314893804],[-73.87191898842296,40.74678778849137],[-73.87177091310234,40.74610408448968],[-73.8716875215148,40.745735134210925],[-73.87159477375806,40.745324813834564],[-73.87097729362421,40.74550827197234],[-73.86981826444435,40.74585261610193],[-73.86963101861014,40.74590845160379],[-73.86928799804774,40.74524191204101],[-73.86808574184282,40.745600582551084],[-73.86641372275612,40.74609949970603],[-73.86490253499737,40.74655039505582],[-73.86370342334115,40.746906231671204],[-73.86349689170994,40.74751724224238],[-73.86310084913885,40.74763103791405],[-73.86285875027605,40.7471565242992],[-73.8625310098694,40.74653380155885],[-73.86032027659728,40.74719569902155],[-73.85739612357806,40.74806784985382],[-73.85447011758188,40.74893934813862],[-73.85442575253661,40.74885172688469],[-73.85131104980283,40.74984337614997],[-73.85086439643948,40.74999564187392],[-73.8509869139011,40.75023929830318],[-73.85118150864388,40.75062629581912],[-73.85151883546315,40.75129713663898],[-73.8517150865558,40.75168741414653],[-73.85185614692345,40.7519679329884],[-73.85220450565855,40.752660682362915],[-73.85246329588331,40.75312740926744],[-73.85261725352242,40.75340506552812],[-73.85300762334099,40.754554565521204],[-73.85302119996712,40.75461800241169],[-73.8531263546432,40.755109342513926],[-73.85318689888096,40.75539842971504],[-73.85335095181838,40.7560128378116],[-73.85339372521008,40.75613669143118],[-73.85353822037193,40.75655506900673],[-73.85359477550023,40.7566962481495],[-73.85365479709708,40.75683659731192],[-73.85371826497918,40.75697606679585],[-73.85378515605316,40.75711460817838],[-73.85382000676749,40.757185697573284],[-73.85396127494438,40.75745222927049],[-73.85401546566374,40.757558534732354],[-73.8540747581271,40.75766325382855],[-73.85413907163613,40.75776624423207],[-73.85420831985974,40.75786736759508],[-73.85449593310997,40.75827863867488],[-73.85438909032038,40.75824976624242],[-73.8536861351372,40.75787746005683],[-73.85338151338554,40.75770549247001],[-73.85328041526041,40.75766028302513],[-73.85317495229643,40.757621263018436],[-73.8530657785232,40.757588674430366],[-73.85295357097952,40.75756271935701],[-73.85283902551515,40.75754355875681],[-73.85272285247615,40.757531311452766],[-73.85241027895617,40.75753373908528],[-73.85219116885825,40.757566795358656],[-73.85162833664607,40.75770455145512],[-73.85125030259444,40.7578091713794],[-73.85087488350072,40.75791910236414],[-73.85050220838112,40.758034306634194],[-73.85013240539898,40.75815474436037],[-73.8497656015507,40.758280374397174],[-73.84940192289808,40.75841115357421],[-73.84862039599577,40.75874603759377],[-73.84847623295474,40.758814523897975],[-73.8481817995831,40.75896653779397],[-73.84789548079823,40.75912678333027],[-73.84633887519557,40.76018957878059],[-73.84585235744356,40.76045539769335],[-73.84591143909479,40.760584699503106],[-73.84596638489468,40.760699991405474],[-73.84565786343106,40.760903571997495],[-73.8453545871701,40.761103690508115],[-73.84469016416722,40.761548621148805],[-73.84453460570208,40.76164364247455],[-73.8443750115886,40.76173471264897],[-73.84421155533045,40.76182173265552],[-73.84404441492377,40.761904607505834],[-73.84387377180636,40.76198324747522],[-73.8436998115012,40.762057567060964],[-73.8435004169852,40.762131486184785],[-73.843298317564,40.76220102915679],[-73.84309367932752,40.7622661388223],[-73.84288667094323,40.76232676200055],[-73.84267746203672,40.76238284854771],[-73.84246622454528,40.762434352367954],[-73.84195325813059,40.76267338479112],[-73.84174886991929,40.762661507058944],[-73.84087283684245,40.762547984202044],[-73.83994509962461,40.762577622512495],[-73.83985392376144,40.762578139106886],[-73.83965751651537,40.76258857384935],[-73.8396272931806,40.762590179064915],[-73.83972503589415,40.76275539963606],[-73.83983205649321,40.762978149576035],[-73.8399176745095,40.76320650809572],[-73.83998119206107,40.76343868995318],[-73.84002003445143,40.763672271360846],[-73.84002494238105,40.76395845253343],[-73.84002681390241,40.76406751441728],[-73.84002403337085,40.76412738821573],[-73.84002220207506,40.7642324655418],[-73.8395836766075,40.76498057264955],[-73.83946501500881,40.76520084178458],[-73.83935912292067,40.765409871854125],[-73.83923559148727,40.76563158757393],[-73.83905335035489,40.76595867810021],[-73.83913189263299,40.765991106071134],[-73.83925621768793,40.76603420963982],[-73.83885466702182,40.76668298645935],[-73.83882892328654,40.76672457998507],[-73.83881739850185,40.766743722133384],[-73.83872288690196,40.766902564988776],[-73.83820473755638,40.76764804641113],[-73.83794778699783,40.767955571024004],[-73.8375769382122,40.76839940000418],[-73.83721938316577,40.768743069393906],[-73.83691159434409,40.76902379759391],[-73.83681154940088,40.76911504769751],[-73.83626891727624,40.769609971149045],[-73.83550765890422,40.77016426389074],[-73.83521611720707,40.77037653869245],[-73.83437532499555,40.77088813310124],[-73.83405501388575,40.77107495159196],[-73.83403528559631,40.77108629583928],[-73.83381302084422,40.77121410664254],[-73.83360101391168,40.77133601917181],[-73.83342888651579,40.771434276015746],[-73.8332539735256,40.77153798572609],[-73.83313515502584,40.77160874283006],[-73.83313303466863,40.77161000508228],[-73.83278903768725,40.77180695941746],[-73.83252211794344,40.771964402735556],[-73.83243798951318,40.77201402454933],[-73.8321784268226,40.77217512614575],[-73.83183305742095,40.77238796159442],[-73.83171305208474,40.77247399117312],[-73.83159305635508,40.772560020472646],[-73.83112498244101,40.77293993420791],[-73.83112245181667,40.77294210213656],[-73.83099975526414,40.773047234184176],[-73.8306370359907,40.77335802477379],[-73.83054002429236,40.773436947134016],[-73.83022000889491,40.7737589910929],[-73.83015693195934,40.773824742320144],[-73.82972909509769,40.77435000981036],[-73.82930125060561,40.77487527550159],[-73.82918494859946,40.77501805928938],[-73.82896465195579,40.775310702971375],[-73.82896119493293,40.77531562577889],[-73.82888299766208,40.77542700714486],[-73.82852812511332,40.77600724243221],[-73.82823904799028,40.77645994533681],[-73.82814422314983,40.77662299147587],[-73.82810298818526,40.77669389137251],[-73.82793791490343,40.776977444201414],[-73.82743582650455,40.777838294245754],[-73.82740940861282,40.777882023963635],[-73.82737224186889,40.777943552092495],[-73.8267017826502,40.77912944439499],[-73.82661580669776,40.77927440539675],[-73.82660376831699,40.77929470446562],[-73.82629222948455,40.7798063238082],[-73.8262391020438,40.779892882471444],[-73.82607916299067,40.7798525509558],[-73.82592879228294,40.77980845144395],[-73.82566712067477,40.779729711646965],[-73.82601628303618,40.77909394354428],[-73.8258173337667,40.77902311584285],[-73.82488880979503,40.77871390772394],[-73.8238210896421,40.778360138150056],[-73.82376244869411,40.778504551993905],[-73.82239181035195,40.77836380631592],[-73.82147799291954,40.77830955192754],[-73.82156336717539,40.7776334324264],[-73.82167012570403,40.776862793332754],[-73.82170245644862,40.77647695339843],[-73.82174472121191,40.77597256308098],[-73.82180088203339,40.775259441109675],[-73.821866313152,40.77451699540406],[-73.8218658279891,40.77377759852192],[-73.82186464471518,40.77306407418051],[-73.8218656602686,40.772352343343584],[-73.81964620242752,40.77235385148162],[-73.81872041503802,40.772354578014664],[-73.81858822372345,40.77235465877843],[-73.8185123558405,40.77235471051583],[-73.8173530195556,40.77235570679196],[-73.81729323062126,40.77147757309352],[-73.817316579511,40.77028907829987],[-73.81573045639921,40.77024689546535],[-73.81558348282067,40.768961008716786],[-73.81454044069145,40.768878801400696],[-73.81354774580682,40.768794794857705],[-73.81305741705944,40.76875489037512],[-73.8123696126183,40.7687039485934],[-73.8114421950635,40.768633176454486],[-73.81047194316264,40.76855662648727],[-73.81081684703977,40.76602696080422],[-73.80983128793395,40.76594930821296],[-73.80889063561516,40.76587405415079],[-73.80795836119196,40.76580167960983],[-73.80703380890571,40.76572841837824],[-73.80733474300244,40.763497620424175],[-73.80643134087995,40.76319391482303],[-73.80552672768947,40.76288990287459],[-73.80463134122573,40.762588527929],[-73.80421232367681,40.76244776031714],[-73.80374079741698,40.76213336533865],[-73.80364037848891,40.762037164839825],[-73.80340793122497,40.76185670233898],[-73.80332173155355,40.76178978260301],[-73.80287489303865,40.761448529337706],[-73.80307328932783,40.76012624811314],[-73.80215291829099,40.75998721851296],[-73.80125017485508,40.7598282378032],[-73.8012378887101,40.759901355906024],[-73.80083443158323,40.75997103337647],[-73.8011907081464,40.76018226835183],[-73.80100799578051,40.76145092956219],[-73.8000744246408,40.7613451959877],[-73.79914400541404,40.76126324370599],[-73.79913789369415,40.761317947967314],[-73.79912596779398,40.761424682617196],[-73.79820445470325,40.761346816369034],[-73.79725922969946,40.76127408042824],[-73.79633090025668,40.761202635777714],[-73.79541084155503,40.76113182018816],[-73.79432720469946,40.761161293977636],[-73.7935128908483,40.76118343606774],[-73.79344299976444,40.761185337006864],[-73.79336522043272,40.76119100599634],[-73.79260455980575,40.76124642903757],[-73.79171078730641,40.76131154262086],[-73.79081379890202,40.76137688316347],[-73.78991503890444,40.76144234701245],[-73.78902413582009,40.761519093096844],[-73.78812358928013,40.76159666324769],[-73.78722498532127,40.76167405974307],[-73.78618970534558,40.761763217677746],[-73.78532824062768,40.761837399365035],[-73.78527359158724,40.76184210636254],[-73.78522789003623,40.76184569468907],[-73.78423137538338,40.76192396899907],[-73.78307564784426,40.76201026408848],[-73.78221746909887,40.762084936986405],[-73.78123096036099,40.76215786352897],[-73.7802542664927,40.76225277310264],[-73.77933591710479,40.76234507542366],[-73.77922331026986,40.76235706280335],[-73.77915428453429,40.762364404021305],[-73.77896907339506,40.762384103071405],[-73.77903458960714,40.76249862008659],[-73.77933645650027,40.76302625625576],[-73.77967784318493,40.76366267515226],[-73.78000407845903,40.76427083652515],[-73.7798851478604,40.764306134650255],[-73.77982348318677,40.76432583668635],[-73.77990027943271,40.764475835851826],[-73.78039258934437,40.76585548527904],[-73.78066603518539,40.76662176338521],[-73.78028839702428,40.76588643796643],[-73.77939571574016,40.76615629771484],[-73.7785251360487,40.76642394282551],[-73.77765615621615,40.76669279767313],[-73.77678335735607,40.766960686183836],[-73.77591561261613,40.76722795589078],[-73.77504470202666,40.76749398876982],[-73.77417452689338,40.76776103372943],[-73.77340155270204,40.7663116088432],[-73.77273191830987,40.765054631790015],[-73.77191601461433,40.76350815483045],[-73.77096902517184,40.763600091213554],[-73.77082647917152,40.76331079196028],[-73.77076855286927,40.76319322985392],[-73.76950563263965,40.76331530477503],[-73.76834683579122,40.76343017278409],[-73.76743406508223,40.76352004143746],[-73.76659359647883,40.7636038770251],[-73.76559726795061,40.763698679079006],[-73.76458994942163,40.763796988724785],[-73.76367507393105,40.76388626511342],[-73.7627581162975,40.76397769104351],[-73.76186018979332,40.7640650518262],[-73.7612284089721,40.764130444311085],[-73.76006906768934,40.76423371975121],[-73.7594942228023,40.76429519814431],[-73.75919770463071,40.76432674550545],[-73.75862488375212,40.76438314992212],[-73.75856935659111,40.76424399420836],[-73.75851382902665,40.76410483142754],[-73.75843838495256,40.763928488768705],[-73.75830760278842,40.76369499226033],[-73.75822225073554,40.76356229978094],[-73.7581606610894,40.76346654827773],[-73.7579980765191,40.76324410587656],[-73.75786182821753,40.763078731017664],[-73.7578205213462,40.76302859299284],[-73.75762879791186,40.76282084787279],[-73.75740781302024,40.76258666544949],[-73.75716345447186,40.76234850214956],[-73.75792707910662,40.76220843931561],[-73.75794421503392,40.76218418599645],[-73.75802377795756,40.76211102429831],[-73.75811452065416,40.76205389719128],[-73.75790314813207,40.76182764178025],[-73.75776280929348,40.761513853678004],[-73.75757285567605,40.76126063656733],[-73.75737752603081,40.761131002812654],[-73.75716766578759,40.76104033842709],[-73.7569678738383,40.760971812078395],[-73.7566995114781,40.76091018205974],[-73.756497467887,40.76088448699444],[-73.75621856811135,40.760870523512764],[-73.75600368082839,40.76085976755302],[-73.7557747975829,40.7608483057205],[-73.7556971211489,40.76084441255434],[-73.75553224654107,40.76082068581691],[-73.75542188157911,40.76080480040039],[-73.7550842022131,40.76075619354692],[-73.75488384667746,40.76069368713215],[-73.75407135720957,40.760443765522595],[-73.75385294181,40.76046510128786],[-73.75340948155974,40.76033251393136],[-73.7528298622723,40.760159213515884],[-73.75204572880466,40.75991593074241],[-73.75165245386472,40.75979391199517],[-73.7515981155073,40.75977536658693],[-73.75128060061036,40.75966699377311],[-73.75091653212465,40.75952688891285],[-73.7508363181469,40.75949236211938],[-73.75056144102442,40.7593740436796],[-73.750216477156,40.75920896272552],[-73.7499029619485,40.759038986034994],[-73.74965304585558,40.75889097626196],[-73.74927400071596,40.75865400192802],[-73.7490020634322,40.7584799900819],[-73.74847118303536,40.75807548592515],[-73.74844540258445,40.7580504177434],[-73.74740741725843,40.75704108448491],[-73.74725829906647,40.75687200046735],[-73.74695405660532,40.75652701655819],[-73.74655706271857,40.75609896039866],[-73.74642935593172,40.75597467059544],[-73.74615051223887,40.75564749186786],[-73.7456930522424,40.75511072886287],[-73.7451706591862,40.75448105462192],[-73.74509968192613,40.754394158788564],[-73.74458559767726,40.75376476421218],[-73.74450877072098,40.753677604244025],[-73.74445353896239,40.75360996175485],[-73.744408874328,40.753563341826386],[-73.74414640858461,40.75325618003328],[-73.74405404729372,40.7531438889041],[-73.74336897429093,40.752310979464326],[-73.74320947631642,40.752118490902006],[-73.74314431932736,40.75203984827767],[-73.74304999159996,40.751926002141],[-73.74301374189805,40.75188530440525],[-73.74276971179265,40.75161133287952],[-73.74252283608159,40.75133739500222],[-73.74207351388121,40.75092809862329],[-73.74183575405026,40.7507034975305],[-73.74181490119902,40.750683797215494],[-73.74149053520512,40.75043333998349],[-73.74121463536392,40.75022924152992],[-73.74075530461766,40.749891759297334],[-73.74041702060728,40.74968117424015],[-73.73890447368457,40.74873956909301],[-73.73881865076768,40.74868614050566],[-73.73829001163087,40.748349519245984],[-73.73780710395214,40.747980444641925],[-73.73748796259767,40.7477196834579],[-73.7373404012101,40.7475991139898],[-73.73689071573584,40.74720614885489],[-73.73645875880187,40.74680220073161],[-73.73623543517633,40.74657851515944],[-73.73604522394595,40.746387992108076],[-73.73582495374734,40.746173507602606],[-73.73571580855304,40.7460754234781],[-73.73559361103318,40.745965606689225],[-73.73535171730211,40.74576476862204],[-73.73509984829589,40.745571453515616],[-73.73503820933458,40.745526215313284],[-73.7350448538357,40.745376727345196],[-73.73503555224956,40.7451465982543],[-73.73500383752767,40.74491604869442],[-73.7349495854203,40.74468696890267],[-73.73487307226318,40.74446126828562],[-73.73477493100641,40.744240796079204],[-73.73465613650541,40.74402732623986],[-73.73451799841934,40.74382245775268],[-73.73436346483142,40.74362880591143],[-73.73439987848825,40.74360675504727],[-73.7349279619573,40.743152142833864],[-73.73546272460996,40.742674480415346],[-73.73638412020935,40.74191176209497],[-73.73704816535746,40.741463374998446],[-73.73843658459282,40.74061213186036],[-73.73912796234295,40.740021731356556],[-73.73926885880547,40.73986547810357],[-73.73966140656249,40.73943121302095],[-73.73983070727074,40.739179613581356],[-73.73983116755956,40.73905857712848],[-73.73996026164384,40.738919172866524],[-73.74016772225559,40.73866655741896],[-73.74029081629884,40.7385166701404],[-73.74124532056565,40.73734138935448],[-73.74159714897331,40.73690816945652],[-73.74167630985501,40.73682666232596],[-73.74175001173928,40.73674608708174],[-73.74235995176663,40.73614087783142],[-73.74238913345049,40.736113360940436],[-73.74242232050176,40.736082058678285],[-73.74306151577761,40.73547914643046],[-73.7437382431399,40.734897951109296],[-73.74384431750151,40.73480684844337],[-73.74467229940551,40.734178690031825],[-73.74489589176692,40.73400490016473],[-73.7451779735066,40.733795187787315],[-73.74552252948565,40.73353902867241],[-73.74561799335626,40.73346729872453],[-73.74606422080942,40.73313204108549],[-73.74623362844095,40.73299395145486],[-73.74660812586097,40.73268868314265],[-73.74673750308801,40.732583220729495],[-73.74698095032711,40.73235898865111],[-73.74708463853284,40.73226518239869],[-73.74733801259171,40.732035957273226],[-73.74737224593107,40.73200507586298],[-73.74739609836577,40.73198355755125],[-73.74755759993168,40.73184069419734],[-73.74793439407432,40.731507364099116],[-73.74812374539802,40.73133985365458],[-73.74874937484742,40.730786360491706],[-73.74926546930561,40.73032394372195],[-73.74962106572845,40.73000532709542],[-73.75004497028615,40.72966688070587],[-73.75065778887961,40.72919464811349],[-73.75067290107182,40.72918300133781],[-73.75085418170613,40.72906216729864],[-73.75087330568255,40.72904941964372],[-73.7518854551074,40.72841759955834],[-73.75195678212836,40.728377367260265],[-73.75203553540412,40.72833256836912],[-73.75225470032203,40.72820703280432],[-73.75229790721458,40.72818228397549],[-73.75263672359975,40.72798766496863],[-73.752219141375,40.72811234358087],[-73.75248504826682,40.72785209073068],[-73.75311035305037,40.72755946030638],[-73.75349928821106,40.727374492584495],[-73.75361604823776,40.72731896443791],[-73.75370803207666,40.72727756319293],[-73.75401596484852,40.72713896839728],[-73.7545760143245,40.72689998812933],[-73.75489899455825,40.726781953348244],[-73.7551889523593,40.7266820271842],[-73.75529500614026,40.72664530531111],[-73.75557902628597,40.726546959736275],[-73.75594002469151,40.726421942630694],[-73.75607601382507,40.72637494504142],[-73.75628100253905,40.726310676719976],[-73.75645273777917,40.72625114707564],[-73.75661221914443,40.726207926526534],[-73.7566610403405,40.726193504929],[-73.75670987234344,40.72617907294693]]]]}}]}