{"type":"FeatureCollection","features":[{"type":"Feature","properties":{"district":"9"},"geometry":{"type":"MultiPolygon","coordinates":[[[[-73.97650934506564,40.59661610946484],[-73.97693497573916,40.59886941908248],[-73.97738772569092,40.601262872585494],[-73.9774582045232,40.601634378732726],[-73.97782838533242,40.60358547704018],[-73.978827740331,40.60347494584918],[-73.97982697223193,40.60337021451466],[-73.98017128057526,40.605178801508806],[-73.98040365007628,40.60520511176204],[-73.98060324725927,40.60522771061155],[-73.98079193446037,40.60524630921067],[-73.9811334128807,40.60527996590231],[-73.98210030947739,40.60537908800681],[-73.98306556197781,40.60549703216603],[-73.98347678180005,40.607662297688485],[-73.9825476669718,40.607764054860105],[-73.98162368906787,40.6078657855734],[-73.98170783729036,40.608310981194904],[-73.98178366902322,40.60871216588506],[-73.98210659093506,40.61042050610957],[-73.98252737018821,40.61258437121572],[-73.9826592747949,40.612692471306076],[-73.98223506802195,40.6130774149678],[-73.98215550188114,40.61314961598453],[-73.98220035027265,40.613311806678986],[-73.98249026739778,40.614423886316736],[-73.98264749889655,40.61452561846092],[-73.98366720768823,40.61518537736059],[-73.98585983079435,40.61652192434582],[-73.98806551723963,40.61785218134255],[-73.98743540744753,40.61845428268023],[-73.98728949131929,40.618594303816934],[-73.98713608040426,40.61874151577282],[-73.98928318680088,40.62001793528474],[-73.9915499874029,40.62139066163784],[-73.99144942951224,40.621486847046626],[-73.99125625549463,40.62167162010197],[-73.99371105658899,40.62315561194702],[-73.99590745577906,40.62449719190521],[-73.99602791509683,40.62437261557493],[-73.9961529881015,40.624253006330456],[-73.99649801770535,40.62392304624435],[-73.99748404026887,40.62451984605628],[-73.9972406703973,40.62528868702821],[-73.99706767068349,40.62588474969375],[-73.99701633713973,40.626061615450816],[-73.99691963221169,40.62638907620281],[-73.99687957835846,40.62653171591357],[-73.99684131455719,40.62666100546432],[-73.99678847531307,40.62682605141293],[-73.99670162293248,40.62717198360623],[-73.99655764078194,40.62764093384161],[-73.99633618429183,40.62844577621124],[-73.99611483104519,40.62923240906647],[-73.99516084078732,40.62865530120325],[-73.99457818694641,40.62921569636848],[-73.99399551256158,40.62977591565732],[-73.99341325337446,40.63033682639012],[-73.9928282067418,40.63089751768782],[-73.99224651904206,40.631456460051474],[-73.99004578277516,40.63012655621241],[-73.98946251913313,40.63068615954269],[-73.98887913823363,40.6312467672196],[-73.98829657451105,40.63180388772729],[-73.98771325721752,40.63236660732607],[-73.98713180979287,40.63292700035298],[-73.98654805914688,40.633486839638465],[-73.98596717683121,40.63404859414451],[-73.98538056375105,40.63460607867273],[-73.98479761023077,40.63516548623256],[-73.98700163468025,40.6364962822376],[-73.98641958965788,40.63705627447409],[-73.98583675412759,40.63761542699668],[-73.98561658565627,40.63782611364394],[-73.98525169763326,40.638175286065426],[-73.98467241349165,40.63873575671826],[-73.98408782270893,40.6392977084902],[-73.98350134308804,40.63985779172418],[-73.98317824045658,40.64016871372073],[-73.98292167410668,40.64041620235208],[-73.98322908250323,40.64060523926959],[-73.98329291833582,40.64122047308406],[-73.98299419175463,40.64132499684919],[-73.98244454153804,40.6415386260646],[-73.98204321765242,40.64170758250828],[-73.98123240435386,40.642044913890395],[-73.98156759169406,40.642555704569105],[-73.98188942366939,40.64302448489819],[-73.98062708982644,40.64350738931297],[-73.98077810359474,40.6442538902529],[-73.98091513790317,40.64499040191276],[-73.98105612914432,40.645751623592204],[-73.98119808471725,40.646495816607256],[-73.98132887639193,40.64718167270764],[-73.980291154772,40.64729716143143],[-73.97911821877048,40.64742806125632],[-73.9781907435932,40.647525991511316],[-73.97726311166359,40.64762733652326],[-73.97633535530308,40.647726142171535],[-73.97527213435491,40.64783060457004],[-73.97517314597343,40.64781762509718],[-73.9750352604847,40.64780339420972],[-73.97495873314375,40.64779549787862],[-73.9748640363946,40.64778572389041],[-73.97472847878824,40.64777370937571],[-73.97465714349822,40.64776437290626],[-73.97469949116378,40.64798660265639],[-73.97366751883551,40.64839390987958],[-73.97283595481548,40.6487233144776],[-73.9726720649138,40.64848831287275],[-73.97203175296,40.64874272604698],[-73.97155930352775,40.648822828757666],[-73.97139631688175,40.64825778561167],[-73.97069875667012,40.648502100459986],[-73.9699850079197,40.64877493507245],[-73.9696717366338,40.64889793558357],[-73.968793671322,40.64924826382859],[-73.96790948388556,40.649599374216294],[-73.96702809227577,40.64994727428351],[-73.96614503260797,40.65029767968288],[-73.96526281981018,40.65064245009997],[-73.96465438630734,40.650887728458756],[-73.96524103576884,40.651742047475736],[-73.96575121453394,40.65249922908295],[-73.96621321959275,40.65318940454675],[-73.9641466633954,40.65399497235061],[-73.96188086439798,40.654881192052414],[-73.96245536633172,40.65828697802753],[-73.9628129844256,40.66050939331342],[-73.96308285618551,40.662131168014206],[-73.96308145457563,40.66219672669077],[-73.96307309946995,40.66226198462746],[-73.96305784551566,40.66232651484171],[-73.9630357924998,40.662389895111225],[-73.9630070846969,40.662451710736704],[-73.96297190978757,40.66251155730698],[-73.96293049803869,40.66256904318155],[-73.96288312039525,40.66262379222528],[-73.96283008683994,40.66267544620941],[-73.96277174436504,40.66272366715573],[-73.96238822274184,40.66308961306464],[-73.96286580463294,40.66381210342958],[-73.96345182009729,40.664680275590705],[-73.964043530991,40.665546207777936],[-73.96464092275106,40.66640987835549],[-73.96524398067073,40.66727126574319],[-73.96585268990006,40.66813034841717],[-73.96646703571665,40.66898710494229],[-73.96708700271454,40.66984151387565],[-73.96771257561592,40.67069355386523],[-73.96834373900109,40.67154320361749],[-73.96898047730879,40.672390441897726],[-73.96920280799267,40.6727951578777],[-73.96894206351242,40.67288749177294],[-73.96877444050884,40.67294236721215],[-73.96866611260658,40.6729489306497],[-73.96846798942568,40.672947663369314],[-73.96827004837937,40.67294107387976],[-73.96807253603467,40.672929170389295],[-73.96787569968103,40.67291196751547],[-73.96767978326059,40.672889486940555],[-73.96748503081608,40.67286175666743],[-73.9671318191198,40.672796971281656],[-73.96678080635368,40.67272559413125],[-73.9664322047179,40.67264766836768],[-73.9660862249529,40.672563241101244],[-73.96574307641585,40.67247236324302],[-73.96540296634576,40.67237508986648],[-73.96506610034209,40.6722714797779],[-73.96473268204024,40.672161595614135],[-73.9644081572921,40.672066487971556],[-73.9640811925781,40.671976356039195],[-73.96375191946487,40.6718912360826],[-73.96342047071245,40.67181116210683],[-73.96308697941613,40.67173616656981],[-73.96275157976415,40.67166627964644],[-73.96257123150735,40.6716222448877],[-73.9625928823519,40.67174622253473],[-73.96261010676642,40.67184625214015],[-73.9627531710547,40.67260072932192],[-73.96278832148224,40.67277309834833],[-73.96295345063942,40.67358912735586],[-73.96313778211012,40.67457250453385],[-73.96661254848716,40.67530181127869],[-73.96629558133246,40.67617972950891],[-73.96333115379808,40.67556077263994],[-73.96352862400343,40.67654705220841],[-73.96370853912002,40.67752631072639],[-73.9639020206258,40.67851632536514],[-73.96407262939228,40.67937856709237],[-73.96195644412231,40.678933843485254],[-73.95884462072897,40.678281349732615],[-73.95654568845751,40.6777978820605],[-73.9554747430701,40.67757588318018],[-73.9551958282942,40.678343049039654],[-73.95518358212212,40.678439005988935],[-73.95516675411099,40.67857086770034],[-73.95521595710163,40.678823024608995],[-73.95527541482524,40.67912772635064],[-73.95529361599387,40.67920315104412],[-73.95530907548103,40.679273135044795],[-73.95432213098012,40.679073535090346],[-73.95414355182159,40.679037417456925],[-73.95300513717642,40.67881508057153],[-73.95205238879731,40.67867465727387],[-73.9496790228614,40.678565969017846],[-73.94967567453605,40.67845668218591],[-73.94969681183309,40.678361840248535],[-73.94871276684846,40.67831553304718],[-73.94863517673258,40.67831098708151],[-73.94692829065181,40.678221681903494],[-73.94415607291688,40.67807350578287],[-73.9431939437972,40.67801861022277],[-73.94184621655339,40.67794432541893],[-73.9417461782414,40.67793883636044],[-73.94138499635606,40.67791899421842],[-73.94137663796481,40.67800823081465],[-73.94136917057762,40.678092903402636],[-73.94056714564863,40.678049177119036],[-73.93982663614683,40.67801007003729],[-73.93861683123455,40.677943810023024],[-73.93790436988772,40.67790360704868],[-73.93712411311094,40.67785957985742],[-73.93695547540783,40.67785005978722],[-73.93609586901921,40.677801533919556],[-73.93600658268022,40.67779649598853],[-73.93585798081271,40.677788110232655],[-73.93307382638729,40.67763659716733],[-73.93277531146637,40.67761947636941],[-73.93266914822912,40.67761338898945],[-73.93114570687192,40.67752598477767],[-73.9310463799232,40.67752028798529],[-73.93032122472535,40.67747867949567],[-73.93006142181102,40.67746523942765],[-73.9299300051285,40.6774584407693],[-73.92824116662278,40.67737106795906],[-73.92783395065021,40.677346031721996],[-73.9277023001665,40.67733793387473],[-73.92753367747095,40.67732757157768],[-73.92714141214505,40.677303134682646],[-73.92701603038424,40.67729533034501],[-73.92659870287594,40.677269336453875],[-73.92512122599406,40.677185636072224],[-73.92504537708653,40.67718133550025],[-73.92477806639923,40.67716619545762],[-73.92478283596823,40.67710114519281],[-73.92479192219575,40.677015170513286],[-73.92483135485902,40.67629320728871],[-73.9252444329973,40.6763160110869],[-73.92539298079609,40.674757865983366],[-73.92499509516053,40.67473592901542],[-73.92508152301917,40.67384433817362],[-73.92336008453272,40.67375071908475],[-73.92324436873267,40.67374442565569],[-73.92309797381012,40.67373646296638],[-73.92298622413946,40.67373038435391],[-73.92213153379178,40.67368388950982],[-73.91954092546348,40.673541878456696],[-73.91677231309254,40.673390693565494],[-73.91685659599955,40.67249842428837],[-73.91694214122533,40.671607327289614],[-73.9169770417215,40.67121716422927],[-73.91698239885328,40.671157278205705],[-73.91701863809985,40.6707521350611],[-73.91702174468935,40.670717414291595],[-73.91695971640029,40.67071409989387],[-73.91702441936194,40.670687474457296],[-73.91855660330096,40.67005670289361],[-73.91863710366182,40.67002356117788],[-73.91888870433252,40.66991997857141],[-73.91988853113614,40.66950823457236],[-73.91996590457506,40.66947637384979],[-73.92002028149675,40.66945423213886],[-73.920087602329,40.669426785575205],[-73.92070761260155,40.66917415155404],[-73.92216462312895,40.66854185336753],[-73.9225217414864,40.668383591706174],[-73.92263210766683,40.66837321106478],[-73.92265530045283,40.66812711501417],[-73.92272714241189,40.66736505692959],[-73.92275257220436,40.66709733296227],[-73.92221564149382,40.66733344646926],[-73.92187171180454,40.66748069097056],[-73.92101988847203,40.66785269806971],[-73.92014864255412,40.66822948387555],[-73.9200475399336,40.66827642954178],[-73.92002991868816,40.6682064830786],[-73.92001803194427,40.66815929977648],[-73.92000524786914,40.668108552528935],[-73.91999260351518,40.66805836207227],[-73.91998246400114,40.668018115471284],[-73.91997136759333,40.66797406950677],[-73.91996073870399,40.66793187974106],[-73.91995183422988,40.66789653284906],[-73.91993886938364,40.6678450691171],[-73.91992939232023,40.66780745249051],[-73.91988831284928,40.667644385159605],[-73.91984923889419,40.667489277959945],[-73.91983945056064,40.66745042374575],[-73.91982690608695,40.667400628534914],[-73.91981666801968,40.667359988826696],[-73.91980402395154,40.66730979666958],[-73.91979616149011,40.66727858524747],[-73.91978600645082,40.667238273278535],[-73.91977704194511,40.667202688103316],[-73.91976670825105,40.6671616678669],[-73.91975827125488,40.6671281773252],[-73.91974832931626,40.6670887103445],[-73.91973263669666,40.66702641215369],[-73.9194371674354,40.6658715540219],[-73.91941354413022,40.665779198713025],[-73.91923329788065,40.66464997828286],[-73.91913672163649,40.66435314103989],[-73.91909681536983,40.66423048446027],[-73.91907205128282,40.66413397758538],[-73.91906340384242,40.66410028429078],[-73.9190281086811,40.663962744887336],[-73.9190105601276,40.663894360648676],[-73.91889863126237,40.66345819720314],[-73.91871503393658,40.662742688572436],[-73.91870267616935,40.66269454734688],[-73.9196267025652,40.66255604835621],[-73.91959600973233,40.66214846273824],[-73.91959479824045,40.661995679790735],[-73.91945727792728,40.661880785292624],[-73.91920451043306,40.66165520014907],[-73.91893607368587,40.661416011176335],[-73.91860168163767,40.66111804860716],[-73.91818493104374,40.66072620891572],[-73.91741819283509,40.660051192101506],[-73.91707363502475,40.65974535396352],[-73.91572803769873,40.65855012827697],[-73.91556629612182,40.65839257171841],[-73.91441247690435,40.6573624197938],[-73.91402878145264,40.65700370958772],[-73.91377943741749,40.65678367971154],[-73.9131435625853,40.65622086404799],[-73.91236458896573,40.65551356524955],[-73.91218860289018,40.65533965935298],[-73.91189477077549,40.65507328622617],[-73.91105779342675,40.654315901033854],[-73.91097757827748,40.654227785788926],[-73.91093487182496,40.65417328041059],[-73.91070974643269,40.65417873430887],[-73.91069602855927,40.65410095452701],[-73.91067316848012,40.65400683246462],[-73.91014414233533,40.65352115917434],[-73.90960604860783,40.65304729591472],[-73.90933499313002,40.652808592144346],[-73.90855790522765,40.652095937794705],[-73.90944846379332,40.65152159929299],[-73.91022992877039,40.65101403099993],[-73.91110070243289,40.65044791330732],[-73.91182280274022,40.64998342260552],[-73.91253589221265,40.64952147916137],[-73.91325294190813,40.64906142549396],[-73.91223369132472,40.648154758483976],[-73.91208848183805,40.64793021969892],[-73.91195991666055,40.647699444658315],[-73.91184864352229,40.64746350609573],[-73.91175515870415,40.64722355335164],[-73.9107169348664,40.64788844265246],[-73.91000330031729,40.64835482318921],[-73.9092898282357,40.64881618243731],[-73.90839915338007,40.649388224628005],[-73.90722842764204,40.648320091487065],[-73.90659545550803,40.64774872199321],[-73.9074694701766,40.64718136335651],[-73.90818418029889,40.64671919608991],[-73.90889895267081,40.64625588974495],[-73.90989018939479,40.64561495191059],[-73.91111636381348,40.644851060624255],[-73.91121455382917,40.644829577238205],[-73.91206628040923,40.64452006648551],[-73.9129413630635,40.644198481769294],[-73.91340648863199,40.64397890310701],[-73.91375496073269,40.6437776971045],[-73.9138626499646,40.643709176926265],[-73.91444048668644,40.643341512088334],[-73.9147231840725,40.64316076268594],[-73.91476450141339,40.643198236598224],[-73.91486555808217,40.643289895075924],[-73.91518556870957,40.64358016986477],[-73.9156983774087,40.64403964087894],[-73.91665207894158,40.64342403825809],[-73.91758045217094,40.64282700654803],[-73.91795187017073,40.64315954557541],[-73.919659513732,40.64207823778516],[-73.91958298575616,40.6413957627351],[-73.91955576638014,40.641184958350394],[-73.91953494048487,40.640857741035255],[-73.91946588514796,40.64028418701989],[-73.91946141154885,40.64023929345102],[-73.91945472964163,40.640173137292145],[-73.91941912588051,40.63982071947714],[-73.91928984621354,40.63859603265088],[-73.9191718039419,40.63746984127264],[-73.91916866440248,40.637439921983436],[-73.91912932390836,40.63706525221056],[-73.91909069841773,40.63669741790988],[-73.91905790422037,40.63638510983991],[-73.91902770822679,40.63609754453557],[-73.91900629529182,40.635893618687405],[-73.91899154572441,40.635759063072776],[-73.9189515655665,40.63539431845264],[-73.9189398372519,40.63528732106243],[-73.91892161302417,40.63512106187824],[-73.91891212087712,40.63503446032066],[-73.91889071094052,40.63483913266717],[-73.91888284310998,40.63476735250099],[-73.91886934614969,40.634644216152545],[-73.91886199273443,40.634577128320146],[-73.91885164469278,40.63448271897999],[-73.9187628257114,40.63363752915507],[-73.91862982428366,40.63234687253656],[-73.91860224806052,40.63206832825392],[-73.91835491806981,40.62979529836283],[-73.91824254466185,40.6287700750019],[-73.91924792645054,40.62870204062584],[-73.91971629813698,40.62867302078701],[-73.92018414979577,40.628644025651454],[-73.91993759679897,40.62630738287213],[-73.92039794858658,40.62627976761326],[-73.92042626883263,40.62627806787046],[-73.92086877238395,40.626251528146376],[-73.92133418447885,40.6262217163199],[-73.92183623812173,40.6261895494561],[-73.92231272200797,40.626160786407475],[-73.92280648703944,40.626130969683615],[-73.92374023733583,40.626072221318836],[-73.92470922253946,40.626010706468634],[-73.92567239884053,40.62595191661427],[-73.92660778592634,40.62589454153477],[-73.92761336697305,40.62582358833603],[-73.92736928380532,40.62356136339488],[-73.92837632073503,40.62349938214824],[-73.92931134107161,40.62344076943058],[-73.93028165196603,40.62338034244159],[-73.93004509498215,40.6211782546532],[-73.93101636711707,40.621115977059034],[-73.93075812942631,40.61871038592612],[-73.9306024460184,40.61692226342127],[-73.9317317921372,40.617926921394634],[-73.93248727385684,40.61743170236161],[-73.93320457580377,40.616970442754024],[-73.93391769578318,40.616508788755944],[-73.93463319271184,40.61604760862417],[-73.93534816207264,40.61558455996669],[-73.93605774303572,40.61512319689593],[-73.93680051412336,40.61464272040042],[-73.93754231510678,40.6141648679272],[-73.93825493972989,40.61370188059784],[-73.93897047219963,40.61323951124017],[-73.93968357975874,40.61278215312926],[-73.94039608384442,40.61231511865031],[-73.9411616000202,40.61181964069756],[-73.93934703447131,40.610187141369266],[-73.9401152876221,40.60969107767312],[-73.94082897915995,40.609229318166086],[-73.94154757693073,40.60876773629744],[-73.94187230011019,40.60855546746705],[-73.94231175925276,40.608268197326325],[-73.94231698336756,40.60807519192241],[-73.94220749590296,40.607503574900996],[-73.94213412723406,40.60711377477841],[-73.94184238883986,40.6055638925096],[-73.94177070565412,40.60518301569698],[-73.94276896191587,40.6050724473423],[-73.94376581111696,40.60496090499668],[-73.94469321871962,40.60486210810559],[-73.94561989542854,40.60475836060735],[-73.94542657132088,40.603734627144256],[-73.94523348909587,40.60271210007687],[-73.94516877599689,40.60236940330072],[-73.94609624165321,40.60226968542558],[-73.94652440251737,40.60222177024167],[-73.94705837472739,40.602162006847735],[-73.94802259326018,40.60205651930845],[-73.94894926077997,40.601953924525596],[-73.94987458880875,40.60185315696862],[-73.95080167613067,40.601749727377964],[-73.9518344852117,40.60163707700537],[-73.9530366795168,40.60150590938778],[-73.95397802921507,40.60140163224051],[-73.9544322111664,40.60378968227781],[-73.95539365501496,40.603682960780844],[-73.95635358104947,40.60357938171941],[-73.95673972758657,40.60353233091583],[-73.95728347449555,40.60346964220036],[-73.95683001699113,40.60108734907799],[-73.95775745988533,40.60098588910552],[-73.95868277290346,40.60088354101993],[-73.95961182950258,40.600780390198814],[-73.96036342794683,40.60069790336941],[-73.9613623306072,40.60058898304482],[-73.96253412181404,40.600461433878834],[-73.96345501179225,40.60036321304738],[-73.96453040996602,40.60024169079131],[-73.96562537993812,40.60012097516881],[-73.96590395464413,40.6000847450396],[-73.96548618245185,40.59783309400552],[-73.96562729459438,40.59781752391922],[-73.96574314179097,40.597804741355525],[-73.96634722806185,40.597738091612335],[-73.96684926966853,40.597682855231305],[-73.96777646104212,40.597580379002636],[-73.96870359015713,40.59747851613919],[-73.96962970011647,40.59737869859662],[-73.9705561512327,40.59727446162915],[-73.97148350854722,40.59717158495816],[-73.9732398353254,40.59697881855959],[-73.97408390555651,40.5968829440709],[-73.9749269555482,40.59679353816303],[-73.97503940363366,40.59678002745582],[-73.97558819302563,40.596719206431764],[-73.97650934506564,40.59661610946484]]]]}}]}