{"type":"FeatureCollection","features":[{"type":"Feature","properties":{"district":"38"},"geometry":{"type":"MultiPolygon","coordinates":[[[[-74.03672484,40.63914119],[-74.03680662,40.63898422],[-74.03876298,40.63958826],[-74.03868805,40.63973826],[-74.03672484,40.63914119]]],[[[-74.00815634,40.68534175],[-74.00671295,40.68361546],[-74.00687573,40.68348769],[-74.00535329,40.6812041],[-74.00242456,40.67770613],[-73.99855091,40.67192594],[-73.99666044,40.67414278],[-73.98630429,40.66917267],[-73.99054503,40.66416516],[-73.9951689,40.65966952],[-73.99296402,40.65833741],[-73.99238339,40.65889902],[-73.99018842,40.65760082],[-73.98843135,40.65925121],[-73.98179569,40.6552461],[-73.98036335,40.64769374],[-73.98834987,40.64456224],[-73.99765783,40.63837414],[-73.99872187,40.63901609],[-74.00046945,40.63733632],[-74.00267214,40.63866701],[-74.00034122,40.64090532],[-74.00695079,40.64489724],[-74.01514575,40.63701461],[-74.01294382,40.63568597],[-74.01236365,40.63624214],[-74.01016057,40.63491234],[-74.0107422,40.63435655],[-74.00633871,40.63169363],[-74.0105003,40.6276928],[-73.99728485,40.61971135],[-73.99902697,40.61802903],[-73.99927191,40.61817725],[-73.99970876,40.61662028],[-73.99774601,40.61543577],[-74.00091117,40.61238796],[-74.00107299,40.61183052],[-73.99471922,40.60800469],[-74.00154542,40.60144199],[-74.00836913,40.6052176],[-74.00342539,40.60996909],[-74.00830383,40.612568],[-74.00655991,40.61424543],[-74.01756994,40.62089821],[-74.01815162,40.62033644],[-74.02062331,40.62180625],[-74.02008667,40.62242095],[-74.02120064,40.62224492],[-74.01958196,40.62426701],[-74.01807992,40.62750315],[-74.01621596,40.63281964],[-74.01613407,40.63392869],[-74.01660342,40.63497122],[-74.01760437,40.6358335],[-74.02030819,40.63746687],[-74.02144191,40.63849036],[-74.02185196,40.6398161],[-74.02134519,40.64118219],[-74.02336301,40.64014077],[-74.02566228,40.63995682],[-74.0267264,40.64027188],[-74.02983103,40.64231936],[-74.03254174,40.64382548],[-74.03226871,40.64407438],[-74.03189708,40.64388935],[-74.03051831,40.64527442],[-74.02908091,40.6444036],[-74.02915419,40.64458145],[-74.02886241,40.64486602],[-74.02908654,40.644583],[-74.02850116,40.64417756],[-74.02819053,40.64441433],[-74.02845721,40.64415606],[-74.0282057,40.64401598],[-74.02604948,40.64626135],[-74.02974078,40.64848603],[-74.0293899,40.64880405],[-74.02571759,40.64661549],[-74.02538149,40.64691235],[-74.02507111,40.64672562],[-74.02435497,40.64739928],[-74.02414566,40.6476151],[-74.02512912,40.64832318],[-74.02496792,40.64860596],[-74.02553865,40.64978216],[-74.02484436,40.65059964],[-74.02520581,40.65081847],[-74.02541554,40.6506187],[-74.02605133,40.6509943],[-74.02552972,40.65147855],[-74.02491123,40.65110629],[-74.02510257,40.65089331],[-74.0247716,40.65068771],[-74.02424021,40.65113352],[-74.02550139,40.65183985],[-74.02541604,40.65193381],[-74.02417753,40.65119177],[-74.023594,40.65131566],[-74.02305991,40.6509743],[-74.02285142,40.6511692],[-74.0253689,40.65272144],[-74.02522663,40.65282986],[-74.02154138,40.65067162],[-74.02124652,40.65083497],[-74.02139188,40.65096776],[-74.0210523,40.65109828],[-74.02233735,40.65191061],[-74.02089863,40.65124728],[-74.02380704,40.65304473],[-74.02359434,40.65321637],[-74.021959,40.65222278],[-74.02162153,40.65231995],[-74.0211867,40.65283984],[-74.02320465,40.65409612],[-74.02306219,40.65423324],[-74.02210195,40.65358795],[-74.02162946,40.65364517],[-74.02114963,40.65421076],[-74.0218248,40.65465618],[-74.02164486,40.65487898],[-74.02047462,40.65421659],[-74.01919203,40.6540226],[-74.01872687,40.65347431],[-74.01811898,40.65388527],[-74.02025589,40.65511826],[-74.02005182,40.65533595],[-74.01787407,40.6540615],[-74.0171532,40.6547751],[-74.01980082,40.65648721],[-74.01970596,40.65658116],[-74.01726716,40.65519419],[-74.01691618,40.65548327],[-74.01665048,40.6553388],[-74.01639438,40.65562064],[-74.01910844,40.65736888],[-74.01860569,40.65784587],[-74.0158537,40.65621324],[-74.01543632,40.6566324],[-74.01774233,40.65809892],[-74.01786573,40.65830845],[-74.01768549,40.65845299],[-74.01504738,40.65695039],[-74.0144213,40.65760802],[-74.01745803,40.6594502],[-74.01554165,40.66075836],[-74.01400428,40.65981196],[-74.01366274,40.66002878],[-74.01183862,40.65891284],[-74.0111075,40.65970627],[-74.01402248,40.66152975],[-74.01315555,40.6619816],[-74.01265359,40.66198165],[-74.00859957,40.65952092],[-74.00745858,40.66055848],[-74.01037201,40.66239888],[-74.01046332,40.66264212],[-74.00955074,40.66326769],[-74.00868372,40.66337201],[-74.00616141,40.66184507],[-74.00568595,40.66227474],[-74.00428358,40.66144489],[-74.00414625,40.66156164],[-74.00622698,40.66278783],[-74.00592361,40.66310825],[-74.00380815,40.66190795],[-74.00348801,40.66224056],[-74.00455498,40.66281637],[-74.00473298,40.6624965],[-74.00535813,40.66286913],[-74.00497158,40.66306821],[-74.00519234,40.66320155],[-74.00538014,40.66288393],[-74.00599749,40.66325861],[-74.00561349,40.66345839],[-74.00767435,40.66479111],[-74.00730516,40.66459759],[-74.00712533,40.66491522],[-74.0065247,40.66454723],[-74.00688215,40.66434037],[-74.00662938,40.66418793],[-74.0064498,40.66450621],[-74.00584158,40.66413802],[-74.00620307,40.66393017],[-74.00604609,40.66384001],[-74.00575781,40.66392276],[-74.00584925,40.6645033],[-74.00564141,40.66453149],[-74.00565026,40.66390034],[-74.00362863,40.66273485],[-74.00340349,40.66298573],[-74.00459239,40.6637352],[-74.00432295,40.66405232],[-74.00528132,40.664657],[-74.00486194,40.66506482],[-74.0011352,40.66290172],[-74.00049413,40.66331423],[-73.99953153,40.66439749],[-74.00292464,40.66646231],[-74.00224031,40.66679384],[-74.0016195,40.66676628],[-74.00120611,40.66701811],[-74.00146471,40.66716957],[-74.00068775,40.66754595],[-73.99998149,40.66745027],[-73.99902601,40.66844297],[-73.99902633,40.66900789],[-73.99924049,40.66830629],[-73.99907935,40.66903827],[-73.99865581,40.6695148],[-73.9989116,40.66964858],[-73.99855824,40.6713355],[-73.99876941,40.67160205],[-74.00030338,40.66871689],[-74.00105664,40.66894568],[-74.00141527,40.66835941],[-74.00221507,40.66857864],[-74.00289484,40.66734847],[-74.00319075,40.6672632],[-74.00369462,40.66742761],[-74.00363026,40.66756752],[-74.00510227,40.66797565],[-74.00586366,40.66799376],[-74.00688041,40.66602468],[-74.00475389,40.67072136],[-74.00543927,40.67092147],[-74.00754822,40.66705175],[-74.00779653,40.66715977],[-74.00708724,40.66859136],[-74.00985412,40.66852363],[-74.01154018,40.66508592],[-74.01574873,40.66456834],[-74.01690267,40.6648466],[-74.01788719,40.66585047],[-74.01857605,40.67039241],[-74.01876337,40.67107587],[-74.01933947,40.67162495],[-74.01751037,40.67103453],[-74.01648666,40.66493051],[-74.01602552,40.66486305],[-74.01593699,40.66547079],[-74.01227968,40.66573241],[-74.01087664,40.66860162],[-74.01035684,40.66864284],[-74.01033846,40.6690782],[-74.01091024,40.66919049],[-74.01087344,40.66971012],[-74.01154288,40.66978434],[-74.01162528,40.67058103],[-74.01424927,40.6697286],[-74.01175351,40.67065776],[-74.01207832,40.67093362],[-74.01261963,40.67084191],[-74.01427407,40.6713793],[-74.01508006,40.67068567],[-74.01519981,40.67075403],[-74.01387274,40.67188076],[-74.01423289,40.67213],[-74.01568625,40.67103883],[-74.01297588,40.67332792],[-74.01336378,40.67359154],[-74.01511919,40.672157],[-74.016321,40.67290827],[-74.01457947,40.67441402],[-74.01496392,40.67467763],[-74.01816839,40.67193924],[-74.01880095,40.67225076],[-74.01727138,40.67360865],[-74.01775247,40.67404772],[-74.01801077,40.67391318],[-74.01780187,40.67409544],[-74.01817618,40.67446418],[-74.01783448,40.67525822],[-74.01829803,40.67545918],[-74.01841236,40.67536545],[-74.01817071,40.67529091],[-74.01838693,40.67509685],[-74.01852163,40.67526871],[-74.01888512,40.67508777],[-74.01841031,40.67551906],[-74.01850392,40.67583739],[-74.01801753,40.67588438],[-74.01791969,40.67651476],[-74.01976926,40.67661322],[-74.01995198,40.67710301],[-74.01908257,40.67713956],[-74.01917744,40.67782695],[-74.01843041,40.67790832],[-74.01841103,40.67840712],[-74.019662,40.67838564],[-74.01827026,40.67855422],[-74.01857883,40.67898308],[-74.01954012,40.67896821],[-74.01928128,40.67964814],[-74.01520082,40.68197942],[-74.0153206,40.68211073],[-74.01282,40.68362242],[-74.01213482,40.68290593],[-74.0141055,40.68171252],[-74.01360863,40.68122195],[-74.01387399,40.68100981],[-74.01301835,40.68041237],[-74.00967109,40.68326873],[-74.01077312,40.68435862],[-74.01178272,40.68376],[-74.0119326,40.68388775],[-74.00860072,40.68590956],[-74.00815634,40.68534175]]]]}}]}