{"type":"FeatureCollection","features":[{"type":"Feature","properties":{"district":"49"},"geometry":{"type":"MultiPolygon","coordinates":[[[[-74.15945602,40.64144833],[-74.15997876,40.64144648],[-74.16111243,40.64183545],[-74.16153403,40.64415628],[-74.1580975,40.64375757],[-74.15755779,40.64323987],[-74.15800633,40.64302368],[-74.15819904,40.64259508],[-74.15858743,40.64246038],[-74.15881094,40.64175864],[-74.15945602,40.64144833]]],[[[-74.08221273,40.64828016],[-74.08142228,40.64850473],[-74.08072839,40.64827487],[-74.07980996,40.64838331],[-74.07899546,40.64814255],[-74.07650657,40.64696882],[-74.07445283,40.64506749],[-74.0739584,40.64519321],[-74.07359108,40.64499893],[-74.07349851,40.64508337],[-74.07385654,40.64542482],[-74.07333814,40.64578312],[-74.07324539,40.64570493],[-74.07369012,40.64530572],[-74.07323854,40.64496386],[-74.07302521,40.64513124],[-74.07320226,40.64494394],[-74.0730556,40.64480792],[-74.07342591,40.64500057],[-74.07312184,40.6447148],[-74.0727985,40.64491012],[-74.07258776,40.64479086],[-74.07270308,40.6446456],[-74.07256468,40.64471975],[-74.07253222,40.64455679],[-74.07272467,40.64462088],[-74.07269829,40.64444127],[-74.0716583,40.64503375],[-74.07230919,40.64457775],[-74.07201843,40.64441193],[-74.0722919,40.64426605],[-74.07218489,40.64411046],[-74.07186081,40.64420176],[-74.07175648,40.64401185],[-74.07205818,40.64390043],[-74.0720008,40.64378113],[-74.07164969,40.64378689],[-74.07159679,40.64346016],[-74.07135612,40.6434973],[-74.0714166,40.64319311],[-74.07113106,40.64320526],[-74.07150263,40.6431293],[-74.07147777,40.64280829],[-74.07164892,40.64267993],[-74.07218435,40.64271409],[-74.07210952,40.64246322],[-74.07037431,40.6426914],[-74.07032924,40.64252613],[-74.07323829,40.64218474],[-74.07314401,40.64185297],[-74.07024659,40.64220697],[-74.070194,40.6420075],[-74.0730869,40.64163681],[-74.07289006,40.64092267],[-74.07001849,40.64127813],[-74.06998355,40.64106894],[-74.07285041,40.64080369],[-74.0727769,40.64052896],[-74.07307726,40.64051331],[-74.07309036,40.638619],[-74.07292933,40.63859265],[-74.07301445,40.63840938],[-74.07237941,40.63816273],[-74.07260633,40.63813631],[-74.07257275,40.63787191],[-74.07348354,40.63778736],[-74.07337343,40.63661073],[-74.07209484,40.63664728],[-74.07335822,40.63653609],[-74.07290754,40.63363437],[-74.07332821,40.63205844],[-74.07298475,40.63030898],[-74.06802174,40.62878759],[-74.06813019,40.62853905],[-74.07291178,40.62999638],[-74.0722952,40.62713843],[-74.07319206,40.62707053],[-74.07352695,40.62686319],[-74.07270543,40.62687415],[-74.07225501,40.62460875],[-74.07002735,40.62145406],[-74.06649335,40.6188976],[-74.06596065,40.61935902],[-74.06640989,40.61886447],[-74.06619908,40.61872248],[-74.06557281,40.61927454],[-74.06544586,40.61920263],[-74.06668208,40.6180675],[-74.06641559,40.6178725],[-74.06604992,40.61819541],[-74.06569865,40.61795642],[-74.0654655,40.61810707],[-74.06496189,40.6177724],[-74.06425722,40.61817169],[-74.06509908,40.61751096],[-74.06443662,40.61706241],[-74.06390892,40.61732883],[-74.06432746,40.6169885],[-74.0637613,40.61679875],[-74.06376669,40.61660363],[-74.06143961,40.61437802],[-74.06033681,40.61190188],[-74.05985444,40.61210296],[-74.06001625,40.61276369],[-74.06019773,40.61278638],[-74.0599992,40.6127839],[-74.05976931,40.61205665],[-74.06027225,40.61181964],[-74.05947565,40.61169053],[-74.05892163,40.61105605],[-74.05908584,40.61063368],[-74.05716384,40.60874278],[-74.05649566,40.60724765],[-74.05552126,40.60648289],[-74.05516001,40.60673049],[-74.05498868,40.6066607],[-74.05518218,40.60647457],[-74.05505974,40.60626542],[-74.0538107,40.60591272],[-74.0536073,40.60523881],[-74.0540204,40.60493472],[-74.05359134,40.60376169],[-74.05918141,40.60199095],[-74.06038098,40.60189322],[-74.0620672,40.60206655],[-74.06555047,40.60285071],[-74.07383701,40.60579895],[-74.07654904,40.60621777],[-74.08219006,40.60645002],[-74.08517927,40.60707219],[-74.09194697,40.60985603],[-74.09425401,40.61053998],[-74.09614799,40.61076499],[-74.10877479,40.61040572],[-74.11046042,40.61060712],[-74.11349123,40.61132843],[-74.11501381,40.61142361],[-74.11681384,40.6112583],[-74.11656237,40.6094042],[-74.11579141,40.60686117],[-74.12823194,40.60590622],[-74.12798761,40.60411614],[-74.13343167,40.60358141],[-74.13354054,40.60417176],[-74.13377156,40.604414],[-74.13397588,40.60765547],[-74.13204227,40.60775597],[-74.13211741,40.60826435],[-74.12699203,40.60872198],[-74.12138589,40.60990931],[-74.12255777,40.61307663],[-74.1141457,40.61374153],[-74.11462306,40.61799882],[-74.11485743,40.61817911],[-74.11787188,40.61787405],[-74.11920476,40.62035218],[-74.11966872,40.62174493],[-74.11859378,40.62236737],[-74.11828203,40.62313017],[-74.11886302,40.62358928],[-74.11999478,40.62537206],[-74.12088253,40.62576561],[-74.12154573,40.62631],[-74.12216226,40.62747689],[-74.13069767,40.62634096],[-74.13360841,40.6263684],[-74.13700291,40.62434701],[-74.13764001,40.62422502],[-74.14402438,40.6249912],[-74.14634102,40.62492374],[-74.14689598,40.62362694],[-74.14782924,40.62217918],[-74.15168695,40.618161],[-74.152458,40.617094],[-74.15287451,40.61611865],[-74.15383151,40.61246291],[-74.1589807,40.61636752],[-74.16312999,40.61884698],[-74.16812305,40.62104803],[-74.17266,40.62175897],[-74.17466101,40.62250903],[-74.17572899,40.62323117],[-74.17929497,40.626367],[-74.18179908,40.62784544],[-74.1860696,40.62995448],[-74.18657676,40.63016912],[-74.1867602,40.62997336],[-74.18987905,40.63135753],[-74.1962036,40.63468605],[-74.19602905,40.63499585],[-74.19557688,40.63500422],[-74.19530704,40.6352339],[-74.19520097,40.63570794],[-74.19449481,40.63644952],[-74.19451851,40.63703429],[-74.1947869,40.63713151],[-74.1946231,40.63739118],[-74.19397309,40.63730911],[-74.19358318,40.63746912],[-74.19371965,40.63756681],[-74.18652497,40.64338866],[-74.1862321,40.6431874],[-74.18590897,40.64363144],[-74.18511432,40.64380624],[-74.18524794,40.64394353],[-74.18483595,40.64412827],[-74.18411319,40.64353008],[-74.18406483,40.64332399],[-74.18437047,40.64309958],[-74.18421444,40.6431169],[-74.18365067,40.64223964],[-74.18402611,40.64310041],[-74.18384576,40.64326616],[-74.18324212,40.64296368],[-74.18380045,40.6444319],[-74.18366746,40.64461049],[-74.18288932,40.64480028],[-74.18118434,40.64458616],[-74.18087213,40.64485143],[-74.18048174,40.64427892],[-74.18004078,40.64428814],[-74.17990671,40.64437872],[-74.17996507,40.64526698],[-74.17977453,40.64516668],[-74.17972988,40.6443807],[-74.17933117,40.64440051],[-74.17925123,40.64504188],[-74.17907467,40.64464651],[-74.17903556,40.64339479],[-74.17940483,40.64312897],[-74.17958714,40.64191768],[-74.17918728,40.64298754],[-74.17879078,40.6424985],[-74.17848314,40.64252118],[-74.17825662,40.64212923],[-74.17834127,40.64258948],[-74.17781238,40.64259984],[-74.17768636,40.6429486],[-74.17721119,40.64312278],[-74.17682387,40.64285915],[-74.17670489,40.64241691],[-74.17635787,40.64232722],[-74.17668724,40.64255214],[-74.17666796,40.64338684],[-74.17598183,40.64346362],[-74.17560251,40.6433113],[-74.17547166,40.64412311],[-74.17568471,40.64471028],[-74.17546691,40.64464652],[-74.17529692,40.64507508],[-74.17436573,40.64513626],[-74.17294124,40.64420452],[-74.17300155,40.64358541],[-74.17236165,40.64325627],[-74.17272145,40.6429485],[-74.17196331,40.64285813],[-74.17150811,40.64313444],[-74.17133587,40.64285577],[-74.17186043,40.64252293],[-74.17172187,40.64193954],[-74.17147879,40.64170251],[-74.17158722,40.64102959],[-74.17202316,40.64098922],[-74.17297991,40.64048607],[-74.17156995,40.64101153],[-74.17137382,40.64208502],[-74.17105017,40.64259382],[-74.17127524,40.64211168],[-74.17119261,40.64173963],[-74.17028635,40.64177531],[-74.17007879,40.64208616],[-74.16915296,40.64187286],[-74.16906432,40.64213002],[-74.16774094,40.64172777],[-74.16757607,40.64184479],[-74.16653376,40.64142264],[-74.1660999,40.64240659],[-74.16631887,40.64143668],[-74.16580111,40.64122451],[-74.1656341,40.64121437],[-74.1654431,40.64228055],[-74.16494139,40.642209],[-74.16519042,40.64064231],[-74.16473427,40.64039147],[-74.16457132,40.64141866],[-74.1644146,40.64139679],[-74.16459657,40.64031575],[-74.16416887,40.63999411],[-74.16400179,40.64106586],[-74.16386249,40.6410528],[-74.16404732,40.63994666],[-74.16384977,40.63989151],[-74.16345446,40.63985656],[-74.16324578,40.64095742],[-74.16280503,40.64103819],[-74.16167535,40.64061078],[-74.16228465,40.63876565],[-74.16181857,40.63864628],[-74.16144918,40.63942834],[-74.16130222,40.63939373],[-74.16166011,40.63866499],[-74.16124016,40.63859501],[-74.16090491,40.63938614],[-74.16073655,40.63935101],[-74.16108162,40.63856777],[-74.1603482,40.63844373],[-74.1598641,40.63992782],[-74.16022466,40.63833906],[-74.16005754,40.63872235],[-74.15985698,40.6387292],[-74.15957712,40.63799258],[-74.15931954,40.63781041],[-74.15905622,40.63803931],[-74.15900958,40.63882258],[-74.15893299,40.63826402],[-74.15789263,40.63796505],[-74.15773353,40.63887904],[-74.15777366,40.63795716],[-74.15610276,40.63793959],[-74.15611488,40.63753075],[-74.15569862,40.63751794],[-74.15568516,40.63778748],[-74.15482932,40.63772386],[-74.15469264,40.63919397],[-74.15477829,40.63772155],[-74.1545967,40.63734334],[-74.1542527,40.63717231],[-74.15341407,40.63727272],[-74.15279704,40.63713275],[-74.152697,40.63764184],[-74.15221807,40.63769258],[-74.15229786,40.63827429],[-74.15213676,40.63829075],[-74.15204639,40.63766722],[-74.15119545,40.63773079],[-74.15139518,40.63939651],[-74.15124828,40.63940934],[-74.15112965,40.63850068],[-74.15055639,40.63855933],[-74.14996782,40.63815008],[-74.1496789,40.63751767],[-74.14944733,40.6374054],[-74.14931236,40.63752596],[-74.14941882,40.63829164],[-74.14919418,40.63866833],[-74.14888176,40.63870521],[-74.14855815,40.63743784],[-74.14877792,40.63887625],[-74.14602173,40.63909455],[-74.14605734,40.63922926],[-74.14519279,40.6393785],[-74.14386164,40.63888796],[-74.14381735,40.63920748],[-74.14357309,40.63922679],[-74.14336103,40.63970985],[-74.14257769,40.63953414],[-74.14238795,40.63964121],[-74.14229767,40.64030581],[-74.14155623,40.64036677],[-74.14148047,40.64009219],[-74.14076254,40.6405894],[-74.13757575,40.64100115],[-74.13737002,40.64129546],[-74.1343527,40.6418868],[-74.13299172,40.64141694],[-74.13240284,40.64170439],[-74.13125581,40.64159683],[-74.131462,40.6413101],[-74.13032504,40.64077847],[-74.13012325,40.64101655],[-74.1301837,40.64072383],[-74.12967785,40.64138531],[-74.12949058,40.64135484],[-74.1299774,40.64072987],[-74.12930713,40.64033741],[-74.12922977,40.64048437],[-74.12893301,40.64041393],[-74.12890729,40.64119483],[-74.12881202,40.64022698],[-74.12752677,40.6401553],[-74.12702736,40.63931908],[-74.12705362,40.64024174],[-74.12644824,40.64037799],[-74.12606983,40.64025447],[-74.12619996,40.64126431],[-74.12636809,40.64133238],[-74.12564027,40.64141849],[-74.12613277,40.64126439],[-74.12599542,40.64023124],[-74.12415578,40.64013472],[-74.12285631,40.64082051],[-74.12260364,40.64059707],[-74.12290725,40.64101927],[-74.12282565,40.64129388],[-74.12184147,40.64140589],[-74.12199084,40.64155464],[-74.12180661,40.64141216],[-74.12177911,40.64159255],[-74.12155344,40.64161163],[-74.12176053,40.64157431],[-74.12172375,40.64142866],[-74.12132617,40.64160657],[-74.12131195,40.64145253],[-74.12117246,40.64166915],[-74.12128075,40.6414325],[-74.12107727,40.64160742],[-74.1211804,40.64138345],[-74.12071318,40.64104578],[-74.1199348,40.6411976],[-74.11997111,40.64131481],[-74.11960717,40.64138031],[-74.119957,40.64220945],[-74.11952986,40.64146991],[-74.1190972,40.64147347],[-74.1194003,40.64237938],[-74.11900348,40.64146462],[-74.11861635,40.64153037],[-74.11896077,40.64250452],[-74.11883625,40.64254186],[-74.11840185,40.6415298],[-74.11791729,40.64182588],[-74.1176985,40.64154313],[-74.11712101,40.64166786],[-74.11722408,40.64184409],[-74.11672188,40.64203176],[-74.1172247,40.64302736],[-74.11666608,40.64210677],[-74.1163,40.64220267],[-74.11667041,40.64318982],[-74.11614209,40.64221645],[-74.11535082,40.64247054],[-74.11379666,40.64360952],[-74.11395094,40.64413659],[-74.11288807,40.64453244],[-74.11385709,40.64407601],[-74.11365371,40.64368756],[-74.11333023,40.6437235],[-74.11116129,40.64509642],[-74.11176647,40.64470616],[-74.10973933,40.64546373],[-74.10472222,40.64556366],[-74.10412356,40.64574043],[-74.10013219,40.64506405],[-74.09880067,40.64504703],[-74.09849982,40.64537036],[-74.09604555,40.64537275],[-74.09298828,40.64597278],[-74.08939753,40.64731036],[-74.08767443,40.64823529],[-74.08570754,40.64888055],[-74.08484403,40.64889115],[-74.08221273,40.64828016]]]]}}]}