{"type":"FeatureCollection","features":[{"type":"Feature","properties":{"district":"10"},"geometry":{"type":"MultiPolygon","coordinates":[[[[-73.92640557,40.87762148],[-73.92629549,40.87748847],[-73.92645785,40.87725819],[-73.92619292,40.87706442],[-73.92457037,40.87742891],[-73.92329477,40.87726443],[-73.92239768,40.87678022],[-73.92266804,40.87498199],[-73.92257637,40.87429518],[-73.92198271,40.8734969],[-73.92111742,40.87303346],[-73.92029231,40.87309842],[-73.91979302,40.87360651],[-73.92062699,40.87423481],[-73.92080256,40.87419406],[-73.92070011,40.87439193],[-73.92118187,40.87513784],[-73.9208061,40.87547749],[-73.91887526,40.874679],[-73.91927438,40.87365188],[-73.91849996,40.87319172],[-73.9185973,40.8734955],[-73.91792903,40.87397889],[-73.9175773,40.87454868],[-73.91787145,40.873905],[-73.91643574,40.8745097],[-73.91522402,40.87448662],[-73.91261073,40.87375732],[-73.91157791,40.87327159],[-73.91117451,40.8729847],[-73.91054082,40.87205833],[-73.91043364,40.87138082],[-73.91072356,40.87094884],[-73.91085334,40.86964861],[-73.91095583,40.86941118],[-73.91146377,40.8694766],[-73.91103058,40.8691554],[-73.9111487,40.86888022],[-73.91273174,40.86660521],[-73.91254775,40.86651494],[-73.91391863,40.86474558],[-73.91492388,40.86458038],[-73.91441113,40.86417363],[-73.91508584,40.86444814],[-73.91589912,40.86430804],[-73.91587148,40.86412909],[-73.91519575,40.86394522],[-73.91517556,40.86368043],[-73.91547682,40.86334611],[-73.91538673,40.86308438],[-73.91729468,40.86167942],[-73.91950214,40.85879113],[-73.92047868,40.85910409],[-73.92127091,40.86018804],[-73.92159015,40.8600728],[-73.92186634,40.85918134],[-73.92130673,40.85889931],[-73.9209146,40.85821897],[-73.92114397,40.85755122],[-73.92237696,40.85658357],[-73.92234459,40.85568234],[-73.92169842,40.8566723],[-73.92151894,40.85660117],[-73.92444065,40.85284047],[-73.9297185,40.84523178],[-73.93089465,40.84253834],[-73.93445239,40.83598096],[-73.93467393,40.8360649],[-73.93848743,40.8329945],[-73.94014131,40.83037199],[-73.94582395,40.83276546],[-73.94113609,40.8391789],[-73.94306494,40.84019342],[-73.94373632,40.83846972],[-73.94554302,40.83923229],[-73.94558647,40.83987677],[-73.94471085,40.84075439],[-73.94468026,40.84105098],[-73.94573551,40.84110409],[-73.9475561,40.84152867],[-73.94609415,40.84409736],[-73.94617175,40.84539289],[-73.9465173,40.84599518],[-73.94635078,40.84624033],[-73.94682445,40.84713426],[-73.9466355,40.84891243],[-73.94704399,40.85025475],[-73.9465159,40.85096834],[-73.94627501,40.85084098],[-73.94611744,40.85117258],[-73.94565284,40.8512111],[-73.94466721,40.85192123],[-73.94432518,40.85182258],[-73.94347979,40.85228188],[-73.94186996,40.85386774],[-73.94029347,40.85664177],[-73.93911094,40.85804091],[-73.93830957,40.85938052],[-73.93752944,40.86009664],[-73.93647562,40.86192659],[-73.93401664,40.86503555],[-73.93266333,40.86723707],[-73.93290172,40.86729304],[-73.93283958,40.86741528],[-73.93259795,40.86731135],[-73.93242538,40.86756825],[-73.9322677,40.86856232],[-73.93249214,40.86867752],[-73.93265084,40.86846503],[-73.93252355,40.86872208],[-73.93225428,40.8686834],[-73.93256795,40.86904439],[-73.93218904,40.86936698],[-73.93246883,40.8694761],[-73.93235371,40.86975526],[-73.93235934,40.86950736],[-73.93213337,40.86941598],[-73.93205344,40.86960075],[-73.93220601,40.87009645],[-73.93191377,40.87112949],[-73.92997687,40.87433896],[-73.92901346,40.87573866],[-73.92814624,40.87652253],[-73.92753082,40.87671053],[-73.92640557,40.87762148]]],[[[-73.92359742,40.87889871],[-73.92359742,40.87889871]]],[[[-73.906651,40.8757525],[-73.90774271,40.87284595],[-73.90846368,40.87262079],[-73.90893235,40.87215735],[-73.9097169,40.87320461],[-73.91092118,40.8741464],[-73.91578516,40.87571695],[-73.91484624,40.87666671],[-73.9120583,40.87811932],[-73.91148913,40.87901886],[-73.91033194,40.87903805],[-73.90949832,40.87877673],[-73.90703749,40.87689516],[-73.906651,40.8757525]]]]}}]}