{"type":"FeatureCollection","features":[{"type":"Feature","properties":{"district":"34"},"geometry":{"type":"Polygon","coordinates":[[[-73.9240591,40.71411156],[-73.91022283,40.71315345],[-73.91116208,40.71221377],[-73.91034697,40.71173218],[-73.90996327,40.71105735],[-73.91229102,40.70878185],[-73.90338102,40.70353764],[-73.90546659,40.70149329],[-73.90367499,40.70040906],[-73.89796112,40.70051851],[-73.89423422,40.70082738],[-73.89798958,40.6970635],[-73.89907123,40.69554574],[-73.89888586,40.69538948],[-73.90074962,40.69248266],[-73.90058403,40.69239779],[-73.90139841,40.69158999],[-73.90579597,40.69412716],[-73.90426018,40.69570037],[-73.91180682,40.69994688],[-73.91067883,40.70104597],[-73.91290404,40.70236189],[-73.9118071,40.70343495],[-73.91773663,40.70694274],[-73.92602331,40.69857963],[-73.92377589,40.69729832],[-73.92575051,40.69528485],[-73.92424881,40.69442861],[-73.92520551,40.69345466],[-73.92495142,40.69331523],[-73.92631613,40.69192845],[-73.95191056,40.70636008],[-73.95337878,40.70685629],[-73.95412862,40.70691953],[-73.95442448,40.70667326],[-73.95474262,40.70697054],[-73.95777204,40.7071839],[-73.9579403,40.70688112],[-73.95845577,40.70725185],[-73.95855023,40.70688112],[-73.96442533,40.7031222],[-73.96652783,40.70507193],[-73.96741762,40.70744633],[-73.96677742,40.71062692],[-73.9644723,40.71573311],[-73.96043373,40.71952094],[-73.95275381,40.71473599],[-73.95348472,40.71407021],[-73.9529105,40.71406099],[-73.94975933,40.71648059],[-73.95006543,40.71830017],[-73.94664067,40.71861513],[-73.94009499,40.72268201],[-73.93830962,40.72358684],[-73.93617411,40.72426692],[-73.93668065,40.72454744],[-73.93676382,40.72483892],[-73.93213398,40.7281596],[-73.92958021,40.72761282],[-73.92849419,40.7266146],[-73.92787172,40.72585405],[-73.9277965,40.72492567],[-73.92561471,40.72006166],[-73.92481799,40.72026514],[-73.92452083,40.71955357],[-73.92486414,40.71844045],[-73.9283793,40.71757837],[-73.92887965,40.71772032],[-73.9297054,40.71704928],[-73.92932,40.71611201],[-73.92947357,40.71572145],[-73.93220607,40.71496398],[-73.93214999,40.71468746],[-73.93175357,40.71474168],[-73.93142604,40.71438234],[-73.93124067,40.71372481],[-73.93164527,40.71334279],[-73.93263905,40.71305259],[-73.93203263,40.71159022],[-73.93338485,40.71123373],[-73.93328349,40.71097871],[-73.93190102,40.71133847],[-73.93093228,40.70916531],[-73.93036095,40.70871774],[-73.93025039,40.70892791],[-73.93154614,40.71185535],[-73.93077895,40.71216043],[-73.93161033,40.71203802],[-73.93184249,40.71262724],[-73.93042294,40.71317256],[-73.93105232,40.71461022],[-73.9308519,40.71490299],[-73.92843882,40.71553095],[-73.92890601,40.71661896],[-73.92823253,40.71710645],[-73.92472906,40.71794405],[-73.9241028,40.71766714],[-73.92341861,40.71706902],[-73.923055,40.71634266],[-73.9243133,40.71584706],[-73.92488554,40.71526719],[-73.9243359,40.71412259],[-73.9240591,40.71411156]]]}}]}