{"type":"FeatureCollection","features":[{"type":"Feature","properties":{"district":"8"},"geometry":{"type":"MultiPolygon","coordinates":[[[[-73.92133752,40.80085211],[-73.92031466,40.79937546],[-73.91662985,40.79785814],[-73.91545471,40.79706347],[-73.91443827,40.79566552],[-73.91380428,40.79451185],[-73.91378385,40.79383629],[-73.91514134,40.79201248],[-73.91630575,40.79111748],[-73.91617088,40.79101429],[-73.91686541,40.79036206],[-73.91710622,40.79046862],[-73.918563,40.78969533],[-73.91850877,40.78942509],[-73.92219098,40.78551067],[-73.92285203,40.78355569],[-73.92448052,40.78232049],[-73.92571809,40.78217656],[-73.92732423,40.78109063],[-73.92810119,40.78092032],[-73.93105353,40.78239659],[-73.93502345,40.78300638],[-73.935813,40.78371008],[-73.93607065,40.78421722],[-73.93571266,40.78568049],[-73.93240146,40.78972029],[-73.93224073,40.78969485],[-73.93084179,40.79099143],[-73.92972401,40.79136618],[-73.92807274,40.79082339],[-73.9261041,40.79073161],[-73.92615942,40.79171539],[-73.92656766,40.79185813],[-73.9255873,40.79182083],[-73.92673799,40.79192842],[-73.92636743,40.79166139],[-73.92648803,40.79102232],[-73.92786889,40.79095484],[-73.92713564,40.79192931],[-73.92780141,40.79199748],[-73.9282672,40.79232852],[-73.92832272,40.79310199],[-73.92735332,40.79446189],[-73.92693615,40.79549706],[-73.92688968,40.79625201],[-73.92711807,40.79720386],[-73.92718515,40.7973499],[-73.92770694,40.79729866],[-73.927203,40.79738675],[-73.92747589,40.7981229],[-73.92669573,40.80014698],[-73.92724771,40.80039296],[-73.92711464,40.80056376],[-73.92716933,40.80040585],[-73.92666565,40.80018271],[-73.92655352,40.80031517],[-73.92674264,40.8004035],[-73.92653846,40.8003339],[-73.92668471,40.80045476],[-73.92655242,40.80060483],[-73.92686909,40.80078368],[-73.9270464,40.80065174],[-73.92688606,40.80084065],[-73.92650955,40.80065703],[-73.92577552,40.8017306],[-73.92527521,40.80199852],[-73.92263379,40.80186874],[-73.92191092,40.80150267],[-73.92133752,40.80085211]]],[[[-73.93382006,40.80710848],[-73.9332591,40.80723725],[-73.9311595,40.80496694],[-73.93001261,40.8032875],[-73.92920818,40.80114752],[-73.9290349,40.8010809],[-73.92890152,40.79985521],[-73.9290364,40.79676259],[-73.92927937,40.79585314],[-73.93019664,40.79459322],[-73.9334849,40.79277417],[-73.93583107,40.7910947],[-73.93708104,40.7893664],[-73.93612689,40.78892687],[-73.93624303,40.78879577],[-73.93714965,40.78916845],[-73.9381157,40.78718476],[-73.9398262,40.78525655],[-73.9424697,40.78389646],[-73.94320566,40.78336984],[-73.94364824,40.78265616],[-73.94405439,40.78296436],[-73.94447051,40.78203527],[-73.94419493,40.78012779],[-73.94435789,40.77976109],[-73.94659059,40.78069197],[-73.94521309,40.78257075],[-73.9498239,40.78451557],[-73.94933171,40.78519313],[-73.95416477,40.78722756],[-73.9546561,40.78655237],[-73.95626131,40.78722288],[-73.95111102,40.79428504],[-73.94950836,40.79360571],[-73.94808516,40.79553642],[-73.94670031,40.79745054],[-73.94831125,40.79812922],[-73.94646134,40.80066531],[-73.94323386,40.79930719],[-73.94227175,40.8006082],[-73.9406655,40.79992997],[-73.93466428,40.80817513],[-73.93382006,40.80710848]]],[[[-73.92687782,40.81947887],[-73.92731653,40.81855963],[-73.92921998,40.81905888],[-73.9300207,40.8169958],[-73.92399951,40.81543891],[-73.923093,40.81669773],[-73.91845382,40.81561363],[-73.91840911,40.81544655],[-73.91680451,40.81476207],[-73.91333779,40.81361085],[-73.91295451,40.81426933],[-73.91094779,40.81362092],[-73.91013371,40.81593211],[-73.90990993,40.81593598],[-73.90874962,40.81875954],[-73.90257859,40.81736979],[-73.90446551,40.81228196],[-73.9034172,40.81150688],[-73.90219186,40.80482326],[-73.90229232,40.80456478],[-73.90452954,40.80317024],[-73.90681402,40.80089064],[-73.9067013,40.80082003],[-73.9074703,40.80000346],[-73.90817714,40.79939009],[-73.9083808,40.79948704],[-73.90855027,40.79930743],[-73.90830304,40.79895914],[-73.91089222,40.7970178],[-73.91168831,40.79662377],[-73.91372256,40.79678944],[-73.91903182,40.79898495],[-73.92024068,40.79961369],[-73.92132731,40.80128459],[-73.9229271,40.80237329],[-73.92422707,40.80254501],[-73.92665795,40.8024098],[-73.92762789,40.80269567],[-73.92728272,40.80350826],[-73.927645,40.80398863],[-73.9281096,40.80401293],[-73.92834056,40.80423989],[-73.92872607,40.80410362],[-73.93051759,40.80659056],[-73.93228262,40.80836397],[-73.93264257,40.80938286],[-73.93259435,40.81005356],[-73.93286397,40.81012444],[-73.93256503,40.81088598],[-73.93233582,40.8176304],[-73.93246476,40.8221546],[-73.93307251,40.82815615],[-73.93095939,40.82833709],[-73.93068562,40.8270606],[-73.92985605,40.82671373],[-73.92691531,40.82245737],[-73.92722409,40.82170904],[-73.92634346,40.82057855],[-73.92687782,40.81947887]]]]}}]}