{"type":"FeatureCollection","features":[{"type":"Feature","properties":{"district":"31"},"geometry":{"type":"MultiPolygon","coordinates":[[[[-73.80997059,40.60006754],[-73.81014418,40.60005486],[-73.80997465,40.5998367],[-73.81029494,40.59968939],[-73.81029012,40.59899167],[-73.81048808,40.59877931],[-73.81131561,40.59854983],[-73.8115755,40.5981412],[-73.81222073,40.59855391],[-73.8135953,40.60036185],[-73.81460713,40.60129903],[-73.81501472,40.60205629],[-73.81480118,40.60408034],[-73.81444223,40.6041652],[-73.81428694,40.60445567],[-73.81320862,40.60435544],[-73.81266626,40.60388892],[-73.811703,40.60361395],[-73.81016959,40.60279976],[-73.80986334,40.60189579],[-73.81003426,40.60161091],[-73.80985065,40.60036562],[-73.80997059,40.60006754]]],[[[-73.80031808,40.6070644],[-73.79792736,40.6065794],[-73.79840919,40.60600997],[-73.79826575,40.6054902],[-73.79867708,40.60570368],[-73.79958079,40.60531175],[-73.80005328,40.60546543],[-73.80010928,40.60531887],[-73.79952544,40.60524348],[-73.79870714,40.60562111],[-73.79781142,40.60515992],[-73.79803735,40.60483704],[-73.79862422,40.60480605],[-73.79876859,40.60501597],[-73.79879615,40.60486522],[-73.79993795,40.60461004],[-73.80020559,40.60483463],[-73.80048632,40.60476282],[-73.8002355,40.60480163],[-73.8000465,40.60456168],[-73.79790084,40.60472009],[-73.79766326,40.60530839],[-73.79815149,40.60563253],[-73.79801861,40.60565708],[-73.79821562,40.6059363],[-73.79766143,40.60635776],[-73.79634761,40.605788],[-73.79646766,40.60518756],[-73.79669376,40.60510592],[-73.79611452,40.60469396],[-73.79640373,40.60471938],[-73.79657663,40.60443474],[-73.79679652,40.60449886],[-73.79731901,40.60406668],[-73.79800481,40.60421037],[-73.79896551,40.60409881],[-73.79916892,40.60426791],[-73.80019815,40.6042243],[-73.80037473,40.60437666],[-73.80078919,40.60421295],[-73.80106856,40.60438008],[-73.80171365,40.60411012],[-73.80177731,40.60427021],[-73.80200208,40.60417061],[-73.80231331,40.60440889],[-73.80242465,40.60422244],[-73.80272408,40.60450737],[-73.80321951,40.60456599],[-73.80338063,40.60430407],[-73.80381183,40.604361],[-73.8036945,40.60462452],[-73.8033774,40.60469893],[-73.80377309,40.60514933],[-73.80367026,40.60543786],[-73.80393555,40.60564374],[-73.80338852,40.60587044],[-73.80314302,40.60636693],[-73.80181702,40.60642295],[-73.80077335,40.6070763],[-73.80058101,40.60683722],[-73.80099698,40.60659088],[-73.80064445,40.60632932],[-73.80107401,40.60641057],[-73.80033864,40.60627882],[-73.8008548,40.60663505],[-73.8004828,40.60679264],[-73.80052837,40.60708863],[-73.80031808,40.6070644]]],[[[-73.796657,40.60896092],[-73.79600863,40.60821736],[-73.79647818,40.60800212],[-73.79626124,40.60762499],[-73.79654942,40.60728754],[-73.79611288,40.60740866],[-73.79611534,40.60779371],[-73.79581988,40.60813392],[-73.79551694,40.60735496],[-73.79527814,40.60581432],[-73.79572699,40.60523061],[-73.79603209,40.60530041],[-73.79560502,40.60589247],[-73.79570142,40.60646053],[-73.79674938,40.60622636],[-73.79789747,40.60686881],[-73.79901992,40.60686844],[-73.80052618,40.60722634],[-73.80107068,40.60717937],[-73.80192792,40.60663742],[-73.80326523,40.60657193],[-73.80377411,40.60612053],[-73.80401493,40.6061315],[-73.80360549,40.60693415],[-73.80308416,40.60746513],[-73.80253792,40.60781047],[-73.80182143,40.60795882],[-73.80140264,40.60822681],[-73.80162398,40.60835462],[-73.80099421,40.6086721],[-73.79817626,40.60899129],[-73.796657,40.60896092]]],[[[-73.7666914,40.61425465],[-73.76516401,40.6137542],[-73.7650158,40.61347519],[-73.76515429,40.6130859],[-73.76505962,40.61203523],[-73.76229944,40.61135921],[-73.76172414,40.61184724],[-73.76023636,40.61082086],[-73.76178243,40.60915167],[-73.76155052,40.60903137],[-73.75998447,40.61087938],[-73.7594912,40.6108158],[-73.75972099,40.6101516],[-73.75919673,40.61037039],[-73.75656053,40.61013943],[-73.75587091,40.6103068],[-73.75560685,40.61007737],[-73.75587413,40.61038519],[-73.75556369,40.61011843],[-73.75499501,40.61013221],[-73.7547322,40.61040524],[-73.75345836,40.61051986],[-73.75008771,40.61164055],[-73.74821586,40.61201108],[-73.74799307,40.61231016],[-73.74761419,40.61199801],[-73.74721568,40.61217884],[-73.74685539,40.6115741],[-73.7457615,40.61199165],[-73.74310895,40.607716],[-73.74339732,40.60747217],[-73.74029139,40.60459823],[-73.7392074,40.60404014],[-73.73840394,40.60312114],[-73.73822598,40.60256603],[-73.73835618,40.59760048],[-73.7386528,40.59731936],[-73.738489,40.59735889],[-73.73871968,40.59694882],[-73.73858467,40.59725319],[-73.73878798,40.59697536],[-73.73938024,40.59723907],[-73.73992747,40.59705495],[-73.74011774,40.59672775],[-73.73979876,40.5964286],[-73.74009714,40.59620865],[-73.74039154,40.5961822],[-73.74036013,40.596775],[-73.74064384,40.5970012],[-73.74108315,40.59682307],[-73.7415738,40.59690395],[-73.74183084,40.59669555],[-73.74151239,40.59652861],[-73.7405206,40.59657186],[-73.74054701,40.59611969],[-73.73992793,40.59606159],[-73.73957905,40.59637634],[-73.7394637,40.59687842],[-73.73949661,40.59702037],[-73.73988306,40.59677097],[-73.73974724,40.5965426],[-73.73990995,40.59677274],[-73.73979634,40.59688268],[-73.73939811,40.59704633],[-73.73892851,40.59687549],[-73.73939796,40.59702954],[-73.73943957,40.5968974],[-73.73894691,40.59676317],[-73.7383836,40.59711741],[-73.73841231,40.5959235],[-73.73798982,40.59455604],[-73.73848744,40.59435226],[-73.73877153,40.59452521],[-73.73877754,40.59435501],[-73.73900197,40.59458623],[-73.73929431,40.59445301],[-73.73956465,40.59456158],[-73.73958763,40.59442653],[-73.73961965,40.59458004],[-73.7401358,40.59451157],[-73.74062832,40.59472165],[-73.74090171,40.59448825],[-73.74131821,40.59479259],[-73.74169766,40.59464174],[-73.74222603,40.59490588],[-73.74242926,40.59486852],[-73.74238743,40.59472926],[-73.74334952,40.59479515],[-73.74348442,40.59459052],[-73.744625,40.59466177],[-73.74665511,40.59429569],[-73.74912525,40.59321637],[-73.75169369,40.59131225],[-73.7534478,40.59096413],[-73.75595464,40.5908742],[-73.7578919,40.59135699],[-73.76134312,40.59172663],[-73.76295276,40.59161118],[-73.76796973,40.59072948],[-73.76872709,40.59087007],[-73.77593043,40.59018141],[-73.77583689,40.5903246],[-73.77918495,40.58959311],[-73.78043036,40.58959662],[-73.78453311,40.58847806],[-73.78768371,40.58792294],[-73.78860298,40.58748445],[-73.78936257,40.58763176],[-73.79156204,40.58729402],[-73.8002832,40.58563286],[-73.80058253,40.58636776],[-73.80044046,40.58678673],[-73.80067106,40.58692383],[-73.80100528,40.58910834],[-73.80430463,40.58832727],[-73.81125223,40.58756679],[-73.81144168,40.58896724],[-73.81039326,40.58994035],[-73.81030826,40.59030542],[-73.81064781,40.59045204],[-73.81026602,40.59047174],[-73.80973233,40.59204067],[-73.80977109,40.59236976],[-73.80948666,40.59276604],[-73.80970129,40.59353404],[-73.80602807,40.59200931],[-73.80577903,40.5907595],[-73.8058239,40.59188933],[-73.8042523,40.59137289],[-73.80416569,40.59185471],[-73.80731387,40.59306606],[-73.80804689,40.59365031],[-73.80781143,40.59390738],[-73.80797565,40.59416441],[-73.80711003,40.59528583],[-73.80606003,40.59555812],[-73.80490619,40.59508789],[-73.80404215,40.59418888],[-73.80412568,40.59351381],[-73.80380902,40.59289116],[-73.80303154,40.59257719],[-73.80243846,40.59264006],[-73.80250965,40.59394813],[-73.80313503,40.59375794],[-73.80318082,40.59394538],[-73.80251304,40.59396685],[-73.80256838,40.59427227],[-73.80324253,40.59408724],[-73.80328794,40.59428212],[-73.80260443,40.59428775],[-73.80234514,40.59449598],[-73.80318574,40.594663],[-73.80344017,40.59443421],[-73.80319675,40.5946782],[-73.80337754,40.59486904],[-73.80372454,40.59481711],[-73.80320011,40.59487285],[-73.80339097,40.59500651],[-73.80321494,40.59514565],[-73.80390842,40.59500481],[-73.80331454,40.59517956],[-73.80368469,40.59519779],[-73.80470623,40.59638668],[-73.80511185,40.59715105],[-73.80470215,40.59768311],[-73.80393339,40.5979435],[-73.80297943,40.5988443],[-73.80167093,40.59889631],[-73.80094868,40.59915166],[-73.80091501,40.59939076],[-73.80077655,40.59916236],[-73.80047379,40.59933156],[-73.80045132,40.59918257],[-73.79912878,40.59937335],[-73.79843079,40.59917371],[-73.79554638,40.59949676],[-73.79457262,40.59942074],[-73.79330902,40.59998118],[-73.79233122,40.59996928],[-73.79025354,40.6012513],[-73.78785575,40.60311334],[-73.78650336,40.60325021],[-73.78616855,40.60304745],[-73.78716242,40.60232643],[-73.78792994,40.6009953],[-73.79029943,40.59926512],[-73.79113567,40.59715072],[-73.79124272,40.59662652],[-73.79093142,40.59596118],[-73.79103617,40.59552224],[-73.79086292,40.59501314],[-73.79042048,40.5947527],[-73.79080626,40.5960934],[-73.79059443,40.59610838],[-73.79053858,40.59498078],[-73.79037896,40.59475197],[-73.79015264,40.5947682],[-73.79042481,40.59605393],[-73.7901783,40.59607132],[-73.79013119,40.59482287],[-73.78973902,40.59474367],[-73.78987361,40.59620444],[-73.78999909,40.59620894],[-73.78969872,40.59622804],[-73.7898411,40.59620695],[-73.78969827,40.59495021],[-73.78940243,40.59494979],[-73.78911307,40.59547476],[-73.78926858,40.59645372],[-73.78913926,40.59792849],[-73.78710231,40.5994433],[-73.78662409,40.60001863],[-73.7859711,40.60031649],[-73.78579379,40.60056893],[-73.78614359,40.60064862],[-73.78578007,40.60059326],[-73.78564205,40.60079719],[-73.78598359,40.60091824],[-73.78563276,40.60081638],[-73.78539358,40.60151802],[-73.78448233,40.6018001],[-73.78364491,40.60239325],[-73.78312802,40.60376099],[-73.78394765,40.60482443],[-73.78366696,40.60532444],[-73.78040832,40.60842597],[-73.77856807,40.60964366],[-73.77727898,40.60984911],[-73.77626538,40.60964904],[-73.77535165,40.60973741],[-73.77422234,40.60889323],[-73.77422269,40.60860113],[-73.77481441,40.60839956],[-73.77421738,40.60763664],[-73.77460295,40.60741765],[-73.77523852,40.60855094],[-73.77600772,40.60919075],[-73.77494598,40.60806542],[-73.77459009,40.60729766],[-73.77458448,40.60652597],[-73.77518711,40.60450026],[-73.77468799,40.60432465],[-73.77491374,40.60411251],[-73.77537608,40.60415731],[-73.77588141,40.60347168],[-73.77605392,40.60275289],[-73.77558895,40.6030403],[-73.77568814,40.60281474],[-73.77647924,40.60244818],[-73.77662546,40.60220778],[-73.77648989,40.60217173],[-73.77780302,40.60096655],[-73.77836873,40.60083878],[-73.77807565,40.60070077],[-73.77818087,40.60038554],[-73.780109,40.60072743],[-73.78190681,40.59911417],[-73.78193601,40.59853114],[-73.78132974,40.59775304],[-73.78018334,40.59721257],[-73.7800572,40.5968775],[-73.7796707,40.59737217],[-73.77742175,40.5988124],[-73.77719851,40.59957696],[-73.77600164,40.60139432],[-73.77497207,40.60174449],[-73.77474213,40.60096343],[-73.77448134,40.6009877],[-73.77474725,40.60094979],[-73.77474285,40.60074378],[-73.77411995,40.59988138],[-73.77422338,40.59900522],[-73.77374433,40.59867015],[-73.77358545,40.59812047],[-73.7730241,40.59788108],[-73.77248586,40.59789384],[-73.77167907,40.59798158],[-73.7711285,40.59829873],[-73.77037277,40.59809009],[-73.76947725,40.59825777],[-73.76811806,40.59782673],[-73.76793592,40.59813971],[-73.76826549,40.59833244],[-73.76970072,40.59864013],[-73.77033635,40.59898422],[-73.77093086,40.5988576],[-73.77116052,40.59942245],[-73.77111103,40.60054603],[-73.77073733,40.6015355],[-73.77083918,40.60181092],[-73.77061759,40.60186873],[-73.77018588,40.60274882],[-73.77042037,40.60294198],[-73.77016122,40.60308652],[-73.77056521,40.60484041],[-73.77000932,40.60533672],[-73.76983623,40.60627801],[-73.7700125,40.60722879],[-73.76977758,40.60753527],[-73.76978386,40.60792704],[-73.76922465,40.60844469],[-73.76900078,40.60939155],[-73.76981818,40.61008788],[-73.77125102,40.61038984],[-73.77184662,40.61082424],[-73.7722345,40.61150168],[-73.77340389,40.61109045],[-73.77296269,40.61015276],[-73.77376768,40.61125622],[-73.77393828,40.61212015],[-73.77417185,40.61182967],[-73.77338598,40.61367507],[-73.77296762,40.61355936],[-73.77174157,40.61396105],[-73.76933085,40.61397453],[-73.76835465,40.61422715],[-73.7666914,40.61425465]]],[[[-73.76671931,40.61500423],[-73.770875,40.61586372],[-73.76854868,40.62055968],[-73.76745927,40.62051132],[-73.76671931,40.61500423]]],[[[-73.81251794,40.62019982],[-73.81260968,40.62064742],[-73.81251794,40.62019982]]],[[[-73.81223419,40.62530009],[-73.81225058,40.62455183],[-73.8124379,40.62439645],[-73.81168078,40.62364964],[-73.81208344,40.62339173],[-73.8125158,40.62353945],[-73.81252991,40.62313395],[-73.81301265,40.62226023],[-73.81325095,40.62255809],[-73.8130319,40.62385677],[-73.81399683,40.62499917],[-73.81386199,40.6250439],[-73.8144291,40.62518678],[-73.81447871,40.62547087],[-73.81383289,40.62592623],[-73.81260004,40.62631887],[-73.8124915,40.62654068],[-73.81198752,40.62602204],[-73.81223419,40.62530009]]],[[[-73.79881982,40.62532794],[-73.79866236,40.62537183],[-73.79781573,40.62445315],[-73.79820878,40.62445724],[-73.79875483,40.62507776],[-73.80037265,40.62410834],[-73.80036269,40.6239351],[-73.79922702,40.62419346],[-73.79867717,40.62343495],[-73.79974914,40.62105401],[-73.79983637,40.62005774],[-73.80016274,40.61962685],[-73.80074083,40.61948508],[-73.80112175,40.61969878],[-73.80181356,40.62083124],[-73.8020642,40.62079091],[-73.80131045,40.61854287],[-73.801493,40.61840938],[-73.80151104,40.61772391],[-73.80187094,40.61676936],[-73.80347411,40.61440096],[-73.80362092,40.61602057],[-73.80453517,40.61698404],[-73.80447871,40.61755342],[-73.80492563,40.61858759],[-73.80589871,40.61961911],[-73.80564293,40.61989176],[-73.80640928,40.62111307],[-73.80616723,40.62137379],[-73.80629105,40.62173605],[-73.80615278,40.62182594],[-73.80640951,40.62233956],[-73.80594982,40.62338034],[-73.80541649,40.62379186],[-73.80466039,40.62384294],[-73.80469919,40.62398748],[-73.80365377,40.624681],[-73.80294573,40.624718],[-73.80162742,40.62559619],[-73.79956442,40.62612024],[-73.79906022,40.62658053],[-73.79831656,40.62618185],[-73.7975919,40.62610142],[-73.79897664,40.62533756],[-73.79881982,40.62532794]]],[[[-73.81429373,40.6291424],[-73.81466887,40.62750256],[-73.81531549,40.62775854],[-73.81617362,40.62890144],[-73.81644552,40.62983606],[-73.81596976,40.63037872],[-73.81527605,40.6302281],[-73.81467414,40.62998529],[-73.81429373,40.6291424]]],[[[-73.82337592,40.63898766],[-73.82277105,40.63557691],[-73.82198201,40.63362622],[-73.82184604,40.63204019],[-73.82067216,40.62891486],[-73.82010003,40.62781704],[-73.81825637,40.62699602],[-73.81823705,40.6263871],[-73.81788868,40.62590845],[-73.81623096,40.62468983],[-73.81617549,40.62441264],[-73.81675265,40.6239485],[-73.81795285,40.62409328],[-73.81864345,40.6233749],[-73.81866204,40.62288316],[-73.81754878,40.6220874],[-73.8175789,40.62175616],[-73.81672238,40.62156829],[-73.8166237,40.62196723],[-73.81620712,40.62208788],[-73.81538719,40.62149778],[-73.81543175,40.62011653],[-73.81718054,40.61926727],[-73.81744426,40.61891176],[-73.81744645,40.6181109],[-73.8177743,40.61750112],[-73.81711894,40.61528219],[-73.81652681,40.61494701],[-73.8164315,40.61428233],[-73.81471813,40.61449609],[-73.81444032,40.61474904],[-73.81408062,40.61455841],[-73.8141645,40.61429107],[-73.81468263,40.61397516],[-73.81486726,40.61401065],[-73.81485722,40.61429923],[-73.81549527,40.61403982],[-73.81479563,40.61319403],[-73.81503638,40.61297621],[-73.81523956,40.61298358],[-73.81546948,40.61334293],[-73.81615627,40.61294212],[-73.81540366,40.6103848],[-73.81450262,40.61105847],[-73.81449877,40.61073545],[-73.81520721,40.60981673],[-73.81475287,40.6086328],[-73.8150613,40.60731703],[-73.81534147,40.60693899],[-73.81608988,40.60884474],[-73.81749811,40.61421413],[-73.82017348,40.61518062],[-73.82075893,40.61523268],[-73.82163922,40.61487061],[-73.82389464,40.61754475],[-73.82492866,40.61909877],[-73.82580324,40.62117262],[-73.82927961,40.63326018],[-73.83047309,40.63565902],[-73.83289974,40.63886269],[-73.83221659,40.63892849],[-73.82866782,40.63661472],[-73.82808567,40.63587973],[-73.82591658,40.63574741],[-73.82443032,40.63621652],[-73.82413578,40.638788],[-73.8245738,40.63935387],[-73.82419332,40.63995407],[-73.82337592,40.63898766]]],[[[-73.7295915,40.68432534],[-73.72586264,40.68324108],[-73.72563005,40.67958795],[-73.72629437,40.67705811],[-73.72755616,40.67416159],[-73.72824131,40.6680241],[-73.72827272,40.66642959],[-73.72811351,40.66534531],[-73.72785787,40.66506797],[-73.72781751,40.66311678],[-73.72833072,40.66304394],[-73.72793124,40.66174884],[-73.72644439,40.65916162],[-73.7255677,40.65672514],[-73.72550259,40.65551652],[-73.72498471,40.65425344],[-73.72522608,40.652001],[-73.73051457,40.65031031],[-73.73513501,40.64973204],[-73.73904482,40.64820118],[-73.74143706,40.64688918],[-73.74166141,40.64219806],[-73.74205085,40.6414742],[-73.74142279,40.64050339],[-73.74227387,40.64012338],[-73.741259,40.6388975],[-73.73947122,40.63570643],[-73.73995958,40.63514381],[-73.7400039,40.63530886],[-73.74170621,40.63503755],[-73.74146474,40.63494289],[-73.74170188,40.63488231],[-73.74253692,40.63517497],[-73.74239124,40.6356303],[-73.7425854,40.63545336],[-73.74124959,40.6369397],[-73.74102309,40.63727201],[-73.74111794,40.63746815],[-73.74096488,40.63730478],[-73.74121659,40.63781576],[-73.74272966,40.63827016],[-73.74397128,40.63788001],[-73.74352226,40.63888949],[-73.74376618,40.63902032],[-73.74479558,40.63707503],[-73.74471276,40.63730705],[-73.74563429,40.63695267],[-73.74626386,40.63644222],[-73.7466123,40.63658213],[-73.74679369,40.63684974],[-73.74645394,40.63725982],[-73.7451622,40.63811219],[-73.74537981,40.63829246],[-73.74567316,40.63812466],[-73.74551058,40.63794388],[-73.74643951,40.63742955],[-73.74691427,40.63691572],[-73.74699985,40.63712703],[-73.74715782,40.63706052],[-73.7467739,40.63785324],[-73.74687121,40.63803155],[-73.74660091,40.63835061],[-73.74617069,40.64039592],[-73.74635494,40.64067875],[-73.74631468,40.64139431],[-73.74729154,40.64318669],[-73.74875121,40.6444711],[-73.74869255,40.64494422],[-73.74885048,40.64516927],[-73.74945274,40.64493123],[-73.75171302,40.64650059],[-73.7532709,40.64733376],[-73.75340365,40.64716237],[-73.75323328,40.64705211],[-73.75354192,40.64719631],[-73.75329211,40.6473434],[-73.7542781,40.64788642],[-73.75475593,40.6478122],[-73.75492769,40.64757272],[-73.75461208,40.64720046],[-73.75379289,40.6467056],[-73.75373771,40.64696042],[-73.7534019,40.64680746],[-73.75376146,40.64668632],[-73.75057033,40.64472856],[-73.74870701,40.64334349],[-73.74742096,40.64141364],[-73.74752878,40.63932443],[-73.74812489,40.63687273],[-73.74839816,40.63665364],[-73.74855478,40.63541156],[-73.74935447,40.63494726],[-73.75069607,40.63462798],[-73.75243759,40.63367678],[-73.75348398,40.63351429],[-73.754791,40.63288249],[-73.75900955,40.6314893],[-73.7605316,40.63066332],[-73.76219408,40.63025943],[-73.7630879,40.6296589],[-73.76453003,40.62922114],[-73.76500891,40.62941218],[-73.7647429,40.62916809],[-73.76649561,40.62825038],[-73.76860409,40.62473272],[-73.76884275,40.62393929],[-73.76855326,40.62318923],[-73.76866782,40.62273196],[-73.76944652,40.62201545],[-73.76951843,40.62212183],[-73.76972348,40.62176169],[-73.76982199,40.62140497],[-73.76961487,40.62114697],[-73.77018829,40.61979101],[-73.77109319,40.61997771],[-73.77165455,40.62041643],[-73.77171699,40.62096168],[-73.770915,40.62240389],[-73.77081129,40.62294975],[-73.77086001,40.62333054],[-73.77143884,40.62328462],[-73.7717276,40.62358503],[-73.77214547,40.62304611],[-73.77203131,40.62299121],[-73.77218824,40.62299579],[-73.77518046,40.61926472],[-73.77220951,40.62300523],[-73.7723626,40.62314733],[-73.77216898,40.62305555],[-73.77200461,40.62326193],[-73.77217018,40.62335963],[-73.77199669,40.62328156],[-73.77181883,40.62349902],[-73.77198776,40.62359758],[-73.77173898,40.62360573],[-73.77323537,40.62499416],[-73.77348617,40.62508512],[-73.77381024,40.6249256],[-73.77349462,40.62514257],[-73.77407526,40.62578348],[-73.7765423,40.62765172],[-73.77946898,40.62731551],[-73.78419483,40.62089267],[-73.784919,40.62047869],[-73.78521543,40.62006349],[-73.78507785,40.61996661],[-73.7851592,40.61864728],[-73.78478112,40.61833568],[-73.78478547,40.61798072],[-73.78451883,40.61798267],[-73.78458185,40.61785505],[-73.78435569,40.61776449],[-73.78446087,40.61702783],[-73.78322555,40.61557873],[-73.78248993,40.61556755],[-73.78229527,40.61516815],[-73.7818909,40.61504743],[-73.78171701,40.61517685],[-73.78079377,40.61458757],[-73.78070887,40.61402681],[-73.78114906,40.61399827],[-73.78088361,40.61364035],[-73.78355221,40.61192445],[-73.78497523,40.61192957],[-73.78522423,40.61141595],[-73.78577809,40.61099348],[-73.78646973,40.61067897],[-73.78684519,40.61079472],[-73.78719897,40.61065584],[-73.78719985,40.61038166],[-73.78741545,40.61026211],[-73.78770743,40.61036547],[-73.78785894,40.61019438],[-73.78865911,40.61009059],[-73.78876012,40.6096379],[-73.7890816,40.60955281],[-73.7890184,40.60922221],[-73.79011167,40.60885945],[-73.79001264,40.60868546],[-73.79047269,40.60845619],[-73.79038021,40.60824549],[-73.79054444,40.60811115],[-73.79085621,40.60804807],[-73.79087659,40.60769559],[-73.79139721,40.60761085],[-73.79159895,40.60780951],[-73.79151115,40.60815452],[-73.7910736,40.60837895],[-73.7914741,40.60870281],[-73.79274949,40.60864637],[-73.79365104,40.60898582],[-73.79394894,40.60925563],[-73.79384565,40.60941702],[-73.79454167,40.60974874],[-73.79455369,40.6100156],[-73.79505655,40.61048897],[-73.79566027,40.61054635],[-73.79745676,40.6113182],[-73.79898529,40.61148246],[-73.79917318,40.61202625],[-73.800257,40.61159728],[-73.80080126,40.6119339],[-73.80023949,40.61208196],[-73.79993435,40.61314387],[-73.79931694,40.61335822],[-73.7996851,40.61377747],[-73.79903904,40.61555054],[-73.79878673,40.61554483],[-73.79854466,40.6158896],[-73.79816301,40.61571609],[-73.7980609,40.61632692],[-73.79727592,40.61666041],[-73.79743334,40.61691923],[-73.79713317,40.61738138],[-73.79724298,40.61759376],[-73.79678304,40.61770472],[-73.79700485,40.61837994],[-73.79635568,40.61845468],[-73.79618831,40.61960985],[-73.79559534,40.62021101],[-73.79554027,40.62091263],[-73.79502286,40.62129191],[-73.7952339,40.62160672],[-73.79482958,40.62182738],[-73.79446686,40.6217857],[-73.79470286,40.62216047],[-73.79461465,40.6224772],[-73.79368372,40.62270234],[-73.79226568,40.62233943],[-73.79075819,40.62232837],[-73.7891627,40.62299975],[-73.78594058,40.62584701],[-73.78536321,40.62670666],[-73.78487889,40.62663147],[-73.78363079,40.62814252],[-73.78328416,40.62895435],[-73.78348976,40.63016512],[-73.78377729,40.63063412],[-73.78434764,40.63137332],[-73.7850119,40.63172819],[-73.78570294,40.63209499],[-73.78690667,40.6322619],[-73.7874306,40.63257654],[-73.78949663,40.63426978],[-73.789716,40.63406725],[-73.79076947,40.63384873],[-73.79066449,40.63415294],[-73.79079284,40.63428204],[-73.79811872,40.63103751],[-73.79827615,40.63125218],[-73.79081111,40.63431036],[-73.79108133,40.63423263],[-73.79130878,40.6344013],[-73.79122899,40.63485706],[-73.79222318,40.63589009],[-73.79343369,40.63608669],[-73.79425964,40.6365642],[-73.79474387,40.63662937],[-73.79725743,40.63800761],[-73.79923712,40.63842011],[-73.8017722,40.63976028],[-73.8046593,40.64090521],[-73.8056594,40.64160198],[-73.80670201,40.64177618],[-73.80864569,40.64281493],[-73.81075749,40.64349239],[-73.81203334,40.64430358],[-73.8136436,40.64469095],[-73.81565104,40.64563002],[-73.81830317,40.64626766],[-73.81881842,40.64659252],[-73.82010812,40.64810402],[-73.82122921,40.64897515],[-73.82215143,40.65013529],[-73.82260573,40.65278611],[-73.82321849,40.65411656],[-73.8234656,40.65531302],[-73.82342121,40.6560255],[-73.82246766,40.65915987],[-73.82161126,40.65993529],[-73.82169139,40.66003509],[-73.82153552,40.65997238],[-73.8217465,40.66011837],[-73.82151179,40.65998211],[-73.81970074,40.66072409],[-73.8197142,40.66087373],[-73.81965725,40.66074192],[-73.81869532,40.66110505],[-73.81750491,40.66104833],[-73.81756727,40.66093673],[-73.81656759,40.66074252],[-73.8159818,40.66083582],[-73.81605203,40.66071157],[-73.81468149,40.66051521],[-73.81457012,40.6606346],[-73.81462534,40.66050667],[-73.81262126,40.66015705],[-73.81143834,40.66025421],[-73.81124435,40.66054464],[-73.81151448,40.66076714],[-73.81867184,40.66213278],[-73.8233187,40.66020791],[-73.82406596,40.65848415],[-73.82426411,40.65777909],[-73.8240413,40.65775567],[-73.82426776,40.65774651],[-73.82492941,40.65544153],[-73.82347527,40.6504763],[-73.823422,40.649464],[-73.82290718,40.64809345],[-73.82319444,40.64801116],[-73.82401262,40.64922918],[-73.8245876,40.64948315],[-73.82499847,40.64937693],[-73.82534103,40.64966538],[-73.8258891,40.64948607],[-73.82614483,40.65008184],[-73.82630015,40.65002299],[-73.82617205,40.64952694],[-73.82640736,40.64928916],[-73.82622034,40.64836103],[-73.82639243,40.64832435],[-73.82859942,40.65719697],[-73.8293142,40.65889866],[-73.82991336,40.65966567],[-73.83270534,40.66540577],[-73.82296101,40.66386014],[-73.81381049,40.662792],[-73.81192947,40.66305715],[-73.80845016,40.6644613],[-73.80614396,40.66491273],[-73.80574372,40.66615223],[-73.80174534,40.66587324],[-73.80162115,40.6662597],[-73.79295946,40.66613585],[-73.7753641,40.66739467],[-73.77105218,40.66733671],[-73.7670225,40.66690776],[-73.76435325,40.67185337],[-73.76371825,40.67431589],[-73.76009929,40.67234544],[-73.75849762,40.67264844],[-73.75870172,40.67311654],[-73.75836867,40.67347201],[-73.75719954,40.67342793],[-73.75691882,40.67652887],[-73.75648886,40.67602276],[-73.75576169,40.67588591],[-73.75804707,40.67922121],[-73.75544058,40.68019368],[-73.75323817,40.68011689],[-73.75225829,40.68149141],[-73.75103021,40.68422287],[-73.75001704,40.68589132],[-73.74722435,40.6897167],[-73.7295915,40.68432534]]]]}}]}