{"type":"FeatureCollection","features":[{"type":"Feature","properties":{"district":"14"},"geometry":{"type":"Polygon","coordinates":[[[-73.88778677,40.87074085],[-73.8886845,40.87149511],[-73.89098697,40.87016072],[-73.89174633,40.86951055],[-73.8971438,40.86244507],[-73.90130127,40.85530349],[-73.90608377,40.8493474],[-73.90576107,40.84918782],[-73.90632226,40.84757965],[-73.90373985,40.84732761],[-73.90391784,40.84500211],[-73.90482948,40.84503019],[-73.90483494,40.84475262],[-73.91337631,40.84514339],[-73.92265185,40.84474516],[-73.92259626,40.84486744],[-73.92592859,40.84494896],[-73.92442424,40.84772789],[-73.92212733,40.85048463],[-73.92167857,40.85026705],[-73.92177408,40.85012827],[-73.92125977,40.85002198],[-73.91909637,40.85267462],[-73.91819736,40.85308404],[-73.9179917,40.85287247],[-73.91781854,40.85366017],[-73.91678983,40.85487288],[-73.9169852,40.85498288],[-73.91673046,40.85555742],[-73.91718821,40.85591882],[-73.91720801,40.8568383],[-73.91656578,40.85811425],[-73.91681688,40.85817975],[-73.91585322,40.85937768],[-73.91266095,40.86185164],[-73.91422918,40.86248856],[-73.91341462,40.86336749],[-73.91276272,40.86302917],[-73.91227279,40.86363215],[-73.91279762,40.86389888],[-73.91252605,40.86379522],[-73.91267634,40.86402111],[-73.91041774,40.86656954],[-73.90949664,40.86883116],[-73.90893715,40.87101984],[-73.90864943,40.87138578],[-73.90893235,40.87215735],[-73.90846368,40.87262079],[-73.90774271,40.87284595],[-73.906651,40.8757525],[-73.90682823,40.87663155],[-73.9083557,40.87791831],[-73.90802213,40.87828798],[-73.90666385,40.87677046],[-73.90615159,40.87710482],[-73.90442604,40.87645526],[-73.90357476,40.87856326],[-73.90144123,40.88091915],[-73.90050104,40.88040122],[-73.89904032,40.88154351],[-73.89957123,40.87877586],[-73.89813492,40.87843122],[-73.89904957,40.87710699],[-73.89981109,40.87639883],[-73.90043258,40.87498508],[-73.90011386,40.87431248],[-73.89851735,40.87384831],[-73.89792833,40.87254046],[-73.89778962,40.87085664],[-73.89891854,40.86965857],[-73.89656061,40.8685652],[-73.8952103,40.87030826],[-73.89444825,40.87072346],[-73.89241936,40.87170623],[-73.89024543,40.87192255],[-73.88985257,40.87229522],[-73.888557,40.87519731],[-73.88477518,40.87427022],[-73.88561377,40.87226938],[-73.88778677,40.87074085]]]}}]}