{"type":"FeatureCollection","features":[{"type":"Feature","properties":{"district":"12"},"geometry":{"type":"Polygon","coordinates":[[[-73.82391571,40.88997463],[-73.82461902,40.88864939],[-73.82382289,40.88774724],[-73.82395534,40.88767201],[-73.82380284,40.8874316],[-73.82307335,40.88710767],[-73.82187799,40.8869292],[-73.82098952,40.88604465],[-73.82064931,40.88538246],[-73.82023958,40.88549105],[-73.82005446,40.88211413],[-73.82329599,40.87309742],[-73.82126544,40.86907454],[-73.81578764,40.86575806],[-73.81785033,40.86418593],[-73.81761651,40.86362634],[-73.81895426,40.86247456],[-73.81896237,40.86223942],[-73.82017223,40.86140456],[-73.82450575,40.85976402],[-73.82444012,40.85950138],[-73.82716223,40.8590443],[-73.82749934,40.85995123],[-73.8280207,40.86064154],[-73.82954731,40.86216409],[-73.8315962,40.8626447],[-73.84122363,40.86785815],[-73.84321346,40.86744457],[-73.84719834,40.86755483],[-73.84809531,40.8665144],[-73.84854508,40.86652325],[-73.84878722,40.86623157],[-73.84934397,40.86653122],[-73.84905106,40.86682011],[-73.84903154,40.867554],[-73.86626413,40.86787467],[-73.86634233,40.86544947],[-73.87042128,40.86536108],[-73.87056193,40.87151078],[-73.87019107,40.87605326],[-73.86940538,40.87818942],[-73.86874367,40.87882319],[-73.86605231,40.88428704],[-73.86620662,40.88537861],[-73.86303842,40.89111255],[-73.85641353,40.88900815],[-73.85602979,40.88971351],[-73.85315308,40.88879989],[-73.85198098,40.89092141],[-73.84909729,40.89000102],[-73.84863394,40.89089761],[-73.84895038,40.89173853],[-73.84983901,40.89154366],[-73.85063762,40.89364334],[-73.84978973,40.89392826],[-73.85039938,40.89552387],[-73.84862931,40.89591379],[-73.84960676,40.89847126],[-73.84004475,40.90057496],[-73.8392183,40.89941842],[-73.83921318,40.89882519],[-73.83966433,40.89788552],[-73.83964813,40.89733054],[-73.83839199,40.89406701],[-73.83804277,40.89414233],[-73.83525791,40.89339164],[-73.82391571,40.88997463]]]}}]}