{"type":"FeatureCollection","features":[{"type":"Feature","properties":{"district":"33"},"geometry":{"type":"Polygon","coordinates":[[[-73.93213398,40.7281596],[-73.93676382,40.72483892],[-73.93668065,40.72454744],[-73.93617411,40.72426692],[-73.93830962,40.72358684],[-73.94009499,40.72268201],[-73.94664067,40.71861513],[-73.95006543,40.71830017],[-73.94975933,40.71648059],[-73.9529105,40.71406099],[-73.95348472,40.71407021],[-73.95275381,40.71473599],[-73.96043373,40.71952094],[-73.9644723,40.71573311],[-73.96677742,40.71062692],[-73.96741762,40.70744633],[-73.96652783,40.70507193],[-73.96442533,40.7031222],[-73.95855023,40.70688112],[-73.95845577,40.70725185],[-73.9579403,40.70688112],[-73.95777204,40.7071839],[-73.95474262,40.70697054],[-73.95442448,40.70667326],[-73.95412862,40.70691953],[-73.95337878,40.70685629],[-73.95191056,40.70636008],[-73.95023694,40.70547325],[-73.94193079,40.70072523],[-73.95337001,40.69940454],[-73.95175747,40.69132931],[-73.96029282,40.69034625],[-73.96158556,40.69620749],[-73.96451307,40.69596473],[-73.96487573,40.69771433],[-73.98054419,40.69824651],[-73.98040482,40.70069901],[-73.98077779,40.70124745],[-73.98476086,40.70143935],[-73.98482787,40.70057698],[-73.98544716,40.70059289],[-73.98453236,40.69982366],[-73.98293217,40.69977148],[-73.98311794,40.69754204],[-73.98227354,40.6975063],[-73.98237499,40.69610125],[-73.98447249,40.69611914],[-73.98064972,40.68845948],[-73.9780773,40.68491494],[-73.9796168,40.68249127],[-73.98828294,40.68586679],[-73.98871156,40.68522462],[-73.99360423,40.68712723],[-73.99236367,40.68969012],[-73.99991517,40.69176723],[-74.00161727,40.69254907],[-74.00174362,40.69240675],[-74.00095868,40.69406908],[-73.99941302,40.69635768],[-73.99947407,40.69670413],[-73.99887207,40.69692378],[-73.99749898,40.69963887],[-73.99716054,40.69979281],[-73.99724463,40.70014141],[-73.9946629,40.70343061],[-73.99499543,40.70365056],[-73.99471424,40.70399669],[-73.99477614,40.70424586],[-73.99386341,40.70455601],[-73.99212704,40.70468964],[-73.99186159,40.70408664],[-73.99094755,40.70403244],[-73.99022721,40.70493404],[-73.98830332,40.70454047],[-73.98828999,40.70507066],[-73.98795676,40.70513422],[-73.98687252,40.70515728],[-73.98652973,40.7049791],[-73.9864343,40.70534861],[-73.98343806,40.70564409],[-73.9833682,40.70546107],[-73.98274162,40.70557244],[-73.9809251,40.70536926],[-73.98090865,40.70590794],[-73.97955919,40.70574362],[-73.9790505,40.70596696],[-73.9789311,40.70592491],[-73.97924333,40.7055512],[-73.97896355,40.7055022],[-73.97881909,40.70586247],[-73.97892766,40.7054962],[-73.97873829,40.70546306],[-73.97863907,40.70583065],[-73.97868441,40.70545418],[-73.97846558,40.70556222],[-73.97839231,40.70597068],[-73.97885303,40.70606553],[-73.97834475,40.70599996],[-73.97853199,40.70487652],[-73.97802067,40.70429097],[-73.97721196,40.70421393],[-73.97751215,40.70319675],[-73.97713563,40.70300558],[-73.97623865,40.70477564],[-73.97596096,40.70471551],[-73.97692749,40.70279782],[-73.97615937,40.70217128],[-73.97553456,40.70304281],[-73.97532987,40.70295192],[-73.97600588,40.70194613],[-73.97455023,40.70159034],[-73.97579952,40.69975242],[-73.97571752,40.69957091],[-73.97535998,40.69958052],[-73.97411514,40.70130527],[-73.97292643,40.70029455],[-73.97257312,40.70008206],[-73.97239201,40.70016632],[-73.97375701,40.70153414],[-73.97318677,40.7016698],[-73.97113825,40.69991789],[-73.97078201,40.69997866],[-73.97332456,40.70241266],[-73.97283513,40.70272874],[-73.96982557,40.70024507],[-73.96948655,40.70051906],[-73.9728389,40.70334643],[-73.97266938,40.70350138],[-73.96924539,40.70136474],[-73.96898517,40.70174709],[-73.97231246,40.70384454],[-73.97215799,40.70397021],[-73.97110342,40.70345974],[-73.97093308,40.70362477],[-73.97101963,40.70381561],[-73.9746557,40.70607426],[-73.97439084,40.70632577],[-73.97339231,40.70573321],[-73.9725488,40.70620449],[-73.97462967,40.70768106],[-73.97423617,40.70802439],[-73.97122493,40.7057899],[-73.97109655,40.70585006],[-73.97105692,40.70694643],[-73.97275757,40.70883128],[-73.97232032,40.70908288],[-73.97026219,40.7068875],[-73.97048882,40.70540067],[-73.97016895,40.70536185],[-73.97018076,40.70492927],[-73.96762115,40.70334851],[-73.96751517,40.70343736],[-73.96747674,40.70394987],[-73.96929694,40.70508833],[-73.96929296,40.70709333],[-73.96984865,40.70800304],[-73.96994197,40.70930205],[-73.96960541,40.71027084],[-73.97006925,40.71045025],[-73.96966186,40.71049972],[-73.96976878,40.71078832],[-73.9693743,40.71102067],[-73.96990773,40.71126812],[-73.96931039,40.71110785],[-73.96923493,40.71124054],[-73.96881612,40.71225195],[-73.96887249,40.71257874],[-73.96844232,40.71293843],[-73.96884925,40.71321255],[-73.96724034,40.71658789],[-73.96710504,40.71690839],[-73.96725114,40.71698667],[-73.9663133,40.71831654],[-73.9651195,40.71922689],[-73.9653943,40.71958152],[-73.96527752,40.72011826],[-73.96503278,40.72037707],[-73.96447946,40.72003619],[-73.96439736,40.72044183],[-73.96275665,40.72239902],[-73.96165984,40.72486045],[-73.96211462,40.72514806],[-73.9619024,40.7253205],[-73.96153679,40.72510892],[-73.96116366,40.72526461],[-73.95803917,40.72442744],[-73.95795096,40.72503644],[-73.95842612,40.72540054],[-73.96012497,40.72531964],[-73.96028545,40.72594812],[-73.96161519,40.72586556],[-73.96161717,40.72666142],[-73.96101688,40.72870444],[-73.96142844,40.73094639],[-73.9622634,40.73291555],[-73.9623285,40.73375434],[-73.96190965,40.73475081],[-73.95982931,40.7370609],[-73.95741824,40.73864924],[-73.95693003,40.73888707],[-73.95476314,40.73912354],[-73.95323299,40.73899268],[-73.95046458,40.73830958],[-73.94652353,40.73692685],[-73.94644229,40.73678063],[-73.94719983,40.73535518],[-73.94706533,40.73440199],[-73.94659807,40.73444222],[-73.94673908,40.73528269],[-73.94624748,40.73616617],[-73.94587311,40.73610183],[-73.94557048,40.7366123],[-73.94499909,40.73643669],[-73.94525492,40.73589279],[-73.94518507,40.73547915],[-73.94503299,40.73542862],[-73.94451542,40.73628439],[-73.94321348,40.73579053],[-73.94239444,40.73542575],[-73.94154567,40.73473434],[-73.94099747,40.73379049],[-73.94115616,40.73374891],[-73.94103843,40.73348826],[-73.94056869,40.73305849],[-73.94068492,40.73301708],[-73.94036659,40.73221259],[-73.93981323,40.73115269],[-73.93810335,40.72972852],[-73.93693125,40.72910809],[-73.93492926,40.72854392],[-73.93213398,40.7281596]]]}}]}