{"type":"FeatureCollection","features":[{"type":"Feature","properties":{"district":"36"},"geometry":{"type":"Polygon","coordinates":[[[-73.9280416,40.69290561],[-73.92526529,40.67907321],[-73.92735542,40.67918252],[-73.92801318,40.67220921],[-73.92524559,40.67206205],[-73.92541348,40.67027885],[-73.93095113,40.67058281],[-73.93086762,40.67147387],[-73.95431647,40.67275343],[-73.95267782,40.67702698],[-73.95300514,40.67881508],[-73.95829217,40.67983113],[-73.96029282,40.69034625],[-73.95175747,40.69132931],[-73.95337001,40.69940454],[-73.94193079,40.70072523],[-73.9280416,40.69290561]]]}}]}