{"type":"FeatureCollection","features":[{"type":"Feature","properties":{"district":"22"},"geometry":{"type":"MultiPolygon","coordinates":[[[[-73.88516119,40.77954415],[-73.88542597,40.77963987],[-73.88516119,40.77954415]]],[[[-73.88515855,40.77979833],[-73.88500898,40.77956481],[-73.88515855,40.77979833]]],[[[-73.87970469,40.78283765],[-73.87883147,40.78243071],[-73.87970469,40.78283765]]],[[[-73.90647315,40.79018118],[-73.90206328,40.78949441],[-73.9003263,40.78900766],[-73.89693994,40.78662467],[-73.89651205,40.78606866],[-73.89635251,40.78617931],[-73.89650255,40.78605747],[-73.89604377,40.78579999],[-73.8962426,40.78574043],[-73.89614015,40.78560717],[-73.89592963,40.78564894],[-73.89612633,40.78559317],[-73.89582914,40.78522153],[-73.89876163,40.78274895],[-73.90114578,40.78271111],[-73.90217815,40.78178056],[-73.90267724,40.78059413],[-73.9025793,40.78028912],[-73.90234304,40.78018724],[-73.90218304,40.78035937],[-73.90203566,40.7812031],[-73.90129128,40.78185842],[-73.90034961,40.78216441],[-73.89865438,40.78199542],[-73.89437778,40.7842432],[-73.89429482,40.78411757],[-73.89606378,40.7831572],[-73.89477429,40.78225359],[-73.89535751,40.78165766],[-73.89460092,40.78225316],[-73.89534448,40.78158557],[-73.89416469,40.78247205],[-73.89306091,40.78184829],[-73.8923075,40.78246604],[-73.89274918,40.78296571],[-73.89165459,40.78219478],[-73.89224191,40.7824108],[-73.89300986,40.78179802],[-73.89227865,40.78130032],[-73.89211149,40.78139518],[-73.89221793,40.78120532],[-73.89167104,40.78085485],[-73.89159164,40.78058112],[-73.89253485,40.77977052],[-73.89254018,40.77955183],[-73.8916686,40.77949254],[-73.8911959,40.77856329],[-73.8925226,40.77740463],[-73.89141606,40.77633896],[-73.89183245,40.7748802],[-73.89144362,40.77562269],[-73.89145186,40.77651277],[-73.89112044,40.7771247],[-73.89056251,40.77740392],[-73.89035193,40.77780032],[-73.89008729,40.77778419],[-73.88947105,40.77553555],[-73.88978901,40.77423686],[-73.89019172,40.77364688],[-73.8898517,40.7737533],[-73.88945487,40.77353295],[-73.88836546,40.76676959],[-73.88772988,40.76691443],[-73.88754122,40.76631813],[-73.88368654,40.76715442],[-73.8837812,40.7676754],[-73.87984046,40.76967447],[-73.87852782,40.770049],[-73.87699242,40.76162088],[-73.87895383,40.76198398],[-73.88825673,40.76102178],[-73.88858932,40.76285796],[-73.89705133,40.76195717],[-73.89906152,40.75903948],[-73.89921207,40.75784766],[-73.90782817,40.75699926],[-73.90826756,40.757195],[-73.90632327,40.75983682],[-73.90699706,40.76014456],[-73.90906578,40.75756516],[-73.91068364,40.75831898],[-73.91446451,40.75367641],[-73.91650535,40.75389159],[-73.91892348,40.75363612],[-73.9237044,40.75588004],[-73.92246264,40.75742318],[-73.92565361,40.75892217],[-73.92815373,40.75583586],[-73.93425021,40.75869513],[-73.93158049,40.76170595],[-73.93700479,40.76423995],[-73.93914473,40.76080162],[-73.94471461,40.76287884],[-73.94131175,40.766918],[-73.94035104,40.76765338],[-73.93936587,40.7681597],[-73.93895502,40.76795819],[-73.93819731,40.76869974],[-73.93788768,40.76855755],[-73.93777817,40.76861905],[-73.93795823,40.76878493],[-73.93747109,40.76895156],[-73.93681461,40.76890395],[-73.93640382,40.76947488],[-73.93574021,40.76936723],[-73.93489534,40.77004186],[-73.93469499,40.77042534],[-73.93514715,40.77054196],[-73.93500814,40.77116239],[-73.9345273,40.77117678],[-73.93443526,40.77146236],[-73.93482623,40.77157696],[-73.93480681,40.77173414],[-73.93746639,40.7725315],[-73.93785812,40.77408757],[-73.93765483,40.77508569],[-73.93638023,40.77692146],[-73.93508233,40.77794423],[-73.93381133,40.77810045],[-73.93178834,40.77787061],[-73.93104964,40.7774419],[-73.93062857,40.7765909],[-73.92988059,40.77622163],[-73.92860515,40.77659268],[-73.92631833,40.77824178],[-73.92487344,40.7786256],[-73.92295653,40.78044101],[-73.92209965,40.78085187],[-73.91909035,40.78336765],[-73.91818863,40.78393297],[-73.91717119,40.78419348],[-73.91718201,40.78455206],[-73.91683277,40.78519139],[-73.91575173,40.78610758],[-73.91526014,40.78619222],[-73.9155871,40.78642963],[-73.91259986,40.78937633],[-73.91240811,40.7892743],[-73.91266748,40.78900397],[-73.91195111,40.7894018],[-73.91207975,40.78952181],[-73.91183778,40.78968088],[-73.91094298,40.78975504],[-73.91090487,40.79004068],[-73.91022216,40.79046521],[-73.90985863,40.79094549],[-73.90677991,40.79037511],[-73.90647315,40.79018118]]],[[[-73.88885148,40.79870633],[-73.88821349,40.7986653],[-73.88839251,40.7985663],[-73.88823353,40.79824288],[-73.88755968,40.79836873],[-73.88665109,40.7980382],[-73.88375742,40.79570857],[-73.88362358,40.79567246],[-73.88365517,40.79596723],[-73.88320394,40.795545],[-73.88209634,40.79515986],[-73.87980493,40.79489225],[-73.87837438,40.79452081],[-73.87583075,40.79315012],[-73.87449319,40.79205745],[-73.87288457,40.79145211],[-73.87175021,40.79065851],[-73.87121154,40.79003612],[-73.87080889,40.78789669],[-73.87163065,40.78679791],[-73.87278847,40.78607798],[-73.8728092,40.78590311],[-73.87351452,40.78575009],[-73.87653227,40.78582736],[-73.8783068,40.78535662],[-73.88537442,40.78666913],[-73.88770126,40.78687227],[-73.88905212,40.78737256],[-73.88961097,40.78819999],[-73.89030135,40.78987673],[-73.8908,40.79020758],[-73.89160587,40.7901607],[-73.89218183,40.79039427],[-73.89282284,40.79281708],[-73.8917929,40.79677525],[-73.89073139,40.7976609],[-73.89087422,40.79782975],[-73.89062148,40.79774892],[-73.89079505,40.79802184],[-73.89060786,40.79776751],[-73.89016916,40.79796466],[-73.88921284,40.7978012],[-73.88835248,40.79813936],[-73.88856205,40.7983534],[-73.88839283,40.79837528],[-73.88851285,40.79859054],[-73.88899654,40.79868075],[-73.88885148,40.79870633]]]]}}]}