{"type":"FeatureCollection","features":[{"type":"Feature","properties":{"district":"3"},"geometry":{"type":"Polygon","coordinates":[[[-73.99631327,40.76979884],[-73.9952623,40.76950297],[-73.99528368,40.7693227],[-73.98996383,40.76718747],[-73.98950498,40.76781538],[-73.98382186,40.76541847],[-73.9842823,40.76479182],[-73.98143352,40.76359436],[-73.9850497,40.75857363],[-73.98533869,40.75869383],[-73.98749102,40.75215894],[-73.9881771,40.74828882],[-73.98549602,40.74715233],[-73.98729805,40.7446815],[-73.98569571,40.74400764],[-73.9879824,40.74087265],[-73.9891258,40.74135773],[-73.9903307,40.73713186],[-73.99222485,40.73791698],[-73.99311953,40.73669105],[-73.99634237,40.73804523],[-74.00141242,40.73106526],[-74.00317136,40.72766512],[-74.00403068,40.7255125],[-74.01097294,40.72609538],[-74.01514326,40.72671053],[-74.01154202,40.72644735],[-74.01138324,40.72822927],[-74.0143907,40.72846305],[-74.01403797,40.73069422],[-74.01116196,40.73045068],[-74.01094118,40.73300776],[-74.0140022,40.733068],[-74.01399957,40.73333228],[-74.0109039,40.73329762],[-74.01072972,40.7334634],[-74.01083285,40.73400709],[-74.01201792,40.73406374],[-74.01200124,40.7343384],[-74.01081359,40.73428344],[-74.0104766,40.73806394],[-74.01108707,40.73809275],[-74.01113916,40.73838986],[-74.01045433,40.73836451],[-74.01039303,40.7391743],[-74.01158046,40.73926454],[-74.01146074,40.74058421],[-74.01265928,40.74074764],[-74.00949155,40.74074271],[-74.0094114,40.74115409],[-74.00961923,40.74136361],[-74.01020819,40.74160754],[-74.01038358,40.74139785],[-74.01139609,40.74182281],[-74.01083987,40.74259673],[-74.01029101,40.74235852],[-74.01012564,40.74257583],[-74.00919185,40.74229263],[-74.00909157,40.74288615],[-74.00962015,40.74295125],[-74.00958464,40.74326352],[-74.01214813,40.7435593],[-74.01202085,40.74393977],[-74.00951202,40.74367609],[-74.00943801,40.74397126],[-74.00890033,40.74391793],[-74.00872986,40.74488154],[-74.00961228,40.7449979],[-74.00955833,40.74528883],[-74.00991661,40.74532726],[-74.00999823,40.74495506],[-74.00987211,40.7449165],[-74.01016791,40.74494233],[-74.00997395,40.74532314],[-74.0104692,40.74538677],[-74.01055045,40.74501306],[-74.01041937,40.74497682],[-74.0107642,40.74500503],[-74.01058579,40.74502045],[-74.0105452,40.74539214],[-74.0111036,40.74544767],[-74.01117183,40.74507826],[-74.01104459,40.74504621],[-74.0113877,40.74507311],[-74.01123038,40.74507583],[-74.01115419,40.74544638],[-74.01173959,40.74551992],[-74.01167068,40.74511398],[-74.01183643,40.74512596],[-74.01167886,40.74597946],[-74.0094639,40.74575014],[-74.00936363,40.7463356],[-74.01159123,40.74660151],[-74.01148373,40.74699059],[-74.00924315,40.74676279],[-74.00913736,40.74735976],[-74.01140674,40.74763055],[-74.01130353,40.74801457],[-74.00905848,40.74778565],[-74.00894607,40.74841189],[-74.01121562,40.74867799],[-74.01110891,40.74904988],[-74.00994818,40.74893199],[-74.00956175,40.74996998],[-74.00925341,40.74998521],[-74.00910453,40.75037107],[-74.01067738,40.75102267],[-74.01056463,40.75132146],[-74.00900098,40.75064818],[-74.00853257,40.75188361],[-74.00914082,40.75209759],[-74.00865116,40.75193951],[-74.00905774,40.75221435],[-74.00858096,40.75204388],[-74.00934089,40.75235561],[-74.00847896,40.75201857],[-74.00842636,40.75215785],[-74.00997059,40.75293356],[-74.0087921,40.75235214],[-74.00868792,40.752494],[-74.00835353,40.75235074],[-74.0076195,40.75428184],[-74.00774405,40.7543368],[-74.00747158,40.75447702],[-74.007285,40.75473557],[-74.00741362,40.7547893],[-74.00714468,40.75493248],[-74.00541886,40.75732314],[-74.00521188,40.757232],[-74.00480393,40.75780984],[-74.00527895,40.75802855],[-74.00503105,40.75835702],[-74.00699375,40.75917615],[-74.0065296,40.75987475],[-74.00450483,40.759085],[-74.00420629,40.75950171],[-74.00390742,40.75937569],[-74.00380658,40.75951073],[-74.00424697,40.75969921],[-74.00414864,40.75983591],[-74.00431889,40.75991069],[-74.00366891,40.75970597],[-74.00357251,40.75984656],[-74.00392855,40.76000302],[-74.00313339,40.76107835],[-74.00278692,40.76092897],[-74.00233528,40.76154373],[-74.00454521,40.7624928],[-74.00444952,40.76266457],[-74.00220082,40.76172843],[-74.00153309,40.7626446],[-74.00375735,40.76358224],[-74.00361215,40.76377704],[-74.00138604,40.7628501],[-74.00097308,40.76342027],[-74.00314977,40.76433289],[-74.0029481,40.76461684],[-74.00315587,40.76473051],[-73.99992712,40.76340653],[-73.99915098,40.76420526],[-74.00227437,40.76552518],[-74.00205714,40.76587739],[-73.99888473,40.76456938],[-73.99857639,40.76499861],[-73.99868871,40.76520857],[-73.99828161,40.76556777],[-74.00154218,40.7669447],[-74.00139437,40.76723005],[-73.99806676,40.76587188],[-73.99737808,40.76682339],[-74.00062837,40.76820311],[-74.00045489,40.7685042],[-73.99715589,40.7671287],[-73.99645715,40.76809882],[-73.99972819,40.76947351],[-73.99947254,40.76976422],[-73.99707176,40.76873264],[-73.99715035,40.76884739],[-73.99657126,40.76942457],[-73.99902683,40.77046327],[-73.99876207,40.77082506],[-73.99631327,40.76979884]],[[-74.00937125,40.74218515],[-74.01008803,40.74248816],[-74.01019828,40.74233375],[-74.00982234,40.74216605],[-74.0101656,40.74167235],[-74.00936175,40.74142362],[-74.0092378,40.74207163],[-74.00937125,40.74218515]]]}}]}