{"type":"FeatureCollection","features":[{"type":"Feature","properties":{"district":"1"},"geometry":{"type":"MultiPolygon","coordinates":[[[[-74.01092841,40.68449147],[-74.0119326,40.68388775],[-74.01217597,40.68409519],[-74.00835447,40.6864002],[-74.00816415,40.68617472],[-74.01092841,40.68449147]]],[[[-74.00500373,40.68760599],[-74.00562986,40.68678421],[-74.00783294,40.68738506],[-74.00742012,40.68820629],[-74.00500373,40.68760599]]],[[[-74.00382039,40.68892964],[-74.00459271,40.68821522],[-74.00678438,40.68882688],[-74.00636461,40.68966967],[-74.00382039,40.68892964]]],[[[-74.00297565,40.69042658],[-74.00340922,40.68961326],[-74.00575901,40.6902364],[-74.0053421,40.6910916],[-74.00297565,40.69042658]]],[[[-74.04387762,40.69018768],[-74.04350596,40.68968736],[-74.04270428,40.6901552],[-74.04255372,40.68996276],[-74.04346752,40.68963699],[-74.04364079,40.68876656],[-74.04438522,40.68851618],[-74.04627539,40.68932743],[-74.04680285,40.68995326],[-74.04747652,40.68961137],[-74.04772963,40.68991532],[-74.04743126,40.68980389],[-74.04689206,40.6900591],[-74.04720029,40.69042482],[-74.04717029,40.69099133],[-74.04614707,40.69112265],[-74.04387762,40.69018768]]],[[[-74.00199318,40.69232868],[-74.0017984,40.69227002],[-74.00216096,40.69223814],[-74.0020633,40.692444],[-74.00199318,40.69232868]]],[[[-74.00132562,40.6914631],[-74.00069906,40.69061186],[-74.00479415,40.69176162],[-74.00440941,40.6925288],[-74.00196939,40.69184321],[-74.00132562,40.6914631]]],[[[-74.01674756,40.69334337],[-74.01540359,40.6930665],[-74.0153892,40.69329813],[-74.01517482,40.69325668],[-74.01525951,40.69303681],[-74.01512878,40.6932438],[-74.01494315,40.69314102],[-74.01515612,40.69301552],[-74.01422123,40.69282291],[-74.01343563,40.69211544],[-74.01250259,40.69230358],[-74.01229731,40.69256825],[-74.01181186,40.69247934],[-74.0119031,40.69209058],[-74.0124614,40.69221262],[-74.01333264,40.69201997],[-74.01260857,40.6913641],[-74.01203418,40.69150308],[-74.01259753,40.69133434],[-74.01252783,40.69114634],[-74.01182575,40.69106482],[-74.012195,40.69102885],[-74.01221017,40.6907917],[-74.01197151,40.69077096],[-74.01198057,40.69060641],[-74.01223131,40.69046133],[-74.01230688,40.68928018],[-74.01316926,40.68815477],[-74.01488098,40.68725457],[-74.01604731,40.68733801],[-74.01704987,40.68687599],[-74.01664664,40.68641635],[-74.01514391,40.68643703],[-74.01667352,40.68630517],[-74.01712099,40.68684334],[-74.02054367,40.68527207],[-74.02020687,40.68483383],[-74.01939842,40.6850874],[-74.02095255,40.68438443],[-74.0202782,40.68480914],[-74.02061267,40.68524039],[-74.02224079,40.68451841],[-74.02211854,40.68435195],[-74.02233553,40.68447639],[-74.0225936,40.6843597],[-74.0221325,40.68376767],[-74.02305575,40.68291695],[-74.02319463,40.6830005],[-74.02236824,40.68377992],[-74.02275899,40.68428445],[-74.0235416,40.68400298],[-74.02464809,40.68397857],[-74.02567184,40.68423646],[-74.02633404,40.6848017],[-74.02662819,40.6855268],[-74.02642577,40.68617534],[-74.02020527,40.69203392],[-74.01973308,40.69311411],[-74.01674756,40.69334337]]],[[[-74.00154173,40.69278596],[-74.00174362,40.69240675],[-74.00400796,40.6932082],[-74.00345348,40.69405163],[-74.00127015,40.69329606],[-74.00154173,40.69278596]]],[[[-74.00078295,40.69428652],[-74.00095868,40.69406908],[-74.00301394,40.69477784],[-74.00239803,40.69571165],[-74.00026872,40.6949658],[-74.00078295,40.69428652]]],[[[-73.99837761,40.6980633],[-73.99887117,40.69715758],[-74.00104903,40.69790824],[-74.00048769,40.69875778],[-73.99837761,40.6980633]]],[[[-74.04037135,40.70012264],[-74.03885398,40.6996259],[-74.03836269,40.69867314],[-74.0392165,40.69857148],[-74.03956714,40.6987741],[-74.03993272,40.69854442],[-74.04025555,40.69880482],[-74.03979339,40.69895623],[-74.04043303,40.69939988],[-74.04074714,40.70016093],[-74.04037135,40.70012264]]],[[[-73.99799958,40.69879769],[-74.0000184,40.69946605],[-73.99947464,40.70032278],[-73.99749898,40.69963887],[-73.99799958,40.69879769]]],[[[-73.99628992,40.70142518],[-73.99669769,40.70087698],[-73.9981388,40.70151879],[-73.99619227,40.70337714],[-73.99513827,40.70297411],[-73.99628992,40.70142518]]],[[[-73.99502135,40.70314787],[-73.99544564,40.70327531],[-73.99529347,40.70355407],[-73.99480038,40.70329196],[-73.99502135,40.70314787]]],[[[-73.99476934,40.70395289],[-73.99502926,40.7038082],[-73.99476934,40.70395289]]],[[[-73.98237341,40.70554335],[-73.98242287,40.70582206],[-73.98102391,40.70589891],[-73.98230205,40.70573698],[-73.98237341,40.70554335]]],[[[-73.9976102,40.72579714],[-73.98551686,40.72198522],[-73.98615766,40.72074493],[-73.9828036,40.719723],[-73.9840489,40.71730435],[-73.975129,40.71462116],[-73.97642873,40.71190903],[-73.9778995,40.71059987],[-73.98128648,40.71021835],[-73.9812458,40.70982621],[-73.98839064,40.70912695],[-73.98863658,40.70991206],[-73.98879718,40.70996661],[-73.99808351,40.70850962],[-74.00118685,40.70685983],[-74.00098277,40.70641671],[-74.00140667,40.70617939],[-74.0005924,40.70541008],[-74.00145437,40.7048733],[-74.00206143,40.70541701],[-74.00256965,40.70552358],[-74.00268513,40.70544925],[-74.0019707,40.70473787],[-74.00243071,40.70467786],[-74.00332307,40.7056286],[-74.00383328,40.70530324],[-74.00262896,40.70422295],[-74.0028669,40.70407523],[-74.00405666,40.70514736],[-74.00602049,40.7038749],[-74.00614107,40.70398097],[-74.00659592,40.7036859],[-74.00530413,40.70255987],[-74.00549428,40.70243138],[-74.00553546,40.70264552],[-74.00567522,40.70258407],[-74.00678502,40.70356813],[-74.00929073,40.70193007],[-74.00869964,40.70113987],[-74.00775549,40.701548],[-74.00759136,40.70132808],[-74.00853612,40.7009197],[-74.00834928,40.70066935],[-74.00862036,40.70055216],[-74.00958483,40.70183739],[-74.01118088,40.70145139],[-74.01110775,40.70127576],[-74.01128984,40.70124998],[-74.01081531,40.70020044],[-74.01115034,40.7008984],[-74.01135836,40.70085196],[-74.01133409,40.70056835],[-74.01150291,40.70081506],[-74.01172927,40.70077012],[-74.01163148,40.70045822],[-74.01185379,40.70073892],[-74.01208668,40.70068131],[-74.01196196,40.70003755],[-74.0123916,40.70062053],[-74.01259392,40.70057083],[-74.01261382,40.70010827],[-74.01290882,40.70052361],[-74.01310748,40.70050745],[-74.01311304,40.69977417],[-74.01327349,40.70049687],[-74.01348561,40.70047822],[-74.01353285,40.70010816],[-74.01367479,40.70012582],[-74.01355827,40.70093987],[-74.01395153,40.70099098],[-74.01422063,40.70011149],[-74.01415239,40.70057787],[-74.01428921,40.70064414],[-74.0146712,40.7002104],[-74.01432384,40.7006613],[-74.01464323,40.7008173],[-74.01509832,40.70033427],[-74.01467366,40.70083461],[-74.01502114,40.7009925],[-74.01514232,40.70084289],[-74.01579352,40.70134691],[-74.01714508,40.70270535],[-74.01766881,40.70359131],[-74.01787839,40.70353851],[-74.01767132,40.70360643],[-74.01757036,40.70418388],[-74.01779455,40.7042349],[-74.01781759,40.70393792],[-74.01795474,40.70397579],[-74.01784441,40.70424204],[-74.01844705,40.70416235],[-74.01865886,40.70442878],[-74.0174809,40.70466726],[-74.01811303,40.7045536],[-74.01888748,40.70472914],[-74.01934255,40.70609367],[-74.01912276,40.70697581],[-74.01863058,40.70713972],[-74.0188489,40.70697031],[-74.01853513,40.70691832],[-74.01819029,40.70782163],[-74.01885501,40.70804753],[-74.01777014,40.71283457],[-74.01780038,40.71234512],[-74.01662424,40.71215732],[-74.0166184,40.71275615],[-74.01632007,40.71340798],[-74.01757953,40.71359549],[-74.01772496,40.71307018],[-74.01671019,40.71862418],[-74.01321323,40.71831572],[-74.01306805,40.71892219],[-74.01290893,40.71973485],[-74.01345506,40.71980171],[-74.01341377,40.72001948],[-74.01637848,40.72037661],[-74.01630573,40.72072702],[-74.01299981,40.72033309],[-74.0128973,40.72086805],[-74.01569472,40.72120642],[-74.01562246,40.72154345],[-74.01316067,40.72125396],[-74.01311663,40.72147373],[-74.01361558,40.72158618],[-74.01253876,40.72150318],[-74.01165327,40.72587176],[-74.01516324,40.72631971],[-74.01514326,40.72671053],[-74.01097294,40.72609538],[-74.00403068,40.7255125],[-74.00281727,40.72836313],[-73.9976102,40.72579714]]]]}}]}