{"type":"FeatureCollection","features":[{"type":"Feature","properties":{"district":"19"},"geometry":{"type":"MultiPolygon","coordinates":[[[[-73.74461376,40.77894738],[-73.7442929,40.77874726],[-73.7445463,40.77885465],[-73.74481236,40.7785569],[-73.74506031,40.77914294],[-73.74461376,40.77894738]]],[[[-73.74672457,40.78030653],[-73.74559224,40.77958068],[-73.74581873,40.77966672],[-73.74682066,40.77937431],[-73.74724481,40.78007634],[-73.74672457,40.78030653]]],[[[-73.86788407,40.78736104],[-73.86923492,40.78596992],[-73.86809912,40.78745866],[-73.86788407,40.78736104]]],[[[-73.8204992,40.80101147],[-73.82040455,40.8006395],[-73.81980524,40.8008015],[-73.81921618,40.80059391],[-73.81720814,40.79920728],[-73.81683931,40.79910594],[-73.81657109,40.79941301],[-73.81681916,40.7991004],[-73.81645932,40.79934598],[-73.81668072,40.79906237],[-73.81611363,40.79860807],[-73.81577417,40.79902316],[-73.81607935,40.79857156],[-73.81367908,40.79754579],[-73.81369964,40.79707942],[-73.81335317,40.79766896],[-73.81363525,40.79704722],[-73.81350297,40.79694426],[-73.8132465,40.79721182],[-73.81287449,40.79717714],[-73.81254799,40.79804706],[-73.81224184,40.79812583],[-73.81179003,40.79802633],[-73.81182162,40.79745868],[-73.81160781,40.79737241],[-73.80636331,40.79639361],[-73.80623135,40.79681748],[-73.80633077,40.79639274],[-73.80588581,40.79647489],[-73.80539573,40.79617082],[-73.80531712,40.79650608],[-73.80533944,40.79616393],[-73.80467174,40.79616747],[-73.80462782,40.796365],[-73.80462441,40.79614269],[-73.80434826,40.79621409],[-73.80427354,40.79664126],[-73.80431139,40.79621288],[-73.80416536,40.79622901],[-73.80411498,40.79668082],[-73.80413645,40.79623423],[-73.80395475,40.79664939],[-73.803874,40.79631431],[-73.8036059,40.79663231],[-73.80361289,40.79642086],[-73.80348346,40.79647111],[-73.80339957,40.79691494],[-73.80346376,40.79647441],[-73.8032055,40.79707662],[-73.80326067,40.79670649],[-73.80298007,40.79670873],[-73.8029583,40.79640959],[-73.80257934,40.79629544],[-73.80101126,40.79652237],[-73.80087826,40.79633789],[-73.80062185,40.79642676],[-73.80029382,40.79625497],[-73.80012862,40.79644682],[-73.80018235,40.79626691],[-73.79968068,40.7961745],[-73.79960548,40.79633222],[-73.79789833,40.79555922],[-73.79758295,40.7959672],[-73.79787015,40.79555201],[-73.79673568,40.79520894],[-73.7964869,40.79564578],[-73.79670588,40.79519763],[-73.79649932,40.79511803],[-73.79459777,40.79493777],[-73.79438179,40.79479269],[-73.79456002,40.79474622],[-73.79432198,40.79434566],[-73.79431655,40.79358224],[-73.79464168,40.79310576],[-73.79458134,40.79270636],[-73.79484353,40.7925311],[-73.79494377,40.79175069],[-73.79375126,40.78906193],[-73.79338034,40.78957839],[-73.79323942,40.78953025],[-73.79362007,40.78899664],[-73.7928067,40.78878305],[-73.79235291,40.78890684],[-73.79028202,40.79031696],[-73.78568101,40.79034067],[-73.78383843,40.79064095],[-73.78253081,40.79127679],[-73.78434153,40.79174935],[-73.78174709,40.79113341],[-73.78107846,40.79167732],[-73.78077503,40.79299071],[-73.78083949,40.79327744],[-73.78158882,40.79346354],[-73.78163864,40.79330971],[-73.78166012,40.79348202],[-73.78072435,40.79333362],[-73.78079182,40.79403592],[-73.7810054,40.79438482],[-73.78190385,40.7949012],[-73.78310977,40.79491446],[-73.78331797,40.79475836],[-73.78321822,40.79496355],[-73.78200326,40.79497546],[-73.7815415,40.79565974],[-73.77980305,40.79620553],[-73.77936247,40.79668539],[-73.7775217,40.79664013],[-73.77617886,40.79609605],[-73.77402109,40.79404392],[-73.77363248,40.79274976],[-73.77236296,40.7915382],[-73.77213293,40.79017877],[-73.77063125,40.78846291],[-73.77082315,40.78798267],[-73.77173756,40.78746361],[-73.77426836,40.78675666],[-73.77438977,40.78685715],[-73.77423011,40.78706504],[-73.77501923,40.78739447],[-73.77633729,40.78848723],[-73.77480695,40.78697069],[-73.77426467,40.78665123],[-73.77407638,40.78591728],[-73.77160732,40.78299627],[-73.76833796,40.77963487],[-73.76815915,40.77963596],[-73.76820055,40.77944418],[-73.76716194,40.77978288],[-73.76702392,40.78008623],[-73.7667757,40.77981246],[-73.76816173,40.77939682],[-73.76709113,40.77684484],[-73.76510437,40.77379904],[-73.75960078,40.76872326],[-73.75893512,40.76833433],[-73.75864264,40.76735717],[-73.75787031,40.76694643],[-73.75739021,40.76716667],[-73.75641084,40.76651422],[-73.75650494,40.76634587],[-73.7560221,40.76646442],[-73.75493674,40.76609325],[-73.75410065,40.76534935],[-73.75377036,40.76530463],[-73.75380441,40.76506823],[-73.75340995,40.76469266],[-73.75219262,40.76383042],[-73.75107432,40.76176367],[-73.74861225,40.7609278],[-73.74753513,40.7598572],[-73.74655982,40.75933915],[-73.74628904,40.75905924],[-73.74642483,40.75820967],[-73.74627701,40.75779678],[-73.74611009,40.75767854],[-73.74577582,40.75784864],[-73.74463599,40.75689118],[-73.74465749,40.7565581],[-73.7445764,40.75690727],[-73.74486618,40.7572043],[-73.74575985,40.75791352],[-73.74604668,40.75780994],[-73.74631197,40.75805481],[-73.74606215,40.7587615],[-73.74635893,40.75929087],[-73.74749424,40.75997669],[-73.74854146,40.76138618],[-73.74887255,40.76166805],[-73.74922202,40.76157975],[-73.74917394,40.76137774],[-73.75004042,40.76157608],[-73.751231,40.7625225],[-73.75169523,40.76365183],[-73.75251093,40.76452738],[-73.75304571,40.76481723],[-73.75507211,40.76753311],[-73.75485916,40.76840425],[-73.75439388,40.76875346],[-73.75471392,40.76879514],[-73.75470594,40.76974152],[-73.75533279,40.77099815],[-73.75553499,40.77098553],[-73.75534216,40.77102215],[-73.75557333,40.77152913],[-73.75438075,40.77204127],[-73.75357001,40.77269462],[-73.75336692,40.77320785],[-73.7542415,40.77526683],[-73.75518575,40.77649807],[-73.75485801,40.7768964],[-73.75498194,40.7770438],[-73.75481323,40.77761903],[-73.75551738,40.77770405],[-73.75470837,40.77771781],[-73.75430184,40.77840611],[-73.75402624,40.77960388],[-73.75300813,40.78086608],[-73.75299839,40.78128949],[-73.75217911,40.78211743],[-73.75134808,40.78252873],[-73.75071952,40.78262703],[-73.7502077,40.78239927],[-73.74895635,40.78106653],[-73.74824911,40.78076478],[-73.74802763,40.78048315],[-73.74814452,40.78024038],[-73.74735791,40.77938331],[-73.74777893,40.779115],[-73.74716558,40.77885633],[-73.74679375,40.77903485],[-73.74686626,40.7788775],[-73.7456413,40.77782885],[-73.745348,40.77715345],[-73.7456877,40.77815298],[-73.7461103,40.77845508],[-73.74600996,40.77887657],[-73.74540777,40.77898246],[-73.74507677,40.77824908],[-73.74461729,40.77791927],[-73.74523986,40.77740243],[-73.74524624,40.77696286],[-73.74501727,40.77659781],[-73.74507512,40.7774521],[-73.74466521,40.7776835],[-73.74471768,40.77748705],[-73.74443102,40.77745615],[-73.74441592,40.77812325],[-73.74408443,40.77825546],[-73.7443345,40.77843137],[-73.74404091,40.7785901],[-73.74007974,40.7762088],[-73.73937599,40.77601367],[-73.73770284,40.77479359],[-73.72685941,40.76808506],[-73.72153325,40.76482319],[-73.72097588,40.76476016],[-73.7207127,40.76453219],[-73.72472879,40.76402945],[-73.72754698,40.76306234],[-73.73186169,40.76054165],[-73.73594957,40.7589476],[-73.74440887,40.75356334],[-73.74740742,40.75704108],[-73.74900206,40.75847999],[-73.75091653,40.75952689],[-73.75501664,40.76091224],[-73.75705813,40.76224584],[-73.75848075,40.76199474],[-73.75800132,40.76037987],[-73.76239511,40.759497],[-73.76176693,40.7572788],[-73.76185572,40.75651698],[-73.76831337,40.75545292],[-73.77210025,40.75448204],[-73.77446598,40.75357477],[-73.77580042,40.75327256],[-73.77638305,40.75318376],[-73.7794829,40.75348216],[-73.78637214,40.75249814],[-73.78786155,40.751847],[-73.79457727,40.75356301],[-73.79779221,40.75390347],[-73.80111444,40.75373384],[-73.80030039,40.7597023],[-73.80421232,40.76244776],[-73.81099349,40.76470474],[-73.81047194,40.76855663],[-73.81733897,40.76910295],[-73.82140472,40.76855923],[-73.82191034,40.77081791],[-73.82186566,40.77235234],[-73.82467393,40.772347],[-73.82467134,40.77451508],[-73.82433102,40.77674307],[-73.8258309,40.77591527],[-73.8280902,40.77599391],[-73.82928891,40.77425686],[-73.83073315,40.77287676],[-73.83501862,40.77019948],[-73.83668822,40.76890609],[-73.83795736,40.7675504],[-73.83935912,40.76540987],[-73.83913189,40.76599111],[-73.83969773,40.76639268],[-73.83959073,40.76711082],[-73.83993922,40.76706428],[-73.83990191,40.76682416],[-73.8403117,40.7662948],[-73.84252262,40.765775],[-73.84295916,40.76585472],[-73.84394748,40.76549488],[-73.84491333,40.76552839],[-73.84620024,40.76619634],[-73.84738263,40.76641941],[-73.84780575,40.76677295],[-73.84862314,40.76811397],[-73.8482363,40.76823549],[-73.84821484,40.76851955],[-73.84874544,40.76871175],[-73.84899656,40.76914831],[-73.84846617,40.76972644],[-73.84867153,40.77076157],[-73.84949403,40.77132862],[-73.84994242,40.77192719],[-73.85030397,40.7719382],[-73.85033809,40.77174367],[-73.85130108,40.77180636],[-73.85127038,40.77198553],[-73.85036147,40.77183075],[-73.85033411,40.77201761],[-73.84995163,40.7719583],[-73.84986902,40.77218306],[-73.85004066,40.7722246],[-73.84957161,40.7725611],[-73.8489762,40.77356167],[-73.8492153,40.77465486],[-73.84892989,40.77555708],[-73.8491924,40.77579047],[-73.84896803,40.77802221],[-73.84974741,40.77841405],[-73.84946905,40.77866378],[-73.84993353,40.77876912],[-73.84957155,40.77919284],[-73.84963969,40.77948328],[-73.85148755,40.77899298],[-73.8510134,40.77912196],[-73.85107946,40.77929776],[-73.85014017,40.77939099],[-73.84979304,40.77949768],[-73.8498172,40.77963035],[-73.85235268,40.77948067],[-73.85235662,40.77916933],[-73.85238833,40.7795289],[-73.84982102,40.77965134],[-73.84956325,40.77987908],[-73.85031474,40.78004154],[-73.85045656,40.77988828],[-73.85169028,40.77986751],[-73.85167099,40.78003523],[-73.84949381,40.78006583],[-73.84988932,40.78108913],[-73.85093646,40.78111958],[-73.84988728,40.78112151],[-73.8498366,40.78159962],[-73.84918709,40.78164181],[-73.84954774,40.78184108],[-73.84924676,40.78225637],[-73.85028521,40.78245945],[-73.85314993,40.78232394],[-73.85322331,40.78206053],[-73.85367974,40.78198574],[-73.85528243,40.78197538],[-73.85545063,40.78314308],[-73.85645379,40.78335093],[-73.85643994,40.78315752],[-73.85667691,40.78315009],[-73.85664951,40.78289232],[-73.85684129,40.78337136],[-73.85734052,40.78337127],[-73.85808318,40.78372408],[-73.85812542,40.78418349],[-73.85789221,40.78428163],[-73.85797958,40.78466878],[-73.8585252,40.78521352],[-73.85900171,40.78518675],[-73.859095,40.78543875],[-73.85907476,40.78523738],[-73.85910732,40.78546212],[-73.85925204,40.78547792],[-73.85923611,40.78530659],[-73.85946328,40.78549485],[-73.8593486,40.78502725],[-73.85950833,40.78553493],[-73.85899049,40.7854916],[-73.85912461,40.78585016],[-73.85858841,40.78614814],[-73.85868283,40.78653117],[-73.85812817,40.78705156],[-73.85681134,40.78667261],[-73.8562002,40.7871501],[-73.85617276,40.78749322],[-73.85593894,40.78768873],[-73.85345184,40.78782611],[-73.8528423,40.78821137],[-73.8528899,40.78834667],[-73.85438365,40.78832013],[-73.85480084,40.78860763],[-73.85447194,40.79025898],[-73.85265359,40.79112232],[-73.85288469,40.79156297],[-73.8537699,40.79233578],[-73.85368562,40.79401839],[-73.85276627,40.79438925],[-73.85263098,40.79494485],[-73.85242651,40.79460976],[-73.85159077,40.79408653],[-73.84906161,40.79336261],[-73.84884895,40.79350169],[-73.84907815,40.79414538],[-73.8487837,40.7945421],[-73.84887655,40.79513404],[-73.84870999,40.79541648],[-73.84624421,40.7961631],[-73.84557803,40.7960209],[-73.84527885,40.79544939],[-73.84459915,40.79491155],[-73.84354669,40.79491394],[-73.84333761,40.79502139],[-73.84330632,40.79550093],[-73.84284865,40.7952134],[-73.84328497,40.79617439],[-73.84280875,40.79541822],[-73.84225959,40.79558497],[-73.84286675,40.79692223],[-73.84216747,40.79561294],[-73.8419048,40.79562179],[-73.84142123,40.79514695],[-73.84129944,40.79621967],[-73.84059982,40.7968068],[-73.8401393,40.79687919],[-73.84041518,40.79767844],[-73.83920948,40.79784431],[-73.83842916,40.79837567],[-73.83789968,40.79850897],[-73.83919005,40.79777727],[-73.84025861,40.79758886],[-73.839971,40.79690564],[-73.83903677,40.79705248],[-73.83840083,40.79675526],[-73.83706499,40.7938511],[-73.83659079,40.79208255],[-73.83661599,40.79176277],[-73.83732085,40.79139279],[-73.83751567,40.79101213],[-73.83750359,40.79046166],[-73.83681815,40.79046991],[-73.83748191,40.7904345],[-73.83717545,40.78942731],[-73.83728049,40.78900987],[-73.83713433,40.78956403],[-73.83565808,40.78957267],[-73.8353315,40.78921274],[-73.83413567,40.78906614],[-73.83381317,40.78852268],[-73.83292937,40.78851811],[-73.83211813,40.78877204],[-73.83174256,40.7892344],[-73.83143767,40.78917835],[-73.83195118,40.78941477],[-73.83214915,40.79004344],[-73.83174332,40.79100611],[-73.83137353,40.79136894],[-73.83065972,40.79165021],[-73.82997327,40.79156351],[-73.82895036,40.79201402],[-73.82851893,40.79249424],[-73.82923175,40.79300229],[-73.82839743,40.7925523],[-73.82791414,40.79289359],[-73.82778457,40.79342079],[-73.82797172,40.79479437],[-73.82880963,40.79618377],[-73.82945158,40.79665896],[-73.83003294,40.79613549],[-73.82947072,40.79666794],[-73.82976586,40.79683256],[-73.83028847,40.79624226],[-73.83052228,40.79639497],[-73.83014859,40.79653365],[-73.83019226,40.79669396],[-73.82984974,40.79681101],[-73.82995664,40.79691231],[-73.82905967,40.79646251],[-73.82742423,40.79674867],[-73.82697092,40.79712828],[-73.82718214,40.79760953],[-73.82673856,40.79779625],[-73.82611822,40.79727143],[-73.82506497,40.79737578],[-73.82399357,40.79800963],[-73.82423319,40.79869524],[-73.82385948,40.79815414],[-73.82343323,40.79840651],[-73.82372348,40.79889924],[-73.82340872,40.79841781],[-73.82325371,40.79846954],[-73.82309603,40.7986833],[-73.82330552,40.79896287],[-73.82300263,40.79864229],[-73.82261102,40.79889319],[-73.82279271,40.79933978],[-73.82251916,40.79898774],[-73.82241227,40.79908891],[-73.82267788,40.79948614],[-73.82238755,40.79911289],[-73.82161789,40.79999199],[-73.82098072,40.80047811],[-73.82043246,40.80062786],[-73.8204992,40.80101147]]]]}}]}