{"type":"FeatureCollection","features":[{"type":"Feature","properties":{"district":"5"},"geometry":{"type":"MultiPolygon","coordinates":[[[[-73.9642123,40.74660432],[-73.96458318,40.7464544],[-73.9641598,40.74686555],[-73.9642123,40.74660432]]],[[[-73.95763577,40.74840635],[-73.95749344,40.74833646],[-73.95783954,40.748338],[-73.95768832,40.74853503],[-73.95763577,40.74840635]]],[[[-73.93556797,40.77191878],[-73.93556622,40.77162912],[-73.93585195,40.771716],[-73.93556797,40.77191878]]],[[[-73.94180033,40.76904693],[-73.94285529,40.76830349],[-73.94943176,40.76054862],[-73.95177822,40.75840255],[-73.95254079,40.75709531],[-73.9532201,40.75642684],[-73.95519503,40.75477452],[-73.95791452,40.75210985],[-73.96090586,40.74980198],[-73.96132845,40.74960096],[-73.96153855,40.74972312],[-73.96068558,40.75120194],[-73.96001132,40.75183152],[-73.95901617,40.75359506],[-73.95845837,40.75394924],[-73.95339141,40.75979676],[-73.95312452,40.76005276],[-73.95297788,40.75996211],[-73.95208632,40.76086215],[-73.95093735,40.7625705],[-73.94997192,40.76364603],[-73.94908629,40.76426403],[-73.94570357,40.76832793],[-73.94548114,40.76862478],[-73.94556302,40.76880178],[-73.9452451,40.76877327],[-73.94472478,40.76978627],[-73.94212675,40.7720347],[-73.94088707,40.77237252],[-73.94027461,40.77294744],[-73.94007666,40.77292619],[-73.94028208,40.77230141],[-73.94020022,40.77112831],[-73.94035533,40.77049657],[-73.94111779,40.76941441],[-73.94180033,40.76904693]]],[[[-73.93804641,40.78082954],[-73.93779449,40.78078126],[-73.93779944,40.78103134],[-73.93764632,40.78100122],[-73.93759895,40.78046784],[-73.93823774,40.78025908],[-73.93861201,40.78033896],[-73.93958379,40.77957647],[-73.9394933,40.77987369],[-73.93872803,40.78051074],[-73.93874423,40.78104388],[-73.93808213,40.78141844],[-73.93804641,40.78082954]]],[[[-73.95266137,40.78659502],[-73.94933171,40.78519313],[-73.9498239,40.78451557],[-73.94521309,40.78257075],[-73.94659059,40.78069197],[-73.94435789,40.77976109],[-73.94419493,40.78012779],[-73.94447434,40.7814706],[-73.94443827,40.78224095],[-73.94405439,40.78296436],[-73.94376005,40.78282893],[-73.94364824,40.78265616],[-73.94387076,40.78127303],[-73.94343877,40.77976324],[-73.94241378,40.78003054],[-73.94211321,40.77945579],[-73.94272973,40.77925725],[-73.94300247,40.77885288],[-73.94245741,40.77740747],[-73.9422805,40.77734744],[-73.94245546,40.77774786],[-73.94233542,40.77776882],[-73.94211982,40.77725557],[-73.94243404,40.77730046],[-73.94207419,40.77691785],[-73.94200267,40.77618532],[-73.94366432,40.77384076],[-73.94866416,40.76885762],[-73.95006979,40.76702509],[-73.95441826,40.7621841],[-73.9584912,40.7585459],[-73.95871908,40.75864023],[-73.95903681,40.75838378],[-73.95948744,40.75774747],[-73.9670365,40.760923],[-73.95349212,40.77949662],[-73.95509307,40.78017206],[-73.95325928,40.78268235],[-73.95648701,40.78404455],[-73.95556989,40.78529743],[-73.95716243,40.78597964],[-73.95626131,40.78722288],[-73.9546561,40.78655237],[-73.95416477,40.78722756],[-73.95266137,40.78659502]]]]}}]}