{"type":"FeatureCollection","features":[{"type":"Feature","properties":{"district":"28"},"geometry":{"type":"Polygon","coordinates":[[[-73.76380287,40.67378437],[-73.76435325,40.67185337],[-73.7670225,40.66690776],[-73.77105218,40.66733671],[-73.7753641,40.66739467],[-73.79295946,40.66613585],[-73.80162115,40.6662597],[-73.80174534,40.66587324],[-73.80574372,40.66615223],[-73.80614396,40.66491273],[-73.80845016,40.6644613],[-73.81207833,40.66301705],[-73.8141052,40.66279518],[-73.82296101,40.66386014],[-73.83270534,40.66540577],[-73.83811947,40.67662989],[-73.83794251,40.67679421],[-73.84012856,40.68114665],[-73.83697486,40.68198802],[-73.83378995,40.68369323],[-73.82945998,40.68540039],[-73.82862735,40.68565485],[-73.82417328,40.68623406],[-73.81554789,40.68959989],[-73.81340517,40.69104603],[-73.81354014,40.69121137],[-73.80929793,40.69234598],[-73.80236721,40.6978744],[-73.80028182,40.69872005],[-73.79868662,40.69971538],[-73.79679644,40.7005508],[-73.79466684,40.70127574],[-73.78749016,40.69142328],[-73.7861566,40.69255997],[-73.7828362,40.69389682],[-73.78078155,40.69102994],[-73.77977295,40.68928117],[-73.77789337,40.68991769],[-73.77661912,40.68836372],[-73.7757048,40.68761238],[-73.77240016,40.68527962],[-73.76974091,40.68378628],[-73.77014325,40.6831111],[-73.77232211,40.68149097],[-73.7746973,40.68048605],[-73.76380287,40.67378437]]]}}]}