{"type":"FeatureCollection","features":[{"type":"Feature","properties":{"district":"6"},"geometry":{"type":"Polygon","coordinates":[[[-73.95111102,40.79428504],[-73.97301487,40.76427888],[-73.97623389,40.76567463],[-73.97860169,40.76239607],[-73.9842823,40.76479182],[-73.98382186,40.76541847],[-73.98950498,40.76781538],[-73.98996383,40.76718747],[-73.99528368,40.7693227],[-73.9952623,40.76950297],[-73.99631327,40.76979884],[-73.99588004,40.77040058],[-73.99601693,40.77045485],[-73.99542474,40.77103162],[-73.99600176,40.77130747],[-73.9958999,40.7714503],[-73.99530566,40.771196],[-73.99492582,40.77151604],[-73.99707328,40.77254287],[-73.99687291,40.77281748],[-73.99477408,40.77192955],[-73.99444501,40.77237713],[-73.99622972,40.77312898],[-73.99612088,40.77327539],[-73.99416328,40.77248719],[-73.99383108,40.77293179],[-73.99413665,40.77290187],[-73.99437655,40.77303955],[-73.99429403,40.77315624],[-73.99502328,40.7734812],[-73.99505028,40.77329715],[-73.99624065,40.77378979],[-73.99606317,40.77388689],[-73.99617946,40.77398695],[-73.99609525,40.77408619],[-73.99393694,40.77317951],[-73.99262266,40.77497406],[-73.99226709,40.77511603],[-73.99205908,40.7754976],[-73.99238604,40.77555718],[-73.99092717,40.77756688],[-73.99039616,40.77758507],[-73.98886862,40.77969292],[-73.99155106,40.77957482],[-73.99141983,40.77975528],[-73.98888614,40.7798789],[-73.98891926,40.78022609],[-73.98807645,40.78165094],[-73.98546581,40.7853607],[-73.9861727,40.78606845],[-73.98711901,40.78521032],[-73.98612842,40.786239],[-73.98542932,40.78541394],[-73.98508114,40.78592194],[-73.98576566,40.78619627],[-73.98568287,40.78630979],[-73.98501696,40.78601424],[-73.98465508,40.78653474],[-73.98594956,40.78648711],[-73.98461943,40.78658602],[-73.97639952,40.79827321],[-73.97413148,40.79734379],[-73.97419503,40.79656301],[-73.97501633,40.79601761],[-73.97321056,40.79525203],[-73.9746156,40.79332481],[-73.97318657,40.79272105],[-73.97364908,40.79209413],[-73.96939098,40.7902958],[-73.96752995,40.79285857],[-73.96468541,40.79166403],[-73.95817297,40.80058254],[-73.94923327,40.796872],[-73.95111102,40.79428504]]]}}]}