{"type":"FeatureCollection","features":[{"type":"Feature","properties":{"district":"29"},"geometry":{"type":"Polygon","coordinates":[[[-73.8142321,40.69833388],[-73.81054217,40.69197246],[-73.81354014,40.69121137],[-73.81340517,40.69104603],[-73.81554789,40.68959989],[-73.82417328,40.68623406],[-73.82862735,40.68565485],[-73.82945998,40.68540039],[-73.83378995,40.68369323],[-73.83697486,40.68198802],[-73.84012856,40.68114665],[-73.8441501,40.68939329],[-73.84496028,40.68916263],[-73.84894129,40.69755685],[-73.84947764,40.69819581],[-73.84502473,40.69935938],[-73.84275664,40.7006577],[-73.84156378,40.7011006],[-73.83947815,40.70269019],[-73.83696238,40.70421245],[-73.83814222,40.7062589],[-73.83714703,40.70795705],[-73.83828429,40.70840936],[-73.84314625,40.70922346],[-73.84567198,40.70841037],[-73.84933156,40.70838833],[-73.85275371,40.70739715],[-73.85475504,40.70775897],[-73.85667714,40.70769187],[-73.85852214,40.72153379],[-73.85735886,40.72173818],[-73.85740374,40.72185872],[-73.85710806,40.72175717],[-73.85512406,40.72489672],[-73.85941988,40.72646484],[-73.8579809,40.72873545],[-73.86125629,40.72993908],[-73.86059995,40.73043749],[-73.84994465,40.73360705],[-73.84960405,40.73294184],[-73.84735411,40.73361129],[-73.84576538,40.73026192],[-73.84285558,40.73114091],[-73.84032703,40.72880712],[-73.83836161,40.72556184],[-73.83788789,40.72569743],[-73.83668304,40.72340394],[-73.83563482,40.72193385],[-73.8321034,40.71800632],[-73.83042902,40.71696277],[-73.82689479,40.71606488],[-73.82573935,40.71611506],[-73.82394406,40.7132333],[-73.82106198,40.71061271],[-73.8199004,40.7091963],[-73.81731533,40.70467731],[-73.8142321,40.69833388]]]}}]}