{"type":"FeatureCollection","features":[{"type":"Feature","properties":{"district":"23"},"geometry":{"type":"Polygon","coordinates":[[[-73.72966103,40.72048138],[-73.73216326,40.72005532],[-73.73233722,40.7203051],[-73.73314837,40.71958573],[-73.73642646,40.71805791],[-73.74935642,40.71514245],[-73.75531448,40.71356833],[-73.76702859,40.71318693],[-73.76901731,40.71231244],[-73.77065839,40.71081884],[-73.77144142,40.71039597],[-73.77629893,40.7090397],[-73.78330487,40.70794571],[-73.78535272,40.71228362],[-73.77357135,40.7151201],[-73.77681712,40.72185648],[-73.77774895,40.72284211],[-73.77955659,40.72581377],[-73.78302493,40.73313072],[-73.78565333,40.73227259],[-73.78925048,40.73987381],[-73.78657381,40.74061064],[-73.78667611,40.74082329],[-73.78032245,40.74255548],[-73.77360647,40.74359021],[-73.77159623,40.74411336],[-73.77587844,40.753261],[-73.77446598,40.75357477],[-73.77210025,40.75448204],[-73.76831337,40.75545292],[-73.76185572,40.75651698],[-73.76176693,40.7572788],[-73.76239511,40.759497],[-73.75800132,40.76037987],[-73.75848075,40.76199474],[-73.75705813,40.76224584],[-73.75473691,40.76078459],[-73.7512806,40.75966699],[-73.74965305,40.75889098],[-73.74847118,40.75807549],[-73.74740742,40.75704108],[-73.74440887,40.75356334],[-73.73594957,40.7589476],[-73.73186169,40.76054165],[-73.72754698,40.76306234],[-73.72472879,40.76402945],[-73.7207127,40.76453219],[-73.70782539,40.7562164],[-73.70163346,40.75249333],[-73.70002021,40.73923654],[-73.70147073,40.73751156],[-73.70766217,40.72783093],[-73.71049995,40.72722709],[-73.71693288,40.72638642],[-73.72567197,40.72403766],[-73.73032629,40.7221573],[-73.72966103,40.72048138]]]}}]}