{"type":"FeatureCollection","features":[{"type":"Feature","properties":{"district":"40"},"geometry":{"type":"Polygon","coordinates":[[[-73.93715847,40.6637526],[-73.93739694,40.66292038],[-73.93686393,40.65794217],[-73.93108323,40.65829592],[-73.93090355,40.65661036],[-73.9366847,40.65624182],[-73.93598888,40.64975222],[-73.94937004,40.64892305],[-73.94876123,40.643245],[-73.95763645,40.6426895],[-73.95476763,40.63962445],[-73.97159583,40.63161832],[-73.97066324,40.62659865],[-73.97623454,40.62597635],[-73.97802159,40.6355527],[-73.96803868,40.63665099],[-73.96822343,40.63729691],[-73.96753202,40.63761499],[-73.96872004,40.64389526],[-73.97381361,40.64333594],[-73.97499106,40.64950784],[-73.97466261,40.64990509],[-73.97382238,40.65017166],[-73.97392734,40.65031168],[-73.97286569,40.65067778],[-73.9719856,40.65068585],[-73.97170571,40.65110991],[-73.96188086,40.65488119],[-73.96308286,40.66213117],[-73.96283009,40.66267545],[-73.96224974,40.66319868],[-73.94546294,40.6642261],[-73.93715847,40.6637526]]]}}]}