{"type":"FeatureCollection","features":[{"type":"Feature","properties":{"district":"42"},"geometry":{"type":"MultiPolygon","coordinates":[[[[-73.86327471,40.58387685],[-73.86381239,40.583604],[-73.86449245,40.58361494],[-73.86772797,40.58166341],[-73.86896292,40.58169379],[-73.86925758,40.58190964],[-73.87050598,40.58334195],[-73.87061498,40.58491535],[-73.87115923,40.58687389],[-73.86981356,40.58946093],[-73.86849672,40.59008985],[-73.86635052,40.59189268],[-73.86430827,40.59141474],[-73.86327273,40.59090808],[-73.86274156,40.59036641],[-73.86272348,40.59007451],[-73.86149401,40.58854247],[-73.86125299,40.58798809],[-73.86167448,40.58614479],[-73.86327471,40.58387685]]],[[[-73.86952708,40.59871375],[-73.86967071,40.59668856],[-73.870209,40.59695423],[-73.86952708,40.59871375]]],[[[-73.87019491,40.59899641],[-73.87108142,40.59890115],[-73.87049412,40.60260445],[-73.87026281,40.60168122],[-73.87019491,40.59899641]]],[[[-73.85243336,40.5973334],[-73.85465863,40.59657839],[-73.85492649,40.59630166],[-73.85673364,40.59607576],[-73.86044421,40.59647191],[-73.86054978,40.59706302],[-73.86274821,40.59907121],[-73.86328663,40.59981004],[-73.86335999,40.6003222],[-73.86297506,40.60101827],[-73.8618719,40.60216433],[-73.86112814,40.60255033],[-73.86078169,40.6026084],[-73.86048884,40.60233935],[-73.85905914,40.60206143],[-73.85482596,40.6018672],[-73.85427387,40.60143044],[-73.8537209,40.60140067],[-73.85276838,40.60094885],[-73.85176045,40.59969751],[-73.85076748,40.59883944],[-73.85153123,40.59843394],[-73.85243336,40.5973334]]],[[[-73.86702905,40.60374339],[-73.86768194,40.60307077],[-73.86830808,40.60313916],[-73.86793505,40.60396114],[-73.86702607,40.60417158],[-73.86702905,40.60374339]]],[[[-73.84673651,40.60485301],[-73.84640851,40.60448457],[-73.84608059,40.60454459],[-73.84641368,40.60418742],[-73.84606999,40.6043123],[-73.84578322,40.60482161],[-73.84489298,40.60471631],[-73.84522812,40.60477084],[-73.845571,40.60454417],[-73.84518624,40.60446929],[-73.84517507,40.60469912],[-73.84459295,40.60482001],[-73.8444549,40.60468733],[-73.84481515,40.60462157],[-73.84496295,40.60437571],[-73.84492199,40.60368208],[-73.84550164,40.60385321],[-73.84515425,40.60373106],[-73.84562304,40.60351943],[-73.84619624,40.60418132],[-73.84629234,40.6040476],[-73.84666632,40.6041779],[-73.84638197,40.60441006],[-73.84664588,40.60458076],[-73.84745328,40.6044561],[-73.84786248,40.60470271],[-73.84776455,40.60490762],[-73.84673651,40.60485301]]],[[[-73.84827983,40.60543326],[-73.84795277,40.605355],[-73.84783682,40.60508497],[-73.84824868,40.60514235],[-73.84827983,40.60543326]]],[[[-73.84840341,40.60592083],[-73.8482611,40.60577935],[-73.84871964,40.60589028],[-73.84840341,40.60592083]]],[[[-73.83446266,40.60719253],[-73.83573588,40.60579319],[-73.83532613,40.60685236],[-73.83474777,40.60726497],[-73.83437387,40.60785151],[-73.83446266,40.60719253]]],[[[-73.86702399,40.60806818],[-73.86874318,40.60703518],[-73.86868469,40.60824116],[-73.86777502,40.60853949],[-73.86702399,40.60806818]]],[[[-73.86966443,40.60654012],[-73.87109331,40.60469417],[-73.87105657,40.60628509],[-73.8724558,40.60818553],[-73.87300123,40.61055546],[-73.87180083,40.61028041],[-73.8710387,40.60972358],[-73.87076009,40.6087054],[-73.86966443,40.60654012]]],[[[-73.85047625,40.61234222],[-73.84967145,40.61210998],[-73.84986139,40.61195965],[-73.84955038,40.61145681],[-73.84985688,40.6110128],[-73.8496047,40.61088395],[-73.84968264,40.61039734],[-73.84949618,40.61032941],[-73.8500933,40.61016212],[-73.84942149,40.60982206],[-73.84986876,40.60982324],[-73.84993174,40.60942854],[-73.85039249,40.60964681],[-73.85134775,40.60926679],[-73.85169868,40.60861153],[-73.85207814,40.60868908],[-73.852457,40.608238],[-73.85276909,40.60829654],[-73.85295254,40.60796283],[-73.85336755,40.60801068],[-73.85324221,40.60773066],[-73.85345112,40.60792155],[-73.85445878,40.60789579],[-73.85362641,40.60726471],[-73.85441957,40.60716837],[-73.85480411,40.60735408],[-73.85477543,40.6074906],[-73.85506643,40.60745987],[-73.85464017,40.60769458],[-73.85480521,40.60778542],[-73.85480345,40.60859621],[-73.85554952,40.60898251],[-73.85523374,40.60926199],[-73.85524869,40.60954327],[-73.85594678,40.60953737],[-73.8558904,40.60991005],[-73.85620209,40.61006772],[-73.85633308,40.61065115],[-73.85659999,40.61083447],[-73.85618685,40.61104553],[-73.85536097,40.61041405],[-73.85541695,40.61011534],[-73.85322338,40.61013804],[-73.85270386,40.610418],[-73.85196381,40.61024366],[-73.85199206,40.61055702],[-73.85263176,40.61098448],[-73.8526533,40.61117387],[-73.85245224,40.6109409],[-73.85172275,40.61094985],[-73.85196469,40.61119656],[-73.85174034,40.61156891],[-73.85142055,40.61177459],[-73.85105699,40.61146993],[-73.85086867,40.61179137],[-73.85095809,40.61196412],[-73.8506936,40.61198355],[-73.85047625,40.61234222]]],[[[-73.84473493,40.61396917],[-73.84357002,40.61367151],[-73.84346651,40.6135578],[-73.8436865,40.61336544],[-73.8434313,40.61297157],[-73.84264185,40.61317297],[-73.84183658,40.61268815],[-73.84150945,40.61231916],[-73.8415779,40.61182573],[-73.84070815,40.61163404],[-73.84067469,40.61144632],[-73.84034106,40.61204194],[-73.83980202,40.61236166],[-73.83911211,40.61246645],[-73.83871375,40.6119948],[-73.83879592,40.61279609],[-73.83817706,40.61308044],[-73.83738244,40.61300882],[-73.83623621,40.61227011],[-73.83697075,40.61111104],[-73.83752224,40.61085865],[-73.83746087,40.61015673],[-73.83781023,40.61005012],[-73.8381185,40.60948146],[-73.83832028,40.60950738],[-73.83851858,40.60923526],[-73.8388708,40.6079058],[-73.83900958,40.60790279],[-73.8391011,40.60831312],[-73.83960209,40.60806385],[-73.83977817,40.60828202],[-73.8400432,40.60823432],[-73.84009612,40.60896186],[-73.84049657,40.60855542],[-73.84043418,40.60826691],[-73.83935928,40.60761485],[-73.83999441,40.60753562],[-73.8399401,40.60739133],[-73.840513,40.60695949],[-73.8410132,40.60703389],[-73.84136278,40.60679402],[-73.84126735,40.60625229],[-73.84096922,40.60607883],[-73.84046124,40.60621172],[-73.84041972,40.60577091],[-73.84059798,40.60540342],[-73.84075174,40.60564293],[-73.84122845,40.60552789],[-73.84126815,40.60533566],[-73.84105541,40.60521145],[-73.84134161,40.6050922],[-73.84112953,40.60469025],[-73.84148879,40.60449846],[-73.84185811,40.60479381],[-73.8423523,40.60443983],[-73.84276148,40.60447457],[-73.84295831,40.60421419],[-73.84326616,40.60442399],[-73.84360284,40.60429626],[-73.8435639,40.60416802],[-73.84442729,40.60415637],[-73.844494,40.60435984],[-73.84361933,40.60439711],[-73.84339161,40.60468202],[-73.84270634,40.60463943],[-73.84266746,40.60507842],[-73.84243675,40.60484416],[-73.84193618,40.60493],[-73.8424315,40.6052864],[-73.84296602,40.60506921],[-73.84282386,40.60472611],[-73.84318521,40.60483877],[-73.8433484,40.60517549],[-73.84338248,40.60498646],[-73.84382295,40.60542931],[-73.84356547,40.60584878],[-73.84390053,40.60641647],[-73.84393939,40.60598388],[-73.8437085,40.60582333],[-73.84405417,40.60544565],[-73.84364711,40.60510539],[-73.843606,40.60470154],[-73.84379568,40.60450311],[-73.84406885,40.60456116],[-73.84460596,40.60503619],[-73.84469168,40.60614514],[-73.84433083,40.60581456],[-73.844112,40.60589118],[-73.84457708,40.60660326],[-73.84462397,40.60633092],[-73.84529689,40.60626773],[-73.84529759,40.60596649],[-73.84504975,40.6058604],[-73.84539489,40.60571024],[-73.84505052,40.60552711],[-73.84530733,40.60538966],[-73.84498383,40.60527385],[-73.84493906,40.60503253],[-73.84581506,40.6051608],[-73.84627027,40.60471168],[-73.8467461,40.60510478],[-73.84746743,40.60508248],[-73.84742791,40.60567276],[-73.8471764,40.60569809],[-73.84727266,40.6058227],[-73.8466716,40.60603793],[-73.84683155,40.60579816],[-73.84658452,40.60583077],[-73.84661198,40.60609261],[-73.84590992,40.6062923],[-73.84624922,40.60641125],[-73.84617769,40.60676236],[-73.84663403,40.60675612],[-73.84635327,40.60705006],[-73.84653149,40.60716708],[-73.84640265,40.60730166],[-73.84655563,40.60716711],[-73.84639933,40.607036],[-73.84668933,40.60687255],[-73.84663328,40.60659485],[-73.84684289,40.60672774],[-73.84689095,40.60657423],[-73.84622438,40.60671793],[-73.84644442,40.60622328],[-73.84766138,40.60591917],[-73.84884425,40.60636822],[-73.84964678,40.6060502],[-73.84962234,40.60666533],[-73.8493472,40.60674338],[-73.84921461,40.60654447],[-73.84875699,40.60651818],[-73.84850613,40.60684232],[-73.84806113,40.60672952],[-73.8482346,40.60709082],[-73.84754586,40.60697971],[-73.84698052,40.60751299],[-73.84682444,40.60806319],[-73.84620411,40.60791966],[-73.84559766,40.60832264],[-73.84486234,40.6080877],[-73.84550051,40.60851159],[-73.84627897,40.60827869],[-73.84582826,40.60861778],[-73.84595392,40.60882626],[-73.84555327,40.60933527],[-73.84574158,40.60973291],[-73.84538824,40.60978371],[-73.84567799,40.60995395],[-73.84542107,40.61013307],[-73.84573577,40.61042833],[-73.84552961,40.61047291],[-73.8457518,40.61076805],[-73.84552466,40.61079658],[-73.84573343,40.61144101],[-73.84499024,40.6109561],[-73.8448555,40.61102963],[-73.84525812,40.61149165],[-73.84507535,40.61233424],[-73.84570908,40.61287669],[-73.84530072,40.61307163],[-73.8454233,40.6131555],[-73.84525671,40.61326985],[-73.84532526,40.61354677],[-73.84564427,40.6136922],[-73.84473493,40.61396917]]],[[[-73.83370152,40.6209786],[-73.83401888,40.61438117],[-73.83542289,40.61461045],[-73.83551649,40.61494875],[-73.83585573,40.615209],[-73.83634403,40.61511934],[-73.83628444,40.61523226],[-73.8365081,40.61529584],[-73.83663626,40.61514553],[-73.83776702,40.61552223],[-73.83690989,40.61615095],[-73.8364403,40.6161704],[-73.83527378,40.61724722],[-73.83496223,40.61778031],[-73.83516892,40.61803702],[-73.8349608,40.61853293],[-73.83535651,40.61871309],[-73.83570733,40.61972917],[-73.83551236,40.61995811],[-73.83522938,40.61995819],[-73.83495815,40.61983929],[-73.8351327,40.61951325],[-73.83488923,40.61960686],[-73.83479652,40.61992447],[-73.83531202,40.62014537],[-73.83490437,40.62046938],[-73.83454606,40.62037356],[-73.83472321,40.62022005],[-73.83439059,40.6198536],[-73.83380076,40.61964562],[-73.83411211,40.61984685],[-73.83407164,40.62002596],[-73.83423039,40.61989531],[-73.8344733,40.62012185],[-73.83419931,40.62032096],[-73.83428022,40.62064765],[-73.83370152,40.6209786]]],[[[-73.83478032,40.62262549],[-73.83413865,40.62235218],[-73.83362242,40.62260264],[-73.83368215,40.62138131],[-73.83400743,40.62103484],[-73.83498716,40.6210113],[-73.83475105,40.62126181],[-73.8348606,40.62152621],[-73.83464425,40.62199682],[-73.83501827,40.6226811],[-73.83478032,40.62262549]]],[[[-73.85023091,40.62332082],[-73.85016365,40.6231341],[-73.84978514,40.62305134],[-73.84939486,40.62247989],[-73.84846372,40.6223657],[-73.84908081,40.62168875],[-73.84902326,40.62148239],[-73.84982293,40.62129926],[-73.85025706,40.62099901],[-73.85018976,40.62083439],[-73.85048934,40.62089249],[-73.85085108,40.62024716],[-73.85110164,40.62037608],[-73.85135148,40.6201398],[-73.85205856,40.62028551],[-73.85346709,40.62019768],[-73.85402212,40.6198681],[-73.85491445,40.62003376],[-73.85545638,40.61979747],[-73.85614274,40.61983148],[-73.85655156,40.61956732],[-73.85676349,40.62040566],[-73.85740171,40.62030367],[-73.85737439,40.62064704],[-73.85700061,40.62074787],[-73.85705952,40.62102186],[-73.85660444,40.62114288],[-73.85674631,40.62129927],[-73.85656816,40.62147875],[-73.85635024,40.62141617],[-73.85596286,40.62179703],[-73.85532982,40.62168818],[-73.85517131,40.62195934],[-73.85499898,40.6219186],[-73.85496895,40.62164598],[-73.85464356,40.621594],[-73.85451156,40.62079574],[-73.85358897,40.62046182],[-73.8518533,40.62056519],[-73.85166422,40.62080929],[-73.85140319,40.62080281],[-73.85129293,40.62183651],[-73.85236038,40.62297487],[-73.8518983,40.62279378],[-73.85179556,40.62334618],[-73.85133281,40.62346714],[-73.85089815,40.62327381],[-73.85024804,40.62358483],[-73.85023091,40.62332082]]],[[[-73.83359339,40.62359498],[-73.83363583,40.62395529],[-73.83359339,40.62359498]]],[[[-73.86212402,40.62399037],[-73.86223427,40.62381559],[-73.86249048,40.62391638],[-73.86271128,40.62342541],[-73.86303877,40.62330299],[-73.86350743,40.62340961],[-73.86377739,40.62395141],[-73.86343317,40.62389704],[-73.86343498,40.62420406],[-73.86314977,40.62395066],[-73.86264913,40.62395751],[-73.86244554,40.62422888],[-73.86206472,40.62432151],[-73.86212402,40.62399037]]],[[[-73.84589458,40.62497182],[-73.84476545,40.62485457],[-73.84477857,40.62423738],[-73.84383599,40.62429248],[-73.84389163,40.62381185],[-73.84322216,40.62365367],[-73.84293865,40.6233239],[-73.84333966,40.62336896],[-73.84428323,40.62295497],[-73.84536704,40.62304857],[-73.84509934,40.62342307],[-73.84553978,40.62407492],[-73.8452104,40.62407448],[-73.84520558,40.62435403],[-73.84580124,40.62459627],[-73.84599959,40.62503565],[-73.84589458,40.62497182]]],[[[-73.85777441,40.62482353],[-73.85790133,40.624846],[-73.85784134,40.62519091],[-73.85765509,40.62530956],[-73.85733486,40.62514564],[-73.85777441,40.62482353]]],[[[-73.84048473,40.62749529],[-73.83973161,40.62732476],[-73.83977377,40.62749754],[-73.83946701,40.62729384],[-73.83965194,40.62697503],[-73.84014684,40.62679119],[-73.84072122,40.62586475],[-73.8408439,40.6261379],[-73.84168672,40.62639653],[-73.84179067,40.62658925],[-73.84150723,40.62678144],[-73.84238179,40.62744079],[-73.84044646,40.62658622],[-73.84014537,40.62698639],[-73.84066904,40.62741364],[-73.84048473,40.62749529]]],[[[-73.86872915,40.61735679],[-73.86956239,40.61724709],[-73.87395306,40.61583942],[-73.87798071,40.61579829],[-73.87862189,40.61593538],[-73.87951577,40.61656152],[-73.8797239,40.61695959],[-73.87978056,40.61863064],[-73.87937556,40.61985788],[-73.87779099,40.62165224],[-73.8766263,40.62223073],[-73.87481387,40.62358719],[-73.86645484,40.62825539],[-73.86547078,40.62793596],[-73.86518786,40.62766281],[-73.86472766,40.62652554],[-73.86498193,40.62566071],[-73.86553589,40.62524199],[-73.86586582,40.62438983],[-73.86626906,40.62417432],[-73.8665086,40.62375401],[-73.86637584,40.62300361],[-73.86522936,40.62188828],[-73.86493256,40.62111496],[-73.8650083,40.62054668],[-73.86541856,40.61983603],[-73.86533877,40.61942171],[-73.86575831,40.61850145],[-73.86684867,40.61780931],[-73.86872915,40.61735679]]],[[[-73.84813977,40.6285427],[-73.84840687,40.62856898],[-73.84846848,40.62879314],[-73.84812594,40.62884044],[-73.84813977,40.6285427]]],[[[-73.84851994,40.63056102],[-73.84843274,40.63045941],[-73.84868438,40.63045904],[-73.84869374,40.63061271],[-73.84851994,40.63056102]]],[[[-73.85300015,40.63202284],[-73.85256653,40.63124405],[-73.8516674,40.63087051],[-73.85187979,40.63050832],[-73.85246665,40.63034251],[-73.85366231,40.63087608],[-73.8550927,40.63011015],[-73.85679676,40.62984147],[-73.85775997,40.6299414],[-73.85855836,40.63045829],[-73.85809625,40.63124991],[-73.85816367,40.63197386],[-73.85758487,40.63271618],[-73.85535472,40.63281226],[-73.85496742,40.63341655],[-73.85434617,40.63372263],[-73.85327819,40.63385184],[-73.85241247,40.6336435],[-73.85231335,40.63322025],[-73.85300015,40.63202284]]],[[[-73.84638459,40.63528577],[-73.8466244,40.63519423],[-73.84676272,40.63436149],[-73.84759945,40.63348729],[-73.84782653,40.63277974],[-73.84913692,40.63210939],[-73.85005,40.63217364],[-73.84988188,40.63409658],[-73.84885531,40.63543544],[-73.84827984,40.63747156],[-73.84764556,40.63827969],[-73.84667915,40.63873171],[-73.84604982,40.63846593],[-73.84544754,40.63737022],[-73.84427265,40.63669235],[-73.84501804,40.63568082],[-73.84638459,40.63528577]]],[[[-73.88828531,40.64672241],[-73.88864138,40.64707955],[-73.88851638,40.64736069],[-73.88820051,40.64714087],[-73.88828531,40.64672241]]],[[[-73.86077513,40.67280562],[-73.8603852,40.67125171],[-73.85763323,40.67165619],[-73.85568461,40.66386749],[-73.85842951,40.66345336],[-73.85761537,40.66011893],[-73.86030495,40.65963466],[-73.86317083,40.65827651],[-73.86269778,40.65761831],[-73.86300202,40.65748812],[-73.86327623,40.65694122],[-73.86300172,40.65665376],[-73.86299398,40.65636539],[-73.86319824,40.65633943],[-73.86264117,40.65566754],[-73.86086854,40.65507781],[-73.85722331,40.65027867],[-73.85755268,40.64993258],[-73.85783469,40.64830234],[-73.85837605,40.64727442],[-73.85716978,40.64367856],[-73.85894098,40.64321704],[-73.86201301,40.64288704],[-73.86331139,40.64229913],[-73.86531174,40.64075119],[-73.86670412,40.64002176],[-73.86628477,40.63947288],[-73.86681528,40.63996353],[-73.86732291,40.63987198],[-73.86867283,40.64092508],[-73.86991239,40.6432782],[-73.87001708,40.64407137],[-73.87061492,40.64485674],[-73.87119173,40.64530536],[-73.87257043,40.64557561],[-73.87933212,40.65462202],[-73.87971979,40.65437593],[-73.87676194,40.65056095],[-73.87318593,40.64544501],[-73.87344345,40.64467191],[-73.87327031,40.64390321],[-73.87297321,40.64383923],[-73.87275636,40.64324896],[-73.8719488,40.64239408],[-73.87084503,40.64055662],[-73.87008544,40.63984418],[-73.87007958,40.63921169],[-73.86989583,40.63893453],[-73.8679971,40.63811527],[-73.86960972,40.63708553],[-73.86920846,40.63746581],[-73.86955902,40.63794748],[-73.87167244,40.63708042],[-73.87255337,40.63649337],[-73.87347939,40.63628555],[-73.87515014,40.6370497],[-73.87711428,40.63864149],[-73.87835077,40.63887161],[-73.87930955,40.64006707],[-73.87989404,40.64036328],[-73.88025626,40.64097011],[-73.88048387,40.64097803],[-73.88073624,40.64156596],[-73.88029248,40.64140492],[-73.88002616,40.64171811],[-73.88006714,40.64200345],[-73.88139306,40.64234734],[-73.88224108,40.64345349],[-73.88214833,40.64374373],[-73.88341999,40.64452382],[-73.8848075,40.6439463],[-73.88557762,40.64404095],[-73.88743445,40.64593668],[-73.88766589,40.64650492],[-73.88772611,40.64714303],[-73.88751623,40.64741516],[-73.88764072,40.64780239],[-73.88863638,40.64802449],[-73.88924678,40.64874565],[-73.8900678,40.64932364],[-73.89033529,40.64934777],[-73.89013701,40.64917041],[-73.89034735,40.64903361],[-73.89125147,40.6500256],[-73.89255142,40.64891034],[-73.89690405,40.64609117],[-73.9001937,40.64908882],[-73.91147361,40.64178855],[-73.91314643,40.64103457],[-73.91680994,40.63868216],[-73.91955577,40.64118496],[-73.92037553,40.64877878],[-73.92231248,40.64865761],[-73.92251839,40.65058727],[-73.92358493,40.65051944],[-73.92284967,40.65246346],[-73.92077367,40.65255431],[-73.91996204,40.65278827],[-73.91377944,40.65678368],[-73.91402878,40.65700371],[-73.9011859,40.65891446],[-73.90357323,40.66812754],[-73.89986288,40.668684],[-73.90018401,40.66993895],[-73.89554342,40.67062579],[-73.89618968,40.6731482],[-73.86977607,40.67702721],[-73.86107192,40.67401981],[-73.86077513,40.67280562]]]]}}]}