{"type":"FeatureCollection","features":[{"type":"Feature","properties":{"district":"24"},"geometry":{"type":"Polygon","coordinates":[[[-73.78925048,40.73987381],[-73.78565333,40.73227259],[-73.78302493,40.73313072],[-73.77955659,40.72581377],[-73.77774895,40.72284211],[-73.77681712,40.72185648],[-73.77357135,40.7151201],[-73.78657529,40.71197249],[-73.78784678,40.71181083],[-73.78872546,40.71206678],[-73.78941412,40.71199753],[-73.79473052,40.71001246],[-73.79394796,40.70862335],[-73.80165726,40.70576148],[-73.80278721,40.7077158],[-73.81058878,40.70549607],[-73.80887409,40.70181507],[-73.80904927,40.70183561],[-73.80867426,40.70026099],[-73.81418146,40.69858543],[-73.81406989,40.6983308],[-73.8142321,40.69833388],[-73.81491099,40.69956616],[-73.81800626,40.70599826],[-73.82001845,40.70937705],[-73.82120732,40.7107556],[-73.82394406,40.7132333],[-73.82573935,40.71611506],[-73.82689479,40.71606488],[-73.83042902,40.71696277],[-73.8321034,40.71800632],[-73.83563482,40.72193385],[-73.83668304,40.72340394],[-73.83788789,40.72569743],[-73.83836161,40.72556184],[-73.84032703,40.72880712],[-73.84285558,40.73114091],[-73.84576538,40.73026192],[-73.84735411,40.73361129],[-73.84960405,40.73294184],[-73.84994465,40.73360705],[-73.86059995,40.73043749],[-73.86125629,40.72993908],[-73.86574601,40.73153899],[-73.86850101,40.733018],[-73.85632261,40.73650613],[-73.85134605,40.73758845],[-73.84863623,40.73855695],[-73.83963202,40.74278716],[-73.83705306,40.74345896],[-73.8359253,40.74350057],[-73.83586132,40.74322798],[-73.83115549,40.74234092],[-73.83133868,40.73917063],[-73.83090597,40.73913276],[-73.83099423,40.73856549],[-73.83113452,40.73856191],[-73.83053551,40.73752019],[-73.82946752,40.73702448],[-73.82809153,40.73708318],[-73.82796455,40.7385032],[-73.82701222,40.73856901],[-73.82633788,40.73882843],[-73.82556079,40.73945436],[-73.8249744,40.73944043],[-73.82485496,40.73982936],[-73.82006431,40.73882814],[-73.81693284,40.73838951],[-73.81633109,40.7384464],[-73.81607677,40.73885793],[-73.81518583,40.73857117],[-73.81323678,40.73844062],[-73.79594853,40.73781372],[-73.79584803,40.73807468],[-73.78925048,40.73987381]]]}}]}