{"type":"FeatureCollection","features":[{"type":"Feature","properties":{"district":"43"},"geometry":{"type":"Polygon","coordinates":[[[-74.00046945,40.63733632],[-73.99980742,40.6369355],[-74.00338868,40.63453836],[-74.00117793,40.63321029],[-74.00355411,40.63092294],[-73.99507815,40.62580674],[-73.99464973,40.62569718],[-73.99489281,40.62546179],[-73.99398197,40.6251414],[-73.97905796,40.61612584],[-73.97963822,40.61556455],[-73.97740816,40.61421811],[-73.97920805,40.61249723],[-73.97954399,40.61270748],[-73.97610702,40.59449952],[-73.98463965,40.59355218],[-73.98601937,40.59444605],[-73.9896215,40.59098199],[-73.99256529,40.5927619],[-73.99093182,40.59433279],[-73.9931342,40.59566104],[-74.00154542,40.60144199],[-73.99471922,40.60800469],[-74.00107299,40.61183052],[-74.00091117,40.61238796],[-73.99774601,40.61543577],[-73.99970876,40.61662028],[-73.99927191,40.61817725],[-73.99902697,40.61802903],[-73.99728485,40.61971135],[-74.0105003,40.6276928],[-74.00633871,40.63169363],[-74.0107422,40.63435655],[-74.01016057,40.63491234],[-74.01236365,40.63624214],[-74.01294382,40.63568597],[-74.01514575,40.63701461],[-74.00695079,40.64489724],[-74.00034122,40.64090532],[-74.00267214,40.63866701],[-74.00046945,40.63733632]]]}}]}