{"type":"FeatureCollection","features":[{"type":"Feature","properties":{"district":"11"},"geometry":{"type":"Polygon","coordinates":[[[-73.84004475,40.90057496],[-73.84960676,40.89847126],[-73.84862931,40.89591379],[-73.85039938,40.89552387],[-73.84978973,40.89392826],[-73.85063762,40.89364334],[-73.84983901,40.89154366],[-73.84895038,40.89173853],[-73.84863394,40.89089761],[-73.84909729,40.89000102],[-73.85198098,40.89092141],[-73.85315308,40.88879989],[-73.85602979,40.88971351],[-73.85641353,40.88900815],[-73.86303842,40.89111255],[-73.86620662,40.88537861],[-73.86605231,40.88428704],[-73.86874367,40.87882319],[-73.86940538,40.87818942],[-73.87019107,40.87605326],[-73.87056193,40.87151078],[-73.87042128,40.86536108],[-73.87109783,40.86545366],[-73.87276529,40.86638528],[-73.8750025,40.86706815],[-73.87603874,40.86850615],[-73.87710526,40.86903885],[-73.87821228,40.86884507],[-73.87926102,40.86797172],[-73.87964653,40.86801864],[-73.87989454,40.86837174],[-73.88309382,40.86660219],[-73.88451321,40.86834026],[-73.88527747,40.86999945],[-73.88551639,40.87018498],[-73.88625054,40.86947535],[-73.88778677,40.87074085],[-73.88561377,40.87226938],[-73.88477518,40.87427022],[-73.888557,40.87519731],[-73.88985257,40.87229522],[-73.89024543,40.87192255],[-73.89241936,40.87170623],[-73.89444825,40.87072346],[-73.8952103,40.87030826],[-73.89656061,40.8685652],[-73.89891854,40.86965857],[-73.89778962,40.87085664],[-73.89792833,40.87254046],[-73.89851735,40.87384831],[-73.90011386,40.87431248],[-73.90043258,40.87498508],[-73.89981109,40.87639883],[-73.89904957,40.87710699],[-73.89813492,40.87843122],[-73.89957123,40.87877586],[-73.89904032,40.88154351],[-73.90050104,40.88040122],[-73.90144123,40.88091915],[-73.90357476,40.87856326],[-73.90442604,40.87645526],[-73.90615159,40.87710482],[-73.90666385,40.87677046],[-73.90802213,40.87828798],[-73.9083557,40.87791831],[-73.90949832,40.87877673],[-73.91033194,40.87903805],[-73.91148913,40.87901886],[-73.9120583,40.87811932],[-73.91484624,40.87666671],[-73.91578516,40.87571695],[-73.91726028,40.875809],[-73.91775669,40.87566363],[-73.91978381,40.87642144],[-73.92206724,40.87857241],[-73.92273788,40.87890545],[-73.92451796,40.87905866],[-73.92490327,40.87888837],[-73.92380526,40.8803249],[-73.9203928,40.8876485],[-73.91781784,40.89441643],[-73.91789963,40.89466901],[-73.91694161,40.89664455],[-73.91518456,40.90158428],[-73.91543173,40.90181268],[-73.9150145,40.9030813],[-73.91459039,40.904119],[-73.91418544,40.90414039],[-73.91286858,40.90753548],[-73.91311022,40.90784583],[-73.91264932,40.90807081],[-73.91149191,40.91223377],[-73.91143213,40.91282383],[-73.91165472,40.91341785],[-73.9111079,40.91436458],[-73.91071204,40.91465916],[-73.91033257,40.91553278],[-73.90245664,40.91295893],[-73.89725326,40.91165552],[-73.88303257,40.90733363],[-73.85946779,40.90051721],[-73.85907692,40.90100799],[-73.85937697,40.90156522],[-73.85902704,40.90144491],[-73.85886401,40.9017117],[-73.8594639,40.90193388],[-73.85957883,40.90244084],[-73.85926433,40.90266948],[-73.85872825,40.90228897],[-73.85816,40.90230571],[-73.85796932,40.90285091],[-73.85755968,40.9029178],[-73.85711091,40.90364953],[-73.85699157,40.90458421],[-73.85743458,40.90484154],[-73.85717766,40.90528654],[-73.85665437,40.905055],[-73.85601023,40.90530598],[-73.85601161,40.90548208],[-73.85650252,40.90556385],[-73.85692398,40.90597417],[-73.85681014,40.90615583],[-73.85580464,40.90626436],[-73.85513792,40.90686689],[-73.85423777,40.90703287],[-73.85374104,40.90778792],[-73.85383361,40.90797435],[-73.85471078,40.90800631],[-73.8549111,40.90835487],[-73.85458941,40.9089395],[-73.85360062,40.90960674],[-73.85295618,40.91035304],[-73.85258475,40.91031062],[-73.85266036,40.91001519],[-73.85227452,40.9098541],[-73.85144754,40.91044967],[-73.85107116,40.91037152],[-73.85347522,40.90753029],[-73.85092059,40.90661649],[-73.85017317,40.90750787],[-73.84708033,40.90615673],[-73.84481887,40.90552995],[-73.84489265,40.90419087],[-73.84138689,40.90417274],[-73.8408119,40.9017051],[-73.84004475,40.90057496]]]}}]}