{"type":"FeatureCollection","features":[{"type":"Feature","properties":{"district":"4"},"geometry":{"type":"MultiPolygon","coordinates":[[[[-73.96236597,40.72420906],[-73.96200745,40.7239919],[-73.96207272,40.7238803],[-73.9624679,40.72413158],[-73.96236597,40.72420906]]],[[[-73.96128451,40.73015906],[-73.96254934,40.72974407],[-73.96225229,40.72998557],[-73.96128451,40.73015906]]],[[[-73.96197039,40.73157711],[-73.96167447,40.73148125],[-73.96365939,40.73124981],[-73.96369938,40.73143662],[-73.96197039,40.73157711]]],[[[-73.96051733,40.74410534],[-73.96067205,40.74405122],[-73.96051733,40.74410534]]],[[[-73.9642979,40.76468199],[-73.9670365,40.760923],[-73.95948744,40.75774747],[-73.95871908,40.75864023],[-73.9584912,40.7585459],[-73.96065638,40.75592315],[-73.96162928,40.75515238],[-73.96532406,40.75104772],[-73.97078835,40.74440622],[-73.97094063,40.74447144],[-73.97111438,40.74420436],[-73.97070318,40.74399049],[-73.97118194,40.74410323],[-73.97135753,40.74383846],[-73.97120546,40.74377151],[-73.97188889,40.74272482],[-73.9717406,40.74266358],[-73.97195956,40.74233792],[-73.97228992,40.74072104],[-73.97221685,40.74030763],[-73.97265744,40.73922275],[-73.97248994,40.73580328],[-73.97286939,40.73577086],[-73.97441386,40.73641439],[-73.97445975,40.73629402],[-73.97402692,40.73612577],[-73.97446647,40.73627846],[-73.97450376,40.73606459],[-73.97414062,40.73595566],[-73.97450488,40.73604228],[-73.9745146,40.7358946],[-73.97424982,40.73579718],[-73.97446538,40.73566689],[-73.97305699,40.73517745],[-73.97280662,40.73552392],[-73.97293032,40.73560761],[-73.97276308,40.73550509],[-73.97294521,40.73506517],[-73.97329895,40.73524236],[-73.97329627,40.73504086],[-73.97354473,40.73494433],[-73.97444065,40.73531677],[-73.97395905,40.73342117],[-73.97367628,40.73320593],[-73.97386811,40.73306569],[-73.97341322,40.73128242],[-73.9719634,40.73000038],[-73.97147995,40.72924958],[-73.97162697,40.72662845],[-73.98255629,40.73135013],[-73.97946317,40.73539193],[-73.97625127,40.74002333],[-73.97861648,40.74102186],[-73.97676068,40.7434725],[-73.98065843,40.74511583],[-73.98020971,40.74573336],[-73.98183365,40.74641659],[-73.98272687,40.74518041],[-73.98594857,40.74653585],[-73.98549602,40.74715233],[-73.9881771,40.74828882],[-73.98749102,40.75215894],[-73.98533869,40.75869383],[-73.9850497,40.75857363],[-73.98143352,40.76359436],[-73.97860169,40.76239607],[-73.97623389,40.76567463],[-73.97301487,40.76427888],[-73.95716243,40.78597964],[-73.95556989,40.78529743],[-73.95648701,40.78404455],[-73.95325928,40.78268235],[-73.95509307,40.78017206],[-73.95349212,40.77949662],[-73.9642979,40.76468199]]]]}}]}