{"type":"FeatureCollection","features":[{"type":"Feature","properties":{"district":"16"},"geometry":{"type":"Polygon","coordinates":[[[-73.91107727,40.84509613],[-73.91198635,40.8430571],[-73.9117511,40.84286059],[-73.90514894,40.8425472],[-73.90501515,40.8424047],[-73.90515961,40.84101164],[-73.90570581,40.8397228],[-73.90538358,40.83976898],[-73.90264749,40.8388735],[-73.89996793,40.83765476],[-73.90185606,40.83462213],[-73.90018333,40.83419156],[-73.90187803,40.8317069],[-73.90343501,40.83221638],[-73.90553117,40.82910413],[-73.90657084,40.82945222],[-73.90870859,40.82406664],[-73.91394464,40.82572043],[-73.91551524,40.82470706],[-73.91608783,40.82483785],[-73.92265261,40.82049432],[-73.92294021,40.82059754],[-73.92450953,40.81988883],[-73.92523941,40.81992496],[-73.92592178,40.82019896],[-73.92722409,40.82170904],[-73.92691531,40.82245737],[-73.92976069,40.82658242],[-73.93068562,40.8270606],[-73.93095939,40.82833709],[-73.93307251,40.82815615],[-73.93360592,40.83278953],[-73.93314307,40.83519413],[-73.9326562,40.83647348],[-73.93051572,40.83993364],[-73.93048325,40.84046006],[-73.92919408,40.84281842],[-73.92861575,40.84467687],[-73.92683023,40.84728976],[-73.9246538,40.84978504],[-73.9239479,40.85122179],[-73.92174035,40.85422124],[-73.92154262,40.85411688],[-73.92134208,40.85431744],[-73.92151544,40.85451006],[-73.9208007,40.85538081],[-73.92030027,40.85524637],[-73.92052653,40.85568667],[-73.91956621,40.85684018],[-73.91776041,40.8587081],[-73.91720665,40.85892892],[-73.91422918,40.86248856],[-73.91266095,40.86185164],[-73.91585322,40.85937768],[-73.91681688,40.85817975],[-73.91656578,40.85811425],[-73.91720801,40.8568383],[-73.91718821,40.85591882],[-73.91673046,40.85555742],[-73.9169852,40.85498288],[-73.91678983,40.85487288],[-73.91781854,40.85366017],[-73.9179917,40.85287247],[-73.91819736,40.85308404],[-73.91909637,40.85267462],[-73.92125977,40.85002198],[-73.92177408,40.85012827],[-73.92167857,40.85026705],[-73.92212733,40.85048463],[-73.92442424,40.84772789],[-73.92592859,40.84494896],[-73.92259626,40.84486744],[-73.92265185,40.84474516],[-73.91732495,40.84505748],[-73.91107727,40.84509613]]]}}]}