{"type":"FeatureCollection","features":[{"type":"Feature","properties":{"district":"26"},"geometry":{"type":"Polygon","coordinates":[[[-73.90782817,40.75699926],[-73.90901259,40.75427981],[-73.91023125,40.75297652],[-73.9069089,40.75328485],[-73.90357128,40.75184044],[-73.90087073,40.75206227],[-73.90076337,40.75146964],[-73.90106301,40.75078321],[-73.89922766,40.75000253],[-73.89908385,40.75027248],[-73.89673438,40.75052043],[-73.89570248,40.74856607],[-73.89127018,40.74142825],[-73.88770199,40.73429132],[-73.88910319,40.7345924],[-73.89278406,40.73449596],[-73.89492422,40.73500772],[-73.898308,40.73519418],[-73.90018211,40.73478233],[-73.9006625,40.7344226],[-73.90518058,40.72895658],[-73.91257188,40.72323963],[-73.91655468,40.72200551],[-73.92127506,40.72308634],[-73.92231554,40.72038595],[-73.92387879,40.71999049],[-73.92424365,40.7214295],[-73.9251979,40.7223999],[-73.92451734,40.72355224],[-73.92216244,40.72370883],[-73.92073356,40.72330981],[-73.92037064,40.72368111],[-73.9222862,40.72418129],[-73.92419218,40.72427574],[-73.92490316,40.72450658],[-73.92655664,40.72566907],[-73.92855676,40.72784483],[-73.92923486,40.72826017],[-73.931298,40.72872544],[-73.93453176,40.72910481],[-73.93644564,40.72967215],[-73.93804479,40.73050997],[-73.93911055,40.73137981],[-73.9399105,40.73327633],[-73.94016539,40.73348637],[-73.94001807,40.73354044],[-73.94006709,40.73376215],[-73.94086499,40.73507041],[-73.94162473,40.73584144],[-73.9459475,40.73753313],[-73.94257886,40.73881602],[-73.94280384,40.73886155],[-73.94255613,40.73902087],[-73.94146173,40.73924858],[-73.94050889,40.74011394],[-73.94036159,40.74033535],[-73.94056145,40.74041832],[-73.93910874,40.74261704],[-73.93866992,40.74253408],[-73.93858787,40.74293088],[-73.94001923,40.74320827],[-73.94014859,40.74283244],[-73.93965302,40.74273109],[-73.94118817,40.74029022],[-73.94183505,40.73969262],[-73.94259667,40.73939515],[-73.94270609,40.73911506],[-73.94548237,40.73820703],[-73.94715087,40.73790012],[-73.95138071,40.73933648],[-73.95379879,40.73981987],[-73.95741471,40.73955658],[-73.9607258,40.73808017],[-73.96216506,40.73827254],[-73.96213146,40.73845107],[-73.9626082,40.73879554],[-73.96220917,40.74000618],[-73.96179048,40.74001313],[-73.96124698,40.7404236],[-73.9619375,40.74079488],[-73.96180397,40.74109767],[-73.96121863,40.74110786],[-73.96107393,40.7416945],[-73.96136487,40.7418372],[-73.96110815,40.74182803],[-73.96155253,40.74199326],[-73.9611903,40.74264486],[-73.96054252,40.74346639],[-73.95977471,40.74350468],[-73.95970598,40.74385865],[-73.96012375,40.74393921],[-73.96005766,40.74380368],[-73.96056857,40.74402967],[-73.95963225,40.74393463],[-73.95939107,40.74428332],[-73.96012601,40.74444394],[-73.95923369,40.74431004],[-73.95877537,40.7445556],[-73.95944241,40.74460422],[-73.9588792,40.74462433],[-73.95875855,40.74494501],[-73.95966591,40.7451703],[-73.95849389,40.74498786],[-73.95845252,40.74511901],[-73.95925084,40.74531553],[-73.95933787,40.74550761],[-73.95905936,40.74575337],[-73.95850227,40.74576497],[-73.95914372,40.7460006],[-73.95704097,40.74892035],[-73.95485394,40.74804079],[-73.95318382,40.74773481],[-73.95305376,40.74808749],[-73.95478388,40.74842769],[-73.95632163,40.74908155],[-73.9560116,40.74937399],[-73.95622199,40.7495173],[-73.95600065,40.7493837],[-73.95576039,40.74959666],[-73.95620137,40.74968563],[-73.95546437,40.74967421],[-73.95534929,40.75001386],[-73.95513239,40.74992642],[-73.95520275,40.74967654],[-73.95506653,40.74963273],[-73.95451585,40.7505867],[-73.95465,40.75083104],[-73.95449858,40.75122584],[-73.95131438,40.75457955],[-73.94471461,40.76287884],[-73.93914473,40.76080162],[-73.93700479,40.76423995],[-73.93158049,40.76170595],[-73.93425021,40.75869513],[-73.92815373,40.75583586],[-73.92565361,40.75892217],[-73.92246264,40.75742318],[-73.9237044,40.75588004],[-73.91892348,40.75363612],[-73.91650535,40.75389159],[-73.91446451,40.75367641],[-73.91068364,40.75831898],[-73.90906578,40.75756516],[-73.90699706,40.76014456],[-73.90632327,40.75983682],[-73.90826756,40.757195],[-73.90782817,40.75699926]]]}}]}