{"type":"FeatureCollection","features":[{"type":"Feature","properties":{"district":"2"},"geometry":{"type":"MultiPolygon","coordinates":[[[[-73.96715101,40.71831613],[-73.96656242,40.71801587],[-73.96730741,40.71831307],[-73.96718244,40.71848306],[-73.96715101,40.71831613]]],[[[-73.96644323,40.7192432],[-73.96574267,40.71870688],[-73.96663601,40.71913014],[-73.96651454,40.71943097],[-73.96644323,40.7192432]]],[[[-73.96503278,40.72037707],[-73.96567656,40.72067896],[-73.96503278,40.72037707]]],[[[-73.96483434,40.72079555],[-73.96436108,40.72047724],[-73.965031,40.72079084],[-73.96485304,40.7209528],[-73.96483434,40.72079555]]],[[[-73.96402618,40.72088089],[-73.96437504,40.72099255],[-73.96402618,40.72088089]]],[[[-73.9642407,40.72061223],[-73.9649506,40.72142418],[-73.9642407,40.72061223]]],[[[-73.98278317,40.74520283],[-73.98183365,40.74641659],[-73.98020971,40.74573336],[-73.98065843,40.74511583],[-73.97676068,40.7434725],[-73.97861648,40.74102186],[-73.97625127,40.74002333],[-73.97946317,40.73539193],[-73.98255629,40.73135013],[-73.97162697,40.72662845],[-73.97331749,40.71942322],[-73.975129,40.71462116],[-73.9840489,40.71730435],[-73.9828036,40.719723],[-73.98615766,40.72074493],[-73.98551686,40.72198522],[-73.99677176,40.72543194],[-74.00281727,40.72836313],[-74.00141242,40.73106526],[-73.99634237,40.73804523],[-73.99311953,40.73669105],[-73.99222485,40.73791698],[-73.9903307,40.73713186],[-73.9891258,40.74135773],[-73.9879824,40.74087265],[-73.98569571,40.74400764],[-73.98729805,40.7446815],[-73.98594857,40.74653585],[-73.98278317,40.74520283]]]]}}]}