{"type":"FeatureCollection","features":[{"type":"Feature","properties":{"district":"17"},"geometry":{"type":"MultiPolygon","coordinates":[[[[-73.89680883,40.79580845],[-73.89693873,40.79563587],[-73.8979684,40.79564484],[-73.89919434,40.79650246],[-73.89788253,40.79711653],[-73.8971315,40.79679808],[-73.89678526,40.79632917],[-73.89680883,40.79580845]]],[[[-73.9083808,40.79948704],[-73.90796077,40.79928345],[-73.9083808,40.79948704]]],[[[-73.90765853,40.7994201],[-73.9081021,40.79953965],[-73.90765853,40.7994201]]],[[[-73.90638977,40.80109079],[-73.90658588,40.80110748],[-73.90638977,40.80109079]]],[[[-73.89833036,40.80241282],[-73.89646669,40.80079047],[-73.89864039,40.79910117],[-73.90021005,40.79926416],[-73.89978739,40.79950955],[-73.89971564,40.80079881],[-73.90003736,40.80090874],[-73.89948919,40.80090112],[-73.89938749,40.80193567],[-73.89833036,40.80241282]]],[[[-73.90401681,40.80347098],[-73.90414899,40.80345565],[-73.90401681,40.80347098]]],[[[-73.90385084,40.80357428],[-73.90385084,40.80357428]]],[[[-73.90366539,40.80370246],[-73.90366539,40.80370246]]],[[[-73.90331727,40.80377528],[-73.90331727,40.80377528]]],[[[-73.90297312,40.80393677],[-73.9030861,40.80399709],[-73.90297312,40.80393677]]],[[[-73.90270973,40.80416366],[-73.90290469,40.80413905],[-73.90270973,40.80416366]]],[[[-73.8666737,40.83924275],[-73.86597815,40.835205],[-73.8668062,40.83483702],[-73.86999425,40.83565041],[-73.87379507,40.83598572],[-73.87389041,40.83315616],[-73.8732266,40.82990617],[-73.8772993,40.82874277],[-73.87917067,40.82858218],[-73.87806436,40.8238344],[-73.88438504,40.82295137],[-73.8824478,40.81926832],[-73.87806283,40.81618263],[-73.8766346,40.81571151],[-73.87673186,40.8153865],[-73.87209717,40.81373802],[-73.87095754,40.81214618],[-73.87056807,40.81208732],[-73.87055342,40.81124338],[-73.86811219,40.80675183],[-73.86846347,40.80593655],[-73.87174509,40.80154737],[-73.87355097,40.8008533],[-73.87467716,40.80097942],[-73.8747306,40.80125664],[-73.87526517,40.80139815],[-73.87585789,40.80145599],[-73.87592998,40.80108422],[-73.87814219,40.80131929],[-73.8779688,40.80171112],[-73.87816581,40.80255168],[-73.87892454,40.80277208],[-73.88005463,40.80276015],[-73.88369542,40.80216212],[-73.88396463,40.80196515],[-73.88372327,40.80186284],[-73.88505172,40.80213091],[-73.88727097,40.803947],[-73.88738096,40.80411068],[-73.88724738,40.80418614],[-73.88795897,40.80499793],[-73.88859218,40.80478928],[-73.88906442,40.80502191],[-73.8893664,40.80538078],[-73.88922416,40.80584535],[-73.88999598,40.80488629],[-73.89014756,40.80496061],[-73.88937439,40.80592527],[-73.89005933,40.80570432],[-73.89149904,40.80593124],[-73.89144104,40.8056619],[-73.89178618,40.80562289],[-73.8919793,40.80638471],[-73.89270681,40.80634395],[-73.89253177,40.80565655],[-73.89227316,40.80570243],[-73.89216365,40.80530259],[-73.89126711,40.80501049],[-73.89173241,40.80504936],[-73.8921974,40.80528469],[-73.8923002,40.80566061],[-73.89256668,40.80562071],[-73.89274814,40.80634026],[-73.89463252,40.80623233],[-73.89457394,40.80604577],[-73.89472602,40.80602625],[-73.89485361,40.80621491],[-73.89484296,40.805724],[-73.89509836,40.80686364],[-73.89550634,40.80659531],[-73.89527963,40.80576618],[-73.89559109,40.80658134],[-73.89572274,40.80655966],[-73.89567025,40.80629013],[-73.89597795,40.80651762],[-73.89579067,40.80583056],[-73.89610825,40.80649615],[-73.89623041,40.80621047],[-73.89726015,40.80604096],[-73.89749682,40.8062144],[-73.89741473,40.80580006],[-73.89763819,40.80620132],[-73.89772827,40.80596749],[-73.89801341,40.8061666],[-73.89787128,40.80553498],[-73.89816111,40.80613807],[-73.89829495,40.80609757],[-73.89812536,40.80565076],[-73.89852657,40.80543431],[-73.90097299,40.8048761],[-73.90209394,40.80479955],[-73.9034172,40.81150688],[-73.90446551,40.81228196],[-73.90257859,40.81736979],[-73.90874962,40.81875954],[-73.90990993,40.81593598],[-73.91013371,40.81593211],[-73.91094779,40.81362092],[-73.91295451,40.81426933],[-73.91333779,40.81361085],[-73.91680451,40.81476207],[-73.91840911,40.81544655],[-73.91845382,40.81561363],[-73.923093,40.81669773],[-73.92399951,40.81543891],[-73.9300207,40.8169958],[-73.92921998,40.81905888],[-73.92731653,40.81855963],[-73.92634346,40.82057855],[-73.92576709,40.82010762],[-73.92487561,40.81987948],[-73.92398904,40.82001277],[-73.92294021,40.82059754],[-73.92265261,40.82049432],[-73.91608783,40.82483785],[-73.91551524,40.82470706],[-73.91394464,40.82572043],[-73.90870859,40.82406664],[-73.90657084,40.82945222],[-73.90553117,40.82910413],[-73.90343501,40.83221638],[-73.90187803,40.8317069],[-73.90018333,40.83419156],[-73.89675382,40.83332161],[-73.89487311,40.83425288],[-73.89332179,40.83556688],[-73.89003808,40.83604105],[-73.88534491,40.83879266],[-73.88624627,40.83914612],[-73.88575827,40.8402133],[-73.88070351,40.83747016],[-73.87746908,40.83665345],[-73.87525799,40.8375447],[-73.87451086,40.83725476],[-73.87398932,40.83731035],[-73.87314715,40.8382639],[-73.87315178,40.83770663],[-73.87252482,40.83788756],[-73.87172098,40.8381962],[-73.87052989,40.83909361],[-73.86724819,40.8403438],[-73.8666737,40.83924275]]]]}}]}