{"type":"FeatureCollection","features":[{"type":"Feature","properties":{"district":"15"},"geometry":{"type":"Polygon","coordinates":[[[-73.88778677,40.87074085],[-73.88625054,40.86947535],[-73.88551639,40.87018498],[-73.88527747,40.86999945],[-73.88451321,40.86834026],[-73.88309382,40.86660219],[-73.87989454,40.86837174],[-73.87964653,40.86801864],[-73.87926102,40.86797172],[-73.87821228,40.86884507],[-73.8772977,40.86905341],[-73.87666667,40.86892635],[-73.87603874,40.86850615],[-73.8750025,40.86706815],[-73.87276529,40.86638528],[-73.87101159,40.86542179],[-73.86736051,40.86542918],[-73.86759417,40.85898824],[-73.8699038,40.85587302],[-73.86825078,40.85095959],[-73.86952363,40.84868698],[-73.86956259,40.84801871],[-73.86889243,40.84811232],[-73.86987431,40.84661746],[-73.87035539,40.84662382],[-73.87101291,40.84590274],[-73.87111741,40.84487085],[-73.87161359,40.8445908],[-73.87312217,40.83818538],[-73.87398932,40.83731035],[-73.87451086,40.83725476],[-73.87525799,40.8375447],[-73.87746908,40.83665345],[-73.87902423,40.8369924],[-73.88070351,40.83747016],[-73.88575827,40.8402133],[-73.88624627,40.83914612],[-73.88534491,40.83879266],[-73.89022457,40.8359649],[-73.89339656,40.8355357],[-73.89487311,40.83425288],[-73.89675382,40.83332161],[-73.90185606,40.83462213],[-73.89996793,40.83765476],[-73.90264749,40.8388735],[-73.90538358,40.83976898],[-73.90570581,40.8397228],[-73.90515961,40.84101164],[-73.90501515,40.8424047],[-73.90514894,40.8425472],[-73.9117511,40.84286059],[-73.91198635,40.8430571],[-73.91158073,40.84425252],[-73.91107727,40.84509613],[-73.90483494,40.84475262],[-73.90482948,40.84503019],[-73.90391784,40.84500211],[-73.90373985,40.84732761],[-73.90632226,40.84757965],[-73.90576107,40.84918782],[-73.90608377,40.8493474],[-73.90130127,40.85530349],[-73.8971438,40.86244507],[-73.89174633,40.86951055],[-73.89098697,40.87016072],[-73.8886845,40.87149511],[-73.88778677,40.87074085]]]}}]}