{"type":"FeatureCollection","features":[{"type":"Feature","properties":{"district":"37"},"geometry":{"type":"Polygon","coordinates":[[[-73.90139841,40.69158999],[-73.90188776,40.69107772],[-73.90042465,40.6881839],[-73.90116155,40.68787794],[-73.89646625,40.68233642],[-73.89577945,40.68349718],[-73.89417463,40.68528325],[-73.89258303,40.68349191],[-73.89015419,40.68500399],[-73.88962788,40.68423645],[-73.88808342,40.68529363],[-73.88452251,40.68668475],[-73.88377699,40.68786341],[-73.87950641,40.69114677],[-73.87402053,40.6941913],[-73.86891763,40.69514656],[-73.86840519,40.69473119],[-73.86868454,40.69403469],[-73.86659848,40.68526956],[-73.86601993,40.68191959],[-73.86410097,40.68237285],[-73.86328297,40.67907937],[-73.86234581,40.67916479],[-73.86107192,40.67401981],[-73.86977607,40.67702721],[-73.89618968,40.6731482],[-73.89554342,40.67062579],[-73.90018401,40.66993895],[-73.89986288,40.668684],[-73.90357323,40.66812754],[-73.90420036,40.67065762],[-73.90796993,40.67009763],[-73.90830768,40.67136417],[-73.90733679,40.67150581],[-73.90787712,40.67356681],[-73.90924003,40.67295428],[-73.91123038,40.67307849],[-73.91075317,40.678277],[-73.91181302,40.68317968],[-73.91151193,40.68350499],[-73.92631613,40.69192845],[-73.92495142,40.69331523],[-73.92520551,40.69345466],[-73.92424881,40.69442861],[-73.92575051,40.69528485],[-73.92377589,40.69729832],[-73.92602331,40.69857963],[-73.91773663,40.70694274],[-73.9118071,40.70343495],[-73.91290404,40.70236189],[-73.91067883,40.70104597],[-73.91180682,40.69994688],[-73.90426018,40.69570037],[-73.90579597,40.69412716],[-73.90139841,40.69158999]]]}}]}