{"type":"FeatureCollection","features":[{"type":"Feature","properties":{"district":"48"},"geometry":{"type":"Polygon","coordinates":[[[-73.94742609,40.6142246],[-73.94693208,40.61168418],[-73.94405561,40.61199284],[-73.94354698,40.60934656],[-73.94231176,40.6082682],[-73.94177071,40.60518302],[-73.94376581,40.6049609],[-73.94331543,40.60257493],[-73.94609624,40.60226969],[-73.94526519,40.59789363],[-73.94148,40.59830439],[-73.94061133,40.59380797],[-73.93777949,40.59412518],[-73.93633647,40.58648059],[-73.93444719,40.58665208],[-73.93139948,40.5860799],[-73.93107641,40.58437968],[-73.93204245,40.58423396],[-73.93192811,40.58286977],[-73.93237696,40.58291851],[-73.9320138,40.58292598],[-73.93201839,40.58311112],[-73.93259877,40.58291927],[-73.93420971,40.5829798],[-73.9343797,40.58313903],[-73.93455993,40.58316541],[-73.93456057,40.58302017],[-73.93569072,40.58327509],[-73.93567353,40.58301942],[-73.93582439,40.58302112],[-73.93576657,40.58327751],[-73.93613234,40.58331447],[-73.93628723,40.5830009],[-73.93609669,40.58294875],[-73.93656607,40.58295765],[-73.93630031,40.58300296],[-73.93631716,40.58317905],[-73.93657592,40.58324051],[-73.93697427,40.58323033],[-73.93698768,40.58301627],[-73.93663307,40.58297221],[-73.9376327,40.58309627],[-73.93700558,40.58301602],[-73.9371246,40.58334673],[-73.93811918,40.58334048],[-73.93809421,40.58311681],[-73.93855276,40.58333798],[-73.93862756,40.58306702],[-73.9392964,40.58316727],[-73.93930153,40.58333322],[-73.93982539,40.58333145],[-73.93982884,40.58317054],[-73.93985852,40.58333133],[-73.94057746,40.58332823],[-73.94056609,40.58308737],[-73.94010904,40.58307507],[-73.94067658,40.58306581],[-73.9407002,40.58332762],[-73.94091645,40.58330241],[-73.94073841,40.58307561],[-73.94102518,40.58307036],[-73.94093422,40.58330231],[-73.941157,40.58329923],[-73.94120156,40.58309047],[-73.94157408,40.58360756],[-73.94255134,40.58351448],[-73.94202033,40.58311042],[-73.94214939,40.58310668],[-73.94270168,40.5835088],[-73.9430471,40.58349213],[-73.94256316,40.58312735],[-73.94319506,40.58348966],[-73.94354468,40.58347101],[-73.94309335,40.58313455],[-73.94369153,40.58346775],[-73.94406764,40.58347201],[-73.9436359,40.58314557],[-73.94423404,40.58347995],[-73.94461829,40.58349663],[-73.94417459,40.58315829],[-73.94477544,40.5835078],[-73.94517478,40.58352138],[-73.94471271,40.58316504],[-73.94534993,40.58352905],[-73.94573015,40.58354488],[-73.9452667,40.58318252],[-73.94589912,40.58355266],[-73.94628635,40.58356869],[-73.94579941,40.58319464],[-73.94643429,40.58356315],[-73.94678945,40.58355047],[-73.94631604,40.58320694],[-73.94691796,40.58354603],[-73.94726833,40.58353318],[-73.94682203,40.58319119],[-73.94701391,40.5831881],[-73.94746868,40.5835282],[-73.95349322,40.5829882],[-73.95330136,40.58200275],[-73.94969672,40.5823194],[-73.94274063,40.58099559],[-73.93258007,40.58126474],[-73.93106028,40.57626592],[-73.93144226,40.57570097],[-73.93486093,40.5755278],[-73.93489356,40.57522165],[-73.93507862,40.57550947],[-73.93647108,40.5758605],[-73.93670753,40.57541843],[-73.93683116,40.57556002],[-73.94250908,40.57537355],[-73.94255712,40.57556433],[-73.94427911,40.57580051],[-73.94463319,40.5756912],[-73.94460054,40.57523547],[-73.94474442,40.57551373],[-73.94572352,40.57555944],[-73.94618238,40.57529884],[-73.9459239,40.57511543],[-73.95257775,40.57420412],[-73.95374258,40.57429723],[-73.95408333,40.57407327],[-73.95413361,40.57433327],[-73.95569484,40.574327],[-73.95634507,40.57420722],[-73.95634533,40.57379758],[-73.95656751,40.57417078],[-73.95843476,40.57408882],[-73.95896634,40.57394727],[-73.95898719,40.57343066],[-73.95907248,40.57384555],[-73.95939182,40.57391211],[-73.95941778,40.57517798],[-73.96574922,40.5747942],[-73.96756707,40.57488153],[-73.96765743,40.57504368],[-73.96888996,40.57526124],[-73.96976665,40.57475823],[-73.97154043,40.57454333],[-73.97652549,40.57529656],[-73.9796385,40.57553673],[-73.97961059,40.57944363],[-73.97465242,40.57997262],[-73.97183331,40.57980528],[-73.97113425,40.58201883],[-73.96733404,40.58151752],[-73.96463908,40.59332315],[-73.96636901,40.60246763],[-73.96391168,40.6027496],[-73.96434218,40.60507116],[-73.96173197,40.60535797],[-73.96196553,40.60784311],[-73.96336094,40.61520443],[-73.94791719,40.61689976],[-73.94742609,40.6142246]]]}}]}