{"type":"FeatureCollection","features":[{"type":"Feature","properties":{"district":"46"},"geometry":{"type":"MultiPolygon","coordinates":[[[[-73.91990064,40.59960052],[-73.91865888,40.59947243],[-73.91843548,40.59916639],[-73.91626393,40.59816114],[-73.91601642,40.59750844],[-73.91441508,40.59604502],[-73.91381765,40.59504229],[-73.91338306,40.59472155],[-73.9130634,40.59407211],[-73.9132618,40.59222878],[-73.91295123,40.59205433],[-73.91439423,40.59151166],[-73.91524478,40.59158751],[-73.91604993,40.5922026],[-73.91601047,40.59242852],[-73.91636828,40.59274707],[-73.91644113,40.59312681],[-73.91787544,40.59472218],[-73.92019955,40.59618335],[-73.92082948,40.59633469],[-73.92089682,40.59661265],[-73.92182278,40.59733293],[-73.92186424,40.59779822],[-73.92227202,40.59837682],[-73.92213049,40.5986626],[-73.92084894,40.5995414],[-73.91990064,40.59960052]]],[[[-73.88833929,40.64671023],[-73.88853291,40.64686188],[-73.88833929,40.64671023]]],[[[-73.89121853,40.6499877],[-73.89056793,40.64920863],[-73.89101578,40.64934201],[-73.89120421,40.6491269],[-73.89109611,40.6488125],[-73.88945074,40.64717396],[-73.88948153,40.64691276],[-73.88879691,40.64605026],[-73.88937603,40.64697475],[-73.88886542,40.64722004],[-73.88853549,40.64696815],[-73.88859933,40.64671247],[-73.88808139,40.64662057],[-73.88809442,40.64621279],[-73.88828981,40.64604422],[-73.88800052,40.64602771],[-73.8874096,40.64532928],[-73.88805587,40.64511979],[-73.88791253,40.64500348],[-73.88734362,40.64522415],[-73.88691203,40.64447378],[-73.88654889,40.64431249],[-73.88623647,40.64381679],[-73.88469181,40.64312115],[-73.88373579,40.64245035],[-73.8807889,40.63975743],[-73.88055124,40.63915882],[-73.87953888,40.63821784],[-73.87896686,40.63845954],[-73.87863864,40.63829361],[-73.87838402,40.63790411],[-73.87858034,40.63751876],[-73.87780953,40.63688186],[-73.87714435,40.6359765],[-73.8782059,40.63457294],[-73.87998768,40.63351488],[-73.88037629,40.63298026],[-73.88127068,40.63236912],[-73.88301362,40.63162615],[-73.88364452,40.63094331],[-73.88376933,40.63022176],[-73.88345413,40.62990767],[-73.88404726,40.62956012],[-73.88263248,40.62827427],[-73.88369232,40.62755937],[-73.88512954,40.62882726],[-73.88572167,40.62844672],[-73.88630688,40.62867771],[-73.88752674,40.62833182],[-73.890423,40.6262786],[-73.89148721,40.62448172],[-73.89300559,40.62335647],[-73.89351878,40.62335269],[-73.89533612,40.62247057],[-73.91446071,40.63099483],[-73.9160608,40.63203405],[-73.91690384,40.63193913],[-73.91750426,40.63135526],[-73.91732164,40.6310065],[-73.91668694,40.63073738],[-73.9165917,40.63045186],[-73.90396107,40.62483362],[-73.90385541,40.6249402],[-73.90546206,40.62577482],[-73.90532958,40.62586496],[-73.90312444,40.62473795],[-73.90320848,40.62464077],[-73.90254656,40.62444424],[-73.90313232,40.62460226],[-73.90327046,40.62448418],[-73.90269333,40.62421333],[-73.90283262,40.62405099],[-73.90228708,40.62440985],[-73.90264356,40.62392469],[-73.9029162,40.62395453],[-73.9028657,40.62364915],[-73.90222544,40.62358194],[-73.9018673,40.62296244],[-73.90104962,40.62270803],[-73.90052532,40.62168157],[-73.89811768,40.62185156],[-73.89647475,40.62142825],[-73.89628848,40.6207365],[-73.89622243,40.62084022],[-73.89572933,40.62024092],[-73.89561389,40.61980129],[-73.89561045,40.61935053],[-73.89585294,40.61914462],[-73.89608358,40.61838279],[-73.89645348,40.61807557],[-73.89664335,40.61734771],[-73.89646003,40.61612987],[-73.89617052,40.61600118],[-73.89617337,40.61565449],[-73.89573445,40.61488775],[-73.89602882,40.6148046],[-73.89586113,40.61451814],[-73.89427581,40.61388264],[-73.89249926,40.61379231],[-73.89134028,40.61325621],[-73.89095415,40.61283405],[-73.8914143,40.61212545],[-73.8939324,40.6115366],[-73.89396385,40.61121422],[-73.89358086,40.61116573],[-73.89354939,40.6110009],[-73.89189389,40.61153467],[-73.89099709,40.61205245],[-73.89107795,40.61227686],[-73.88976671,40.61166075],[-73.88978452,40.61095524],[-73.89058823,40.61007403],[-73.89194461,40.60910225],[-73.89198204,40.60938497],[-73.89176941,40.60951927],[-73.89226735,40.60916527],[-73.89237211,40.60872813],[-73.8922232,40.60862709],[-73.89242327,40.60855824],[-73.89217036,40.60854472],[-73.89248324,40.60815331],[-73.89272945,40.60722719],[-73.89334621,40.60674345],[-73.89486168,40.60640476],[-73.89591344,40.60584471],[-73.89833878,40.60530366],[-73.90013576,40.60560334],[-73.90109949,40.60706777],[-73.90077753,40.60754349],[-73.90062485,40.60924268],[-73.9002795,40.61007401],[-73.90140646,40.61108804],[-73.9013662,40.61170184],[-73.90163551,40.61185066],[-73.90200358,40.61174302],[-73.90229091,40.61196064],[-73.90249393,40.611815],[-73.90119253,40.61056382],[-73.90132963,40.61048104],[-73.90124837,40.61058027],[-73.90265078,40.61178062],[-73.90236032,40.61198041],[-73.90271854,40.61182603],[-73.90292667,40.61215944],[-73.90304393,40.61209521],[-73.9029175,40.61218654],[-73.90262918,40.61192581],[-73.90242275,40.61203356],[-73.90587105,40.61506331],[-73.90573456,40.61488297],[-73.90603329,40.61495339],[-73.90587938,40.61507746],[-73.90696284,40.61611402],[-73.90717291,40.61600988],[-73.90673849,40.61629592],[-73.90725686,40.61608758],[-73.90708347,40.61622137],[-73.90744255,40.61625854],[-73.90710595,40.61660986],[-73.90752735,40.61634443],[-73.90724169,40.6165515],[-73.90767883,40.61669544],[-73.90761659,40.61689647],[-73.90791591,40.61690353],[-73.90799433,40.61717522],[-73.90838646,40.61739103],[-73.90860352,40.6172655],[-73.90879088,40.6174364],[-73.90863334,40.61716785],[-73.90883691,40.61731165],[-73.90907145,40.61716044],[-73.90835403,40.616531],[-73.90879421,40.61687296],[-73.90913853,40.61653162],[-73.9081056,40.61566902],[-73.90797306,40.61573684],[-73.90815664,40.61560112],[-73.90917675,40.61652195],[-73.90881456,40.61689044],[-73.90895706,40.61699148],[-73.90964406,40.61657537],[-73.90959741,40.61639267],[-73.90861634,40.61549277],[-73.90777596,40.61524315],[-73.90535845,40.61304034],[-73.90421569,40.61235657],[-73.904286,40.61201678],[-73.90404333,40.61199869],[-73.90414089,40.61189614],[-73.90350981,40.61140649],[-73.90331047,40.61154716],[-73.90349407,40.61138901],[-73.90313579,40.61096754],[-73.90274505,40.61093147],[-73.9022586,40.61042277],[-73.90164212,40.60576336],[-73.90524301,40.60491009],[-73.90597461,40.60638403],[-73.90809822,40.60627864],[-73.9086396,40.60665872],[-73.90933805,40.6064776],[-73.90985155,40.60599972],[-73.90885691,40.60506007],[-73.90832537,40.60407337],[-73.9109227,40.60350548],[-73.9136512,40.60398251],[-73.91673556,40.60681456],[-73.91660442,40.60708939],[-73.91672116,40.60762485],[-73.9163223,40.60867566],[-73.91678394,40.60877388],[-73.91657074,40.60942354],[-73.91683981,40.60876001],[-73.91650925,40.60862975],[-73.91688965,40.60871001],[-73.91682803,40.60890606],[-73.91708839,40.60882085],[-73.91681965,40.60893139],[-73.91665677,40.60943675],[-73.91679953,40.60949419],[-73.91656604,40.60943782],[-73.91638585,40.61008889],[-73.91606077,40.61043051],[-73.91616475,40.61051558],[-73.91449542,40.61165322],[-73.91493419,40.61395816],[-73.91386053,40.61464227],[-73.91422239,40.61493246],[-73.91642099,40.61356935],[-73.91591452,40.61384538],[-73.91576807,40.61354033],[-73.91597173,40.61380784],[-73.91624769,40.6136261],[-73.91574585,40.61338486],[-73.91596573,40.6132364],[-73.91626453,40.61360561],[-73.91639587,40.61344683],[-73.91587087,40.61291004],[-73.91600319,40.61285974],[-73.91649912,40.61352054],[-73.91662804,40.61344359],[-73.91573182,40.61183084],[-73.91674652,40.61117846],[-73.91667311,40.61100582],[-73.91682921,40.61111808],[-73.91811037,40.61020839],[-73.91773185,40.60978254],[-73.91786639,40.60932723],[-73.91767871,40.60966286],[-73.9179627,40.60878594],[-73.91781973,40.6093043],[-73.91802964,40.6088467],[-73.91855666,40.60849831],[-73.91800501,40.60814978],[-73.91818729,40.60802458],[-73.91857358,40.60848795],[-73.91900737,40.60826725],[-73.91813815,40.60764539],[-73.91836247,40.60750137],[-73.91902311,40.60825687],[-73.91935398,40.60804292],[-73.91825269,40.60722935],[-73.918503,40.60707124],[-73.91840159,40.60715485],[-73.919371,40.60803264],[-73.9195221,40.6077388],[-73.91701788,40.60538178],[-73.91712471,40.60531042],[-73.91476853,40.60336022],[-73.91489358,40.60328888],[-73.91442813,40.60286392],[-73.91389435,40.60270358],[-73.91368719,40.60285042],[-73.91385524,40.60269025],[-73.91364076,40.60252418],[-73.913327,40.60276378],[-73.91347073,40.60291169],[-73.91329651,40.60276561],[-73.91366089,40.60246891],[-73.91349826,40.60236698],[-73.91327118,40.60255272],[-73.91338693,40.60263461],[-73.91301723,40.60275425],[-73.91347512,40.6023493],[-73.91311659,40.60222026],[-73.91270696,40.60269471],[-73.9128532,40.60250741],[-73.91272399,40.60245326],[-73.91288693,40.6024847],[-73.91305994,40.60220621],[-73.91158428,40.60213549],[-73.9125417,40.60236444],[-73.91165189,40.60227826],[-73.91154411,40.60243932],[-73.91261099,40.60253201],[-73.9125729,40.6026833],[-73.91251889,40.60254031],[-73.91248883,40.60267415],[-73.91094008,40.60249781],[-73.91094634,40.60236464],[-73.91086537,40.60249048],[-73.91087683,40.60234235],[-73.91151957,40.60239687],[-73.91154234,40.60222454],[-73.91094,40.60212847],[-73.91155529,40.60215546],[-73.91075831,40.6020275],[-73.91075124,40.6024373],[-73.9090369,40.60267734],[-73.90901849,40.60252483],[-73.91071154,40.60241949],[-73.91070633,40.60214452],[-73.90940934,40.60219077],[-73.91073123,40.60202138],[-73.90984703,40.60203961],[-73.90904083,40.60162521],[-73.90784279,40.60226974],[-73.90429967,40.60267077],[-73.90372774,40.60241508],[-73.90192868,40.60318272],[-73.90041959,40.6032424],[-73.89932621,40.60355075],[-73.89833045,40.60320777],[-73.89776531,40.60330507],[-73.89562281,40.60300891],[-73.89497375,40.60321483],[-73.89406342,40.60308616],[-73.8935158,40.60338646],[-73.89241273,40.60329895],[-73.89135659,40.60351788],[-73.89097867,40.60391656],[-73.8890995,40.60451012],[-73.8889211,40.60477952],[-73.8877309,40.60526827],[-73.88477566,40.60514139],[-73.88396435,40.60554914],[-73.88271777,40.60417884],[-73.88336368,40.60287746],[-73.88270029,40.60170035],[-73.88230057,40.60016855],[-73.88180618,40.59936528],[-73.8816425,40.59779602],[-73.88084453,40.59634292],[-73.88079982,40.59478884],[-73.87990713,40.59204799],[-73.87941617,40.59213201],[-73.87989903,40.59202064],[-73.87971492,40.59139889],[-73.87935729,40.59084374],[-73.8789689,40.59089677],[-73.87892412,40.59071278],[-73.87929326,40.59066143],[-73.87896831,40.58990094],[-73.87913901,40.5893732],[-73.8787876,40.58803046],[-73.878202,40.58686794],[-73.87671672,40.58491443],[-73.87970232,40.5801351],[-73.8817429,40.5795917],[-73.88186725,40.57945463],[-73.88174677,40.57915881],[-73.88306666,40.57904115],[-73.88390578,40.57862921],[-73.88613811,40.5781344],[-73.88871425,40.57813592],[-73.88975534,40.57778842],[-73.89118414,40.57787211],[-73.89454772,40.57683951],[-73.89552381,40.57676982],[-73.89651254,40.57900707],[-73.89675988,40.58125005],[-73.89657919,40.58235605],[-73.89674637,40.58318998],[-73.89727278,40.58432081],[-73.89816157,40.58535049],[-73.89793964,40.58588067],[-73.89826306,40.5867854],[-73.898916,40.58753744],[-73.89973341,40.58716521],[-73.89903026,40.5876701],[-73.89981061,40.58801446],[-73.89990604,40.58779409],[-73.89994345,40.58798342],[-73.90000933,40.58781835],[-73.90121792,40.58738334],[-73.89995234,40.5880416],[-73.90071546,40.588084],[-73.90209954,40.58735654],[-73.90285598,40.58736627],[-73.90426874,40.58691226],[-73.9058792,40.58749788],[-73.90588718,40.58787737],[-73.90651875,40.58802547],[-73.90712502,40.5875297],[-73.90649351,40.58734467],[-73.90643924,40.58703386],[-73.90810885,40.58679651],[-73.91088554,40.58594765],[-73.91152755,40.58610581],[-73.91187437,40.58636568],[-73.91197278,40.58669736],[-73.91175051,40.5872679],[-73.91205464,40.5887376],[-73.91159882,40.58991325],[-73.91143731,40.59108037],[-73.91194704,40.59254808],[-73.91202885,40.5943676],[-73.91248495,40.5953646],[-73.91311696,40.59587248],[-73.91355034,40.5967223],[-73.91426527,40.59724919],[-73.91454977,40.59772546],[-73.91506581,40.59799808],[-73.91516861,40.59866763],[-73.91580411,40.59925779],[-73.91701088,40.59958725],[-73.91862333,40.60067242],[-73.91987172,40.60085171],[-73.92084786,40.60146194],[-73.92170503,40.60174437],[-73.92215545,40.60169974],[-73.92296825,40.60110572],[-73.92329546,40.60074244],[-73.92325633,40.60036051],[-73.92360987,40.60019163],[-73.92393997,40.59971435],[-73.9247082,40.59974179],[-73.92799805,40.60192787],[-73.92852507,40.60221187],[-73.92883625,40.60212182],[-73.92888252,40.60242727],[-73.9294825,40.60270341],[-73.92964281,40.60296914],[-73.92909057,40.60378998],[-73.92945282,40.60393646],[-73.93002955,40.60364651],[-73.93017326,40.60400131],[-73.93050934,40.60374047],[-73.93117476,40.60385041],[-73.93196227,40.60312164],[-73.93211609,40.60268852],[-73.931762,40.60259638],[-73.93144561,40.60205923],[-73.93032538,40.60118184],[-73.92970313,40.60122243],[-73.92935962,40.60098626],[-73.92922698,40.60048811],[-73.9286525,40.60038559],[-73.92859231,40.60061162],[-73.92837681,40.6003501],[-73.92784799,40.60031606],[-73.9272024,40.59991008],[-73.92290186,40.59644756],[-73.92177536,40.59503093],[-73.92034142,40.5947305],[-73.91818165,40.59310708],[-73.91641151,40.59114163],[-73.91487762,40.59031362],[-73.91506743,40.59008054],[-73.91456764,40.5895999],[-73.91454516,40.58885292],[-73.91725482,40.58747788],[-73.91791215,40.58687774],[-73.91805569,40.58643655],[-73.91917204,40.58595509],[-73.91960005,40.58616493],[-73.92017117,40.58593991],[-73.92040498,40.58608978],[-73.92081092,40.58598414],[-73.92073902,40.5857301],[-73.92092949,40.58587331],[-73.92090604,40.58559058],[-73.92101218,40.5857536],[-73.92189955,40.58569318],[-73.92184819,40.58583842],[-73.92235337,40.58602394],[-73.92492961,40.58566758],[-73.92720774,40.58772276],[-73.92765147,40.5874591],[-73.92724938,40.58774969],[-73.92735681,40.58802218],[-73.92791626,40.58754874],[-73.92807907,40.58770246],[-73.92736936,40.5880446],[-73.92740452,40.58820645],[-73.92790176,40.58795341],[-73.92802185,40.58806876],[-73.92745468,40.58829956],[-73.92776144,40.58866061],[-73.92395295,40.59113985],[-73.92419963,40.59136428],[-73.9246013,40.59119933],[-73.92815905,40.58882525],[-73.92841886,40.58893404],[-73.92821617,40.58878391],[-73.92835866,40.58886543],[-73.92863061,40.58857264],[-73.92875762,40.5886743],[-73.92837746,40.58898132],[-73.92862026,40.58912044],[-73.92895103,40.58890964],[-73.92866594,40.58914326],[-73.92921964,40.58881335],[-73.92924315,40.58895069],[-73.92875703,40.58915297],[-73.93003427,40.589426],[-73.93057706,40.58989064],[-73.93010326,40.58960611],[-73.93029788,40.59003517],[-73.9305894,40.58995259],[-73.93062849,40.59025299],[-73.93046769,40.59006137],[-73.93065214,40.59029098],[-73.93047152,40.59085578],[-73.93062344,40.59091869],[-73.9306475,40.59061968],[-73.93064107,40.59094457],[-73.93046014,40.59100122],[-73.93069642,40.59101854],[-73.9304496,40.59107969],[-73.93072579,40.59108986],[-73.93037198,40.5912114],[-73.93060444,40.59118618],[-73.93040542,40.59173094],[-73.93060581,40.59154136],[-73.93045092,40.59224504],[-73.93039906,40.5917556],[-73.93036444,40.59248009],[-73.93036222,40.59231177],[-73.93017617,40.59240622],[-73.93035364,40.59255495],[-73.93018971,40.59245412],[-73.93002301,40.59268305],[-73.93021251,40.59267837],[-73.9299125,40.59285339],[-73.93009899,40.59287244],[-73.93005245,40.59300024],[-73.92989067,40.59287079],[-73.92971282,40.59312005],[-73.93004238,40.59306088],[-73.92995592,40.59330857],[-73.92974147,40.59314392],[-73.92982317,40.5933727],[-73.93003922,40.59334843],[-73.92978082,40.59343674],[-73.92996117,40.59400571],[-73.93021519,40.59397294],[-73.93008159,40.59359546],[-73.93022756,40.59393062],[-73.93052489,40.59388024],[-73.93035969,40.59397594],[-73.93054679,40.5941993],[-73.93029934,40.59393805],[-73.93004012,40.59410489],[-73.93043246,40.59440267],[-73.93076123,40.5943819],[-73.93062306,40.5942045],[-73.93083446,40.59441357],[-73.93066304,40.59446395],[-73.93093516,40.59445995],[-73.93122056,40.59418332],[-73.93132512,40.59427626],[-73.93095463,40.59446595],[-73.93136685,40.59452917],[-73.93176387,40.5942841],[-73.93161314,40.59450352],[-73.93078131,40.59449896],[-73.93230826,40.59491634],[-73.93256344,40.59476347],[-73.93243763,40.59484364],[-73.93260421,40.59492954],[-73.93282655,40.59480374],[-73.93267654,40.59423642],[-73.93175891,40.5928301],[-73.93171091,40.5930503],[-73.93143676,40.59216713],[-73.93113956,40.59200893],[-73.93139998,40.59180489],[-73.93100989,40.59193104],[-73.93135301,40.59179119],[-73.93142565,40.59160418],[-73.93104848,40.59172629],[-73.93107602,40.59159759],[-73.93123057,40.59164198],[-73.93130542,40.59136036],[-73.93124592,40.59163698],[-73.93142253,40.59158857],[-73.93143272,40.59123924],[-73.93155939,40.59129296],[-73.93121295,40.58953131],[-73.93068568,40.58882195],[-73.93009138,40.58898886],[-73.93065022,40.58866987],[-73.93039968,40.58846552],[-73.92972846,40.58861392],[-73.93038545,40.58844162],[-73.92972233,40.58756008],[-73.93134918,40.58732817],[-73.93125191,40.58684983],[-73.92857394,40.5870615],[-73.92808233,40.58669769],[-73.92814969,40.58617811],[-73.92791934,40.58613581],[-73.92827672,40.58610694],[-73.92815701,40.58586452],[-73.92736956,40.58600659],[-73.92751622,40.58639827],[-73.92730434,40.58586593],[-73.92638042,40.58529576],[-73.92654821,40.58557532],[-73.92549354,40.58501929],[-73.92634542,40.58527615],[-73.92529084,40.58464074],[-73.92344966,40.58481785],[-73.92019563,40.58463454],[-73.91566115,40.58622345],[-73.91349962,40.58609583],[-73.91258587,40.58556674],[-73.9123679,40.58452617],[-73.91260848,40.58431995],[-73.9125046,40.58388636],[-73.9127108,40.58369994],[-73.91242421,40.58351493],[-73.91246022,40.58335175],[-73.91304661,40.58300755],[-73.91305439,40.58318672],[-73.91463166,40.58275763],[-73.91489742,40.58287261],[-73.91498686,40.58315284],[-73.91614199,40.58285744],[-73.91656346,40.58315201],[-73.91729861,40.5831908],[-73.91681104,40.58276205],[-73.91632641,40.58281887],[-73.91596151,40.58243576],[-73.91541291,40.58236407],[-73.91438668,40.58238316],[-73.91446429,40.58260928],[-73.91423692,40.58259725],[-73.91417323,40.58280136],[-73.91372601,40.58272889],[-73.91335911,40.58295402],[-73.91296905,40.5829728],[-73.91298189,40.5827072],[-73.91289043,40.58299758],[-73.91250111,40.58307919],[-73.91222052,40.58296334],[-73.91249009,40.58288617],[-73.91193607,40.58296784],[-73.91155605,40.58277089],[-73.91127375,40.5822631],[-73.911571,40.58178299],[-73.91444082,40.5817127],[-73.9150142,40.5815393],[-73.91814012,40.5821387],[-73.92221272,40.58325133],[-73.92443604,40.5835582],[-73.92943746,40.58341893],[-73.93067192,40.58315981],[-73.93089053,40.58293019],[-73.93075429,40.58275291],[-73.93171422,40.58281178],[-73.93204245,40.58423396],[-73.93107641,40.58437968],[-73.93139948,40.5860799],[-73.93444719,40.58665208],[-73.93633647,40.58648059],[-73.93777949,40.59412518],[-73.94061133,40.59380797],[-73.94148,40.59830439],[-73.94526519,40.59789363],[-73.94609624,40.60226969],[-73.94331543,40.60257493],[-73.94376581,40.6049609],[-73.94177071,40.60518302],[-73.94231176,40.6082682],[-73.94354698,40.60934656],[-73.94405561,40.61199284],[-73.94693208,40.61168418],[-73.94742609,40.6142246],[-73.94482771,40.61604621],[-73.94417451,40.61272254],[-73.93353706,40.61957168],[-73.93246246,40.61860132],[-73.93075813,40.61871039],[-73.93101637,40.62111598],[-73.93004509,40.62117825],[-73.93028165,40.62338034],[-73.92736928,40.62356136],[-73.9281137,40.63050676],[-73.920418,40.63090438],[-73.92068281,40.6333305],[-73.91494384,40.63700659],[-73.91680994,40.63868216],[-73.91314643,40.64103457],[-73.91147361,40.64178855],[-73.9001937,40.64908882],[-73.89690405,40.64609117],[-73.89255142,40.64891034],[-73.89121853,40.6499877]]]]}}]}