{"type":"FeatureCollection","features":[{"type":"Feature","properties":{"district":"25"},"geometry":{"type":"Polygon","coordinates":[[[-73.88858932,40.76285796],[-73.88825673,40.76102178],[-73.87895383,40.76198398],[-73.87699242,40.76162088],[-73.87606788,40.75653623],[-73.87365722,40.75680349],[-73.87269241,40.75502994],[-73.873879,40.75490395],[-73.87315992,40.75091501],[-73.8833802,40.7498451],[-73.88299918,40.7477344],[-73.87983895,40.74806173],[-73.87136266,40.74427125],[-73.87012716,40.74499138],[-73.86808574,40.74560058],[-73.86749135,40.74330205],[-73.86747169,40.74209572],[-73.86636351,40.74280109],[-73.86404739,40.7371631],[-73.86582956,40.73664322],[-73.86457249,40.7341884],[-73.86850101,40.733018],[-73.87442388,40.73490459],[-73.87795704,40.73706262],[-73.89025428,40.73939225],[-73.89127018,40.74142825],[-73.89570248,40.74856607],[-73.89673438,40.75052043],[-73.89908385,40.75027248],[-73.89922766,40.75000253],[-73.90106301,40.75078321],[-73.90076337,40.75146964],[-73.90087073,40.75206227],[-73.90357128,40.75184044],[-73.9069089,40.75328485],[-73.91023125,40.75297652],[-73.90901259,40.75427981],[-73.90782817,40.75699926],[-73.89921207,40.75784766],[-73.89906152,40.75903948],[-73.89705133,40.76195717],[-73.88858932,40.76285796]]]}}]}