{"type":"FeatureCollection","features":[{"type":"Feature","properties":{"district":"9"},"geometry":{"type":"Polygon","coordinates":[[[-73.93445239,40.83598096],[-73.93491534,40.83523082],[-73.93516725,40.83287499],[-73.93442396,40.82704289],[-73.93397242,40.81972957],[-73.93383009,40.81971974],[-73.93382901,40.81558536],[-73.93401477,40.81448375],[-73.93385653,40.81448147],[-73.9338651,40.81415316],[-73.93433865,40.80956221],[-73.93412073,40.80865645],[-73.9332591,40.80723725],[-73.9337492,40.80702637],[-73.93466428,40.80817513],[-73.9406655,40.79992997],[-73.94227175,40.8006082],[-73.94323386,40.79930719],[-73.94646134,40.80066531],[-73.94831125,40.79812922],[-73.94670031,40.79745054],[-73.94950836,40.79360571],[-73.95111102,40.79428504],[-73.94923327,40.796872],[-73.95964685,40.80115642],[-73.95824878,40.80310649],[-73.95825646,40.80546395],[-73.95312854,40.81269161],[-73.95276266,40.81654306],[-73.95176792,40.81790862],[-73.95087991,40.81839443],[-73.95219973,40.81895025],[-73.94946527,40.82268932],[-73.9480829,40.82210802],[-73.94389849,40.82781527],[-73.94221068,40.82872784],[-73.941368,40.83089084],[-73.94014131,40.83037199],[-73.93848743,40.8329945],[-73.93467393,40.8360649],[-73.93445239,40.83598096]]]}}]}