{"type":"FeatureCollection","features":[{"type":"Feature","properties":{"district":"39"},"geometry":{"type":"Polygon","coordinates":[[[-73.9780773,40.68491494],[-73.97188597,40.67639465],[-73.96949739,40.67590638],[-73.96969318,40.67536085],[-73.96905955,40.67480803],[-73.96871733,40.67392668],[-73.96888104,40.67298035],[-73.96920281,40.67279516],[-73.96898048,40.67239044],[-73.96238822,40.66308961],[-73.9629305,40.66256904],[-73.96308286,40.66213117],[-73.96188086,40.65488119],[-73.97170571,40.65110991],[-73.9719856,40.65068585],[-73.97337172,40.65053351],[-73.97489219,40.64969751],[-73.9750183,40.64930484],[-73.97381361,40.64333594],[-73.96872004,40.64389526],[-73.96753202,40.63761499],[-73.96822343,40.63729691],[-73.96803868,40.63665099],[-73.97802159,40.6355527],[-73.97761642,40.63315364],[-73.97865137,40.63304465],[-73.97870463,40.63332434],[-73.99264456,40.64172829],[-73.98834987,40.64456224],[-73.98036335,40.64769374],[-73.98179569,40.6552461],[-73.98843135,40.65925121],[-73.99018842,40.65760082],[-73.99238339,40.65889902],[-73.99296402,40.65833741],[-73.9951689,40.65966952],[-73.99054503,40.66416516],[-73.98630429,40.66917267],[-73.99666044,40.67414278],[-73.99855091,40.67192594],[-74.00242456,40.67770613],[-74.00535329,40.6812041],[-74.00687573,40.68348769],[-74.00671295,40.68361546],[-74.00860072,40.68590956],[-74.00701989,40.68652642],[-74.00588224,40.68619577],[-74.00459271,40.68821522],[-74.00382039,40.68892964],[-74.00297565,40.69042658],[-74.00196322,40.69013638],[-74.00185305,40.69038799],[-74.00096157,40.69012877],[-74.00069906,40.69061186],[-74.00132562,40.6914631],[-74.00196939,40.69184321],[-74.00161727,40.69254907],[-73.99991517,40.69176723],[-73.99236367,40.68969012],[-73.99360423,40.68712723],[-73.98871156,40.68522462],[-73.98828294,40.68586679],[-73.9796168,40.68249127],[-73.9780773,40.68491494]]]}}]}