{"type":"FeatureCollection","features":[{"type":"Feature","properties":{"district":"21"},"geometry":{"type":"Polygon","coordinates":[[[-73.86923492,40.78596992],[-73.86987007,40.78508591],[-73.86943752,40.7836384],[-73.86860526,40.78380915],[-73.86849508,40.78367453],[-73.86942345,40.78359131],[-73.8704803,40.78230611],[-73.87146292,40.7821264],[-73.87232287,40.78110076],[-73.87201742,40.78095575],[-73.87021911,40.78124733],[-73.87202832,40.78093336],[-73.87233604,40.78108505],[-73.87255733,40.78082112],[-73.86471066,40.77673319],[-73.85505106,40.77219539],[-73.85508636,40.77183139],[-73.85646273,40.77027306],[-73.85788341,40.77065971],[-73.85782463,40.77043731],[-73.85803884,40.77020352],[-73.85734731,40.77018423],[-73.8568499,40.76954245],[-73.85621268,40.7691958],[-73.85624566,40.76888571],[-73.8570479,40.76913956],[-73.857678,40.76827627],[-73.85877377,40.76735],[-73.8593751,40.76707533],[-73.86085536,40.76693212],[-73.86110277,40.76727194],[-73.86131386,40.76694063],[-73.8627549,40.76676453],[-73.86215786,40.76619176],[-73.85949072,40.76256262],[-73.85892056,40.7624064],[-73.85892298,40.76212235],[-73.8586451,40.7625144],[-73.85884372,40.76205877],[-73.85861915,40.7619356],[-73.85765474,40.76307982],[-73.85850081,40.76337643],[-73.85834319,40.76356256],[-73.85763897,40.76309945],[-73.85683889,40.76400018],[-73.85696356,40.76407443],[-73.85667482,40.76393019],[-73.85680291,40.76398085],[-73.85758285,40.7630729],[-73.85658675,40.76272284],[-73.85678237,40.76250828],[-73.85671169,40.76261569],[-73.85760424,40.76305328],[-73.85817631,40.76239629],[-73.85661196,40.76164954],[-73.85819433,40.76237411],[-73.85858526,40.76191701],[-73.85712134,40.7611889],[-73.85530266,40.76064958],[-73.85466366,40.76017117],[-73.85372404,40.76024639],[-73.85279377,40.75997217],[-73.85297409,40.76021709],[-73.85270108,40.76012812],[-73.85268917,40.75992832],[-73.8525475,40.76006981],[-73.85224159,40.75992161],[-73.85266534,40.75991833],[-73.85158553,40.75935542],[-73.85069053,40.75944879],[-73.84994042,40.75969826],[-73.84930111,40.76024288],[-73.84987484,40.76110381],[-73.85197413,40.76024941],[-73.852072,40.76039288],[-73.84981162,40.76127097],[-73.84916662,40.76029658],[-73.84868656,40.76013849],[-73.84359361,40.76337054],[-73.84368788,40.76361273],[-73.84343629,40.76343257],[-73.84306961,40.76359257],[-73.84304241,40.76432132],[-73.84272819,40.76462855],[-73.84052635,40.76538799],[-73.83957827,40.76525232],[-73.83935912,40.76540987],[-73.8400222,40.76423247],[-73.84002003,40.76367227],[-73.83880555,40.76076281],[-73.83897731,40.75831743],[-73.83842923,40.75549093],[-73.83784402,40.75410499],[-73.83511996,40.75010394],[-73.83478536,40.7489107],[-73.83487189,40.74799415],[-73.83517593,40.74722862],[-73.83724789,40.74467934],[-73.8377732,40.74335216],[-73.83963202,40.74278716],[-73.85000213,40.73803659],[-73.85278232,40.73720936],[-73.85632261,40.73650613],[-73.86457249,40.7341884],[-73.86582956,40.73664322],[-73.86404739,40.7371631],[-73.86636351,40.74280109],[-73.86747169,40.74209572],[-73.86749135,40.74330205],[-73.86808574,40.74560058],[-73.87012716,40.74499138],[-73.87136266,40.74427125],[-73.87983895,40.74806173],[-73.88299918,40.7477344],[-73.8833802,40.7498451],[-73.87315992,40.75091501],[-73.873879,40.75490395],[-73.87269241,40.75502994],[-73.87365722,40.75680349],[-73.87606788,40.75653623],[-73.87852782,40.770049],[-73.87984046,40.76967447],[-73.8837812,40.7676754],[-73.88368654,40.76715442],[-73.88754122,40.76631813],[-73.88772988,40.76691443],[-73.88836546,40.76676959],[-73.88945487,40.77353295],[-73.88580762,40.77402222],[-73.88567008,40.77443307],[-73.88563231,40.77409707],[-73.88578474,40.77402471],[-73.88391628,40.77413261],[-73.88455151,40.77436062],[-73.88483742,40.77495298],[-73.88477362,40.77533228],[-73.88428738,40.77547206],[-73.88505523,40.77840531],[-73.88525027,40.7786129],[-73.88505292,40.77877544],[-73.88516153,40.77941327],[-73.88488114,40.7799872],[-73.88385203,40.78026432],[-73.8827445,40.78022342],[-73.88139076,40.78060161],[-73.87973467,40.78065482],[-73.87960692,40.78085031],[-73.87870562,40.78058591],[-73.87905116,40.78173053],[-73.87930868,40.78185366],[-73.87833923,40.78302592],[-73.87515755,40.78150945],[-73.87484527,40.78168492],[-73.87124856,40.78603815],[-73.86978081,40.78533793],[-73.86923492,40.78596992]]]}}]}