{"type":"FeatureCollection","features":[{"type":"Feature","properties":{"district":"35"},"geometry":{"type":"Polygon","coordinates":[[[-73.96029282,40.69034625],[-73.95829217,40.67983113],[-73.95300514,40.67881508],[-73.95267782,40.67702698],[-73.95431647,40.67275343],[-73.93086762,40.67147387],[-73.93153907,40.66434291],[-73.93707477,40.66464422],[-73.93715847,40.6637526],[-73.94546294,40.6642261],[-73.96238822,40.66308961],[-73.96898048,40.67239044],[-73.96920281,40.67279516],[-73.96888104,40.67298035],[-73.96871733,40.67392668],[-73.96905955,40.67480803],[-73.96969318,40.67536085],[-73.96949739,40.67590638],[-73.97188597,40.67639465],[-73.98064972,40.68845948],[-73.98447249,40.69611914],[-73.98237499,40.69610125],[-73.98227354,40.6975063],[-73.98311794,40.69754204],[-73.98293217,40.69977148],[-73.98453236,40.69982366],[-73.98544716,40.70059289],[-73.98482787,40.70057698],[-73.98476086,40.70143935],[-73.9808444,40.70129524],[-73.98040482,40.70069901],[-73.98054419,40.69824651],[-73.96487573,40.69771433],[-73.96451307,40.69596473],[-73.96158556,40.69620749],[-73.96029282,40.69034625]]]}}]}