{"type":"FeatureCollection","features":[{"type":"Feature","properties":{"district":"50"},"geometry":{"type":"MultiPolygon","coordinates":[[[[-74.05050806,40.56642203],[-74.04998353,40.56639592],[-74.0493164,40.56588775],[-74.0492363,40.56536274],[-74.0500262,40.56531818],[-74.05090602,40.56609434],[-74.05067917,40.56631085],[-74.0510716,40.56672249],[-74.05050806,40.56642203]]],[[[-74.05314037,40.57770272],[-74.05406045,40.57711645],[-74.05489778,40.57778244],[-74.05469317,40.57969163],[-74.05485135,40.57970759],[-74.0548456,40.57994579],[-74.05368629,40.58054876],[-74.05293191,40.57990247],[-74.05314037,40.57770272]]],[[[-74.01984164,40.61764398],[-74.01832579,40.61672605],[-74.01594934,40.61900487],[-74.01374809,40.6176766],[-74.00934164,40.6150151],[-74.01171202,40.61273503],[-74.00648906,40.60958106],[-74.01356338,40.60258488],[-74.0145209,40.60281266],[-74.01446025,40.60237624],[-74.01472837,40.60206591],[-74.01698626,40.60245054],[-74.01832347,40.60241765],[-74.01913564,40.60261275],[-74.01974773,40.60308481],[-74.02101663,40.60355555],[-74.03005147,40.60475917],[-74.03270681,40.60633107],[-74.03427281,40.60771748],[-74.03487047,40.60858229],[-74.03603978,40.60929564],[-74.03139443,40.61077136],[-74.029715,40.61165117],[-74.02318505,40.61967585],[-74.01984164,40.61764398]]],[[[-74.1962036,40.63468605],[-74.18987905,40.63135753],[-74.1867602,40.62997336],[-74.18657676,40.63016912],[-74.1860696,40.62995448],[-74.18179908,40.62784544],[-74.17929497,40.626367],[-74.17572899,40.62323117],[-74.17466101,40.62250903],[-74.17266,40.62175897],[-74.16812305,40.62104803],[-74.16312999,40.61884698],[-74.1589807,40.61636752],[-74.15383151,40.61246291],[-74.15287451,40.61611865],[-74.152458,40.617094],[-74.15168695,40.618161],[-74.14782924,40.62217918],[-74.14689598,40.62362694],[-74.14634102,40.62492374],[-74.14402438,40.6249912],[-74.13764001,40.62422502],[-74.13700291,40.62434701],[-74.13360841,40.6263684],[-74.13069767,40.62634096],[-74.12216226,40.62747689],[-74.12154573,40.62631],[-74.12088253,40.62576561],[-74.11999478,40.62537206],[-74.11886302,40.62358928],[-74.11828203,40.62313017],[-74.11859378,40.62236737],[-74.11966872,40.62174493],[-74.11920476,40.62035218],[-74.11787188,40.61787405],[-74.11485743,40.61817911],[-74.11462306,40.61799882],[-74.1141457,40.61374153],[-74.12255777,40.61307663],[-74.12138589,40.60990931],[-74.12699203,40.60872198],[-74.13211741,40.60826435],[-74.13204227,40.60775597],[-74.13397588,40.60765547],[-74.13377156,40.604414],[-74.13354054,40.60417176],[-74.13343167,40.60358141],[-74.12798761,40.60411614],[-74.12823194,40.60590622],[-74.11579141,40.60686117],[-74.11656237,40.6094042],[-74.1167293,40.61127525],[-74.11376164,40.61136558],[-74.11046042,40.61060712],[-74.10877479,40.61040572],[-74.09614799,40.61076499],[-74.09425401,40.61053998],[-74.09251397,40.61006894],[-74.08517927,40.60707219],[-74.08219006,40.60645002],[-74.07654904,40.60621777],[-74.07383701,40.60579895],[-74.06555047,40.60285071],[-74.06268947,40.60216299],[-74.06055363,40.60190034],[-74.05934987,40.6019613],[-74.05359134,40.60376169],[-74.05303331,40.60146647],[-74.053422,40.60051607],[-74.05222827,40.5997761],[-74.05287154,40.59986726],[-74.05447422,40.59875554],[-74.0571937,40.59639508],[-74.05972691,40.59390822],[-74.05964121,40.59370939],[-74.05976661,40.59383526],[-74.06055354,40.59337976],[-74.06215274,40.59202504],[-74.06503332,40.588991],[-74.06436004,40.58826789],[-74.06477833,40.58848831],[-74.06722277,40.58673445],[-74.0709631,40.58318199],[-74.07149181,40.58216878],[-74.07065782,40.58162563],[-74.07146671,40.58202724],[-74.07177638,40.58187653],[-74.07499413,40.57923656],[-74.07350591,40.57840175],[-74.07332032,40.57845733],[-74.07336118,40.57827549],[-74.07355147,40.57819839],[-74.0734967,40.57832796],[-74.07508288,40.57916016],[-74.0757982,40.57830925],[-74.07523454,40.5779988],[-74.07534623,40.57788797],[-74.07601597,40.57824491],[-74.07639928,40.57799485],[-74.07629741,40.57789863],[-74.07649283,40.57796085],[-74.07688226,40.57763679],[-74.07673748,40.57737251],[-74.07693882,40.57753435],[-74.07737473,40.57728216],[-74.07926321,40.57567129],[-74.07867934,40.57508183],[-74.07933641,40.5756272],[-74.08090683,40.5746898],[-74.08469076,40.57147791],[-74.08654859,40.56963232],[-74.08691264,40.56898584],[-74.08621632,40.5685327],[-74.08725078,40.56908168],[-74.08830437,40.56832986],[-74.08924906,40.56701557],[-74.0899826,40.56738001],[-74.0905496,40.5670836],[-74.09123808,40.56650661],[-74.09404968,40.56298165],[-74.09407071,40.56273162],[-74.09542372,40.56315464],[-74.09661362,40.56208715],[-74.09819767,40.55983648],[-74.09829031,40.55933261],[-74.09782127,40.55905347],[-74.09876415,40.55942355],[-74.09938031,40.55896419],[-74.09986925,40.5590935],[-74.10021226,40.55887115],[-74.10124354,40.55766083],[-74.10184638,40.55621699],[-74.10184033,40.55594464],[-74.10137478,40.55569237],[-74.10140517,40.55553853],[-74.10265076,40.5561344],[-74.10309839,40.55590464],[-74.10465943,40.55412047],[-74.10508908,40.55323547],[-74.10484448,40.55302581],[-74.10642822,40.55385337],[-74.10656361,40.55418693],[-74.10768623,40.55397667],[-74.11028457,40.55149636],[-74.11301046,40.54778007],[-74.11458035,40.54927647],[-74.11624143,40.54877724],[-74.11655369,40.54885707],[-74.11953476,40.55163025],[-74.11945859,40.55222191],[-74.12871497,40.55824271],[-74.1296539,40.56108419],[-74.1296661,40.56160915],[-74.13006143,40.56200039],[-74.12954378,40.56243094],[-74.13014476,40.56287171],[-74.13055427,40.56438981],[-74.13091292,40.5642998],[-74.13173623,40.56453952],[-74.13310979,40.56286769],[-74.1334074,40.56212981],[-74.13480973,40.56082862],[-74.135613,40.55898003],[-74.13818001,40.55759387],[-74.13925274,40.55843465],[-74.14168877,40.55964331],[-74.14261352,40.55988196],[-74.15171497,40.56788728],[-74.14723568,40.57146106],[-74.14655277,40.57305056],[-74.14707638,40.57341589],[-74.14682343,40.57419721],[-74.14757025,40.57520949],[-74.15035353,40.57784438],[-74.15092647,40.57963374],[-74.15252765,40.58061699],[-74.15230806,40.5805793],[-74.15172599,40.58101675],[-74.1508845,40.58217578],[-74.14727484,40.58501222],[-74.14762041,40.58501947],[-74.14632131,40.5860693],[-74.14567103,40.58993632],[-74.15522698,40.59553309],[-74.15965237,40.59646657],[-74.16138795,40.5964283],[-74.16145008,40.59670563],[-74.16079851,40.59677147],[-74.16093892,40.59767445],[-74.16143657,40.59762885],[-74.16164192,40.59871788],[-74.16259281,40.5986087],[-74.16329246,40.60168212],[-74.16719635,40.60207531],[-74.16828458,40.59643317],[-74.16886362,40.59472809],[-74.16673712,40.59383005],[-74.16360268,40.5933742],[-74.1643769,40.59284224],[-74.16448363,40.59248442],[-74.16551848,40.59206865],[-74.16741384,40.59208652],[-74.17157852,40.59034814],[-74.17329788,40.59013479],[-74.17494634,40.59033303],[-74.17510751,40.59017673],[-74.17484895,40.59005377],[-74.17570799,40.58977364],[-74.17587065,40.58941282],[-74.17638411,40.58919027],[-74.17652852,40.58882349],[-74.1773759,40.58859553],[-74.1773973,40.5883863],[-74.17781075,40.58819151],[-74.1785467,40.58822316],[-74.17965585,40.58737176],[-74.17978778,40.58705973],[-74.17908085,40.58689394],[-74.17910576,40.58636074],[-74.17970852,40.58631108],[-74.17977567,40.58598631],[-74.18015995,40.58616043],[-74.18064633,40.58606986],[-74.18125527,40.58569441],[-74.18134986,40.58515586],[-74.18110699,40.58464776],[-74.17991085,40.58352159],[-74.17931793,40.58319867],[-74.17867093,40.58229525],[-74.17845319,40.58142707],[-74.17798104,40.58066734],[-74.17826052,40.58031985],[-74.17832137,40.57947881],[-74.17988881,40.57776534],[-74.18034267,40.57751437],[-74.18037933,40.57720134],[-74.18217121,40.57664823],[-74.18303039,40.57683449],[-74.18485533,40.57683382],[-74.18503548,40.57676264],[-74.18491375,40.57653779],[-74.18539733,40.57652121],[-74.18687589,40.5770551],[-74.19176844,40.57662364],[-74.19925581,40.57918075],[-74.20313014,40.57959909],[-74.20408147,40.5794749],[-74.20606649,40.57960327],[-74.20599255,40.58041038],[-74.20572403,40.58096569],[-74.20541737,40.58106949],[-74.20508137,40.58159947],[-74.20508854,40.58220819],[-74.20440076,40.58371295],[-74.2046339,40.58432324],[-74.20436434,40.58463415],[-74.20441472,40.58552368],[-74.2041194,40.58589554],[-74.20427494,40.58611005],[-74.20426533,40.58732054],[-74.20458066,40.5882176],[-74.20412201,40.58888147],[-74.20432302,40.58913662],[-74.20457422,40.58871914],[-74.2047053,40.58877237],[-74.20443548,40.5892184],[-74.20464609,40.58928575],[-74.20385887,40.59024953],[-74.20369974,40.59019991],[-74.2038855,40.58978611],[-74.20265867,40.59072215],[-74.20237764,40.59064471],[-74.20201406,40.5908958],[-74.20246776,40.59083883],[-74.20305255,40.59114054],[-74.20202734,40.59099908],[-74.20212378,40.59125333],[-74.20184093,40.59163648],[-74.2020035,40.59178076],[-74.20231646,40.59152397],[-74.2009254,40.59286638],[-74.20047127,40.59281175],[-74.19974061,40.59356467],[-74.19936212,40.59409408],[-74.19948345,40.59432094],[-74.19873233,40.5950118],[-74.19795003,40.59647035],[-74.19751358,40.59679899],[-74.19749671,40.59772426],[-74.1973062,40.59805952],[-74.19875958,40.60171198],[-74.20014867,40.60368335],[-74.20138527,40.60463697],[-74.2022185,40.60596968],[-74.20281628,40.60827083],[-74.20230179,40.61187564],[-74.20244374,40.61328469],[-74.20045324,40.616328],[-74.20058986,40.61702893],[-74.20082804,40.61709429],[-74.20091423,40.61779882],[-74.20087479,40.61810041],[-74.20054156,40.61799764],[-74.20035204,40.6183422],[-74.20083991,40.6188043],[-74.20068071,40.61916845],[-74.20106997,40.62038154],[-74.20050588,40.62029967],[-74.200428,40.62049541],[-74.20087332,40.62059116],[-74.20125847,40.62155483],[-74.2014324,40.62161261],[-74.20123089,40.62207421],[-74.20127534,40.62268828],[-74.20154553,40.62269805],[-74.20163201,40.62312157],[-74.20158494,40.62349833],[-74.20134409,40.62355257],[-74.20139733,40.62373612],[-74.20107663,40.62407835],[-74.2010608,40.62589518],[-74.20118252,40.62611022],[-74.20141671,40.62607051],[-74.20098626,40.62934415],[-74.2008048,40.62933257],[-74.20075484,40.62959463],[-74.20042574,40.62982117],[-74.20040813,40.6302501],[-74.20079169,40.63035012],[-74.20040312,40.63029236],[-74.20018462,40.63132867],[-74.20040053,40.63145947],[-74.20017265,40.63136108],[-74.19862248,40.63273751],[-74.19802961,40.63277094],[-74.1980252,40.63302919],[-74.19734396,40.63299815],[-74.19678531,40.63339224],[-74.19687866,40.63376139],[-74.19631031,40.63405423],[-74.1962036,40.63468605]]]]}}]}