{"type":"FeatureCollection","features":[{"type":"Feature","properties":{"district":"44"},"geometry":{"type":"Polygon","coordinates":[[[-73.97761642,40.63315364],[-73.97623454,40.62597635],[-73.95684697,40.62811988],[-73.95503698,40.6185578],[-73.94836912,40.61929126],[-73.94791719,40.61689976],[-73.96336094,40.61520443],[-73.96196553,40.60784311],[-73.96173197,40.60535797],[-73.96434218,40.60507116],[-73.96391168,40.6027496],[-73.96636901,40.60246763],[-73.96463908,40.59332315],[-73.96514385,40.59110192],[-73.9741929,40.59010619],[-73.97389008,40.59230442],[-73.97569271,40.59210027],[-73.97550444,40.59342735],[-73.97589704,40.59338612],[-73.97954399,40.61270748],[-73.97920805,40.61249723],[-73.97740816,40.61421811],[-73.97963822,40.61556455],[-73.97905796,40.61612584],[-73.99398197,40.6251414],[-73.99489281,40.62546179],[-73.99464973,40.62569718],[-73.99507815,40.62580674],[-74.00355411,40.63092294],[-74.00117793,40.63321029],[-74.00338868,40.63453836],[-73.99980742,40.6369355],[-74.00046945,40.63733632],[-73.99872187,40.63901609],[-73.99765783,40.63837414],[-73.99264456,40.64172829],[-73.97870463,40.63332434],[-73.97865137,40.63304465],[-73.97761642,40.63315364]]]}}]}