{"type":"FeatureCollection","features":[{"type":"Feature","properties":{"district":"18"},"geometry":{"type":"MultiPolygon","coordinates":[[[[-73.87232977,40.81392182],[-73.87250111,40.81388813],[-73.87232977,40.81392182]]],[[[-73.84127128,40.84065091],[-73.83936794,40.84088297],[-73.83972015,40.83956541],[-73.84030283,40.83952431],[-73.8398418,40.83790494],[-73.83984236,40.83611624],[-73.83975943,40.83629628],[-73.83979993,40.8358114],[-73.83965173,40.83582912],[-73.83968002,40.83606316],[-73.83960099,40.83567072],[-73.83979605,40.83578849],[-73.8396585,40.83574349],[-73.83979488,40.83561921],[-73.83961487,40.83561057],[-73.83945784,40.83500611],[-73.83961993,40.83480098],[-73.8394122,40.83460007],[-73.83959267,40.83456048],[-73.83959108,40.83404169],[-73.83992048,40.83332079],[-73.84221335,40.83155051],[-73.84275884,40.83081848],[-73.84310692,40.82979414],[-73.84303395,40.82893498],[-73.84253326,40.8275273],[-73.84001753,40.82219024],[-73.83982926,40.8215715],[-73.84010069,40.82032276],[-73.8399986,40.81993495],[-73.84036529,40.81957775],[-73.84198685,40.81877437],[-73.84209366,40.81805954],[-73.84374053,40.8153217],[-73.84520737,40.81188702],[-73.84576562,40.81158228],[-73.84617303,40.81067666],[-73.84719685,40.81058049],[-73.84821487,40.81246291],[-73.84938556,40.81323687],[-73.85041067,40.81358402],[-73.85060246,40.8139302],[-73.85159325,40.81430439],[-73.85243708,40.81430267],[-73.85225832,40.81449313],[-73.85301328,40.81458442],[-73.85265496,40.81433808],[-73.85261815,40.81405869],[-73.85297963,40.81387348],[-73.85291399,40.8136894],[-73.85336858,40.8135939],[-73.85434656,40.81386386],[-73.85514695,40.81436899],[-73.8553803,40.81428888],[-73.85443076,40.81371792],[-73.85346774,40.81347771],[-73.85255739,40.81373533],[-73.85119998,40.81355314],[-73.8496501,40.81275188],[-73.84914507,40.81229879],[-73.84906302,40.81190536],[-73.8493842,40.81128707],[-73.84917358,40.81092434],[-73.84979805,40.81003288],[-73.84990892,40.80966012],[-73.84976012,40.80964521],[-73.84991939,40.80962667],[-73.85002012,40.80925404],[-73.84984663,40.80925233],[-73.85004242,40.80921541],[-73.84996733,40.80887551],[-73.84972865,40.80887511],[-73.84995117,40.80871472],[-73.84955077,40.80872087],[-73.84996697,40.80857802],[-73.84961166,40.80812419],[-73.84870962,40.80824047],[-73.84952218,40.80805528],[-73.84841641,40.80736878],[-73.84837954,40.80636019],[-73.84753622,40.8059264],[-73.84752777,40.8053296],[-73.84807625,40.80491964],[-73.84864785,40.80469937],[-73.84874317,40.80489626],[-73.84894604,40.80476217],[-73.84933382,40.80505122],[-73.84941036,40.80466798],[-73.84942853,40.80505983],[-73.84982107,40.80509443],[-73.85014868,40.80453422],[-73.85064955,40.80447752],[-73.85204923,40.80459912],[-73.85560959,40.80447021],[-73.85662614,40.8048303],[-73.85639785,40.80494684],[-73.85569047,40.80467657],[-73.85556358,40.804785],[-73.85572073,40.8051221],[-73.85724492,40.80530724],[-73.8566758,40.80499537],[-73.85683421,40.80490927],[-73.85812706,40.80546652],[-73.85891121,40.80591276],[-73.8585056,40.80581954],[-73.85831488,40.80599859],[-73.85851704,40.80663788],[-73.85905039,40.80656397],[-73.85885298,40.80600843],[-73.85897232,40.80596607],[-73.85936602,40.80667568],[-73.85937656,40.8075683],[-73.85915868,40.80687897],[-73.85866505,40.80683275],[-73.85838996,40.80825881],[-73.85895141,40.81027142],[-73.85907663,40.80997556],[-73.86012695,40.8096055],[-73.85932919,40.80899654],[-73.85938982,40.80816377],[-73.8598223,40.80911325],[-73.86065966,40.8096319],[-73.86440333,40.81027599],[-73.86765646,40.81058376],[-73.86976956,40.8134237],[-73.87077805,40.8144869],[-73.87171606,40.81492234],[-73.87651996,40.81613106],[-73.8766346,40.81571151],[-73.87806283,40.81618263],[-73.8824478,40.81926832],[-73.88436129,40.8228738],[-73.88178622,40.8234017],[-73.87806436,40.8238344],[-73.87917067,40.82858218],[-73.8772993,40.82874277],[-73.8732266,40.82990617],[-73.87389041,40.83315616],[-73.87379507,40.83598572],[-73.86999425,40.83565041],[-73.8668062,40.83483702],[-73.86597815,40.835205],[-73.8666737,40.83924275],[-73.86724819,40.8403438],[-73.86347232,40.84130593],[-73.84806345,40.843068],[-73.84491034,40.84542746],[-73.84327656,40.84354181],[-73.84127128,40.84065091]]]]}}]}