{"type":"FeatureCollection","features":[{"type":"Feature","properties":{"district":"32"},"geometry":{"type":"MultiPolygon","coordinates":[[[[-73.82644662,40.59052744],[-73.82643165,40.59031601],[-73.82690355,40.58992884],[-73.82737386,40.5897644],[-73.82734321,40.58994338],[-73.82761912,40.58999526],[-73.82768906,40.59056854],[-73.82705426,40.59097842],[-73.82728545,40.59147876],[-73.82598356,40.59197062],[-73.82548334,40.59197339],[-73.82561799,40.59171161],[-73.82632774,40.59146141],[-73.82644662,40.59052744]]],[[[-73.80973138,40.59240419],[-73.8098075,40.59271041],[-73.80973138,40.59240419]]],[[[-73.80973138,40.59240419],[-73.81026602,40.59047174],[-73.81064781,40.59045204],[-73.81030826,40.59030542],[-73.81039326,40.58994035],[-73.81144168,40.58896724],[-73.81125223,40.58756679],[-73.80430463,40.58832727],[-73.80100528,40.58910834],[-73.80067106,40.58692383],[-73.80044046,40.58678673],[-73.80058253,40.58636776],[-73.8002832,40.58563286],[-73.80325771,40.58489321],[-73.80372119,40.58501794],[-73.80584287,40.58445752],[-73.80679193,40.5844199],[-73.80799183,40.58400441],[-73.81352449,40.58347315],[-73.81928812,40.58176697],[-73.82222751,40.58111503],[-73.82717379,40.57944451],[-73.83146093,40.57841944],[-73.83386923,40.5776499],[-73.83778491,40.57592368],[-73.85720331,40.5691005],[-73.86255286,40.56681001],[-73.86286892,40.56683057],[-73.86269357,40.56650219],[-73.86300483,40.56687596],[-73.86349306,40.56703431],[-73.86553757,40.56657161],[-73.86661089,40.56609387],[-73.86630941,40.56554606],[-73.86663006,40.56609011],[-73.86688401,40.56608398],[-73.86848695,40.56552701],[-73.86825118,40.56506949],[-73.86862322,40.56553801],[-73.87062215,40.56481331],[-73.87027588,40.56417465],[-73.87064094,40.56480995],[-73.87091316,40.56476459],[-73.87263971,40.56408418],[-73.87237878,40.56357512],[-73.8727465,40.56410545],[-73.87320628,40.56406027],[-73.87624643,40.563101],[-73.88026644,40.56153274],[-73.88029022,40.56137455],[-73.88128249,40.56137213],[-73.88241587,40.5609109],[-73.88237442,40.56076043],[-73.88324742,40.56085592],[-73.88488437,40.56018237],[-73.88485949,40.56004281],[-73.88511278,40.56015096],[-73.8861111,40.55992192],[-73.88696171,40.55955815],[-73.88697511,40.55940048],[-73.88707183,40.5595421],[-73.88789256,40.55951065],[-73.88963948,40.55866435],[-73.89021654,40.55881155],[-73.8907959,40.55861938],[-73.89192355,40.55816042],[-73.89213864,40.55787154],[-73.89252745,40.55811929],[-73.89347065,40.55794558],[-73.89495142,40.55729393],[-73.89491817,40.5570788],[-73.89518459,40.55738504],[-73.89551189,40.55741427],[-73.89699523,40.55689179],[-73.89707956,40.55665743],[-73.89735689,40.55699842],[-73.89799515,40.55710214],[-73.89911718,40.55680035],[-73.89912995,40.55664117],[-73.90027596,40.55660389],[-73.90058582,40.55642221],[-73.90096674,40.55671222],[-73.9023421,40.55677507],[-73.90518385,40.55614856],[-73.90755885,40.55537032],[-73.91948122,40.55062482],[-73.92641909,40.54815578],[-73.93054632,40.54642592],[-73.93611853,40.54451641],[-73.93889756,40.54323974],[-73.94047161,40.54286312],[-73.94055777,40.54186051],[-73.94073546,40.54183396],[-73.9401297,40.54800529],[-73.94008472,40.55054594],[-73.94027356,40.55240827],[-73.93990866,40.55383641],[-73.9392541,40.55498011],[-73.93865564,40.55567659],[-73.93647316,40.55693267],[-73.93509412,40.55726953],[-73.93314016,40.55736377],[-73.931776,40.5579],[-73.92615723,40.56155261],[-73.92421461,40.56200132],[-73.92107823,40.56207985],[-73.9203681,40.56221883],[-73.92025963,40.56261229],[-73.9200984,40.56257118],[-73.9203312,40.56222605],[-73.91766082,40.56282615],[-73.91455337,40.56435343],[-73.9131318,40.56463824],[-73.91220201,40.56505457],[-73.9118832,40.56499041],[-73.91195464,40.56581132],[-73.91216182,40.56583625],[-73.91197025,40.56586942],[-73.91173615,40.56587265],[-73.91192552,40.56581386],[-73.91185809,40.56499544],[-73.91079818,40.565111],[-73.910101,40.564956],[-73.91003763,40.56479371],[-73.90971685,40.56528743],[-73.91002308,40.56478021],[-73.90976258,40.56428484],[-73.90872545,40.56393129],[-73.90791916,40.56414844],[-73.90809156,40.56372163],[-73.90798576,40.56344244],[-73.90664724,40.56278591],[-73.90469455,40.56282719],[-73.90287143,40.56351486],[-73.90244774,40.56289951],[-73.90161118,40.56275145],[-73.90000392,40.56321569],[-73.89613262,40.56535843],[-73.89533725,40.5663321],[-73.89567174,40.56703164],[-73.89518705,40.5669136],[-73.89413028,40.56782015],[-73.89261013,40.56858725],[-73.88911103,40.56791624],[-73.88836803,40.56814493],[-73.88786223,40.56803804],[-73.88654684,40.56847098],[-73.88489678,40.56849958],[-73.88430973,40.56869612],[-73.88488707,40.56847021],[-73.88475595,40.56828914],[-73.88467739,40.56844134],[-73.88429876,40.5684368],[-73.8847369,40.56826851],[-73.88445975,40.56789284],[-73.88416647,40.56800195],[-73.88425605,40.56815713],[-73.88414807,40.56800898],[-73.88398907,40.56806016],[-73.88407172,40.56819501],[-73.88379104,40.56812391],[-73.8840234,40.56850312],[-73.88378087,40.56812719],[-73.88357671,40.56820977],[-73.88369195,40.56839536],[-73.8834785,40.56847311],[-73.88390428,40.5689062],[-73.88336927,40.56833186],[-73.88262971,40.56836893],[-73.88192259,40.56873144],[-73.87867467,40.56863994],[-73.87780809,40.56880063],[-73.87598454,40.56951979],[-73.86554317,40.57464213],[-73.8530555,40.58125527],[-73.85044385,40.58213024],[-73.84861054,40.58218814],[-73.84520566,40.58157986],[-73.83935386,40.58185726],[-73.83895664,40.58257426],[-73.83855306,40.58279171],[-73.8358408,40.58287894],[-73.82852471,40.58485422],[-73.82803654,40.58605289],[-73.82476428,40.58703922],[-73.82481334,40.58715132],[-73.82293689,40.58749165],[-73.82145972,40.58676992],[-73.81741586,40.58891701],[-73.817638,40.5892858],[-73.81674198,40.58931917],[-73.81524832,40.58998906],[-73.81470067,40.59061059],[-73.81363221,40.59079363],[-73.81325672,40.5910463],[-73.81358857,40.59169769],[-73.81323474,40.59107074],[-73.81312992,40.59124663],[-73.81224338,40.59132582],[-73.81170345,40.59159375],[-73.81151303,40.59178349],[-73.81149424,40.59290133],[-73.81133464,40.59174462],[-73.81100767,40.5917683],[-73.81081792,40.59209027],[-73.81095019,40.59250306],[-73.81138593,40.59244232],[-73.81140751,40.59287126],[-73.81107287,40.59302233],[-73.81137331,40.59270305],[-73.81074975,40.59279211],[-73.81137347,40.5926845],[-73.81135829,40.59246258],[-73.81093966,40.59254685],[-73.81080538,40.5920921],[-73.8098993,40.59227095],[-73.81003921,40.59307791],[-73.8099034,40.59308078],[-73.80973138,40.59240419]]],[[[-73.83193277,40.5934478],[-73.83116883,40.59148814],[-73.83357376,40.58903517],[-73.83458674,40.58912216],[-73.83519078,40.58938175],[-73.8368795,40.58952026],[-73.83806756,40.59030187],[-73.83814701,40.59073376],[-73.83880085,40.59119777],[-73.83839527,40.59039175],[-73.84062614,40.59153456],[-73.84050451,40.59120665],[-73.84179835,40.5920076],[-73.84237933,40.59247832],[-73.84279001,40.59332738],[-73.8433647,40.59347014],[-73.84350066,40.59508411],[-73.84056972,40.5973007],[-73.83745833,40.59686287],[-73.83569788,40.59480894],[-73.83492803,40.5943119],[-73.83476027,40.59394429],[-73.83400002,40.59361971],[-73.83193277,40.5934478]]],[[[-73.82953036,40.60724067],[-73.82953036,40.60724067]]],[[[-73.82730193,40.60948539],[-73.8263503,40.60928915],[-73.82581355,40.60891772],[-73.8257647,40.60864134],[-73.82604712,40.60829175],[-73.82576815,40.60785387],[-73.82604799,40.60781994],[-73.82625434,40.60801797],[-73.8267911,40.60790969],[-73.82566738,40.60778622],[-73.82540574,40.60669634],[-73.82453724,40.60507835],[-73.82460558,40.60473563],[-73.82770658,40.60523781],[-73.82908603,40.60582097],[-73.82940291,40.60658153],[-73.82903973,40.60735521],[-73.82776984,40.60776507],[-73.82747155,40.60822532],[-73.82707969,40.60833308],[-73.82760232,40.60929776],[-73.82730193,40.60948539]]],[[[-73.83212877,40.60951664],[-73.83122317,40.60882959],[-73.83130655,40.60841153],[-73.83082673,40.60847424],[-73.83005617,40.6079248],[-73.82977885,40.60711557],[-73.82987726,40.60632284],[-73.83092272,40.60536498],[-73.83177508,40.60509436],[-73.83195008,40.60527289],[-73.83438032,40.60515222],[-73.83552006,40.60545762],[-73.83574043,40.60578528],[-73.83446266,40.60719253],[-73.83422631,40.60805134],[-73.83247031,40.60946154],[-73.83212877,40.60951664]]],[[[-73.83190996,40.62417572],[-73.8322794,40.62373517],[-73.83241551,40.6229248],[-73.83275071,40.62282811],[-73.83309705,40.62241475],[-73.83311493,40.62198383],[-73.83324924,40.62201674],[-73.83305164,40.62191405],[-73.83310822,40.62168089],[-73.83368215,40.62138131],[-73.83362242,40.62260264],[-73.83308425,40.6227614],[-73.83303086,40.62306736],[-73.8332285,40.62335651],[-73.8326762,40.62390828],[-73.83277134,40.62403072],[-73.83306311,40.62369126],[-73.83325935,40.62383126],[-73.83340904,40.62354802],[-73.83357551,40.62359792],[-73.83355924,40.62393603],[-73.83269995,40.62422804],[-73.83215639,40.62469218],[-73.83179317,40.62447359],[-73.83190996,40.62417572]]],[[[-73.83597647,40.6322167],[-73.83506421,40.63172575],[-73.8357084,40.6313167],[-73.83593709,40.63134965],[-73.83618912,40.63164537],[-73.83619746,40.63203015],[-73.83597647,40.6322167]]],[[[-73.82866385,40.63121244],[-73.82580324,40.62117262],[-73.82492866,40.61909877],[-73.82389464,40.61754475],[-73.82163922,40.61487061],[-73.82075893,40.61523268],[-73.82017348,40.61518062],[-73.81749811,40.61421413],[-73.81608988,40.60884474],[-73.81534147,40.60693899],[-73.81574174,40.60646525],[-73.81546066,40.60642814],[-73.81552817,40.60616307],[-73.81552537,40.60640738],[-73.81595962,40.60626248],[-73.8158883,40.60592903],[-73.8164253,40.60522412],[-73.81739192,40.60515812],[-73.81725371,40.60394032],[-73.81772033,40.602225],[-73.81831121,40.60133971],[-73.81849066,40.59938956],[-73.81928142,40.59752961],[-73.82033689,40.596649],[-73.82067266,40.59519571],[-73.82120035,40.59471229],[-73.82413507,40.59463306],[-73.82547793,40.59508066],[-73.83321744,40.59421759],[-73.83425247,40.59465992],[-73.83472137,40.59505551],[-73.834847,40.595543],[-73.834201,40.596657],[-73.83349,40.596916],[-73.833361,40.597236],[-73.83250812,40.59757331],[-73.83239364,40.59780335],[-73.83154106,40.59795103],[-73.83062852,40.59743343],[-73.83038922,40.59773402],[-73.82948342,40.59813394],[-73.82909777,40.59776346],[-73.8280616,40.5976804],[-73.82784692,40.59799984],[-73.82722093,40.59833119],[-73.82710314,40.59868869],[-73.82597986,40.59947207],[-73.82556791,40.59854815],[-73.82465421,40.59814925],[-73.82431734,40.59831311],[-73.82395871,40.5988769],[-73.82452271,40.59895126],[-73.82477089,40.59839184],[-73.82452625,40.59912903],[-73.82439004,40.59909811],[-73.82451734,40.59896581],[-73.82407791,40.5989092],[-73.8241657,40.59929938],[-73.82376612,40.60004007],[-73.82311741,40.60007949],[-73.82303195,40.59993052],[-73.82292758,40.60006143],[-73.82300436,40.59992562],[-73.82194442,40.59980116],[-73.8214693,40.59999372],[-73.82234362,40.60022566],[-73.82443644,40.60034498],[-73.82445218,40.60079696],[-73.823989,40.60100199],[-73.82353972,40.60155945],[-73.82361589,40.60228649],[-73.82306722,40.60234199],[-73.82294485,40.60258291],[-73.82276563,40.60420261],[-73.82290283,40.60468727],[-73.82246747,40.60552498],[-73.82290463,40.60585128],[-73.82236001,40.60646926],[-73.8212647,40.60700285],[-73.82003244,40.60892366],[-73.81961795,40.61047904],[-73.82051888,40.61194995],[-73.82043404,40.61206679],[-73.82087842,40.61225735],[-73.82128421,40.61109693],[-73.82048701,40.61022438],[-73.82085879,40.60923106],[-73.8216146,40.60848032],[-73.82182531,40.608964],[-73.82166798,40.60923232],[-73.82186205,40.60986921],[-73.8223308,40.6102877],[-73.82289233,40.61033702],[-73.8231949,40.61093784],[-73.82400413,40.61163177],[-73.82410327,40.6123261],[-73.82467452,40.61241991],[-73.82468584,40.61307642],[-73.82520684,40.61349498],[-73.82555759,40.6141321],[-73.82593603,40.61416252],[-73.82725637,40.61337871],[-73.82787525,40.61369763],[-73.82724154,40.61406502],[-73.82750223,40.61420467],[-73.82845503,40.61421604],[-73.83091996,40.61500549],[-73.83401888,40.61438117],[-73.83370152,40.6209786],[-73.83305142,40.6212584],[-73.83254809,40.62175119],[-73.83158799,40.62203281],[-73.8326766,40.62186373],[-73.83288847,40.62222671],[-73.83258869,40.62268139],[-73.83226186,40.62275487],[-73.83140373,40.62240363],[-73.83101572,40.6227762],[-73.83038723,40.62239085],[-73.83007366,40.62304353],[-73.83020445,40.62339934],[-73.82995645,40.62370529],[-73.82986943,40.62339708],[-73.82918809,40.62420061],[-73.82966177,40.62419251],[-73.83011325,40.62382876],[-73.83052465,40.62286638],[-73.83033294,40.62284145],[-73.83041434,40.62263207],[-73.83087817,40.62286162],[-73.83060453,40.62325557],[-73.83070727,40.62374161],[-73.83046152,40.62407222],[-73.8307675,40.62368008],[-73.83065304,40.62326092],[-73.83109518,40.62292884],[-73.83153199,40.62287842],[-73.83192859,40.62319589],[-73.83174224,40.62287697],[-73.83213427,40.62317683],[-73.83154862,40.62409695],[-73.83096501,40.62457613],[-73.83092041,40.62483004],[-73.83134487,40.62500649],[-73.83076903,40.62530427],[-73.83095161,40.62552781],[-73.83062762,40.62617762],[-73.83082381,40.62681145],[-73.83166917,40.62713365],[-73.83230301,40.62707876],[-73.83219238,40.62737443],[-73.83246308,40.62751996],[-73.8323963,40.62785756],[-73.83228937,40.62813371],[-73.83184982,40.62812469],[-73.83159274,40.62838945],[-73.83171251,40.62882781],[-73.83187722,40.62888107],[-73.83163269,40.62852348],[-73.83188632,40.62817777],[-73.83262605,40.62826537],[-73.83305545,40.62794225],[-73.83289549,40.62890348],[-73.83236037,40.62914226],[-73.83196081,40.62965273],[-73.83189666,40.63057239],[-73.83114086,40.6327494],[-73.83133113,40.63361769],[-73.83193878,40.63423623],[-73.83195788,40.63497888],[-73.83249094,40.63557855],[-73.83340608,40.63850136],[-73.83289974,40.63886269],[-73.83020874,40.63522103],[-73.82927961,40.63326018],[-73.82866385,40.63121244]]],[[[-73.85722331,40.65027867],[-73.86098917,40.65520977],[-73.86045463,40.65506711],[-73.85979243,40.65447616],[-73.85898003,40.65267546],[-73.85731942,40.6512371],[-73.8569587,40.65058737],[-73.85722331,40.65027867]]],[[[-73.83032725,40.65513281],[-73.83026602,40.65542865],[-73.8298892,40.65552282],[-73.83032725,40.65513281]]],[[[-73.85729287,40.71146768],[-73.85667714,40.70769187],[-73.85475504,40.70775897],[-73.85275371,40.70739715],[-73.84933156,40.70838833],[-73.84567198,40.70841037],[-73.84314625,40.70922346],[-73.83828429,40.70840936],[-73.83714703,40.70795705],[-73.83814222,40.7062589],[-73.83696238,40.70421245],[-73.83947815,40.70269019],[-73.84156378,40.7011006],[-73.84275664,40.7006577],[-73.84502473,40.69935938],[-73.84947764,40.69819581],[-73.84894129,40.69755685],[-73.84496028,40.68916263],[-73.8441501,40.68939329],[-73.83794251,40.67679421],[-73.83811947,40.67662989],[-73.83029375,40.66040199],[-73.8293142,40.65889866],[-73.82859942,40.65719697],[-73.82639243,40.64832435],[-73.82701503,40.64875971],[-73.82846041,40.64911868],[-73.82959697,40.64982766],[-73.8300104,40.65032837],[-73.82986949,40.65042963],[-73.83000767,40.65090348],[-73.83093651,40.65162613],[-73.83132175,40.65272653],[-73.83128774,40.65347884],[-73.83156039,40.65360328],[-73.83158322,40.65381379],[-73.82901418,40.65610788],[-73.82966678,40.65559904],[-73.83044328,40.65551947],[-73.83060246,40.65480689],[-73.83170814,40.65393117],[-73.83205445,40.65404642],[-73.83200053,40.65444082],[-73.83221699,40.65446039],[-73.8314933,40.65497982],[-73.83116101,40.65591923],[-73.83003301,40.65656717],[-73.82937603,40.65650634],[-73.82930975,40.65693246],[-73.82896779,40.65720525],[-73.8291792,40.65779978],[-73.83013029,40.65840264],[-73.82959987,40.65865681],[-73.8301495,40.65980868],[-73.8296952,40.65865593],[-73.83024427,40.65834997],[-73.82922394,40.65770651],[-73.82909435,40.65733422],[-73.82949826,40.65690591],[-73.82950265,40.65664743],[-73.83009173,40.65673636],[-73.83127113,40.65600327],[-73.83185238,40.65488504],[-73.83218186,40.65489475],[-73.8329031,40.65748377],[-73.83278194,40.65754846],[-73.83208497,40.65613103],[-73.83194395,40.65617143],[-73.83260036,40.65782659],[-73.83112664,40.65831879],[-73.83338439,40.65805186],[-73.83156681,40.65116771],[-73.83118719,40.65075171],[-73.83079878,40.64897656],[-73.83148724,40.64788728],[-73.83453497,40.64802513],[-73.835608,40.64846907],[-73.83597223,40.64934876],[-73.83845307,40.65936162],[-73.8388069,40.66094183],[-73.83862724,40.66108164],[-73.83892925,40.66127003],[-73.83807556,40.66158796],[-73.83814081,40.66206951],[-73.83843897,40.66234385],[-73.83969597,40.6622383],[-73.83962396,40.66199613],[-73.8399795,40.66190427],[-73.8359232,40.64549979],[-73.83633075,40.64532115],[-73.83860896,40.64534791],[-73.84039185,40.64488791],[-73.84126005,40.64488479],[-73.84579484,40.64410151],[-73.84950699,40.64413377],[-73.85207628,40.64617615],[-73.852432,40.6471593],[-73.85172587,40.64891215],[-73.85137202,40.6491799],[-73.85090552,40.6491682],[-73.85078186,40.64980609],[-73.85058099,40.64986221],[-73.85058666,40.65033798],[-73.85037708,40.6502745],[-73.85042261,40.65047699],[-73.84925727,40.65103153],[-73.84939766,40.65143488],[-73.84992253,40.65165796],[-73.850785,40.65153285],[-73.85149116,40.65119797],[-73.85178607,40.65081564],[-73.8525095,40.6505514],[-73.85403329,40.65066031],[-73.8549594,40.65096844],[-73.85525081,40.65127037],[-73.85587823,40.6512898],[-73.85624491,40.65159728],[-73.85671289,40.65280166],[-73.85705388,40.6529667],[-73.85772332,40.65272623],[-73.85828132,40.65299487],[-73.85875808,40.65416163],[-73.85915498,40.65440247],[-73.85932736,40.65494057],[-73.86136382,40.65641475],[-73.86136038,40.65659421],[-73.86061669,40.65646466],[-73.8602084,40.65701037],[-73.86006778,40.65677986],[-73.8600557,40.65697226],[-73.85983364,40.65697706],[-73.860075,40.65704861],[-73.85981028,40.65732241],[-73.85993897,40.65772018],[-73.85957205,40.65803535],[-73.85963559,40.65845777],[-73.86025848,40.65862971],[-73.86023236,40.65889713],[-73.86045183,40.65879672],[-73.86051209,40.65849767],[-73.86098078,40.6583813],[-73.86049,40.65899414],[-73.86061207,40.65932653],[-73.86124943,40.65872091],[-73.8612728,40.65826517],[-73.86095892,40.65806094],[-73.8597684,40.65828194],[-73.86057552,40.65783605],[-73.86040714,40.65776134],[-73.86034165,40.65724791],[-73.86086434,40.6569105],[-73.86161371,40.65699651],[-73.8617146,40.65803004],[-73.86269778,40.65761831],[-73.86317083,40.65827651],[-73.86030495,40.65963466],[-73.85761537,40.66011893],[-73.85842951,40.66345336],[-73.85568461,40.66386749],[-73.85763323,40.67165619],[-73.8603852,40.67125171],[-73.86234581,40.67916479],[-73.86328297,40.67907937],[-73.86410097,40.68237285],[-73.86601993,40.68191959],[-73.86659848,40.68526956],[-73.86868454,40.69403469],[-73.86840519,40.69473119],[-73.86891763,40.69514656],[-73.87402053,40.6941913],[-73.87950641,40.69114677],[-73.88377699,40.68786341],[-73.88452251,40.68668475],[-73.88808342,40.68529363],[-73.88962788,40.68423645],[-73.89015419,40.68500399],[-73.89258303,40.68349191],[-73.89417463,40.68528325],[-73.89577945,40.68349718],[-73.89646625,40.68233642],[-73.90116155,40.68787794],[-73.90042465,40.6881839],[-73.90188776,40.69107772],[-73.90058403,40.69239779],[-73.90074962,40.69248266],[-73.90020196,40.69339846],[-73.89736266,40.69411085],[-73.89691021,40.69384227],[-73.8974273,40.69328898],[-73.89768632,40.69336526],[-73.89695654,40.69194921],[-73.89474271,40.69263695],[-73.8932621,40.69220095],[-73.89357935,40.69308533],[-73.89398113,40.69307597],[-73.89558625,40.69397916],[-73.89507694,40.69459139],[-73.89245208,40.69522573],[-73.89190386,40.69431534],[-73.88818205,40.69505777],[-73.88865417,40.69582955],[-73.8864853,40.69643991],[-73.88765156,40.69732519],[-73.88818026,40.69885791],[-73.88771298,40.69967808],[-73.88492223,40.70010403],[-73.88513902,40.7015857],[-73.8846585,40.70162652],[-73.88652827,40.70622521],[-73.88554947,40.70615462],[-73.88553214,40.70644568],[-73.88377297,40.7062942],[-73.86911007,40.70708934],[-73.8701788,40.70923187],[-73.86500982,40.71077691],[-73.85965417,40.71337996],[-73.85975933,40.71184506],[-73.85729287,40.71146768]]]]}}]}