{"type":"FeatureCollection","features":[{"type":"Feature","properties":{"district":"51"},"geometry":{"type":"Polygon","coordinates":[[[-74.11338341,40.54807338],[-74.11473781,40.54799661],[-74.11546178,40.54751536],[-74.11608005,40.54786495],[-74.11654532,40.54787239],[-74.11804133,40.54730661],[-74.1197781,40.54547046],[-74.12160135,40.54527789],[-74.1224996,40.54485811],[-74.1242445,40.54311038],[-74.12638185,40.54052076],[-74.13071184,40.53453508],[-74.13356443,40.53151117],[-74.13690799,40.52928192],[-74.13728504,40.52974047],[-74.13825141,40.52969134],[-74.13892892,40.53003496],[-74.13915076,40.53152011],[-74.14061093,40.5341306],[-74.14036958,40.53530749],[-74.14004132,40.53548821],[-74.1384365,40.53521924],[-74.13576761,40.53523225],[-74.13482603,40.53529971],[-74.13381005,40.53564294],[-74.13302612,40.53624034],[-74.13336905,40.5363562],[-74.13301208,40.53625607],[-74.1331612,40.536374],[-74.13294266,40.53632203],[-74.13119546,40.53787241],[-74.13152565,40.53771854],[-74.1312927,40.5379567],[-74.13181387,40.53830736],[-74.13211244,40.5380523],[-74.13169768,40.53785712],[-74.13184627,40.53773464],[-74.13213561,40.53803313],[-74.13242439,40.53777496],[-74.13191182,40.53753284],[-74.13207952,40.53739503],[-74.13245303,40.53776028],[-74.1327548,40.53750454],[-74.13223596,40.53726255],[-74.13239802,40.53711886],[-74.13277604,40.53748401],[-74.13307446,40.53722912],[-74.13255786,40.53699141],[-74.1327356,40.53685454],[-74.13309458,40.53721202],[-74.13339187,40.53695798],[-74.13287438,40.53671963],[-74.13303509,40.53657488],[-74.13341004,40.53693972],[-74.13386054,40.53659796],[-74.12996934,40.53996777],[-74.13020869,40.53970266],[-74.12968376,40.53947172],[-74.12984556,40.53932686],[-74.13022754,40.53968372],[-74.13052164,40.53942556],[-74.13000273,40.53917239],[-74.13016936,40.53903288],[-74.13054177,40.53940931],[-74.13083907,40.53914759],[-74.13032245,40.53890047],[-74.13048528,40.53875892],[-74.13085919,40.53913134],[-74.13115329,40.53887357],[-74.13065428,40.53861731],[-74.13079972,40.53849249],[-74.13117437,40.53885516],[-74.13147424,40.53859831],[-74.13097509,40.53834175],[-74.13111962,40.53821889],[-74.1314974,40.53858138],[-74.13179351,40.53832599],[-74.13116466,40.53790014],[-74.12813326,40.54055297],[-74.12756315,40.54145398],[-74.12739261,40.54243403],[-74.12767003,40.54338135],[-74.12792831,40.54337325],[-74.12756661,40.54349933],[-74.12762994,40.54360889],[-74.12798968,40.54348434],[-74.12781893,40.5435644],[-74.12822972,40.54415467],[-74.1296493,40.5456638],[-74.1311069,40.5463873],[-74.13346993,40.54685516],[-74.13585713,40.5464517],[-74.13641153,40.54625235],[-74.13651613,40.54591475],[-74.13709628,40.54595222],[-74.13717987,40.54579286],[-74.13626085,40.5449633],[-74.13611541,40.54501985],[-74.1363838,40.54485467],[-74.13628433,40.54494704],[-74.13719288,40.54578429],[-74.13750834,40.54557756],[-74.1367337,40.54480374],[-74.13658907,40.54484549],[-74.13687349,40.54468259],[-74.13674889,40.54478258],[-74.13794966,40.54600034],[-74.13886951,40.5451302],[-74.13762431,40.54425357],[-74.13775621,40.54414493],[-74.13767918,40.54425863],[-74.13875535,40.54493396],[-74.13901965,40.54471556],[-74.13786799,40.54405254],[-74.13804347,40.54390456],[-74.13903307,40.54470491],[-74.13953938,40.54429514],[-74.13914541,40.54450958],[-74.13903266,40.5444281],[-74.13942069,40.54420594],[-74.13928767,40.54411659],[-74.13897454,40.5443761],[-74.13922033,40.5440667],[-74.13908267,40.54396822],[-74.1388757,40.54424356],[-74.13872812,40.54413002],[-74.13907751,40.54396015],[-74.13883461,40.54379136],[-74.13858581,40.54410464],[-74.13841536,40.54397843],[-74.13882325,40.54378405],[-74.13853996,40.54358793],[-74.13827964,40.54386669],[-74.13815069,40.54377204],[-74.1385265,40.54357854],[-74.13834151,40.54355183],[-74.13852283,40.54340155],[-74.13845972,40.54350629],[-74.13859005,40.54345034],[-74.13956972,40.54427227],[-74.13983698,40.54405246],[-74.13870632,40.54329141],[-74.13890637,40.54313178],[-74.1387714,40.54329133],[-74.13903672,40.54322699],[-74.13898356,40.54338441],[-74.1396764,40.543889],[-74.13988897,40.54375247],[-74.13970351,40.54390878],[-74.13986527,40.54402684],[-74.14001284,40.54383043],[-74.14038573,40.54403319],[-74.14032849,40.54380209],[-74.13934995,40.54309609],[-74.13921993,40.54316609],[-74.1394081,40.54301658],[-74.14029572,40.54364046],[-74.14012638,40.54351339],[-74.14028735,40.54338507],[-74.13936133,40.54282586],[-74.13953682,40.54268215],[-74.14030634,40.54336711],[-74.14062716,40.54311303],[-74.13963169,40.5425411],[-74.1398586,40.54235718],[-74.13977485,40.54246405],[-74.14064615,40.54309421],[-74.1408452,40.54293884],[-74.14132427,40.54309413],[-74.14040685,40.54236086],[-74.1401651,40.54236622],[-74.14033528,40.54222821],[-74.14020724,40.54236522],[-74.14040656,40.54232708],[-74.14141074,40.54302242],[-74.14107892,40.54279117],[-74.14108437,40.54263891],[-74.14132653,40.54274705],[-74.14114311,40.54258766],[-74.14133547,40.54258879],[-74.1402629,40.54196151],[-74.14049581,40.54206086],[-74.14067998,40.54190859],[-74.1406192,40.54205602],[-74.14134901,40.54257752],[-74.14146152,40.5424839],[-74.14129442,40.54233588],[-74.14148097,40.54246771],[-74.14134855,40.54229046],[-74.14154958,40.54241062],[-74.1417972,40.54220042],[-74.14089451,40.54157111],[-74.14063984,40.54169454],[-74.14095817,40.54143208],[-74.14089478,40.54153709],[-74.14187308,40.54216666],[-74.14169237,40.54234784],[-74.14229899,40.54225211],[-74.14218344,40.54201786],[-74.14247662,40.54133371],[-74.14177661,40.54008846],[-74.14200459,40.53956796],[-74.14172893,40.53933948],[-74.14230351,40.53906998],[-74.14176588,40.53854204],[-74.14226513,40.53814035],[-74.14183789,40.53842162],[-74.14222992,40.53811445],[-74.14216718,40.53793276],[-74.14121865,40.537254],[-74.14104158,40.53734688],[-74.14129825,40.53713818],[-74.14218575,40.53791778],[-74.14238964,40.53775326],[-74.14158288,40.53708758],[-74.14305163,40.53723987],[-74.14383386,40.53713691],[-74.1447407,40.53580104],[-74.14543374,40.53582307],[-74.14602008,40.53555353],[-74.1459967,40.53539039],[-74.14669648,40.53541431],[-74.14921733,40.53424159],[-74.14977717,40.53388787],[-74.14975846,40.5334243],[-74.15069554,40.53254584],[-74.15112026,40.53274138],[-74.15175799,40.53240179],[-74.15185338,40.53216402],[-74.15245661,40.53206794],[-74.15400108,40.53083155],[-74.15389832,40.53067377],[-74.15410382,40.53076082],[-74.15462808,40.5303543],[-74.15454357,40.53006214],[-74.15492895,40.53022548],[-74.15564782,40.52964298],[-74.15550357,40.52943803],[-74.15573153,40.5296009],[-74.15599,40.5294196],[-74.15644868,40.52893184],[-74.15618732,40.52861137],[-74.15667105,40.52899331],[-74.15701862,40.52897766],[-74.15826103,40.5283005],[-74.15797239,40.52806709],[-74.15832645,40.52827843],[-74.15970135,40.52729599],[-74.16030426,40.52755575],[-74.16158217,40.52701348],[-74.16227196,40.52719426],[-74.16999711,40.52304577],[-74.17050792,40.52304872],[-74.17128682,40.52345777],[-74.17269667,40.52296874],[-74.17601245,40.52087596],[-74.17758296,40.51923087],[-74.17831877,40.51994579],[-74.17925176,40.51998745],[-74.17981017,40.52055234],[-74.18105193,40.52066325],[-74.18243461,40.52031821],[-74.18483116,40.51934136],[-74.18656733,40.51811585],[-74.18849872,40.51631273],[-74.18926876,40.51534498],[-74.18884298,40.51508717],[-74.18971218,40.51532038],[-74.19178923,40.51305164],[-74.19344318,40.51156731],[-74.19409644,40.51064124],[-74.1952134,40.50997765],[-74.19649937,40.50992353],[-74.19860832,40.51119702],[-74.19967205,40.51142685],[-74.20005926,40.51261937],[-74.19892573,40.51277731],[-74.19907307,40.51308388],[-74.1999566,40.51293022],[-74.20082898,40.5130307],[-74.20756867,40.51185615],[-74.20968789,40.51079737],[-74.20918997,40.51049906],[-74.209322,40.51039863],[-74.20971374,40.5107777],[-74.20985338,40.51067193],[-74.21179183,40.50817327],[-74.2133817,40.50676629],[-74.21353131,40.50639748],[-74.21385534,40.50660702],[-74.2143425,40.50651891],[-74.21510816,40.50605976],[-74.21591242,40.50537109],[-74.2175824,40.50334139],[-74.21977016,40.50274269],[-74.22304658,40.50247818],[-74.22500232,40.5017703],[-74.22729414,40.5022975],[-74.22971584,40.50208569],[-74.23033893,40.50180418],[-74.23055402,40.50194685],[-74.23124443,40.50182686],[-74.23359904,40.50091253],[-74.23526496,40.50060603],[-74.23678846,40.50000084],[-74.2376677,40.49912326],[-74.23798737,40.49916598],[-74.23851322,40.49889608],[-74.23984851,40.49758301],[-74.24432798,40.49754674],[-74.24548939,40.49704477],[-74.24676103,40.49613399],[-74.2483745,40.4963306],[-74.24971718,40.49688596],[-74.25085489,40.49800616],[-74.25110411,40.4989342],[-74.25259983,40.49964308],[-74.25316125,40.50012538],[-74.25527947,40.50405553],[-74.2553071,40.50653645],[-74.2555718,40.50776311],[-74.25524818,40.50824323],[-74.25462857,40.50867483],[-74.2549729,40.50880566],[-74.25461851,40.50868391],[-74.25399753,40.50897031],[-74.25403805,40.50925267],[-74.25431454,40.50941369],[-74.2540207,40.50927298],[-74.25368912,40.5094256],[-74.25464651,40.50982625],[-74.25452622,40.50997302],[-74.25364813,40.50947053],[-74.2533158,40.5098615],[-74.25306395,40.51105526],[-74.25325807,40.51108869],[-74.25300847,40.51119399],[-74.25352685,40.51167777],[-74.25303635,40.51143316],[-74.25308951,40.51212196],[-74.25195197,40.512997],[-74.25212591,40.51371038],[-74.25135331,40.5143929],[-74.25011171,40.51504482],[-74.25007569,40.51521909],[-74.25055526,40.51571634],[-74.25015627,40.51536119],[-74.24988825,40.51552155],[-74.25056007,40.51610674],[-74.25041536,40.51618834],[-74.24935661,40.51500593],[-74.24921529,40.51508486],[-74.24994159,40.51613749],[-74.24943097,40.51568789],[-74.24864765,40.51611263],[-74.24875958,40.51635622],[-74.24854589,40.51616992],[-74.24860081,40.51631333],[-74.24828422,40.51648695],[-74.24894625,40.51719454],[-74.24940771,40.51698083],[-74.24851449,40.51747563],[-74.24891911,40.51720843],[-74.24751812,40.51573586],[-74.24693048,40.51606645],[-74.2464404,40.51596503],[-74.24612858,40.51613739],[-74.24674997,40.51649561],[-74.2465104,40.51666986],[-74.24699557,40.51718209],[-74.246479,40.51668733],[-74.24653683,40.51695996],[-74.2463497,40.51675337],[-74.24520862,40.51728974],[-74.24566989,40.51778971],[-74.24563473,40.51807558],[-74.24508804,40.51806684],[-74.24429835,40.518515],[-74.24365229,40.51829461],[-74.24232478,40.51832653],[-74.24103123,40.51954251],[-74.2404907,40.51919163],[-74.23982258,40.52009071],[-74.24073285,40.52056915],[-74.24117294,40.52106013],[-74.2413322,40.52089452],[-74.24293235,40.52122716],[-74.24258376,40.52219865],[-74.24280157,40.5240073],[-74.24335793,40.52481891],[-74.24396501,40.52490537],[-74.24333884,40.52585381],[-74.24288674,40.52729734],[-74.24288671,40.52820013],[-74.24251029,40.52844594],[-74.24218802,40.52943755],[-74.24224528,40.52982278],[-74.24168936,40.53057404],[-74.24150791,40.53127325],[-74.24171924,40.53160973],[-74.24181062,40.53256268],[-74.242178,40.53257614],[-74.242282,40.5333875],[-74.24196286,40.53365294],[-74.24221153,40.53460414],[-74.2426329,40.53478335],[-74.24295641,40.53540676],[-74.24371359,40.53609456],[-74.24412496,40.5361963],[-74.24397903,40.53651791],[-74.24416392,40.53689367],[-74.24458754,40.53693293],[-74.24493693,40.53666388],[-74.24534807,40.53692952],[-74.24480105,40.53738539],[-74.24442749,40.53801643],[-74.24539376,40.53955167],[-74.24560206,40.54094959],[-74.24599285,40.54127893],[-74.24648615,40.54221339],[-74.24767778,40.5431254],[-74.24803464,40.54309324],[-74.24613744,40.54569645],[-74.24336347,40.54786514],[-74.24358448,40.54762399],[-74.24293586,40.54711322],[-74.24220318,40.54694868],[-74.24039183,40.54766331],[-74.23837191,40.54914157],[-74.23761963,40.55012347],[-74.2364146,40.55050822],[-74.23616473,40.55142942],[-74.23650799,40.55202727],[-74.23639962,40.55233533],[-74.23489866,40.55300522],[-74.23377755,40.5525142],[-74.23334188,40.55249971],[-74.23229113,40.5533637],[-74.23193331,40.55414983],[-74.23075511,40.55553666],[-74.23024952,40.55538675],[-74.22931954,40.55549159],[-74.22931328,40.55581747],[-74.2287243,40.55629702],[-74.22816155,40.55637652],[-74.22743683,40.55603853],[-74.22640495,40.55625571],[-74.22390334,40.55589707],[-74.22386421,40.55609769],[-74.22344265,40.55604657],[-74.22378607,40.55588027],[-74.22316129,40.55578714],[-74.2229722,40.55550337],[-74.22257487,40.55540621],[-74.22179864,40.55541707],[-74.22157007,40.55564898],[-74.22129865,40.55536622],[-74.22097905,40.5559118],[-74.22062176,40.55589882],[-74.22018456,40.55542559],[-74.22005143,40.55484191],[-74.21974357,40.55461267],[-74.21908061,40.554847],[-74.2192864,40.55579538],[-74.21891391,40.55477766],[-74.21853982,40.55470739],[-74.21881906,40.55587472],[-74.21870768,40.55604102],[-74.21775342,40.55500528],[-74.21604246,40.55554412],[-74.21474053,40.55624239],[-74.21499257,40.55679493],[-74.2146234,40.55691336],[-74.21422699,40.55655732],[-74.21395537,40.55665715],[-74.21376467,40.55639694],[-74.21327457,40.55662493],[-74.21313586,40.55705101],[-74.21264344,40.55728973],[-74.21267303,40.55764756],[-74.21199843,40.55837807],[-74.2117562,40.55912476],[-74.21197029,40.55929774],[-74.21188042,40.55959694],[-74.2111744,40.56045988],[-74.21134005,40.56123035],[-74.211096,40.56213147],[-74.21137998,40.56349221],[-74.21072668,40.56527391],[-74.20962825,40.56731836],[-74.20953467,40.56792805],[-74.20932175,40.5680253],[-74.20886661,40.56890979],[-74.20892636,40.5696243],[-74.20801705,40.57051796],[-74.20816851,40.57071942],[-74.20783559,40.57261],[-74.207078,40.57426634],[-74.20728431,40.57525453],[-74.20681206,40.57592202],[-74.20708917,40.57630559],[-74.20658041,40.57665274],[-74.20653125,40.57690164],[-74.20680828,40.57717957],[-74.20632344,40.57753882],[-74.20591733,40.57861665],[-74.20606649,40.57960327],[-74.20408147,40.5794749],[-74.20313014,40.57959909],[-74.19925581,40.57918075],[-74.19176844,40.57662364],[-74.18687589,40.5770551],[-74.18539733,40.57652121],[-74.18491375,40.57653779],[-74.18503548,40.57676264],[-74.18485533,40.57683382],[-74.18303039,40.57683449],[-74.18217121,40.57664823],[-74.18035258,40.5772166],[-74.18034267,40.57751437],[-74.17988881,40.57776534],[-74.17832137,40.57947881],[-74.17826052,40.58031985],[-74.17798159,40.58063306],[-74.17845319,40.58142707],[-74.17867093,40.58229525],[-74.17931793,40.58319867],[-74.1806946,40.58418111],[-74.18133669,40.58509469],[-74.18129985,40.58560381],[-74.18104498,40.58590398],[-74.18015995,40.58616043],[-74.17977567,40.58598631],[-74.17970852,40.58631108],[-74.17907405,40.58638777],[-74.17913526,40.58696959],[-74.17981972,40.58710157],[-74.17965585,40.58737176],[-74.1785467,40.58822316],[-74.17781075,40.58819151],[-74.1773973,40.5883863],[-74.1773759,40.58859553],[-74.17652852,40.58882349],[-74.17638411,40.58919027],[-74.17587065,40.58941282],[-74.17570799,40.58977364],[-74.17484895,40.59005377],[-74.17510751,40.59017673],[-74.17494634,40.59033303],[-74.17329788,40.59013479],[-74.17157852,40.59034814],[-74.16741384,40.59208652],[-74.165305,40.59212659],[-74.16448363,40.59248442],[-74.1643769,40.59284224],[-74.16360268,40.5933742],[-74.16673712,40.59383005],[-74.16886362,40.59472809],[-74.16828458,40.59643317],[-74.16719635,40.60207531],[-74.16329246,40.60168212],[-74.16259281,40.5986087],[-74.16164192,40.59871788],[-74.16143657,40.59762885],[-74.16093892,40.59767445],[-74.16079851,40.59677147],[-74.16145008,40.59670563],[-74.16138795,40.5964283],[-74.15965237,40.59646657],[-74.15522698,40.59553309],[-74.14567103,40.58993632],[-74.14632131,40.5860693],[-74.14762041,40.58501947],[-74.14727484,40.58501222],[-74.1508845,40.58217578],[-74.15172599,40.58101675],[-74.15230806,40.5805793],[-74.15252765,40.58061699],[-74.15092647,40.57963374],[-74.15035353,40.57784438],[-74.14757025,40.57520949],[-74.14682343,40.57419721],[-74.14707638,40.57341589],[-74.14655277,40.57305056],[-74.14723568,40.57146106],[-74.15171497,40.56788728],[-74.14261352,40.55988196],[-74.14168877,40.55964331],[-74.13925274,40.55843465],[-74.13818001,40.55759387],[-74.135613,40.55898003],[-74.13480973,40.56082862],[-74.1334074,40.56212981],[-74.13310979,40.56286769],[-74.13173623,40.56453952],[-74.13091292,40.5642998],[-74.13055427,40.56438981],[-74.13014476,40.56287171],[-74.12954378,40.56243094],[-74.13006143,40.56200039],[-74.1296661,40.56160915],[-74.1296539,40.56108419],[-74.12871497,40.55824271],[-74.11945859,40.55222191],[-74.11953476,40.55163025],[-74.11655369,40.54885707],[-74.11624143,40.54877724],[-74.11467869,40.54930212],[-74.11338341,40.54807338]]]}}]}