{"type":"FeatureCollection","features":[{"type":"Feature","properties":{"district":"41"},"geometry":{"type":"Polygon","coordinates":[[[-73.92631613,40.69192845],[-73.91151193,40.68350499],[-73.91181302,40.68317968],[-73.91075317,40.678277],[-73.91123038,40.67307849],[-73.90924003,40.67295428],[-73.90787712,40.67356681],[-73.90733679,40.67150581],[-73.90830768,40.67136417],[-73.90796993,40.67009763],[-73.90420036,40.67065762],[-73.9011859,40.65891446],[-73.91402878,40.65700371],[-73.91377944,40.65678368],[-73.91996204,40.65278827],[-73.92077367,40.65255431],[-73.92654699,40.65239137],[-73.93038144,40.65173405],[-73.93617545,40.65146837],[-73.9366847,40.65624182],[-73.93090355,40.65661036],[-73.93108323,40.65829592],[-73.93686393,40.65794217],[-73.93739694,40.66292038],[-73.93707477,40.66464422],[-73.93153907,40.66434291],[-73.93095113,40.67058281],[-73.92541348,40.67027885],[-73.92524559,40.67206205],[-73.92801318,40.67220921],[-73.92735542,40.67918252],[-73.92526529,40.67907321],[-73.9280416,40.69290561],[-73.92631613,40.69192845]]]}}]}