{"type":"FeatureCollection","features":[{"type":"Feature","properties":{"district":"31"},"geometry":{"type":"MultiPolygon","coordinates":[[[[-73.9264055692112,40.87762147653752],[-73.92629548797375,40.87748846809064],[-73.92645784900999,40.8772581885064],[-73.92619292255569,40.8770644193885],[-73.92457036991186,40.87742891263349],[-73.92329476733978,40.87726443495743],[-73.92239768169317,40.87678022314138],[-73.92266803986718,40.87498199095829],[-73.92257636819028,40.874295182420376],[-73.92208320142338,40.87358380809598],[-73.92111741577973,40.8730334551864],[-73.92029230572703,40.873098416622796],[-73.91979301672416,40.873606512158005],[-73.92062699165683,40.874234811128964],[-73.92080255630347,40.874194058866884],[-73.92070010598974,40.8743919336096],[-73.92118186508976,40.875137840850826],[-73.92080609644053,40.875477492470296],[-73.91887525897235,40.87467899639279],[-73.91927438318044,40.87365188040224],[-73.91849995662193,40.87319171560401],[-73.91859729866316,40.87349549732527],[-73.91792902917979,40.87397889320524],[-73.9175772988473,40.874548678547384],[-73.91787144917501,40.87390499528883],[-73.91643573932127,40.87450969873357],[-73.9152240214605,40.8744866218683],[-73.91261073308553,40.87375731612324],[-73.91151516123315,40.87323662962549],[-73.91064877277739,40.87229624896337],[-73.9104264404849,40.87148543806223],[-73.91072355879885,40.8709488361422],[-73.91092491224224,40.8694365913543],[-73.91147448899117,40.869454757638515],[-73.91103057950258,40.86915540299616],[-73.91114869895928,40.868880215240594],[-73.91273173919514,40.86660521271149],[-73.91254775130287,40.86651494300453],[-73.9139186313323,40.86474558440381],[-73.91492387927858,40.864580378919314],[-73.91441113392682,40.86417362687317],[-73.91508583854328,40.86444814341747],[-73.91592270819694,40.86428040140247],[-73.91519574800158,40.86394522423354],[-73.91517556429707,40.86368043375115],[-73.91547682444252,40.86334610729697],[-73.91538673051132,40.86308438420091],[-73.91729467741676,40.86167941823085],[-73.91950213660932,40.85879113379065],[-73.92047868273168,40.85910409209902],[-73.92127091296308,40.86018804281688],[-73.92159014848224,40.860072800027055],[-73.92186633783712,40.859181339647414],[-73.92130672674394,40.858899312866065],[-73.92091459857718,40.85821896714047],[-73.9211439658905,40.85755122405781],[-73.92237695742358,40.856583569625016],[-73.92234459374129,40.85568233581504],[-73.92169841904696,40.85667230185513],[-73.92151894059094,40.85660117062342],[-73.9244406513995,40.85284047270461],[-73.92971850477585,40.845231777761406],[-73.93089465201413,40.842538340142085],[-73.93445239397379,40.835980960150096],[-73.93463510596277,40.83605019207736],[-73.93848743202628,40.83299450384498],[-73.9401413121009,40.8303719888809],[-73.94827676857172,40.833865456098245],[-73.9489054322004,40.83406529937929],[-73.94934122777464,40.83398211496264],[-73.95021218560021,40.83430311995857],[-73.94954600729368,40.836604371501984],[-73.94928285089019,40.836740786563425],[-73.94954210504473,40.83687963192587],[-73.94856054520515,40.83956488516192],[-73.94738322154257,40.841940825802105],[-73.94612416421772,40.843892496557295],[-73.94617174983877,40.84539289158086],[-73.94651730200607,40.845995183901344],[-73.9463507804993,40.846240331289444],[-73.94682445342679,40.847134261567405],[-73.94663550012669,40.84891242505988],[-73.94702782494728,40.85004183181262],[-73.9469644175959,40.85046552581838],[-73.94650229458638,40.85097566560892],[-73.94627501496706,40.85084097717317],[-73.94611744105177,40.85117258251735],[-73.94565283626443,40.85121109783884],[-73.94466721178145,40.851921226006965],[-73.94432518482476,40.85182257643882],[-73.94347978545657,40.85228188244474],[-73.94186996426673,40.85386773944302],[-73.9402934749712,40.856641770657816],[-73.93911094164396,40.858040911225906],[-73.93830957434292,40.859380523608294],[-73.93752944172567,40.860096641282254],[-73.93647561664855,40.86192659167351],[-73.93401664426698,40.86503554829183],[-73.93266332721451,40.86723706643717],[-73.93290171891765,40.867293043899906],[-73.93283958205068,40.86741527691162],[-73.9325979485281,40.86731134967057],[-73.93242538215397,40.867568247921255],[-73.93226769826255,40.86856231897257],[-73.93249214298633,40.868677519159895],[-73.93265083512807,40.8684650334821],[-73.93252354560028,40.86872207835914],[-73.93225427749145,40.86868339885568],[-73.93256795169869,40.86904439147401],[-73.93218903826079,40.8693669763893],[-73.93246883069897,40.86947609938721],[-73.93235370807281,40.86975525529681],[-73.93235934465993,40.869507363219554],[-73.9321333660305,40.869415975441214],[-73.9320534384771,40.869600750744546],[-73.93220600531866,40.87009644510462],[-73.93191377136804,40.87112949372296],[-73.92997686743148,40.874338962330604],[-73.92901345809784,40.87573866009034],[-73.92814623603574,40.87652252894417],[-73.92753082127489,40.87671053481323],[-73.9264055692112,40.87762147653752]]],[[[-73.92359742020388,40.878898712992836],[-73.92359742020388,40.878898712992836]]],[[[-73.90230932953754,40.88723725965637],[-73.89972588559925,40.886514887010435],[-73.88889642247364,40.88450391915978],[-73.89038092790466,40.88251645954033],[-73.88859661906756,40.88276833740011],[-73.88758612608831,40.884255619663165],[-73.88705142602343,40.8843495758468],[-73.88716505265276,40.88257651139566],[-73.88803890887162,40.88278092614762],[-73.88997537554081,40.880233131422344],[-73.8912357369365,40.879161080245744],[-73.89212875531864,40.87805780228235],[-73.88965884668134,40.876974837252575],[-73.89444825262913,40.87072346107375],[-73.89521030470381,40.87030825674368],[-73.89740323298727,40.86747418971138],[-73.89631315736116,40.867038575444795],[-73.89692546643059,40.866251492878455],[-73.89797842705786,40.86672770770559],[-73.90162785087746,40.86205443458026],[-73.90254479392584,40.8605782553365],[-73.90351390564135,40.860917510150976],[-73.90486847215521,40.858693224709015],[-73.90777484290884,40.859609519622246],[-73.90966747830903,40.85748494865335],[-73.91041222452702,40.8557283659989],[-73.91119580665007,40.8548222942543],[-73.91007275339904,40.85446950339607],[-73.91020415615824,40.85418985841145],[-73.91117309191935,40.852879925150354],[-73.91257806362131,40.85183047651942],[-73.91184319791215,40.851445343522855],[-73.91232375082822,40.850555996629645],[-73.91287421490628,40.850125060221615],[-73.91396732337198,40.8486088838936],[-73.91197263841478,40.8482295954338],[-73.91412710507838,40.84522891448205],[-73.92392588069085,40.844786781335515],[-73.9256420569784,40.844900946698594],[-73.92804748401839,40.84546459595471],[-73.92683023216802,40.84728976018874],[-73.92465379930334,40.849785043513236],[-73.92394789435293,40.85122178461628],[-73.92174035403008,40.8542212378407],[-73.92154261803914,40.85411688338193],[-73.92134207683857,40.854317435657876],[-73.92151543705522,40.85451006389157],[-73.92080070289325,40.85538081439473],[-73.92030027213424,40.85524637134164],[-73.92052653132843,40.855686668401994],[-73.9195662094468,40.85684018368834],[-73.91776041251106,40.85870809795846],[-73.91720664646986,40.85892892323731],[-73.91341462193644,40.86336749370088],[-73.91276271995461,40.86302917415775],[-73.91227278976973,40.8636321489969],[-73.91279762128934,40.86389887543301],[-73.9125260451679,40.86379522383795],[-73.9126763402038,40.86402111160263],[-73.9103758989753,40.86665464468961],[-73.90949664378522,40.868831156641114],[-73.90893714929886,40.87101984030904],[-73.90864943177567,40.87138578380349],[-73.90893235241582,40.8721573479708],[-73.90971690006444,40.87320461141724],[-73.91092118009635,40.874146396040274],[-73.915785155719,40.87571694506451],[-73.9148462409017,40.87666671027622],[-73.91205829964011,40.87811932004836],[-73.9114891319045,40.87901885880971],[-73.91033193566412,40.87903804730746],[-73.90967868322763,40.87951458833859],[-73.910339762903,40.880052398007585],[-73.9105257598396,40.88047786940489],[-73.9114480216814,40.880076273279045],[-73.91329678501532,40.878772038953635],[-73.91411696260025,40.87933436757354],[-73.91311491977562,40.87982666064872],[-73.91202525286795,40.88081424662522],[-73.91170730045236,40.88070199686868],[-73.9104049282078,40.88349286522737],[-73.90869638170349,40.88376011143112],[-73.90812611213455,40.88531453746919],[-73.90732583312615,40.88517008583252],[-73.90700210601393,40.88584521525113],[-73.90607414979803,40.8856329049186],[-73.90533517129015,40.88735459996922],[-73.90413642428656,40.88708070903226],[-73.90285949062279,40.88916474400594],[-73.90230932953754,40.88723725965637]]]]}}]}