{"type":"FeatureCollection","features":[{"type":"Feature","properties":{"district":"26"},"geometry":{"type":"MultiPolygon","coordinates":[[[[-74.04387761639944,40.69018767587399],[-74.04350596078567,40.68968735963629],[-74.04270428426766,40.6901552046445],[-74.04255372037339,40.68996275979236],[-74.04346752310298,40.689636990606225],[-74.04364078627445,40.688766560072914],[-74.04438521777247,40.688516177900276],[-74.04627539003668,40.68932742589692],[-74.04680284898575,40.689953256266215],[-74.0474765152837,40.68961136999821],[-74.047729627631,40.68991531896879],[-74.0474312612351,40.68980389047109],[-74.04689205500591,40.690059098322806],[-74.04720029366251,40.690424815623935],[-74.0471702948939,40.690991328742676],[-74.04614707208665,40.691122646033364],[-74.04387761639944,40.69018767587399]]],[[[-74.0167475609607,40.69334336821777],[-74.01540359141647,40.6930664973093],[-74.01538919768244,40.693298134665696],[-74.01517482202624,40.69325668033564],[-74.01525951035647,40.69303681423205],[-74.01512878294328,40.69324379583458],[-74.01494315033483,40.69314102193099],[-74.01515612159503,40.693015515394414],[-74.01422123084896,40.69282290584166],[-74.01343563361452,40.69211544203167],[-74.01250258675178,40.692303580463125],[-74.01229731492555,40.69256825483527],[-74.01181185647236,40.69247933506453],[-74.01190309722561,40.69209058350803],[-74.01246140165135,40.692212624918625],[-74.01333264149608,40.69201997010252],[-74.01260856859395,40.691364104127345],[-74.01203417616576,40.691503076685855],[-74.01259753152567,40.69133433554468],[-74.01252783209975,40.691146337338125],[-74.01182575354973,40.691064816216326],[-74.01219500090085,40.69102884756899],[-74.01221017410677,40.69079169680143],[-74.01197151318823,40.690770955509684],[-74.01198056761248,40.69060640727196],[-74.012231311469,40.69046133077529],[-74.01230688304491,40.68928018293776],[-74.01316926402752,40.68815477070077],[-74.01488097975022,40.68725457099129],[-74.01604730539535,40.687338006800495],[-74.01704986609217,40.68687598741661],[-74.01664664084757,40.686416347233504],[-74.01514391088018,40.686437034043095],[-74.01667351529993,40.68630516855369],[-74.0171209910106,40.686843337134135],[-74.02054367293081,40.68527206792613],[-74.02020686710516,40.684833832574654],[-74.01939842391928,40.68508740404737],[-74.02095255010296,40.68438443164738],[-74.02027819846491,40.68480913517466],[-74.02061267235811,40.68524039019821],[-74.02224078898519,40.68451840759948],[-74.02211854383413,40.68435195080165],[-74.02233552903563,40.68447639360439],[-74.02259359581042,40.68435969595013],[-74.02213250186865,40.68376767188283],[-74.02305574749595,40.68291694544531],[-74.02319462834663,40.683000498062334],[-74.0223682355767,40.68377991679415],[-74.0227589902996,40.68428444833244],[-74.02354160370125,40.68400298359273],[-74.02464809241233,40.683978566613234],[-74.02567183758212,40.684236456205234],[-74.02633404242411,40.684801697724346],[-74.02662819083865,40.685526804749834],[-74.02642577243203,40.68617533982978],[-74.02020527434277,40.6920339238544],[-74.01973308196347,40.693114107487055],[-74.0167475609607,40.69334336821777]]],[[[-74.04037134801165,40.70012264306107],[-74.03885397699936,40.69962589529322],[-74.03836269424596,40.69867313747042],[-74.03921649985952,40.698571475606236],[-74.03956713890962,40.69877410432477],[-74.03993272132956,40.69854442229125],[-74.04025555083275,40.698804823307505],[-74.03979339404084,40.698956229496794],[-74.04043303435445,40.699399877628046],[-74.04074713630999,40.70016092580959],[-74.04037134801165,40.70012264306107]]],[[[-73.97906084911834,40.70594602894106],[-73.97932762469661,40.70474627633074],[-73.98027442356288,40.70304140044491],[-73.98002638881495,40.70214046094052],[-73.98090402877473,40.70186142983007],[-73.9806490778781,40.70156087325676],[-73.9808444048812,40.70129523959729],[-73.98476085666294,40.7014393545449],[-73.98482787036372,40.70057697982943],[-73.98544715580434,40.70059289061769],[-73.98314891632944,40.69838165774045],[-73.98054419117841,40.69824651225224],[-73.98035682887027,40.69617751703135],[-73.98138598145908,40.69583035148828],[-73.98239001116718,40.69595109700936],[-73.9825109135378,40.6936066113031],[-73.97782679399332,40.69343813939848],[-73.97754496665291,40.691896388696264],[-73.97894723171525,40.69192080602349],[-73.97862545920039,40.6898389411716],[-73.97312638372786,40.689621888552196],[-73.97306724255836,40.68932456020183],[-73.97354826078622,40.68927254476103],[-73.97351465657064,40.688723714150775],[-73.97326451285039,40.68783469643468],[-73.97275694235444,40.687764524256814],[-73.97268746049896,40.687415193992415],[-73.97461657099588,40.68719070553576],[-73.97428154416714,40.68551308192175],[-73.97307314853371,40.685763053470005],[-73.97276482726946,40.685641292079474],[-73.97260753938154,40.684527443878096],[-73.97218832557749,40.68455976577024],[-73.97212224083478,40.68423784838356],[-73.97253839508359,40.68419521668882],[-73.97229526919232,40.682755620395106],[-73.97595023269956,40.68351323204958],[-73.97838862561674,40.68442334204917],[-73.98003510082275,40.68185262673851],[-73.97495737942046,40.67987711257833],[-73.97532192593967,40.679332775983355],[-73.98046155443677,40.681222546757006],[-73.9808893229375,40.68059334924197],[-73.9791220457723,40.67989497163815],[-73.97954575224068,40.67928239518122],[-73.9761805135232,40.67806432146647],[-73.97661553141224,40.67743049354064],[-73.97910560826203,40.67841206469718],[-73.97959806822246,40.677679998363274],[-73.97710230734715,40.67670718912879],[-73.9788227793999,40.674171012523594],[-73.98242842237016,40.66984713897591],[-73.98006852018518,40.668705440474824],[-73.98056908024876,40.668103297821546],[-73.98293217427899,40.66924495813216],[-73.98343450938486,40.66864204575541],[-73.98107030493122,40.66749813504274],[-73.9815833220518,40.66689247336358],[-73.98394302313046,40.66803081273767],[-73.98644928861923,40.665028464231746],[-73.98880924128984,40.666169518536634],[-73.99108906811847,40.6635897848708],[-73.99334826837313,40.66495497525312],[-73.99392763686835,40.66439977654943],[-73.99167274856696,40.66302868000919],[-74.00682351845911,40.64846488159075],[-74.00462168314371,40.64713100991441],[-74.00578487809275,40.6460180785675],[-74.00358060203985,40.644688607961285],[-74.00591235211326,40.64244496956129],[-74.00811636364485,40.64377628755334],[-74.0127753791903,40.639295632742325],[-74.01497963598209,40.640625468682536],[-74.01616711475117,40.63948244156956],[-74.01843070336915,40.6408373280595],[-74.02262573388921,40.63679904898004],[-74.02351866459269,40.63461578718498],[-74.02101222340077,40.63346837978433],[-74.02173709503877,40.63168788312766],[-74.01925892998652,40.63055955035491],[-74.02027718520772,40.62806209137757],[-74.01863896276926,40.627070526876295],[-74.01926375737062,40.625576263300914],[-74.02007423343322,40.62424643447751],[-74.01861503355354,40.62436918388249],[-74.01214162935817,40.6286843354372],[-74.01050029743425,40.627692799619304],[-74.01224533997598,40.62601560712536],[-74.01004189244219,40.624686202492256],[-74.01062410466348,40.62412551412227],[-74.01282730885728,40.62545573546123],[-74.0134087723857,40.62489587947158],[-74.00900199071451,40.62223556866968],[-74.00783924030348,40.623355603802395],[-74.00563745682207,40.6220235572895],[-74.00447604830414,40.623144189108174],[-74.00227586285989,40.62181427442718],[-74.00759806889579,40.616694461372035],[-74.00539676916912,40.61536287704967],[-74.00951152113721,40.61140615308413],[-74.01025069850942,40.61185336970604],[-74.01376688929142,40.608478685787944],[-74.01522379433119,40.60935638462122],[-74.01729504722125,40.6073795734131],[-74.01822355993617,40.606886520192994],[-74.0204487099754,40.60727423470311],[-74.02477732246024,40.60969599802958],[-74.02710660556804,40.61024395632431],[-74.02637609057152,40.61245060340224],[-74.02792020634243,40.61313593931327],[-74.02740545646252,40.614144475693855],[-74.02892473285044,40.61247770345807],[-74.02825032215712,40.61382209111763],[-74.0289722055474,40.61351613095578],[-74.03016416683977,40.61392701150499],[-74.03255834142918,40.61115589153754],[-74.03191627116118,40.610826056810645],[-74.03314563921784,40.61022748854441],[-74.03603977777915,40.60929563900205],[-74.03695540962869,40.61125601120198],[-74.03902502184346,40.613158975948416],[-74.04013092584209,40.61479191116805],[-74.04047612021486,40.615625263161675],[-74.04161740773569,40.62056271404332],[-74.04189435982956,40.624318218941575],[-74.04106467060343,40.630191783159184],[-74.03680662048852,40.638984221545684],[-74.03876297920756,40.63958825898071],[-74.03868804690734,40.639738256029766],[-74.03672484374883,40.63914119020688],[-74.0357127615073,40.640640154046686],[-74.03673986629568,40.64147636545892],[-74.03670307869112,40.64168561937159],[-74.03407329294261,40.644313932964096],[-74.03287507230115,40.643583315387204],[-74.03264128960302,40.64378731294187],[-74.03229711356379,40.643581313015154],[-74.03254173795645,40.64382548435212],[-74.03226870865824,40.644074379292746],[-74.03189708494338,40.64388934936995],[-74.03051830863396,40.645274424706635],[-74.02908090885776,40.64440359693054],[-74.0291541899453,40.64458144541973],[-74.0288624112706,40.644866024225784],[-74.0290865428924,40.6445830017998],[-74.02850116250606,40.64417756470283],[-74.02819053049342,40.64441433070903],[-74.02845721095781,40.64415605924836],[-74.02820569545007,40.64401598289046],[-74.0260494840032,40.64626135032635],[-74.02974078211051,40.648486025708],[-74.02938990486598,40.64880405461148],[-74.02571758804812,40.64661549229113],[-74.025381492653,40.6469123462267],[-74.02507111430086,40.64672561637863],[-74.0241456605057,40.64761510126002],[-74.0251291195524,40.64832318145743],[-74.02496792117137,40.64860596226769],[-74.02553864578044,40.64978215934824],[-74.02484436363444,40.65059963805718],[-74.02520581187575,40.65081846789953],[-74.02541553929463,40.6506186970827],[-74.02605133196799,40.6509943007433],[-74.02552971543656,40.65147855069301],[-74.02491122849018,40.6511062852909],[-74.0251025719024,40.65089330557706],[-74.02477160495674,40.65068770743557],[-74.0242402134753,40.65113351631357],[-74.02550139045745,40.651839851034374],[-74.02541604028593,40.65193380685525],[-74.02417752973396,40.651191773212354],[-74.0235940029519,40.65131566325391],[-74.0230599104703,40.65097430413495],[-74.02285141795983,40.65116919516191],[-74.02536890150519,40.652721436927436],[-74.02522662972662,40.65282985695983],[-74.02154138319224,40.65067162291142],[-74.0212465237341,40.650834972564496],[-74.02139188210673,40.65096775798854],[-74.02105230392215,40.65109828292791],[-74.02233734666834,40.65191060538179],[-74.02089862870834,40.65124727521847],[-74.02380703903127,40.65304472851167],[-74.02359434497556,40.653216368961935],[-74.02195900090598,40.65222278197094],[-74.02162153367617,40.6523199512907],[-74.0211867002789,40.65283983689552],[-74.02320464727141,40.654096116818046],[-74.0230621908923,40.65423323629213],[-74.02210195162469,40.653587954310396],[-74.02162946295498,40.653645165216226],[-74.02114963484493,40.65421075521175],[-74.021824797455,40.654656175785576],[-74.02164486415376,40.65487898288005],[-74.02047461820185,40.65421658922733],[-74.01919203025422,40.65402259849431],[-74.01872686588685,40.65347431052458],[-74.01811897876486,40.65388527160802],[-74.02025589052927,40.655118262881324],[-74.02005182454297,40.655335948874644],[-74.01787407223816,40.65406150233102],[-74.01715319581027,40.65477510436229],[-74.01980081651999,40.65648721058484],[-74.01970596410233,40.656581163751206],[-74.01726715936587,40.655194187986666],[-74.01691617851073,40.65548327495794],[-74.01665047959762,40.65533879657235],[-74.01639437533777,40.65562064285095],[-74.01910843803122,40.657368884303644],[-74.01860569460999,40.65784587402304],[-74.01585370056816,40.656213240053006],[-74.01543632269649,40.656632396759846],[-74.01774232727493,40.658098916725116],[-74.01786573109679,40.658308447298715],[-74.01768549175469,40.6584529927614],[-74.01504738221857,40.656950386693595],[-74.01442130484553,40.65760802195157],[-74.01745803087904,40.6594501973869],[-74.01554165389007,40.6607583554763],[-74.01400428392415,40.65981196344029],[-74.01366273992603,40.66002878063704],[-74.01183862056553,40.658912837274904],[-74.0111075041031,40.659706274580806],[-74.01402247678024,40.661529747440255],[-74.01315554938815,40.661981597726125],[-74.01265358811494,40.66198165403776],[-74.0085995696829,40.65952092309843],[-74.00745858163896,40.66055847621009],[-74.01037201297223,40.66239887973013],[-74.01046331724494,40.66264211979023],[-74.00955074142036,40.66326769413055],[-74.00868371591301,40.663372012840405],[-74.00616141136321,40.66184506899067],[-74.00568594756892,40.662274740360694],[-74.00428358250124,40.661444894101464],[-74.00414624892214,40.66156163568148],[-74.00622698247925,40.662787827861145],[-74.00592360503035,40.66310825073926],[-74.00380815470885,40.66190794572834],[-74.0034880110065,40.66224055612868],[-74.00455498488712,40.66281637291291],[-74.00473298121777,40.66249650399685],[-74.00535812864251,40.6628691297319],[-74.00497157758612,40.66306821324226],[-74.00519233775087,40.66320155309677],[-74.00538014413925,40.66288392695557],[-74.00599748682693,40.66325861082871],[-74.0056134868175,40.66345839025494],[-74.00767434594506,40.66479110926594],[-74.00730516126835,40.66459759075276],[-74.0071253264674,40.664915218474476],[-74.00652469600118,40.664547227160554],[-74.00688215307306,40.66434037294312],[-74.0066293785957,40.66418793012463],[-74.00644979980794,40.664506206799246],[-74.00584157632485,40.664138020674756],[-74.00620306585375,40.66393016821067],[-74.0060460851898,40.66384000563571],[-74.00575781045487,40.6639227568018],[-74.00584924770611,40.66450329861985],[-74.0056414075448,40.6645314913934],[-74.00565025959585,40.66390033784394],[-74.00362862508567,40.66273484753474],[-74.00340348595628,40.66298572609586],[-74.00459238636753,40.663735199833035],[-74.00432294897378,40.66405231997546],[-74.00528132177341,40.664657003524155],[-74.00486193792659,40.665064821938365],[-74.0011351950966,40.6629017235527],[-74.00049413361153,40.66331422709351],[-73.99953152609916,40.664397485937094],[-74.00292463516388,40.666462312163574],[-74.00224030991377,40.66679383514536],[-74.00161950021092,40.66676627917465],[-74.00120611348311,40.66701810720299],[-74.0014647093271,40.66716956870775],[-74.00068774868765,40.66754595189897],[-73.99998149339123,40.66745027490884],[-73.9990260099839,40.66844297212715],[-73.99902633264173,40.66900788840088],[-73.99924049105036,40.66830628656016],[-73.99907935327975,40.669038271861766],[-73.99865580691613,40.6695147955481],[-73.99891160167891,40.66964857863971],[-73.99855824468392,40.67133550167012],[-73.99876941058922,40.67160204710525],[-74.00030337808883,40.66871689249724],[-74.00105664113185,40.668945681717425],[-74.00141527103162,40.66835941434718],[-74.00221506816546,40.668578637441385],[-74.00289483876949,40.66734846594956],[-74.00319075274841,40.667263199815075],[-74.00369462000529,40.66742761120855],[-74.00363026351536,40.66756752335669],[-74.00510227346268,40.66797564772838],[-74.00586366180684,40.66799376258587],[-74.00696399012966,40.66605139936593],[-74.00475388692328,40.670721359447796],[-74.00543926529352,40.67092146823863],[-74.00754821618388,40.66705174573373],[-74.00779653349625,40.667159770777396],[-74.00708724287807,40.66859135803333],[-74.00985411855626,40.668523628335585],[-74.01154017543331,40.665085919756834],[-74.0157487288266,40.664568336291815],[-74.01690267361082,40.66484660284165],[-74.0178871914939,40.66585046628554],[-74.01857605010876,40.67039241387013],[-74.01876336878675,40.671075874494576],[-74.01933946871777,40.671624948422796],[-74.01751037086694,40.67103453098431],[-74.01648665554497,40.664930508953994],[-74.01602551776011,40.664863048788284],[-74.0159369853455,40.66547079172164],[-74.01227967872792,40.66573241415904],[-74.01087664028975,40.668601615763706],[-74.01035683667315,40.66864283538869],[-74.01033845947936,40.6690781954482],[-74.01091024340414,40.66919049236966],[-74.01087343978188,40.66971011555857],[-74.01154288031569,40.66978434275048],[-74.01162527521356,40.670581028276025],[-74.01424926931875,40.6697286047373],[-74.0117535050969,40.67065775707593],[-74.01207831743132,40.670933615032126],[-74.01261963416783,40.67084190894061],[-74.01427407257722,40.67137929867941],[-74.01508006471087,40.67068567379825],[-74.0151998057007,40.67075402766451],[-74.01387273763245,40.671880761760626],[-74.01423289452782,40.672130000513214],[-74.01568625497515,40.671038834929],[-74.01297587792189,40.673327918721135],[-74.01336378218144,40.673591536934566],[-74.01511918663962,40.6721569959693],[-74.01632099922307,40.67290826956389],[-74.01457946720956,40.674414017071776],[-74.01496392184575,40.67467763029439],[-74.01816839280801,40.67193924110386],[-74.0188009477692,40.67225076484888],[-74.01727138470127,40.673608645805714],[-74.01775247096367,40.67404772289265],[-74.0180107732054,40.67391318105255],[-74.01780187203205,40.674095441412575],[-74.01817618274673,40.67446417753945],[-74.01783447572687,40.675258223014445],[-74.01829802655334,40.67545917918156],[-74.01841235821729,40.67536544943174],[-74.0181707090551,40.675290905663445],[-74.01838692796325,40.67509684652105],[-74.01852163355454,40.67526871258786],[-74.01888511775628,40.67508776516809],[-74.01841031333086,40.6755190609859],[-74.01850392106736,40.67583738597114],[-74.01801753445856,40.67588437755784],[-74.01791968777765,40.67651476488723],[-74.01976925613235,40.67661322491746],[-74.01995197864677,40.67710301045017],[-74.0190825738633,40.67713956404772],[-74.01917743946899,40.677826949007155],[-74.01843040661606,40.677908321362466],[-74.01841103183176,40.67840712178119],[-74.01966200306943,40.67838563895909],[-74.01827026139368,40.67855421845974],[-74.01857882788785,40.678983079472566],[-74.01954011560476,40.67896820628958],[-74.01928128102031,40.67964814059555],[-74.01520082279133,40.68197941942823],[-74.01532059864759,40.68211072878072],[-74.01282000398867,40.68362241649745],[-74.01213481688791,40.682905928025285],[-74.01410549647974,40.68171251937566],[-74.01360863270283,40.68122194672833],[-74.01387398777992,40.68100981331911],[-74.01301835422105,40.68041237401449],[-74.00967108558883,40.6832687277152],[-74.0107731233938,40.68435861554109],[-74.0117827220121,40.68375999549946],[-74.01217596614636,40.68409518562867],[-74.00835446532174,40.68640020025087],[-74.00816414527888,40.68617471716172],[-74.00701988682658,40.68652641769683],[-74.00588224183227,40.6861957683912],[-74.00562986330395,40.686784205541244],[-74.00783293766683,40.6873850551629],[-74.00742012154097,40.6882062904361],[-74.00500373315074,40.687605985401035],[-74.00459270521772,40.68821522298678],[-74.0067843843981,40.688826879958455],[-74.00636461225267,40.68966966863715],[-74.0038203885371,40.68892964469951],[-74.00340921558492,40.68961326065773],[-74.00575900670344,40.69023640001637],[-74.00534209624915,40.69109160297804],[-74.00196321926838,40.690136379460924],[-74.00185304524622,40.690387987244584],[-74.0009615685494,40.69012876835026],[-74.00069905841879,40.69061185791666],[-74.00479415294552,40.69176162037459],[-74.00440941259976,40.692528800389496],[-74.0019693859211,40.69184320882024],[-74.00181122055704,40.69223801288127],[-74.00216095506005,40.69223814086755],[-74.0020632979122,40.692444000334866],[-74.00179839892095,40.69227001601037],[-74.0017436211104,40.69240674970565],[-74.00400795971098,40.69320819963255],[-74.00345348490625,40.694051630671524],[-74.00127014968672,40.69329606217649],[-74.0009586848302,40.69406908358239],[-74.00301393829082,40.69477784447932],[-74.00239802583795,40.695711654864674],[-74.00026872311757,40.6949658025781],[-73.99941302433207,40.69635767645347],[-73.99947406754572,40.696704134462166],[-73.99899604139195,40.69681227837313],[-73.99876458027707,40.69712073259158],[-74.00104903057523,40.69790823619499],[-74.00048768562517,40.6987577776347],[-73.99837760685773,40.698063295643685],[-73.99802102725111,40.69876173657397],[-74.0000184043362,40.69946604807382],[-73.99947463838926,40.7003227780185],[-73.9974989831,40.69963886932142],[-73.99716054243922,40.69979281264431],[-73.99724462805663,40.70014140939466],[-73.99669768931427,40.70087697691722],[-73.99813879899456,40.70151878774599],[-73.99619227228733,40.70337714086432],[-73.99513826774646,40.70297411472298],[-73.99504592748325,40.70313183979974],[-73.99544564312069,40.703275305471955],[-73.99529346700933,40.70355406589816],[-73.99480038274864,40.70329195864475],[-73.9946629034361,40.70343060855936],[-73.99502925916447,40.70380820086819],[-73.99471424235152,40.70399668906109],[-73.99477614353458,40.70424586105254],[-73.99350881403609,40.70462350527417],[-73.99212703535068,40.70468964203369],[-73.99186159189317,40.704086642104556],[-73.99094755350794,40.70403244213939],[-73.99022721196012,40.70493404448724],[-73.98830332208541,40.70454046895521],[-73.98828999111286,40.7050706589978],[-73.98795676491503,40.70513421741267],[-73.98687252158683,40.70515727740891],[-73.98652972946046,40.70497909917388],[-73.98643429760625,40.70534860741968],[-73.98343806221908,40.70564409484797],[-73.98336819878104,40.70546106507666],[-73.98245956872238,40.705508797225534],[-73.98242287179878,40.70582205545215],[-73.9810239061828,40.70589891389373],[-73.98230205183879,40.70573697939983],[-73.9823294408452,40.705552033664],[-73.98092510311987,40.70536925520069],[-73.98090864563804,40.70590794381198],[-73.97955918487244,40.705743615250014],[-73.97906084911834,40.70594602894106]]]]}}]}