{"type":"FeatureCollection","features":[{"type":"Feature","properties":{"district":"29"},"geometry":{"type":"MultiPolygon","coordinates":[[[[-73.89680883223774,40.795808445159985],[-73.89693872998792,40.79563587285375],[-73.89796839783742,40.79564483916218],[-73.89919434249981,40.796502456018395],[-73.89788253240107,40.797116532649795],[-73.89713149795642,40.79679807772849],[-73.89678526341234,40.79632916648729],[-73.89680883223774,40.795808445159985]]],[[[-73.92133752419339,40.800852106999784],[-73.9203146552123,40.799375459290175],[-73.91662985247802,40.79785813943727],[-73.91545470966419,40.797063466031155],[-73.91443827233314,40.79566551786403],[-73.91380428276814,40.79451184645606],[-73.91378385370594,40.79383628548226],[-73.91514134426174,40.79201248249248],[-73.91630574681676,40.791117480334435],[-73.9161708792398,40.791014293373934],[-73.91686540584952,40.79036206296178],[-73.9171062231295,40.79046861673696],[-73.91856299774986,40.78969533382608],[-73.91850876959093,40.78942508976958],[-73.92219098057298,40.78551067157398],[-73.92285203280153,40.78355569341784],[-73.92448052280425,40.78232049064599],[-73.92571808678534,40.78217655794476],[-73.92732422574863,40.781090629324446],[-73.92810118987339,40.780920320042306],[-73.93105352807835,40.782396594069326],[-73.93502345134512,40.78300638202899],[-73.93581299798664,40.783710081035146],[-73.93607064617002,40.78421721562042],[-73.93571265997697,40.78568048949272],[-73.9324014551364,40.7897202906729],[-73.93224073284911,40.789694849235076],[-73.93084178739281,40.79099143000173],[-73.92972400781862,40.79136617884577],[-73.92807273575714,40.79082339078063],[-73.92610410186698,40.790731607117515],[-73.92615942249776,40.79171538899486],[-73.92656766339974,40.791858134781954],[-73.9255872987962,40.79182083090712],[-73.92673798846923,40.79192842329456],[-73.92636742573487,40.79166138883773],[-73.92648803030961,40.79102232430099],[-73.92786889241138,40.79095483813202],[-73.9271356372808,40.79192930660329],[-73.92780141472397,40.79199747926252],[-73.92826720296209,40.792328523445775],[-73.9283227160924,40.79310198914039],[-73.92735332146681,40.794461894610095],[-73.92693614720181,40.795497062171485],[-73.9268896782797,40.79625201136036],[-73.92711806944811,40.79720386123572],[-73.9271851477837,40.79734989678042],[-73.92770694127123,40.797298663379735],[-73.92720299704214,40.79738674779956],[-73.92747588603496,40.7981228996651],[-73.92669572629504,40.80014697765521],[-73.92724770789282,40.800392957369134],[-73.92711464230642,40.800563756229714],[-73.92716933022487,40.800405853696326],[-73.92666565480394,40.80018271403597],[-73.9265535165366,40.80031517292159],[-73.92674263892997,40.800403498972955],[-73.92653846390036,40.800333898308075],[-73.92668470621146,40.800454757256],[-73.92655241808427,40.80060482559504],[-73.9268690867946,40.80078367679943],[-73.92704640297909,40.800651743031466],[-73.92688606022001,40.80084064836908],[-73.92650954867304,40.800657031524715],[-73.92577551811746,40.801730600996464],[-73.92527521020125,40.801998522743524],[-73.92263378594897,40.80186873814122],[-73.92191092229572,40.80150266625372],[-73.92133752419339,40.800852106999784]]],[[[-73.8983303627048,40.80241282144278],[-73.89646668834571,40.800790470891506],[-73.89864038714919,40.7991011651241],[-73.9002100499307,40.79926415639873],[-73.89978738800922,40.799509553872134],[-73.89971563817444,40.80079880850296],[-73.90003735815742,40.80090874205037],[-73.89948919423671,40.80090111592974],[-73.8993874857105,40.80193566507047],[-73.8983303627048,40.80241282144278]]],[[[-73.93531805352984,40.80436716238911],[-73.93308208218109,40.8034252152067],[-73.9326630394673,40.804065100661916],[-73.93074537858237,40.803242430183786],[-73.93059703777743,40.802931155933116],[-73.93089359142485,40.80248977402105],[-73.93069684953922,40.8024192557794],[-73.9299828842777,40.802984752494396],[-73.92920817595964,40.80114752061144],[-73.9290349024031,40.801080903852046],[-73.92890152344171,40.79985521466287],[-73.92903640179625,40.79676259410144],[-73.92927936741171,40.79585313952077],[-73.93019664392897,40.794593224352425],[-73.93348489644649,40.792774171332695],[-73.93583106788908,40.7910947048704],[-73.93708104382303,40.78936639571015],[-73.93614073314123,40.78894907341068],[-73.93621859869906,40.78880049807703],[-73.93714965461105,40.78916844905963],[-73.93811570089727,40.78718476275656],[-73.9398261969646,40.78525655241565],[-73.94243451137065,40.78391783032254],[-73.94327003035673,40.783288154676924],[-73.94364823539011,40.78265616133344],[-73.94388068102455,40.781532043364535],[-73.94360047475412,40.780159099466346],[-73.94343876735945,40.779763242468604],[-73.94240220198307,40.78002633450528],[-73.94211331964986,40.77943819627733],[-73.94272973395677,40.779257248158274],[-73.94300246547283,40.77885287951761],[-73.94245741056957,40.77740747334814],[-73.9429129556169,40.77749340930516],[-73.94427810796877,40.77560732631739],[-73.94662849542544,40.77660407056025],[-73.94617055174528,40.77723138248965],[-73.95303367885595,40.780125455038586],[-73.95028254854698,40.783890469992535],[-73.95188295711606,40.78456521105171],[-73.95142582512732,40.78519175942447],[-73.94757763320617,40.783567905703194],[-73.94708951916724,40.78424490579509],[-73.95577735912323,40.78791392447124],[-73.94878702811162,40.7974828390053],[-73.95201557524564,40.79883253421756],[-73.95152925608001,40.79945872639976],[-73.94187604660848,40.795405869050626],[-73.9376860045883,40.80114091651456],[-73.93537355579677,40.800162448446194],[-73.93357644747852,40.80275218023766],[-73.93581613118467,40.80369990095366],[-73.93531805352984,40.80436716238911]]],[[[-73.9240039498307,40.84478846213121],[-73.91723258187619,40.845194128815116],[-73.9135185485085,40.84523209878693],[-73.91308485331206,40.845060516221785],[-73.91385799484765,40.84397879467333],[-73.91474419406394,40.84434250389397],[-73.9154468605364,40.843367634621146],[-73.91618344432074,40.84233490025431],[-73.91529594747477,40.84196169117795],[-73.91600889811154,40.840976253065705],[-73.91689176370713,40.84134725715263],[-73.91729851615048,40.84076611836722],[-73.91760988502838,40.841274842039596],[-73.919016683626,40.838381093064555],[-73.91552052416108,40.83702461980694],[-73.9160646953453,40.8364675035865],[-73.91481755768947,40.835990389430926],[-73.91538539490139,40.835412077726595],[-73.91502573108718,40.83526684360456],[-73.91675219732232,40.83232193658112],[-73.91923401806764,40.83315636117465],[-73.92135762094297,40.82968933440702],[-73.92241310898217,40.83005253879884],[-73.92396809315409,40.82737929317605],[-73.92254181195868,40.826942333709454],[-73.92306184139831,40.82609561139894],[-73.92173933406971,40.82564027872799],[-73.92240198512685,40.8247551064109],[-73.92099202536987,40.82429327524391],[-73.9194337224264,40.82380140927098],[-73.91845629639472,40.82557716299215],[-73.91608782857901,40.8248378518315],[-73.91677400585868,40.82438708737385],[-73.91587735817218,40.82410373202998],[-73.91691503456477,40.82220238063164],[-73.91257037364792,40.82086084503563],[-73.91306326443208,40.820132643519926],[-73.91396268015222,40.820394129119],[-73.91426304289658,40.819746499066575],[-73.91351977653076,40.819541928454896],[-73.91447151468734,40.81850680530211],[-73.91319197474007,40.81800230868855],[-73.91215828939595,40.819786023158],[-73.90973935697674,40.818995147918834],[-73.90357902164934,40.817575346087864],[-73.90399970060983,40.816514361694836],[-73.90283481636749,40.81630745173889],[-73.9009228164011,40.81672445661384],[-73.89934066157322,40.81348950826993],[-73.89794913740516,40.812962420263204],[-73.8964297467986,40.81420558914603],[-73.89042127397902,40.819983336350774],[-73.88802441167326,40.8215991542771],[-73.88724624097205,40.82102096065397],[-73.88541181904668,40.82129846003336],[-73.8858732803442,40.82242454520032],[-73.87612856789914,40.82366836071967],[-73.87255198732883,40.82421269391534],[-73.87257600685119,40.82433505310963],[-73.87136979417572,40.8243674734276],[-73.86954480362172,40.816094753815634],[-73.86570417021501,40.816623087512205],[-73.86521735734866,40.814528563963314],[-73.86657742167807,40.81437343476462],[-73.86111126701573,40.811150153570225],[-73.86135706534722,40.81083684190657],[-73.85373613875173,40.81172530379089],[-73.85322547044088,40.80961811823363],[-73.84980999337276,40.809998443815466],[-73.85004422670148,40.809187529349245],[-73.84986663269072,40.80833700976077],[-73.8484164096165,40.807368775795496],[-73.84837953721414,40.80636018633473],[-73.84753621975597,40.80592640279534],[-73.84752776906161,40.80532960478863],[-73.84864784606214,40.80469937148052],[-73.84874317212855,40.804896259686295],[-73.84894604005996,40.8047621689949],[-73.84933382307936,40.80505121826194],[-73.84941036337717,40.80466797627579],[-73.8494285272771,40.805059828140756],[-73.84997722709183,40.80505959498203],[-73.85019839036417,40.80451002497411],[-73.85605162931236,40.80458742958434],[-73.8566181343632,40.80486557116394],[-73.856397852059,40.80494683571352],[-73.85569047098377,40.80467656557571],[-73.85560497039725,40.80506215703507],[-73.85612542563311,40.80528168125097],[-73.85724491988569,40.80530723811626],[-73.85667579658389,40.804995370320974],[-73.85683421024453,40.80490927071551],[-73.85889037502379,40.80588949067536],[-73.85850560039155,40.80581954279294],[-73.8583148770697,40.805998591514935],[-73.85861191901094,40.80669751353793],[-73.85908475852669,40.80648021816366],[-73.85887709403082,40.80598850860351],[-73.85919545024477,40.806269877829884],[-73.85940191920201,40.80752959133741],[-73.85925775276075,40.80754267300794],[-73.8591586814882,40.806878974649344],[-73.85866505169193,40.806832751495776],[-73.85838996228814,40.80825880914896],[-73.85895141221778,40.8102714175867],[-73.85907662566417,40.80997555810229],[-73.86012695235584,40.80960549989145],[-73.85932919264883,40.80899654046333],[-73.85938982010826,40.808163768732584],[-73.85982230438606,40.809113247449886],[-73.860659658153,40.80963190304205],[-73.86440333379524,40.81027598643777],[-73.86765646284466,40.810583761937345],[-73.86976955850037,40.81342369975734],[-73.87077804885936,40.814486895487974],[-73.8717160645012,40.814922335490365],[-73.8765199603363,40.81613106342433],[-73.87673185506817,40.81538649648675],[-73.87239437900091,40.81397433560603],[-73.87165777683398,40.81325426197617],[-73.87095753684099,40.812146180609645],[-73.87056806927933,40.81208731762259],[-73.87055342191634,40.811243380723106],[-73.8681121914008,40.80675183283201],[-73.86846346959145,40.80593654893923],[-73.8717450937392,40.80154736611633],[-73.87355096572506,40.800853302772026],[-73.87467716314059,40.800979422864366],[-73.87473060452699,40.801256637628775],[-73.87526517037323,40.801398152548636],[-73.8758578858133,40.80145598758658],[-73.87592998071607,40.801084223091316],[-73.87814218819923,40.801319290306644],[-73.87796880375375,40.80171111512834],[-73.87816581140062,40.80255168424769],[-73.8789245383548,40.80277208050836],[-73.88005462984879,40.80276015140779],[-73.88369542422477,40.80216212360307],[-73.88396462519613,40.80196514886241],[-73.88372326665923,40.801862843941215],[-73.88505172336708,40.80213090679819],[-73.88727097347119,40.80394700233685],[-73.88738095624217,40.804110681284065],[-73.88724738458335,40.80418614061698],[-73.88795897223955,40.80499792592084],[-73.88859217706403,40.80478927509799],[-73.88906442026072,40.80502191240217],[-73.88936640376936,40.80538078029835],[-73.88922416091154,40.805845351192175],[-73.88999598170852,40.80488628625035],[-73.89014756243863,40.804960609786804],[-73.88937439253695,40.80592527311545],[-73.89005932692429,40.80570432468147],[-73.89149903730078,40.80593123824068],[-73.8914410427721,40.805661899067516],[-73.89178618135604,40.805622892086355],[-73.89197929534274,40.806384708976395],[-73.89270681066431,40.80634394859565],[-73.89253177139425,40.80565655156851],[-73.89227315843533,40.805702433124985],[-73.89216364547643,40.80530259256561],[-73.8912671062289,40.805010489424305],[-73.89173240995615,40.80504936342049],[-73.89219739671562,40.80528468791955],[-73.89230020327578,40.80566060567035],[-73.89256667738412,40.805620710004824],[-73.89274814037404,40.80634026130218],[-73.89463252351014,40.80623233242484],[-73.89457393913416,40.80604577300738],[-73.8947260190962,40.80602624658368],[-73.89485360535876,40.806214908158886],[-73.89484295983632,40.80572399701232],[-73.89509836487318,40.8068636396763],[-73.89550633968567,40.806595305303816],[-73.8952796287401,40.80576618406808],[-73.89559109091823,40.80658134334765],[-73.89572273778765,40.80655965730841],[-73.89567025138759,40.80629013045711],[-73.8959779468775,40.80651761583978],[-73.8958748159932,40.805808511582576],[-73.89610824517882,40.8064961509514],[-73.89623040737018,40.80621047190233],[-73.89726014999147,40.80604095984743],[-73.8974968195382,40.80621440070525],[-73.89741472698572,40.80580005947825],[-73.89763818741152,40.806201320838994],[-73.8977282725107,40.805967494137455],[-73.89801340896237,40.8061666038594],[-73.89787127990657,40.805534981759784],[-73.898161107527,40.806138070100076],[-73.89829494887951,40.80609757069851],[-73.89812536183962,40.80565076030306],[-73.89852656516604,40.805434309098096],[-73.90097298881535,40.80487609789133],[-73.90204952277965,40.80478414052171],[-73.90222284699469,40.80494811318974],[-73.90229231992772,40.804564776141866],[-73.9029277033109,40.804197291709286],[-73.90270973102545,40.804163663467385],[-73.90331727421179,40.80377528245532],[-73.90373284581685,40.80377329611797],[-73.90452954095734,40.803170235652054],[-73.90652042213173,40.80117551051993],[-73.90638976821414,40.801090791686],[-73.90681401688889,40.80089063960636],[-73.90670130044873,40.80082002982648],[-73.90747030502895,40.80000345791558],[-73.90807397255661,40.79957281916741],[-73.90768222800894,40.799388313925455],[-73.90810210034307,40.79953964636049],[-73.90802633276712,40.799237872162315],[-73.90842190768005,40.79944209244511],[-73.90855026742396,40.79930742538967],[-73.90830303542155,40.798959135417704],[-73.91089222265344,40.79701779503648],[-73.91168831241195,40.796623769888946],[-73.91372255973579,40.796789438758864],[-73.91903181973156,40.79898494624383],[-73.92024068158875,40.799613687870476],[-73.92132730778515,40.801284591631585],[-73.92292709999647,40.802373294642614],[-73.92422706775078,40.80254501085529],[-73.92665794722352,40.802409803914436],[-73.92762788658847,40.80269566548173],[-73.92728271943602,40.80350826441722],[-73.92764500352577,40.80398863284625],[-73.92810959635482,40.804012934337955],[-73.92834056119453,40.80423989028116],[-73.92872607423743,40.80410362472447],[-73.93051758773036,40.80659056356659],[-73.93228261982792,40.80836397362315],[-73.93264257115315,40.80938286452651],[-73.93259434581118,40.81005355736915],[-73.9328639708333,40.8101244368861],[-73.9325650330202,40.81088597569243],[-73.9326322918905,40.811904622263015],[-73.93234245530482,40.81468568423336],[-73.9323998255854,40.82114556692739],[-73.93360592036706,40.83278953052097],[-73.9331430664304,40.83519412811883],[-73.9326562035398,40.836473476526095],[-73.9305157238608,40.839933642686965],[-73.93048324520994,40.84046006106985],[-73.92919408007184,40.84281841573973],[-73.92861574822354,40.844676865030145],[-73.92804748401839,40.84546459595471],[-73.92564205697852,40.844900946698594],[-73.9240039498307,40.84478846213121]]]]}}]}