{"type":"FeatureCollection","features":[{"type":"Feature","properties":{"district":"27"},"geometry":{"type":"MultiPolygon","coordinates":[[[[-73.99683993860417,40.737360889398374],[-73.97162697271706,40.7266284534996],[-73.9734413172963,40.71900962577579],[-73.97449070246041,40.716099688086445],[-73.97604981455508,40.71260419377806],[-73.97681883540048,40.71141956752392],[-73.97789949619445,40.71059986620255],[-73.98128647552558,40.71021834788182],[-73.98124579569945,40.70982621460142],[-73.98839064023267,40.70912694916282],[-73.9886365807185,40.70991206151646],[-73.98879717785803,40.70996660747239],[-73.99808351186998,40.708509615869886],[-74.0011868526283,40.706859825771936],[-74.00098276691733,40.7064167134957],[-74.00140666691954,40.70617938802082],[-74.0005924020935,40.70541007891111],[-74.00145437418847,40.70487330343224],[-74.00206142563808,40.70541700513835],[-74.00256965059467,40.70552357952368],[-74.00268512768794,40.705449248118846],[-74.00197070397947,40.704737867984804],[-74.00243071075865,40.70467785800453],[-74.00332307204745,40.70562859522026],[-74.00383327532259,40.70530324352915],[-74.00262896407828,40.70422295278161],[-74.002866897815,40.704075225511744],[-74.00405666439265,40.70514736343912],[-74.00602048621096,40.70387490010204],[-74.00614106753552,40.70398097343561],[-74.0065959191387,40.70368590194944],[-74.00530412596079,40.702559865633226],[-74.00549427805099,40.70243138145317],[-74.00553546138177,40.70264552110702],[-74.00567522249854,40.702584072197745],[-74.00678502191047,40.70356812740289],[-74.00929072600611,40.701930071822154],[-74.00869964313567,40.70113986754241],[-74.00775549150644,40.70154800217457],[-74.0075913620422,40.7013280810483],[-74.00853611510774,40.700919695745235],[-74.00834927559107,40.70066934889098],[-74.00862036163869,40.700552163713446],[-74.00958483083643,40.701837385563366],[-74.0111808830355,40.701451392756454],[-74.01110775373041,40.70127576447384],[-74.01128983905525,40.70124998224445],[-74.01081530667376,40.700200444603915],[-74.01115033556847,40.7008984006037],[-74.01135836291354,40.700851958636505],[-74.01133409344382,40.70056835368252],[-74.01150291143712,40.70081505897438],[-74.01172926817485,40.70077011856244],[-74.01163147918658,40.70045821875089],[-74.01185378549589,40.70073892145034],[-74.01208668214693,40.700681308739355],[-74.01196196116918,40.70003754559562],[-74.01239160032284,40.70062052809419],[-74.01259392327508,40.70057083347261],[-74.01261382087365,40.70010826581126],[-74.01290881793956,40.70052361169369],[-74.01310747847371,40.70050745218082],[-74.01311303826304,40.69977416538285],[-74.01327349549123,40.70049687022787],[-74.01348560832749,40.700478223411174],[-74.01353285018102,40.70010816142342],[-74.01367479314794,40.70012582145101],[-74.01355826959487,40.700939870830716],[-74.01395152756511,40.70099098246014],[-74.01422063195494,40.700111491365895],[-74.0141523878731,40.70057786628629],[-74.01428920741134,40.70064414476523],[-74.01467119992007,40.70021040119729],[-74.01432384363027,40.700661304629875],[-74.01464323234912,40.700817304325284],[-74.01506818269304,40.70031825755512],[-74.01467365628488,40.70083460902858],[-74.0150211366168,40.70099250401358],[-74.01514231812101,40.70084289235444],[-74.01579351711152,40.701346905807675],[-74.01714508062659,40.70270534997635],[-74.01766881307273,40.70359131346783],[-74.01787839340639,40.70353850803738],[-74.01767132020267,40.703606427383974],[-74.01757035640019,40.70418388098674],[-74.01779454520292,40.70423489759895],[-74.01781758697946,40.70393792249673],[-74.01795473982637,40.70397578611135],[-74.01784441106724,40.70424203993809],[-74.01844704670988,40.70416235496205],[-74.01865886498044,40.70442877929025],[-74.01748090483301,40.70466726085802],[-74.01811302905885,40.704553602333924],[-74.01888747947997,40.704729142804425],[-74.01934254624474,40.706093672527274],[-74.01912275963412,40.7069758143376],[-74.01863058372714,40.707139715772044],[-74.01884889814508,40.70697031235039],[-74.0185351326967,40.70691832201425],[-74.01819029259647,40.7078216261101],[-74.01885500911968,40.70804753444759],[-74.01777014254505,40.71283457478931],[-74.01780037888393,40.71234512415872],[-74.01662424425291,40.712157318995494],[-74.01661840078305,40.71275615002984],[-74.01632006627581,40.713407982478444],[-74.01757952508993,40.71359549038381],[-74.01772496219296,40.71307018162288],[-74.01671018605823,40.718624176058164],[-74.01321322719193,40.71831571989594],[-74.01306805492318,40.71892219382567],[-74.01290892764018,40.71973485170661],[-74.01345505633182,40.719801707426384],[-74.01341376512872,40.72001948201438],[-74.01637848291482,40.72037660883105],[-74.01630573342837,40.7207270200383],[-74.01299980679079,40.720333090750216],[-74.0128973027087,40.72086804597598],[-74.01569471973286,40.72120642487545],[-74.01562245781948,40.7215434536739],[-74.01316066673286,40.721253963194776],[-74.01311663311996,40.72147373453092],[-74.01361558335005,40.72158618255959],[-74.01253875807262,40.72150317657655],[-74.01165326569942,40.725871761851536],[-74.01520426531143,40.726361949379765],[-74.01512356549473,40.7267939430673],[-74.01154201897596,40.72644734642468],[-74.01138323604756,40.728229272367344],[-74.01439069932388,40.728463047520314],[-74.01403796924798,40.73069421884407],[-74.01116195696476,40.730450676349214],[-74.01094118226749,40.73300776326952],[-74.01400220214607,40.73306800179563],[-74.01399957240966,40.73333227751791],[-74.01077473673004,40.73338863032412],[-74.01083284563212,40.73400709401116],[-74.01201792010474,40.7340637444565],[-74.01200124222393,40.73433840116636],[-74.01081359479109,40.73428344364777],[-74.0106429201788,40.73604869770505],[-74.0083084793816,40.736192153369],[-74.00820601747525,40.73755381659177],[-74.00386573444193,40.737544058159806],[-74.00296962495032,40.73425234120058],[-74.00239106870303,40.73433981186291],[-74.00278641385955,40.733632509017],[-74.00120475889288,40.733843092594675],[-74.0013887854462,40.73448281952708],[-73.99871443827661,40.734783860928204],[-73.99683993860417,40.737360889398374]]]]}}]}