{"type":"FeatureCollection","features":[{"type":"Feature","properties":{"district":"25"},"geometry":{"type":"MultiPolygon","coordinates":[[[[-73.97892920137532,40.705931589879434],[-73.97906084911834,40.70594602894106],[-73.97892920137532,40.705931589879434]]],[[[-73.97232032073758,40.709082883806815],[-73.97026218532285,40.70688750428424],[-73.97048881848579,40.70540066562206],[-73.9701689450992,40.70536185340743],[-73.970180755728,40.70492927056703],[-73.96762114779925,40.70334850569708],[-73.96751516691066,40.70343735738086],[-73.9674767449303,40.703949870956436],[-73.96929693837713,40.70508833122986],[-73.9692929641454,40.707093331095905],[-73.96838331470957,40.70682937339366],[-73.96720962042622,40.70425570915349],[-73.9625499252884,40.70049703364404],[-73.96236579985019,40.69960558585191],[-73.96283963716343,40.698038668340025],[-73.95701993123406,40.69897391434975],[-73.94193078816194,40.70072523469566],[-73.91906109224847,40.68778436926207],[-73.91764894861753,40.68921755220472],[-73.91689895915789,40.688789576402236],[-73.91829345766617,40.68735666781499],[-73.90404639808888,40.67922059801935],[-73.90262262280379,40.68066450341837],[-73.89761600414093,40.67811198757081],[-73.90004626208514,40.67689308953851],[-73.90347422276484,40.675506683277334],[-73.90042827387184,40.663807998267515],[-73.90985632468598,40.66241136141969],[-73.90946078795952,40.66087582193437],[-73.91603992100359,40.65990008661795],[-73.91643454325641,40.66143208076954],[-73.91735395361127,40.661296371773815],[-73.91774847452247,40.662836456527295],[-73.91870267616935,40.66269454734688],[-73.91909681470982,40.664230484459814],[-73.92097208151294,40.66395334887843],[-73.92136576611583,40.66549200700355],[-73.92232014484281,40.66534832952257],[-73.92209902558534,40.6642513320838],[-73.92439099384752,40.666381423278004],[-73.92275257154432,40.66709733296182],[-73.9217115987936,40.67811571394543],[-73.92466141751234,40.67827601171947],[-73.92459294065274,40.67903197604434],[-73.94397347804971,40.68008812892977],[-73.94404799126403,40.67933610971495],[-73.94681800089393,40.679485630273625],[-73.94674915913834,40.68023966186552],[-73.9495568871113,40.68039040292348],[-73.94967902220125,40.678565969017555],[-73.95205238879731,40.67867465727387],[-73.95530907548103,40.679273135044795],[-73.9551958282942,40.678343049039654],[-73.9563852970299,40.675049900632885],[-73.9635286233433,40.6765470522082],[-73.96370853912002,40.67752631072639],[-73.96565862799106,40.677939038711074],[-73.96597449992127,40.67705999563747],[-73.97350883287724,40.67863912147199],[-73.97532192593967,40.679332775983355],[-73.97495737942046,40.67987711257833],[-73.98003510082275,40.68185262673851],[-73.97838862561674,40.68442334204917],[-73.97595023269956,40.68351323204958],[-73.97229526919232,40.682755620395106],[-73.97253839508359,40.68419521668882],[-73.97212224083478,40.68423784838356],[-73.97218832557749,40.68455976577024],[-73.97260753938154,40.684527443878096],[-73.97276482726946,40.685641292079474],[-73.97307314853371,40.685763053470005],[-73.97428154416714,40.68551308192175],[-73.97461657099588,40.68719070553576],[-73.97268746049896,40.687415193992415],[-73.97275694235444,40.687764524256814],[-73.97326451285039,40.68783469643468],[-73.97351465657064,40.688723714150775],[-73.97354826078622,40.68927254476103],[-73.97306724255836,40.68932456020183],[-73.97312638372786,40.689621888552196],[-73.97862545920039,40.6898389411716],[-73.97894723171525,40.69192080602349],[-73.97754496665291,40.691896388696264],[-73.97782679399332,40.69343813939848],[-73.9825109135378,40.6936066113031],[-73.98239001116718,40.69595109700936],[-73.98138598145908,40.69583035148828],[-73.98035682887027,40.69617751703135],[-73.98054419117841,40.69824651225224],[-73.98314891632944,40.69838165774045],[-73.98544715580434,40.70059289061769],[-73.98482787036372,40.70057697982943],[-73.98476085666294,40.7014393545449],[-73.9808444048812,40.70129523959729],[-73.9806490778781,40.70156087325676],[-73.98090402877473,40.70186142983007],[-73.98002638881495,40.70214046094052],[-73.98027442356288,40.70304140044491],[-73.97932762469661,40.70474627633074],[-73.97912092176225,40.70553006967364],[-73.97896355081068,40.70550219650449],[-73.97886517755401,40.705867955697876],[-73.97892765823747,40.70549619916925],[-73.97873829486635,40.70546306467228],[-73.97863906658571,40.705830648221955],[-73.97869698190465,40.705456260458234],[-73.97846557848965,40.70556222186459],[-73.97839909439143,40.705982745202576],[-73.97885303360727,40.70606553478217],[-73.97834474852871,40.705999964987754],[-73.9785931362013,40.704978584143014],[-73.97802067326656,40.704290966456334],[-73.97721196339239,40.70421392662441],[-73.97751215494964,40.70319675266364],[-73.97713562625398,40.70300558140269],[-73.97623864768488,40.704775644190875],[-73.97596096344817,40.70471550694328],[-73.97692749188352,40.70279782040056],[-73.97615937292022,40.70217128035703],[-73.97553456489742,40.70304280880587],[-73.97532987393983,40.70295192433845],[-73.97600587845464,40.70194613327937],[-73.9745502338837,40.70159034380239],[-73.97579951831469,40.699752418001054],[-73.9757175186582,40.699570912691435],[-73.97535997932667,40.69958051884197],[-73.9741151399254,40.70130527091706],[-73.97292642848618,40.70029455342787],[-73.97257311967203,40.70008205612111],[-73.97239201397458,40.70016632275242],[-73.973757007132,40.701534138881996],[-73.97318676670898,40.701669803673866],[-73.97113824583208,40.69991789325827],[-73.97078200587988,40.69997866301143],[-73.9733245610394,40.70241265601088],[-73.97283512788735,40.70272874074414],[-73.96982556559531,40.70024507036818],[-73.96948655218107,40.700519060755745],[-73.97283889974975,40.70334642809948],[-73.97266938433755,40.70350138043131],[-73.96924539207357,40.701364741883694],[-73.96898517428966,40.701747088786725],[-73.9723124627611,40.703844539538764],[-73.97215798824992,40.70397020762625],[-73.97110342298832,40.70345973583993],[-73.97093307886317,40.70362477255154],[-73.97101963118536,40.70381561318393],[-73.9746556960806,40.70607426249181],[-73.97439083502323,40.70632577414489],[-73.97339230539548,40.70573321164145],[-73.97254880057797,40.70620449050653],[-73.97462966604422,40.70768106076842],[-73.97423616968535,40.70802438612255],[-73.97122492912246,40.705789899911196],[-73.97109655489108,40.7058500565584],[-73.97105692306182,40.706946433816846],[-73.97275756998357,40.708831279050386],[-73.97232032073758,40.709082883806815]]]]}}]}