{"type":"FeatureCollection","features":[{"type":"Feature","properties":{"district":"12"},"geometry":{"type":"MultiPolygon","coordinates":[[[[-73.88834201833508,40.76659680035602],[-73.89165463928464,40.76615653615902],[-73.89408253475389,40.76632965569561],[-73.8945602113229,40.76581508609791],[-73.89509659634938,40.76435657765383],[-73.89645648072464,40.7632048374339],[-73.89877250789246,40.75991557716801],[-73.89975678914332,40.75833196026716],[-73.90003363834067,40.75701459088515],[-73.899281901873,40.75529496884755],[-73.89747876279577,40.75241634167697],[-73.8961921593641,40.75255968839726],[-73.8958359394766,40.75061579471551],[-73.89489907192842,40.7507172859444],[-73.89525968816135,40.75265693604325],[-73.89339757880256,40.752852330363545],[-73.89240906615736,40.74713532888842],[-73.89150522760774,40.74723844452288],[-73.89143128620402,40.7468447369549],[-73.89232090526336,40.74675274743125],[-73.89200455253422,40.745108241982116],[-73.89111026292481,40.74520271861279],[-73.89071647522985,40.74312778397567],[-73.88709844085888,40.74367591800079],[-73.88666826932578,40.74117814526569],[-73.88572588190418,40.7412887059276],[-73.88551225062444,40.74016501888535],[-73.88282912173035,40.74099228285447],[-73.88294286815257,40.74160954372033],[-73.88100387917946,40.74184066249211],[-73.87924995546952,40.74375683637289],[-73.87675965391408,40.74264557532355],[-73.87450515467866,40.743310984305026],[-73.87335854468863,40.742495589219665],[-73.87304492855894,40.74168468689613],[-73.87479557589724,40.74128809256805],[-73.87383531474745,40.73880273280962],[-73.87120034223287,40.73938946790358],[-73.87009417557893,40.73652188014387],[-73.8721011442671,40.73599385294642],[-73.87442387660886,40.73490458745093],[-73.86850101123835,40.733018002358875],[-73.8645724857608,40.734188397514906],[-73.86259793824024,40.73041595893506],[-73.86447907542215,40.73108930141531],[-73.8666700020981,40.72758453759221],[-73.868881871451,40.728358138599525],[-73.86924271521093,40.72776793166992],[-73.87113283455845,40.72837172030058],[-73.87146074183508,40.729326374137855],[-73.87523717580798,40.7307239581414],[-73.8803901076565,40.7289052195954],[-73.88527716979446,40.72840707985909],[-73.88694927596957,40.72797865630294],[-73.88720482610206,40.72786882893811],[-73.88724113850517,40.727401608896464],[-73.88776495695996,40.72711108126155],[-73.88774699974674,40.72652800068807],[-73.88817981499503,40.72651995870645],[-73.8881730582934,40.726166855920226],[-73.88937237413953,40.726225764121246],[-73.89134307892094,40.725259025682355],[-73.89467832673814,40.72499879744984],[-73.89433570791154,40.723921482746896],[-73.8954168217192,40.72342409121584],[-73.89426494144978,40.72314318891679],[-73.894972190599,40.722823595755294],[-73.89458568137647,40.72220787061934],[-73.89366911332367,40.72262455802916],[-73.89321290596406,40.722030078479456],[-73.89415923683164,40.72160496611729],[-73.8921298109119,40.71898677515177],[-73.90115752579096,40.71462231505908],[-73.90093766168918,40.71384105052968],[-73.89628533119513,40.714817843128586],[-73.89553825122506,40.71380363370879],[-73.8950646952866,40.712479562728895],[-73.88877304406869,40.71228017782719],[-73.88964696235067,40.710358562332594],[-73.89014258576256,40.70836042300794],[-73.88553214224856,40.70644568324958],[-73.88459470056455,40.703790353403996],[-73.88373337303317,40.703995136081595],[-73.88282177080788,40.70177831947035],[-73.88700193836209,40.70143195726922],[-73.88676728328292,40.6998260853946],[-73.88771298020099,40.69967807635841],[-73.88818025786146,40.69885791124163],[-73.88765156141362,40.697325192098496],[-73.88648530277038,40.696439914589405],[-73.88865416919133,40.69582954890088],[-73.8881820500067,40.69505776736827],[-73.89190386196516,40.69431533641826],[-73.89245207625025,40.69522572878961],[-73.89507694381922,40.694591389702566],[-73.8955862545723,40.69397916201208],[-73.89398113214104,40.69307596554253],[-73.89357934937728,40.693085329231764],[-73.89326209869368,40.692200947459156],[-73.89474270964169,40.692636952790195],[-73.89695653507484,40.69194920744696],[-73.89768631842568,40.69336525898309],[-73.8974273017968,40.693288980149816],[-73.89691021332284,40.69384227053868],[-73.89736265732789,40.69411084723237],[-73.90020195748042,40.69339846187231],[-73.90074962354969,40.69248266292367],[-73.90058403345911,40.69239778676008],[-73.9013984066204,40.69158999203796],[-73.90654550526925,40.69456005797195],[-73.90556511857918,40.69555728770338],[-73.904914241938,40.69507357133053],[-73.90426018345657,40.695700371442825],[-73.90611626003222,40.69675055713162],[-73.90249031868323,40.700484165774526],[-73.90367499092282,40.70040906134579],[-73.9054665948755,40.70149328740769],[-73.90454165656571,40.70239992542107],[-73.90676082110177,40.703714429697406],[-73.90560937103383,40.70484852348704],[-73.91229102057515,40.708781849472295],[-73.91343495257847,40.70766000392273],[-73.92404011334023,40.71400831262909],[-73.92368352152525,40.714082841408384],[-73.92412241575497,40.71513804844535],[-73.92366895763215,40.71553556793828],[-73.92232970167701,40.7160765451726],[-73.92064258940539,40.71577319253156],[-73.9205690553611,40.716003708340814],[-73.9222376112434,40.71638244049427],[-73.92279414745396,40.71753457614416],[-73.92346602654162,40.71813033432244],[-73.92393867329353,40.71904275678717],[-73.92383575405651,40.72014816407836],[-73.92422716247574,40.720887344592064],[-73.92424364921064,40.721429498256164],[-73.92491241131319,40.721960138811625],[-73.92519872182672,40.72244542357399],[-73.92442298754928,40.72358997548378],[-73.92214330961285,40.723707557018905],[-73.92073356094131,40.72330981277065],[-73.9203706423573,40.72368111331865],[-73.92228620280889,40.72418128643502],[-73.92419217991154,40.724275741693575],[-73.92490316165183,40.72450657567162],[-73.92655663912397,40.725669065287406],[-73.9285567608544,40.727844828185745],[-73.92923485876166,40.72826016576123],[-73.93129800153325,40.72872544111279],[-73.9345317637569,40.72910480653514],[-73.93644563967128,40.72967214559876],[-73.93804478507167,40.73050996784624],[-73.93911054574816,40.73137980652573],[-73.93991049829695,40.73327632836195],[-73.94016538640956,40.73348637434488],[-73.94001807012909,40.73354044127544],[-73.94006709327039,40.73376215298028],[-73.94086498592704,40.735070409091236],[-73.94162472636474,40.73584144233838],[-73.94594095987217,40.73750507655413],[-73.94257885812198,40.738816020268715],[-73.94280384267618,40.73886154695899],[-73.94255612805293,40.739020865746824],[-73.94146173463167,40.739248583627315],[-73.94050888805725,40.740113941753286],[-73.94036159285046,40.74033534565838],[-73.94056144969083,40.74041832293436],[-73.93910874138092,40.74261703567943],[-73.93866991753195,40.7425340820251],[-73.93858786976786,40.74293088268765],[-73.94001922975666,40.743208272210886],[-73.94014858521224,40.74283244146021],[-73.93965301521378,40.742731087095805],[-73.94159470030033,40.7398641261691],[-73.94259666844879,40.73939514780302],[-73.94290141828857,40.739003801504566],[-73.94382272277534,40.73887153786564],[-73.94548236590117,40.73820703129393],[-73.94715087181176,40.73790012334491],[-73.9524335527289,40.739543934999375],[-73.95213593169699,40.740362834697834],[-73.95229735753261,40.74038422292086],[-73.95212649592786,40.74089021009639],[-73.94530443336131,40.73955299055785],[-73.94459873502069,40.74163127526038],[-73.94228314080684,40.741181396997135],[-73.94059416664572,40.74288193008274],[-73.94044578297708,40.74364523060665],[-73.9376511573702,40.74330513458712],[-73.93726110738345,40.745176490734025],[-73.93769681588368,40.74523857476213],[-73.93439987251683,40.74603455675993],[-73.93686355668945,40.748421263647685],[-73.93538685321553,40.74941193315351],[-73.93609499043112,40.74973153087914],[-73.9338326940661,40.751604701940366],[-73.93227623313614,40.75195388603762],[-73.93015432293959,40.75201212454251],[-73.92971026588957,40.75255534629365],[-73.92874215694299,40.75204162471405],[-73.92562743791541,40.75213724475558],[-73.92415700043728,40.7539611423319],[-73.92495400083328,40.75433675217015],[-73.92370440093819,40.75588003743358],[-73.9229047573353,40.755506165071324],[-73.91579117446689,40.764267771130456],[-73.91499211551111,40.763892304538125],[-73.91370071387944,40.76548023943976],[-73.91449902422195,40.76585639951679],[-73.9119402607033,40.76901015312094],[-73.91291677989145,40.769161297906464],[-73.91216772593344,40.77003111148172],[-73.91845500484335,40.774449055397255],[-73.91592019888787,40.77651959643466],[-73.91798888417517,40.77797108068198],[-73.91581971695022,40.77974796028942],[-73.91513083429763,40.77926061598986],[-73.91290076426726,40.781089745202344],[-73.91014700239336,40.779149840694465],[-73.90797729461546,40.78091397706044],[-73.90450547394285,40.77846001187493],[-73.9055777202171,40.77759465674288],[-73.90501692201813,40.77695458674411],[-73.90595534368605,40.77618747916179],[-73.90095526237783,40.772655577671834],[-73.90319073373469,40.770824582545856],[-73.90247609621987,40.77031976102877],[-73.90024022029058,40.77215055210635],[-73.89737092942256,40.77012495161183],[-73.90051127476518,40.76757185007954],[-73.89498572195758,40.76678629978755],[-73.89116371951579,40.7666060011001],[-73.88840731635753,40.767055309272166],[-73.88834201833508,40.76659680035602]]]]}}]}