{"type":"FeatureCollection","features":[{"type":"Feature","properties":{"district":"20"},"geometry":{"type":"MultiPolygon","coordinates":[[[[-73.97532192593967,40.679332775983355],[-73.97350883287724,40.67863912147199],[-73.96597449992127,40.67705999563747],[-73.96565862799106,40.677939038711074],[-73.96370853912002,40.67752631072639],[-73.9635286233433,40.6765470522082],[-73.9563852970299,40.675049900632885],[-73.9551958282942,40.678343049039654],[-73.95530907548103,40.679273135044795],[-73.95205238879731,40.67867465727387],[-73.94967902220125,40.678565969017555],[-73.9495568871113,40.68039040292348],[-73.94674915913834,40.68023966186552],[-73.94681800089393,40.679485630273625],[-73.94404799126403,40.67933610971495],[-73.94397347804971,40.68008812892977],[-73.93134714090027,40.67941221759186],[-73.92459294065274,40.67903197604434],[-73.92466141751234,40.67827601171947],[-73.9217115987936,40.67811571394543],[-73.92275257154432,40.66709733296182],[-73.93068465493135,40.663620476270374],[-73.92464345614502,40.658183158320995],[-73.92540699914292,40.65767996986044],[-73.92089764689253,40.653625106385086],[-73.9207736668444,40.65255431458829],[-73.92751430507488,40.65231809719828],[-73.9303814436912,40.651734054238716],[-73.94570606186441,40.651006784974186],[-73.94590468778354,40.65285465047694],[-73.95266313989468,40.65248936370851],[-73.95246901373838,40.65066945528978],[-73.95870789888956,40.650387273783004],[-73.96100797080463,40.65008260251894],[-73.96188086439798,40.654881192052414],[-73.96621322025264,40.65318940454694],[-73.96465438696723,40.65088772845895],[-73.97069875667012,40.648502100459986],[-73.97350396859792,40.64759568055644],[-73.97310135388351,40.64545097574019],[-73.974139969755,40.645029754533134],[-73.97381361443847,40.64333594038813],[-73.9782489728011,40.642845929927525],[-73.97901883135754,40.64297192950483],[-73.97944230387601,40.64279621509573],[-73.98179568718419,40.65524609715838],[-73.98843135252152,40.65925121165801],[-73.99018841567013,40.65760081883146],[-73.99238339483462,40.658899016424634],[-73.9929640204198,40.658337409962726],[-73.99516890198151,40.65966952204427],[-73.99167274856696,40.66302868000919],[-73.99392763686835,40.66439977654943],[-73.99334826837313,40.66495497525312],[-73.99108906811847,40.6635897848708],[-73.98880924128984,40.666169518536634],[-73.98644928861923,40.665028464231746],[-73.98394302313046,40.66803081273767],[-73.9815833220518,40.66689247336358],[-73.98107030493122,40.66749813504274],[-73.98343450938486,40.66864204575541],[-73.98293217427899,40.66924495813216],[-73.98056908024876,40.668103297821546],[-73.98006852018518,40.668705440474824],[-73.98242842237016,40.66984713897591],[-73.9788227793999,40.674171012523594],[-73.97710230734715,40.67670718912879],[-73.97959806822246,40.677679998363274],[-73.97910560826203,40.67841206469718],[-73.97661553141224,40.67743049354064],[-73.9761805135232,40.67806432146647],[-73.97954575224068,40.67928239518122],[-73.9791220457723,40.67989497163815],[-73.9808893229375,40.68059334924197],[-73.98046155443677,40.681222546757006],[-73.97532192593967,40.679332775983355]]]]}}]}