{"type":"FeatureCollection","features":[{"type":"Feature","properties":{"district":"23"},"geometry":{"type":"MultiPolygon","coordinates":[[[[-73.93197721282193,40.5831105425393],[-73.93192811186756,40.582869768935446],[-73.93237695742826,40.5829185099783],[-73.93201379961101,40.58292598224766],[-73.93197721282193,40.5831105425393]]],[[[-74.02702325623356,40.612674002347326],[-74.02637609057152,40.61245060340224],[-74.02710660556804,40.61024395632431],[-74.02477732246024,40.60969599802958],[-74.02015744567528,40.607172265335755],[-74.01822355993617,40.606886520192994],[-74.01766981078782,40.607078561749475],[-74.01701910154738,40.60765441697132],[-74.01549855009637,40.60684152427709],[-74.01817646660614,40.60425260881753],[-74.01811685569335,40.603850463851515],[-74.01161032912438,40.60211138807557],[-74.00372956713744,40.59735820645538],[-74.00257227988821,40.59704081059293],[-74.00333390928904,40.5969104097567],[-74.00059373147968,40.596438953288214],[-73.9993450279677,40.596613902277845],[-73.9999818142897,40.59599966923202],[-73.99854364019622,40.595341047239465],[-73.99831932653142,40.59564490664863],[-73.99727749704934,40.59490995194421],[-73.99458827529554,40.59254860552292],[-73.99255747826085,40.5899216752267],[-73.99153934444449,40.590390903081484],[-73.9884837348516,40.586594094808014],[-73.98986302411079,40.58593784240193],[-73.9890897615207,40.585460647103],[-73.98798153777611,40.585975824694835],[-73.98745963402041,40.58511660660557],[-73.98450443042148,40.587889786187596],[-73.98346862925801,40.58726360764236],[-73.98463965435978,40.59355217604272],[-73.9807101319401,40.593997228635736],[-73.97722132077106,40.59192193351346],[-73.97389008165705,40.592304416920285],[-73.97419290200388,40.590106189991204],[-73.96283785851618,40.59136011151288],[-73.96258052081163,40.58995737416868],[-73.96057230464476,40.59018142713152],[-73.96051667238417,40.589452911647776],[-73.96244434683403,40.58923886450633],[-73.96231130588538,40.58852046438698],[-73.9604596836011,40.58872382032384],[-73.96034953585209,40.58730628607411],[-73.9593473679651,40.58741753723084],[-73.95928689105128,40.58661902195334],[-73.95805392082532,40.58675444108818],[-73.95819543156364,40.58754433228919],[-73.9397960378787,40.589565592809144],[-73.94148000390157,40.59830439173867],[-73.93580399752612,40.598923666884744],[-73.93453187006243,40.592312427273534],[-73.93261448223025,40.59251697082224],[-73.9322250759594,40.5904781999232],[-73.93178392907953,40.58814092809601],[-73.93370492064972,40.587931005188565],[-73.9334439929513,40.58653743835859],[-73.93139947576307,40.5860798954914],[-73.93107641209666,40.58437967553086],[-73.93298795344992,40.58411203582326],[-73.9327786668411,40.58294102796535],[-73.93528194372153,40.58309697687045],[-73.93527611180933,40.583242913683726],[-73.93569071639767,40.583275093189314],[-73.93567353145987,40.58301942441272],[-73.93582439275778,40.58302111555223],[-73.93576657211088,40.58327750984988],[-73.93613233590128,40.5833144745387],[-73.93628723189404,40.583000903558506],[-73.9360966869136,40.582948745833065],[-73.93656607029148,40.582957648786625],[-73.93630031206764,40.58300295567567],[-73.93631716129535,40.5831790512013],[-73.93657592440783,40.583240505590155],[-73.93697427463762,40.58323032641149],[-73.93698767831037,40.58301627267399],[-73.93663307422459,40.582972212406844],[-73.93763269743296,40.58309626828426],[-73.93700558408266,40.58301601947157],[-73.9371245979845,40.5833467301644],[-73.93811917695093,40.583340478995325],[-73.9380942062777,40.58311681071716],[-73.93855276236508,40.58333798499146],[-73.93862755765117,40.583067021797646],[-73.93929640384748,40.58316726873515],[-73.93930153084891,40.58333321505465],[-73.9398253885057,40.583331446250675],[-73.93982883984624,40.58317053569237],[-73.93985851576804,40.583331334095625],[-73.94057745828908,40.583328225573666],[-73.94056608947726,40.583087368810865],[-73.94010903682926,40.58307506918445],[-73.94067657802275,40.583065805567514],[-73.94070019514754,40.58332762473228],[-73.94091645490738,40.583302406531494],[-73.9407384060463,40.58307561281773],[-73.94102517918685,40.58307036190638],[-73.94093422085356,40.58330230643689],[-73.94115699675488,40.58329922746826],[-73.94120155728886,40.583090465205174],[-73.94157408083575,40.58360755593956],[-73.94255133565295,40.58351447617102],[-73.94202033352751,40.583110423782635],[-73.94214938810204,40.5831066795511],[-73.94270167762981,40.58350879761415],[-73.94304709646005,40.58349212946443],[-73.94256316190977,40.58312734751663],[-73.94319506158025,40.58348966263344],[-73.94354467530924,40.583471014361265],[-73.94309334781462,40.583134545214584],[-73.94369153004571,40.583467754266145],[-73.94406764167105,40.583472009110565],[-73.94363589795744,40.583145573909725],[-73.94423403587136,40.583479951646716],[-73.94461828666236,40.583496626087864],[-73.94417458523766,40.58315829121842],[-73.94477544081295,40.58350780441],[-73.94517477781615,40.583521378244384],[-73.94471270964229,40.583165044530475],[-73.94534992503475,40.58352905211058],[-73.94573014930431,40.58354487506151],[-73.94526670124625,40.58318251856744],[-73.94589911888089,40.5835526626104],[-73.94628634691914,40.583568685205535],[-73.94579941258891,40.58319464023046],[-73.9464342905935,40.5835631525926],[-73.94678945068779,40.58355046761432],[-73.94631603648713,40.583206940713445],[-73.94691796276105,40.583546033249895],[-73.94726832705268,40.58353318207207],[-73.94682202947196,40.583191191871244],[-73.94746867861319,40.58352819536258],[-73.94836747924927,40.58348859625844],[-73.9534932204868,40.58298819826116],[-73.95330135995677,40.582002749633666],[-73.94969672499398,40.58231940106685],[-73.94274062592515,40.58099558955944],[-73.93258006568037,40.58126474120362],[-73.93106288335703,40.57616310022092],[-73.93150256744059,40.57566050512696],[-73.9348609283043,40.57552779666835],[-73.9348935645524,40.575221645997814],[-73.93507861830436,40.57550946601038],[-73.93647107586591,40.575860496356555],[-73.93672041869901,40.57541830071201],[-73.93683116226046,40.57556001684304],[-73.94250907828427,40.57537355453194],[-73.94255712254062,40.5755643312738],[-73.944393088759,40.575788813277015],[-73.94463319129606,40.575691196747286],[-73.94460054017095,40.57523546944982],[-73.94474441660772,40.5755137279401],[-73.94572352013327,40.575559439737845],[-73.94618237593534,40.57529883619631],[-73.94592390235839,40.57511543230958],[-73.95257775363744,40.574204123507165],[-73.95374257958349,40.574297232242095],[-73.95408333385906,40.574073272183455],[-73.95413360803454,40.57433326749534],[-73.95569484044358,40.574326996263366],[-73.95634506681625,40.57420722198968],[-73.95634533454574,40.57379757879462],[-73.9565675090591,40.57417077849314],[-73.9584347635904,40.574088815046466],[-73.9589663415274,40.57394726876866],[-73.9589871897258,40.57343065522953],[-73.95909642194562,40.57386382043346],[-73.95982864911241,40.57392930963587],[-73.96720294103956,40.57332631739762],[-73.9674356779313,40.573208969671484],[-73.96742628474541,40.57298510896942],[-73.96753149753702,40.57319073238481],[-73.96818506098592,40.57317786854635],[-73.96945126202374,40.572857280363365],[-73.96924621215567,40.57230407565472],[-73.96975580336883,40.57284692469053],[-73.97132989626341,40.57264381038423],[-73.97118306355719,40.57194189908436],[-73.9716070645239,40.57262822392002],[-73.97293476162717,40.57247460214546],[-73.9733450222981,40.57232121400631],[-73.97324990115143,40.57162668610919],[-73.97344805325683,40.57227210696953],[-73.975285649671,40.57204983266871],[-73.97547081902785,40.57196900381711],[-73.97540564094218,40.5714210406407],[-73.97567918029264,40.57195598449751],[-73.97713364145218,40.571897086717776],[-73.97766384588142,40.57172938779928],[-73.97767087523825,40.57117102007926],[-73.97807599798224,40.57122957012887],[-73.9777153307247,40.571251914345],[-73.97780796518913,40.571756200724806],[-73.97845486511191,40.571892204296596],[-73.97984694469407,40.57153931961033],[-73.9794251615826,40.57122102372418],[-73.97977198326755,40.57124014633363],[-73.98000799187608,40.571708806607695],[-73.98204075852516,40.57148037052266],[-73.98157155423429,40.571249988425],[-73.9820266291875,40.5712761520893],[-73.98217710691097,40.5715605784547],[-73.98282723201832,40.57154241357474],[-73.98367270153263,40.57140705768757],[-73.98340440737677,40.57016554451094],[-73.98304328883712,40.57014586098814],[-73.98339168436654,40.570094684517066],[-73.98336058039285,40.569529993984325],[-73.9834852186614,40.57008901506295],[-73.9838394948926,40.57011246715812],[-73.98348842146684,40.57015603004669],[-73.98375790448652,40.57139622725111],[-73.98803716678536,40.57098510876888],[-73.9886202548146,40.57089605131433],[-73.98857772038873,40.57069790950512],[-73.98872145848829,40.570883692082816],[-73.99026267527438,40.57070834011741],[-73.99077310323918,40.570599422340585],[-73.99079264766944,40.57024864875571],[-73.99086374684873,40.57060201624256],[-73.99119337523616,40.57061187496838],[-73.99272854897072,40.570433788037604],[-73.99298098072167,40.57019677330934],[-73.9931574188674,40.570379789439016],[-73.99493763229947,40.57035467451256],[-73.99513854436805,40.57031466120686],[-73.99518726085735,40.5700218776333],[-73.99529301203256,40.570321283216586],[-73.99719493825842,40.570348649044],[-73.997369448826,40.57013730754305],[-73.99766712135202,40.570374751166334],[-73.99846777900159,40.57049739697316],[-74.00077859539269,40.5704909982214],[-74.00201167053906,40.5702087585243],[-74.00208547639734,40.56958598398511],[-74.0024870773771,40.571738388872625],[-74.0047994162169,40.572878854348446],[-74.00668904970406,40.57339722045679],[-74.01007410785427,40.57383080951783],[-74.01115668729264,40.574166761859004],[-74.01201540191131,40.57488505247441],[-74.01245749577932,40.57661074641708],[-74.0130271545442,40.57785089456422],[-74.0123503592923,40.5792218211566],[-74.01189274589333,40.579735373230356],[-74.01070388953008,40.58054068610751],[-74.00745366008165,40.581803522848084],[-74.00604734235812,40.58198365253342],[-74.00294374157806,40.5814328355212],[-74.00055986763827,40.58129742968316],[-73.9996415228003,40.58131655849627],[-73.99895997129458,40.58163304592502],[-73.99818261219656,40.58172536373689],[-73.99776464433626,40.58145433077118],[-73.99771779495471,40.58070677630617],[-73.99182912790278,40.579247080928965],[-73.9903620646656,40.579424580120666],[-73.9889909355634,40.57883509996901],[-73.98842833769437,40.57881584211708],[-73.98739064388405,40.57908698306386],[-73.98669540063,40.57981490763022],[-73.98702138577706,40.58002276487546],[-73.98588567394853,40.58114442456495],[-73.98604509916231,40.581720685151765],[-73.98694506928186,40.58113642180222],[-73.98763925793929,40.57991759787685],[-73.98803566212692,40.579633780413616],[-73.98995504921773,40.58066166953157],[-73.99163007472379,40.581079884382035],[-73.9918252957587,40.581738520302906],[-73.9903376250445,40.58421825538863],[-73.99026244714365,40.584619148708086],[-73.995471885484,40.58221005475514],[-73.9960552882052,40.58212890385432],[-74.00017922859408,40.583073950245186],[-74.00041739503706,40.58354592150345],[-74.00035951790483,40.58418644588058],[-73.99878762307115,40.58515289393346],[-73.99808523776014,40.585364721581676],[-73.99970597099512,40.585689819858736],[-73.99952567990363,40.58575854466008],[-73.99956511570319,40.586243920095846],[-73.99814530449004,40.58653169390733],[-73.99417305638377,40.588382857820946],[-73.9956605451227,40.58793620734399],[-73.9940790462178,40.58869344199073],[-73.99421554608305,40.58886853048296],[-73.99556316619987,40.588277072198956],[-73.99509949490815,40.588592505043984],[-73.99795639739288,40.58726950636582],[-73.99487677695369,40.58877174667533],[-73.99534737661217,40.58933138044016],[-74.00011449538404,40.586951640902775],[-74.00010886019504,40.58656072909692],[-74.00037368890935,40.58647481463014],[-74.00038207115722,40.58713305734965],[-73.99788311251038,40.58834343792298],[-73.99867293375561,40.58919554943726],[-73.99923690396959,40.58893532826925],[-73.99946446811074,40.58923326938089],[-73.9983783488211,40.589770445088746],[-73.99883618014573,40.58962548954246],[-73.99844387079492,40.58986039917769],[-73.99877800589586,40.590314355844654],[-73.99844325936868,40.59024010549462],[-73.99775972701362,40.590952469613946],[-73.99711168571537,40.59127797744395],[-73.99718982747926,40.591606180953484],[-73.99806438267684,40.591209464731676],[-73.99728269703786,40.59171481486826],[-73.99754851058402,40.59191757867318],[-73.99946271244364,40.59110320712731],[-73.99998735001267,40.59117294567664],[-74.00023075280212,40.591478489775135],[-73.99903131441657,40.59231280344775],[-73.99948304872375,40.59296919989778],[-73.99838831083619,40.59353139160648],[-74.00109596784155,40.59251870899915],[-74.00284295909886,40.59515359834246],[-74.00411359626966,40.596450279474034],[-74.00557303710914,40.597568612318376],[-74.01065533816518,40.600597005317255],[-74.01236981602699,40.60134925711637],[-74.01472837011984,40.602065911342756],[-74.0191356390289,40.60261275450514],[-74.01974772844801,40.603084809264054],[-74.02085657504311,40.603522132905056],[-74.03005146547684,40.604759173812155],[-74.03270681479886,40.60633106603828],[-74.03427280539475,40.60771747873311],[-74.0348704707392,40.608582287764214],[-74.03603977777915,40.60929563900205],[-74.03314563921784,40.61022748854441],[-74.03191627116118,40.610826056810645],[-74.03255834142918,40.61115589153754],[-74.03016416683977,40.61392701150499],[-74.0289722055474,40.61351613095578],[-74.02825032215712,40.61382209111763],[-74.02892473285044,40.61247770345807],[-74.02740545646252,40.614144475693855],[-74.02792020634243,40.61313593931327],[-74.02702325623356,40.612674002347326]]],[[[-74.15945602438066,40.641448332821646],[-74.15997875699615,40.64144648083656],[-74.16111242522052,40.64183545323481],[-74.16153403176914,40.64415628242218],[-74.15809750008869,40.6437575671229],[-74.15755778855947,40.64323986598113],[-74.15800633457705,40.64302367586042],[-74.15819904046337,40.642595077663586],[-74.1585874256811,40.642460384083655],[-74.15881093745415,40.6417586352431],[-74.15945602438066,40.641448332821646]]],[[[-74.08221272914936,40.64828016229026],[-74.08142228203741,40.648504725447005],[-74.08072838762372,40.648274873846454],[-74.07980996428704,40.64838331298811],[-74.07899546333257,40.64814255442262],[-74.07650657152858,40.64696881818354],[-74.07445282563641,40.64506748822084],[-74.07395839976465,40.645193205445715],[-74.07359107919277,40.64499892804317],[-74.0734985136762,40.64508337347528],[-74.07385653684726,40.6454248160998],[-74.07333813856984,40.64578311616245],[-74.07324539464851,40.64570492526971],[-74.07369011806499,40.64530572455757],[-74.0732385381076,40.64496386391],[-74.07302520507201,40.645131238320324],[-74.07320225954697,40.644943941243696],[-74.0730555988172,40.6448079178411],[-74.07342590747587,40.645000568012804],[-74.07312184183509,40.644714799469135],[-74.07279850341496,40.64491012376894],[-74.0725877555387,40.644790863173824],[-74.07270308267603,40.64464559562772],[-74.07256468232953,40.644719748858336],[-74.0725322202573,40.64455679217041],[-74.07272467145079,40.64462088376627],[-74.07269828799026,40.64444127346753],[-74.07165829759784,40.645033746435196],[-74.07230919046792,40.64457775355492],[-74.07201843213238,40.644411932941026],[-74.07229190281822,40.6442660478206],[-74.07218488601615,40.64411046489273],[-74.07186080870875,40.64420176177033],[-74.07175648087781,40.64401184549878],[-74.07205817506036,40.6439004276988],[-74.07200080155476,40.64378113296976],[-74.0716496940852,40.6437868857248],[-74.07159679201159,40.64346015748881],[-74.07135612176633,40.64349730455621],[-74.07141659716515,40.643193109595934],[-74.07113105720936,40.64320526367847],[-74.07150263147456,40.64312930469566],[-74.07147777322615,40.64280829377516],[-74.07164892198995,40.642679931679815],[-74.0721843496904,40.64271409328926],[-74.07210952444632,40.64246321679294],[-74.07037430990596,40.642691403053334],[-74.0703292371539,40.64252612813249],[-74.07323829183596,40.64218473608254],[-74.07314400585976,40.64185297397773],[-74.07024658698661,40.642206974297046],[-74.07019399559272,40.64200750330808],[-74.07308689819385,40.64163681496981],[-74.0728900560963,40.64092267287623],[-74.0700184914874,40.64127813223767],[-74.06998354653898,40.64106894261439],[-74.07285041194937,40.64080368844521],[-74.0727769001111,40.640528963147524],[-74.07307725837745,40.640513311796504],[-74.07309035578784,40.638618999686045],[-74.07292933384748,40.63859264983843],[-74.07301444562208,40.638409384119],[-74.07237941129381,40.63816272607427],[-74.0726063279755,40.6381363083472],[-74.07257275212609,40.63787190987609],[-74.07348353801726,40.637787357935785],[-74.07337342888036,40.6366107256396],[-74.07209483807509,40.636647277624746],[-74.07335822045596,40.636536094165336],[-74.07290753967621,40.633634367681196],[-74.07332821316406,40.63205844299052],[-74.07298474612325,40.63030897898163],[-74.06802173543952,40.62878758518564],[-74.06813019247991,40.62853904609168],[-74.0729117793656,40.62999637940668],[-74.07229520282672,40.62713842700826],[-74.07319206053835,40.62707053042593],[-74.07352694647261,40.626863194268694],[-74.07270543377281,40.62687414856302],[-74.07225500955772,40.62460875019414],[-74.07002735061577,40.62145406385088],[-74.06649335296383,40.61889760159536],[-74.06596065271782,40.619359015593915],[-74.06640988953299,40.618864467567256],[-74.0661990795487,40.618722481288955],[-74.06557280841211,40.61927454360011],[-74.06544586069482,40.61920262828948],[-74.06668207982925,40.61806749593871],[-74.06641558715178,40.617872498165745],[-74.06604991535909,40.61819541035291],[-74.06569864744144,40.617956415586775],[-74.06546549952755,40.61810707028097],[-74.06496189280482,40.61777239906801],[-74.06425721751592,40.61817168758575],[-74.06509908407207,40.61751095612564],[-74.06443662005026,40.61706241460274],[-74.06390892240363,40.61732882514924],[-74.0643274585805,40.61698850302234],[-74.06376129983167,40.616798750007455],[-74.06376668678124,40.616603630840466],[-74.06143961457276,40.61437802069976],[-74.0603368079197,40.61190187971726],[-74.0598544432858,40.61210295810573],[-74.06001625116235,40.61276368789559],[-74.06019772795557,40.61278637542956],[-74.05999919777541,40.612783899115904],[-74.05976930738183,40.612056647139525],[-74.06027224809945,40.61181963993938],[-74.05947565131046,40.61169052980338],[-74.05892163454983,40.61105605489825],[-74.0590858430866,40.610633676752094],[-74.0571638387898,40.60874278310387],[-74.05649565936768,40.60724764825641],[-74.05552126122367,40.60648289256885],[-74.05516001122363,40.60673049185365],[-74.05498867839447,40.60666069691195],[-74.05518218103556,40.606474566834564],[-74.05505974095807,40.60626542045301],[-74.05381069805442,40.60591271885318],[-74.05360729740823,40.60523880941793],[-74.05402039959014,40.60493472041388],[-74.05303330743814,40.60146647069994],[-74.05342199900808,40.60051607104164],[-74.05222983028327,40.59982388359414],[-74.05287153843389,40.59986725546726],[-74.05447422333906,40.59875553954863],[-74.05719369904696,40.59639507931474],[-74.05972690577232,40.59390821671291],[-74.05964120596151,40.59370938839316],[-74.05976660687689,40.593835258012916],[-74.06055353637058,40.59337975542373],[-74.06215274432546,40.592025040542175],[-74.06503332356229,40.58899099836806],[-74.06454186133774,40.58843399239443],[-74.06477833033044,40.58848831122844],[-74.06722276816939,40.586734449760286],[-74.07096310182045,40.58318199040278],[-74.07149180587149,40.58216878265224],[-74.070595337333,40.58169054342527],[-74.0714667093301,40.58202724389829],[-74.07335389590793,40.580678939139105],[-74.07579819606686,40.57830925115297],[-74.07523453617962,40.57799880325336],[-74.07534622648264,40.57788796906888],[-74.08849596561299,40.58478842416027],[-74.08912147995802,40.584142561193644],[-74.09261596876533,40.585939810668876],[-74.09844000868472,40.581241706006956],[-74.10525775474737,40.585921436237584],[-74.10207990052216,40.588741751691025],[-74.10088251662616,40.590179216143916],[-74.1009257633128,40.592350749089064],[-74.10064876578852,40.59301302517911],[-74.10009437885394,40.59366050175352],[-74.0970026743357,40.59547367875157],[-74.09375453841174,40.59674489030674],[-74.09338150253377,40.597020343797354],[-74.09356081614172,40.59744839273026],[-74.09282540636858,40.598185085563756],[-74.0922864102787,40.59808240088358],[-74.09178257454677,40.59871923931029],[-74.09172051498037,40.599220857513295],[-74.09197184913394,40.599824263816295],[-74.09290036431103,40.601358872344406],[-74.09244145252241,40.604119586450864],[-74.09271909283541,40.60636212319611],[-74.09239912857308,40.60707228969728],[-74.08597813837586,40.60321569380331],[-74.08593767628936,40.60383902199791],[-74.08565414584304,40.603738224631535],[-74.08520577075926,40.60408779823357],[-74.08351895340866,40.60574032347602],[-74.08513300379603,40.606350350640405],[-74.08592030196394,40.60562406851819],[-74.08662518065485,40.60603127128767],[-74.08596547329923,40.60668304156343],[-74.08920674801819,40.60791987093899],[-74.08884446119944,40.608274146378115],[-74.09055711282677,40.60900115134181],[-74.08958811607526,40.609848086449695],[-74.08899694185618,40.61066439125053],[-74.08951295446597,40.61087938616628],[-74.0888558065391,40.61185347728836],[-74.08973222144373,40.61209470299822],[-74.08962877915948,40.61241144420911],[-74.0893272219357,40.612767565192],[-74.08791568582548,40.612287296545304],[-74.08720982827514,40.61330697350455],[-74.08747218539509,40.614560803337575],[-74.08783375480324,40.615317650682606],[-74.08622370441877,40.61794406533142],[-74.08496211876661,40.624625233033676],[-74.08415419875685,40.62626711543046],[-74.08386026043169,40.62744570585643],[-74.08303045718549,40.62872437157634],[-74.08516068059922,40.63014206827845],[-74.08482234731845,40.630575198115196],[-74.08714129648124,40.63223951573071],[-74.08574928999673,40.63395555772552],[-74.08669530973597,40.63453258470537],[-74.08877382991079,40.63218996299154],[-74.09003705407396,40.63277076138559],[-74.09055929834211,40.633495252427856],[-74.09090698781326,40.63548572965979],[-74.09243894057937,40.63559638474248],[-74.09306203161071,40.63506424112135],[-74.0936155073239,40.63494311807195],[-74.09593301500347,40.63558844247735],[-74.09645429843182,40.63533424533438],[-74.09726705847358,40.6339980982515],[-74.0983869165386,40.63400541335183],[-74.09799063118793,40.63176409680424],[-74.09888047111342,40.63144594667988],[-74.10605098133128,40.63059878593886],[-74.11335921856528,40.629282474806764],[-74.11618948747538,40.62894119692],[-74.11847118215705,40.62891833629615],[-74.12216225504116,40.627476892666294],[-74.13130985317957,40.6263283436493],[-74.13014141541782,40.62996520853006],[-74.13047429009482,40.63088550974073],[-74.13107460341514,40.63114772971077],[-74.13343731286663,40.62907434625292],[-74.13408698195931,40.6295416812162],[-74.13586108416413,40.62806152888208],[-74.13674237782394,40.628662536725635],[-74.13806393800286,40.62756847163926],[-74.13789126703902,40.62745288039213],[-74.13805849495897,40.62706851789328],[-74.13581008278032,40.62506433958881],[-74.13700290990894,40.62434701075222],[-74.13805791725548,40.624222500823656],[-74.14402437789693,40.62499119811364],[-74.14611213998901,40.62493343396422],[-74.14683903601588,40.6233159914152],[-74.14764616065838,40.622117975612724],[-74.15208605408549,40.617320988047275],[-74.15368427535704,40.6123496816315],[-74.15898069637235,40.616367524989364],[-74.16312999406033,40.61884698223408],[-74.16812305289498,40.621048031219026],[-74.1726600051061,40.62175896778739],[-74.17466101331499,40.622509025028435],[-74.17572898685994,40.62323117408625],[-74.17929497328737,40.62636699657478],[-74.18359469894801,40.628802521674494],[-74.18327701767085,40.62902076764995],[-74.18622286641344,40.63050301038714],[-74.18676019460192,40.6299733590235],[-74.18833485897169,40.630645507912476],[-74.19620359550308,40.634686050233924],[-74.19602904691304,40.6349958483046],[-74.19557688057968,40.635004218570764],[-74.19530704356409,40.635233895517324],[-74.195200969001,40.635707944646455],[-74.19449480774458,40.63644952194808],[-74.1945185109163,40.63703429194798],[-74.19478689682471,40.637131511664386],[-74.19462310145191,40.63739118356387],[-74.19397308627647,40.637309114699136],[-74.19358317694855,40.63746911688483],[-74.19371964622094,40.637566814732885],[-74.18652496897599,40.64338866217163],[-74.18623209809662,40.64318739685546],[-74.18590896667855,40.64363143950194],[-74.18511431614884,40.643806238290196],[-74.18524793597282,40.64394352619351],[-74.18483594580847,40.64412826633892],[-74.18411319064435,40.643530083625954],[-74.1840648323192,40.64332398994336],[-74.18437046773803,40.64309957689013],[-74.18421444000022,40.6431168957697],[-74.18365067064063,40.64223964105084],[-74.18402611192153,40.643100409072474],[-74.18384575936912,40.64326615680756],[-74.18324212279276,40.64296367760062],[-74.18380044942421,40.64443190122324],[-74.1836674587201,40.64461048505026],[-74.18288931621835,40.64480028294622],[-74.18118434243927,40.644586159245065],[-74.18087212513223,40.64485142967853],[-74.18048173953659,40.644278924776664],[-74.1800407794923,40.644288140673844],[-74.17990671455532,40.644378721167016],[-74.1799650727402,40.64526698230308],[-74.17977452733295,40.64516667984816],[-74.17972987752036,40.64438070211209],[-74.17933117249432,40.6444005117727],[-74.17925123340665,40.645041876970446],[-74.17907466583894,40.644646507056706],[-74.17903555928561,40.64339478702087],[-74.17940482802032,40.64312896647659],[-74.1795871372141,40.64191768346423],[-74.17918728067428,40.64298753949409],[-74.1787907843687,40.6424985034597],[-74.17848313827221,40.642521175230655],[-74.17825662146029,40.642129227868374],[-74.17834127011962,40.642589475995955],[-74.17781237608774,40.64259984414228],[-74.17768636299843,40.64294859651973],[-74.17721118570951,40.643122778603264],[-74.17682386896035,40.64285914648606],[-74.17670489151175,40.642416911284165],[-74.17635786617534,40.64232722056304],[-74.17668723791225,40.64255213862137],[-74.17666795538246,40.6433868447718],[-74.17598183191922,40.64346362228093],[-74.17560250954429,40.643311298672586],[-74.17547166255278,40.64412310546129],[-74.17568470742577,40.644710284895275],[-74.17546691157199,40.64464652110249],[-74.17529691545057,40.645075076819104],[-74.17436572943608,40.64513625864562],[-74.17294123891654,40.644204522856036],[-74.17300154585652,40.643585405079804],[-74.1723616538658,40.64325626755203],[-74.17272145305189,40.64294849899678],[-74.17196330565993,40.6428581326935],[-74.1715081109973,40.643134442091025],[-74.17133587281808,40.642855765052154],[-74.17186042582577,40.64252292851905],[-74.17172186950495,40.64193954418164],[-74.17147878989451,40.64170250999377],[-74.17158721923735,40.64102959339466],[-74.1720231585235,40.640989215160474],[-74.17297990582071,40.64048606719583],[-74.17156994685423,40.641011532092946],[-74.1713738235051,40.64208501526824],[-74.17105017239892,40.64259381913015],[-74.17127524445608,40.64211168276789],[-74.17119260951208,40.64173962651413],[-74.17028635441109,40.64177530825603],[-74.17007878651046,40.642086160575644],[-74.16915295569137,40.641872859874546],[-74.16906431628865,40.642130016798745],[-74.16774094051357,40.641727774498676],[-74.16757607092507,40.641844793608215],[-74.16653375792836,40.641422637883835],[-74.16609989896034,40.64240658700138],[-74.16631887292462,40.64143667500512],[-74.16580110755902,40.64122451144967],[-74.16563409763798,40.64121437137586],[-74.16544310082396,40.64228054670873],[-74.16494139041306,40.64220900039206],[-74.16519041758235,40.64064230577956],[-74.16473426536807,40.640391467025005],[-74.16457132366851,40.64141866209867],[-74.16441459649239,40.64139678522883],[-74.1645965659758,40.64031574554517],[-74.16416886813631,40.6399941102305],[-74.16400179001418,40.641065860006975],[-74.16386249420357,40.641052797343974],[-74.16404731516643,40.63994665879971],[-74.1638497658629,40.63989150932104],[-74.16345445681999,40.63985656039842],[-74.16324577932627,40.64095741968836],[-74.16280502789434,40.64103818792244],[-74.16167534694235,40.640610784766956],[-74.16228465252085,40.63876565277249],[-74.16181856612258,40.638646278777806],[-74.16144917826891,40.63942833717108],[-74.16130221801548,40.63939373445721],[-74.16166010706995,40.638664993313455],[-74.16124015814985,40.63859501111378],[-74.16090490770513,40.63938614131879],[-74.16073654872477,40.63935101447562],[-74.16108161758906,40.638567768312704],[-74.16034819993166,40.63844372645366],[-74.15986410465041,40.63992782369295],[-74.160224664531,40.63833906133788],[-74.16005754066099,40.63872235275005],[-74.15985697767901,40.63872920221962],[-74.15957712397915,40.63799258321208],[-74.15931954037158,40.637810405243066],[-74.15905622378894,40.63803931031999],[-74.15900957887429,40.63882257790998],[-74.15893299160665,40.638264017819175],[-74.15789262953881,40.6379650512313],[-74.15773352572349,40.63887903516548],[-74.1577736593691,40.637957159746236],[-74.15610276490888,40.6379395908863],[-74.15611488264739,40.6375307471646],[-74.15569862053152,40.63751793890434],[-74.15568515769912,40.6377874824073],[-74.15482932461856,40.63772385541897],[-74.15469263864526,40.6391939681144],[-74.15477829011988,40.63772154555106],[-74.15459670163327,40.63734334406921],[-74.15425270073519,40.63717231088846],[-74.1534140659779,40.637272719079455],[-74.15279703511403,40.637132754852736],[-74.15269700449667,40.63764184172482],[-74.15221806884477,40.63769258171702],[-74.15229786175502,40.63827428826375],[-74.15213675899915,40.638290747955836],[-74.15204639233266,40.63766721531566],[-74.15119545007178,40.63773078853634],[-74.1513951761365,40.63939651305763],[-74.15124827966572,40.639409342886104],[-74.1511296509037,40.638500679571514],[-74.15055638842084,40.63855933066745],[-74.14996782090546,40.63815007524942],[-74.14967889830886,40.63751767426077],[-74.14944732900051,40.63740539948566],[-74.14931235597334,40.63752595814057],[-74.1494188170834,40.63829164054715],[-74.14919418155688,40.638668331372095],[-74.1488817554377,40.638705207973416],[-74.14855815092318,40.63743783803],[-74.14877792005885,40.63887625112789],[-74.14602173101719,40.6390945497009],[-74.14605733618387,40.639229257690054],[-74.14519279481542,40.63937849765491],[-74.14386163595745,40.63888796251427],[-74.14381734530271,40.639207478924156],[-74.14357308593789,40.63922678525729],[-74.14336103010835,40.63970984518127],[-74.1425776933605,40.639534137502004],[-74.14238795149326,40.639641210830085],[-74.14229766980965,40.64030580709384],[-74.14155622972353,40.640366768817195],[-74.1414804740345,40.64009219429565],[-74.14076253645278,40.64058939691139],[-74.13757574838482,40.6410011523713],[-74.13737001749979,40.641295463489136],[-74.13435269573631,40.64188679740535],[-74.13299172393485,40.6414169366648],[-74.13240283577125,40.641704388984685],[-74.13125581180257,40.641596830764016],[-74.13146199764817,40.64131010407523],[-74.13032503548034,40.64077847230712],[-74.13012324901676,40.64101654989436],[-74.1301837001321,40.64072382608324],[-74.12967785166228,40.64138531255307],[-74.12949057637367,40.64135483519601],[-74.12997740262725,40.640729872855786],[-74.12930713186852,40.640337411211156],[-74.12922977261063,40.640484372352574],[-74.12893301209901,40.640413929488034],[-74.12890729033452,40.641194827586325],[-74.1288120184713,40.64022697750409],[-74.1275267724088,40.64015530471665],[-74.12702736021,40.63931907848706],[-74.12705362205264,40.640241737639165],[-74.12644823919024,40.640377994199206],[-74.12606982862293,40.64025447319018],[-74.12619996291652,40.64126431430311],[-74.12636808688981,40.6413323804871],[-74.12564026870602,40.64141849208245],[-74.12613276551232,40.64126438802843],[-74.12599542422451,40.64023124262892],[-74.1241557844501,40.640134716640205],[-74.12285630555246,40.64082050834647],[-74.12260363601618,40.64059707390291],[-74.1229072489857,40.641019266617285],[-74.12282565410405,40.6412938760178],[-74.1218414699557,40.64140589477437],[-74.12199083807539,40.64155463949961],[-74.12180661082068,40.64141215907573],[-74.12177911197513,40.64159254711715],[-74.1215534360538,40.64161162832493],[-74.12176052602737,40.64157431456],[-74.1217237531887,40.64142866444405],[-74.12132617111651,40.64160656922905],[-74.1213119482967,40.641452531325214],[-74.12117246275062,40.641669145070054],[-74.12128074794364,40.64143249598728],[-74.12107727405116,40.641607420086295],[-74.12118039507698,40.64138344537973],[-74.12071317588692,40.64104578219102],[-74.11993480088911,40.641197604384026],[-74.11997111213586,40.64131481456246],[-74.11960716747868,40.641380309354346],[-74.11995699875766,40.64220945342925],[-74.11952986105756,40.64146991432207],[-74.11909720493722,40.641473466523564],[-74.11940029532455,40.64237937853291],[-74.11900348200398,40.64146461501284],[-74.11861635236274,40.64153036502918],[-74.11896077402352,40.642504515993394],[-74.11883624616942,40.64254186406052],[-74.1184018508355,40.64152980054306],[-74.11791728683136,40.6418258769523],[-74.11769850319418,40.641543133286085],[-74.11712100630398,40.64166785704609],[-74.11722408282961,40.64184409308031],[-74.11672187663888,40.642031756096756],[-74.11722470082543,40.64302735996277],[-74.11666607646228,40.6421067663341],[-74.11630000082745,40.64220266510244],[-74.11667041382688,40.64318982489303],[-74.1161420863572,40.642216454150535],[-74.11535082182931,40.64247054015837],[-74.1137966608601,40.64360951580808],[-74.11395094068483,40.64413659167542],[-74.11288806510967,40.644532444637726],[-74.11385709322158,40.64407601166737],[-74.11365370966897,40.64368755592379],[-74.11333023192543,40.64372349708392],[-74.11116129469256,40.64509642318145],[-74.11176646650023,40.64470616034511],[-74.10973932564484,40.645463728184914],[-74.10472221599763,40.64556365739964],[-74.10412356301745,40.64574043220029],[-74.10013219187306,40.645064050450685],[-74.09880066885808,40.64504703431097],[-74.09849981625507,40.64537036195395],[-74.09604555281581,40.64537274744287],[-74.09298828187646,40.645972780752665],[-74.0893975253534,40.64731035953143],[-74.087674426815,40.64823529361497],[-74.08570754378212,40.64888055337064],[-74.08484403215716,40.648891147339626],[-74.08221272914936,40.64828016229026]]]]}}]}