{"type":"FeatureCollection","features":[{"type":"Feature","properties":{"district":"18"},"geometry":{"type":"MultiPolygon","coordinates":[[[[-73.92405909736993,40.71411156014769],[-73.9231393628325,40.71339472859326],[-73.91343495257847,40.70766000392273],[-73.91229102057515,40.708781849472295],[-73.90560937103383,40.70484852348704],[-73.90676082110177,40.703714429697406],[-73.90454165656571,40.70239992542107],[-73.9054665948755,40.70149328740769],[-73.90367499092282,40.70040906134579],[-73.90249031868323,40.700484165774526],[-73.90611626003222,40.69675055713162],[-73.90426018345657,40.695700371442825],[-73.904914241938,40.69507357133053],[-73.90556511857918,40.69555728770338],[-73.90654550526925,40.69456005797195],[-73.9013984066204,40.69158999203796],[-73.90058403345911,40.69239778676008],[-73.90074962354969,40.69248266292367],[-73.90020195748042,40.69339846187231],[-73.89858277102586,40.69389702765314],[-73.89736265732789,40.69411084723237],[-73.89691021332284,40.69384227053868],[-73.8974273017968,40.693288980149816],[-73.89768631842568,40.69336525898309],[-73.89695653507484,40.69194920744696],[-73.89474270964169,40.692636952790195],[-73.89326209869368,40.692200947459156],[-73.89357934937728,40.693085329231764],[-73.89398113214104,40.69307596554253],[-73.8955862545723,40.69397916201208],[-73.89507694381922,40.694591389702566],[-73.89245207625025,40.69522572878961],[-73.89190386196516,40.69431533641826],[-73.8881820500067,40.69505776736827],[-73.88865416919133,40.69582954890088],[-73.88648530277038,40.696439914589405],[-73.8873927225889,40.69702128526732],[-73.8878345699147,40.69765794773272],[-73.88818025786146,40.69885791124163],[-73.88771298020099,40.69967807635841],[-73.88431619451549,40.700201196338696],[-73.88280948496325,40.700683455656716],[-73.88174317650014,40.69953389456132],[-73.87621714178009,40.70159500481864],[-73.87639785216518,40.70229404227683],[-73.86915596157473,40.702893433660506],[-73.86898508371974,40.701744355953814],[-73.8695262776873,40.701605743380945],[-73.86931433218412,40.69935514733551],[-73.870674218437,40.697841064849065],[-73.86891762756782,40.69514656151495],[-73.86840519015212,40.69473118624479],[-73.86868454304549,40.694034691905046],[-73.8665984834927,40.685269559070086],[-73.86630263853499,40.683186694603144],[-73.88859260468422,40.67695622207183],[-73.8890056975244,40.67855704427478],[-73.89621773666615,40.67735818427265],[-73.89653676543693,40.67859358116543],[-73.89761600414093,40.67811198757081],[-73.90262262280379,40.68066450341837],[-73.90404639808888,40.67922059801935],[-73.91829345766617,40.68735666781499],[-73.91689895915789,40.688789576402236],[-73.91764894861753,40.68921755220472],[-73.91906109224847,40.68778436926207],[-73.94193078816194,40.70072523469566],[-73.95701993123406,40.69897391434975],[-73.96283963716343,40.698038668340025],[-73.96236579985019,40.69960558585191],[-73.9625499252884,40.70049703364404],[-73.96720962042622,40.70425570915349],[-73.96838331470957,40.70682937339366],[-73.9692929641454,40.707093331095905],[-73.9698486482356,40.70800304118529],[-73.96994196632629,40.70930205335397],[-73.96960541330354,40.71027084387491],[-73.97006780874848,40.710466624118425],[-73.96966186412786,40.71049972413706],[-73.96976877618125,40.71078832157155],[-73.96937429954603,40.711020666063014],[-73.96990773027578,40.71126812183884],[-73.96931038443995,40.71110785288143],[-73.96923492931276,40.711240541940995],[-73.96881612079872,40.71225194770672],[-73.96887248523551,40.712578743939126],[-73.96866605733972,40.71285719349171],[-73.96846973347043,40.712824709346336],[-73.96850672553475,40.71310547188944],[-73.96884924838118,40.71321254596049],[-73.96839125213894,40.71426191867419],[-73.96407128158607,40.71307939329235],[-73.96102940067502,40.71196947930034],[-73.9605609155058,40.71271340327295],[-73.95906382958717,40.71216612566287],[-73.95755915948826,40.71449889406389],[-73.95599388157582,40.71409198734286],[-73.95348472164814,40.71407020807882],[-73.95114433699723,40.716034521288734],[-73.94904281657652,40.717428519193014],[-73.9419563362897,40.72165231973324],[-73.94022123671157,40.72289150576976],[-73.93694892687435,40.72465309308173],[-73.93676382339476,40.72483891922288],[-73.93724229248072,40.727794147972695],[-73.93819712504785,40.72810252180696],[-73.9429430610339,40.72766168705633],[-73.94371982936528,40.732390954474006],[-73.94064423421061,40.73317051147941],[-73.94036658952952,40.73221258691498],[-73.93974607754154,40.731065475472256],[-73.93810334960666,40.729728519521515],[-73.93711874507949,40.72918993206517],[-73.93422206741177,40.72839051737071],[-73.93032635559956,40.7277951422491],[-73.92924333948392,40.72739794231883],[-73.92787172405026,40.72585405119786],[-73.92779650104131,40.7249256687138],[-73.92561470516623,40.72006166221263],[-73.92481798943699,40.72026513747549],[-73.92453432562183,40.71966615777262],[-73.9248641350911,40.718440445413684],[-73.92837930101501,40.71757836729027],[-73.92887965180016,40.71772031862372],[-73.92970539915328,40.71704927938933],[-73.92931999766083,40.71611200883279],[-73.92947356921461,40.715721452621324],[-73.932206073073,40.7149639809295],[-73.9321499860121,40.714687464730396],[-73.9317535718227,40.71474167550589],[-73.93142604100935,40.71438234308075],[-73.9312406705949,40.71372481088489],[-73.93164527391666,40.71334279375831],[-73.93263905242465,40.71305258616952],[-73.9320326298051,40.71159022307447],[-73.93338484615303,40.71123372774584],[-73.93328349320298,40.71097870695552],[-73.9319010192086,40.711338471428384],[-73.93093227547737,40.70916531125431],[-73.9303609456584,40.70871773803283],[-73.93025038849032,40.70892791342272],[-73.93154613746866,40.71185535175125],[-73.93077894737053,40.712160427955666],[-73.93161032734892,40.71203802268057],[-73.93184249493432,40.71262723799079],[-73.93042294313071,40.71317255867123],[-73.93105231901666,40.7146102244261],[-73.9308519013403,40.71490298559298],[-73.92843881814593,40.71553094957593],[-73.92890601265017,40.71661895731226],[-73.92823253044881,40.717106454253546],[-73.92472906134894,40.717944050687954],[-73.92410280094344,40.71766713720255],[-73.92341861434724,40.717069015738886],[-73.92305500014334,40.71634266479355],[-73.92431329961575,40.715847056576926],[-73.924885535076,40.71526718765272],[-73.92433589757124,40.71412259346656],[-73.92405909736993,40.71411156014769]]]]}}]}