{"type":"FeatureCollection","features":[{"type":"Feature","properties":{"district":"36"},"geometry":{"type":"MultiPolygon","coordinates":[[[[-73.82391571094583,40.88997462544308],[-73.82461901678178,40.88864938778197],[-73.82382288878055,40.88774723783054],[-73.8239553421027,40.887672005310485],[-73.82380283693954,40.887431603423835],[-73.82307335223767,40.88710767288604],[-73.82187799257017,40.8869291991658],[-73.82098951843177,40.88604465202936],[-73.82064930918293,40.8853824597278],[-73.82023958394194,40.88549105185088],[-73.8200544557937,40.88211412906874],[-73.82329599430467,40.87309741817947],[-73.82126543825758,40.869074543492104],[-73.81578764066082,40.86575806143886],[-73.81699760266432,40.864459031143234],[-73.81684495908117,40.86430679330229],[-73.81933549789365,40.862158378145175],[-73.8204506245922,40.8615014606368],[-73.82721769473343,40.85920657704252],[-73.82749933622455,40.859951227938666],[-73.82840758975843,40.86094830120111],[-73.82987488671723,40.859740420127636],[-73.83308052015926,40.85867901897221],[-73.83437048028333,40.85879915781674],[-73.83437708303657,40.858190849613806],[-73.83681918593254,40.85727680959836],[-73.84329553216791,40.85829037563016],[-73.84739747041226,40.85868254585703],[-73.84930893471974,40.85871750285892],[-73.85663664103124,40.858115293956594],[-73.85735319680538,40.85971160585068],[-73.85882125372507,40.85968926038271],[-73.85877804646444,40.861191280546095],[-73.85756682689365,40.8611637225321],[-73.85771028366835,40.86227823099732],[-73.85871220300648,40.86425255333902],[-73.85867298228801,40.865494957715725],[-73.86055100834695,40.86552969592818],[-73.86062906992262,40.86309047872196],[-73.86265459158246,40.86312639682183],[-73.86258308671266,40.86537356596868],[-73.8623715760959,40.86553099090054],[-73.86351971143641,40.86550797783491],[-73.86354938368898,40.86465532954013],[-73.86547710798617,40.86317909587426],[-73.87044483720364,40.86327040002456],[-73.8704212756725,40.865361080432955],[-73.87109782987243,40.86545365884201],[-73.8719899750106,40.86600474297882],[-73.87221969219989,40.86849091729983],[-73.872071045838,40.87098897073772],[-73.87115115062466,40.87462244408218],[-73.86996807453905,40.87826435175061],[-73.87094414748071,40.8785096954142],[-73.87015318597265,40.880350827058166],[-73.87083567840251,40.88045411427935],[-73.87001731741992,40.88234447256521],[-73.86921105053612,40.883324652080226],[-73.86876632649417,40.88422385950008],[-73.86700465466282,40.88907388215371],[-73.86368527816104,40.89432459752027],[-73.8635591575532,40.89537701720513],[-73.86491632477366,40.89574949536643],[-73.87048672642307,40.89664021101398],[-73.8748061818114,40.89572568763979],[-73.87711974105801,40.8954686636437],[-73.8764374306502,40.89687059345984],[-73.87521979695869,40.89814776488252],[-73.8739296433481,40.89895736739401],[-73.8714435298687,40.899994713110374],[-73.86996153657742,40.90083373495805],[-73.86847685669709,40.90207243425918],[-73.86789798628736,40.90294017690546],[-73.85946778766896,40.90051720977044],[-73.85907692341044,40.90100799310083],[-73.85937696525158,40.90156521766194],[-73.85902704152117,40.90144491025623],[-73.85886401316354,40.901711695049734],[-73.85946389958119,40.90193387763378],[-73.8595788301439,40.90244084327494],[-73.8592643254188,40.90266947989673],[-73.8587282483335,40.90228897107296],[-73.85816000004854,40.902305710202896],[-73.85796932328364,40.90285090768784],[-73.85755967657647,40.90291779595877],[-73.85711090546211,40.903649532696946],[-73.85699157412989,40.90458420956675],[-73.85743457618243,40.90484154370063],[-73.85717766075966,40.90528654166164],[-73.85665436888904,40.90505500078334],[-73.85601023389269,40.90530598362708],[-73.85601160905586,40.90548208344171],[-73.85650251760606,40.90556384879677],[-73.85692398180078,40.905974170111215],[-73.85681013638538,40.90615582832618],[-73.85580463795947,40.90626436412672],[-73.85513792149328,40.90686688914201],[-73.85423776686882,40.90703286825456],[-73.8537410363076,40.90778791673573],[-73.85383360999587,40.90797434981978],[-73.85471078339658,40.90800630994315],[-73.85491109673632,40.90835486983437],[-73.85458940588242,40.9089394992985],[-73.85360061720283,40.90960674145098],[-73.85295618487677,40.91035304418024],[-73.8525847475041,40.91031061706426],[-73.85266035892101,40.91001519366094],[-73.85227451682731,40.9098540996442],[-73.85144753968937,40.910449671705535],[-73.85107116183943,40.91037151971954],[-73.85347522399834,40.90753029352687],[-73.85092059362833,40.90661649448974],[-73.85017317552095,40.90750786565156],[-73.84708032914259,40.906156733033086],[-73.84481886984896,40.90552995017741],[-73.84489264975376,40.90419086729982],[-73.8413868930466,40.904172741534154],[-73.84077858945818,40.90162785669254],[-73.8392182951769,40.89941841710756],[-73.83921317695322,40.898825194342145],[-73.83966433211717,40.897885515608436],[-73.83964812813,40.89733053534083],[-73.83839199189745,40.894067008049184],[-73.83804277285937,40.894142331387954],[-73.83525790570019,40.89339164405592],[-73.82391571094583,40.88997462544308]]]]}}]}