{"type":"FeatureCollection","features":[{"type":"Feature","properties":{"district":"33"},"geometry":{"type":"MultiPolygon","coordinates":[[[[-73.86789798628736,40.90294017690546],[-73.86847685669709,40.90207243425918],[-73.86996153657742,40.90083373495805],[-73.8714435298687,40.899994713110374],[-73.8739296433481,40.89895736739401],[-73.87521979695869,40.89814776488252],[-73.8764374306502,40.89687059345984],[-73.87711974105801,40.8954686636437],[-73.8748061818114,40.89572568763979],[-73.87048672642307,40.89664021101398],[-73.86491632477366,40.89574949536643],[-73.8635591575532,40.89537701720513],[-73.86368527816104,40.89432459752027],[-73.86700465466282,40.88907388215371],[-73.86876632649417,40.88422385950008],[-73.86921105053612,40.883324652080226],[-73.87001731741992,40.88234447256521],[-73.87083567840251,40.88045411427935],[-73.87015318597265,40.880350827058166],[-73.87094414748071,40.8785096954142],[-73.86996807453905,40.87826435175061],[-73.87115115062466,40.87462244408218],[-73.872071045838,40.87098897073772],[-73.87221969219989,40.86849091729983],[-73.8719899750106,40.86600474297882],[-73.87109782987243,40.86545365884201],[-73.8704212756725,40.865361080432955],[-73.87044483720364,40.86327040002456],[-73.86547710798617,40.86317909587426],[-73.86354938368898,40.86465532954013],[-73.86351971143641,40.86550797783491],[-73.8623715760959,40.86553099090054],[-73.86258308671266,40.86537356596868],[-73.86265459158246,40.86312639682183],[-73.86062906992262,40.86309047872196],[-73.86055100834695,40.86552969592818],[-73.85867298228801,40.865494957715725],[-73.85871220300648,40.86425255333902],[-73.85771028366835,40.86227823099732],[-73.85756682689365,40.8611637225321],[-73.85877804646444,40.861191280546095],[-73.85882125372507,40.85968926038271],[-73.85735319680538,40.85971160585068],[-73.85535125226097,40.85543366895437],[-73.85289676544527,40.85226394798373],[-73.85376658046906,40.85187156598135],[-73.85527807986371,40.85380789124514],[-73.85608585080958,40.85344344639458],[-73.8545738830166,40.851508345733464],[-73.85538351638914,40.85114371856298],[-73.85283052033873,40.847874086735146],[-73.85363623713448,40.84751110586448],[-73.85219101180331,40.84565577711194],[-73.85380764616029,40.84492868034728],[-73.85302919084943,40.84392685544414],[-73.8557415212153,40.84314265329605],[-73.85333525008224,40.84247015515579],[-73.86347232379067,40.841305932707414],[-73.86546450190856,40.84085689196487],[-73.87039177679824,40.83915783560411],[-73.87172097806723,40.838196198231806],[-73.8731517784556,40.83770663240807],[-73.87272718425591,40.83974894480019],[-73.87359713633828,40.839798555936135],[-73.87326716948552,40.84021994953325],[-73.87500743110438,40.84085509351635],[-73.87459175436959,40.841520647539554],[-73.87817546958578,40.842617696547784],[-73.8773390723824,40.843991755058106],[-73.88284445574723,40.847817226954405],[-73.8832287766761,40.84834587833777],[-73.88735662003364,40.85087389761821],[-73.88823974096296,40.85103536641164],[-73.8899702840051,40.852103229953784],[-73.88960978077957,40.853621880548914],[-73.89038954009503,40.85468905858793],[-73.8921668740323,40.85276946239086],[-73.8942054544201,40.85385492954502],[-73.89400033572089,40.85425193349684],[-73.89534405780012,40.85469655009031],[-73.89544565267262,40.85451829307885],[-73.89709926839369,40.85517229144563],[-73.89863543744137,40.85390697543628],[-73.89816577520747,40.85514637639328],[-73.89877598610727,40.85536324709662],[-73.89817207266138,40.85681179539481],[-73.89906700634683,40.85711882135732],[-73.89967155800133,40.85566890889998],[-73.90077922747537,40.8560471097292],[-73.90124783223746,40.85447646882259],[-73.90165607568498,40.8545496235616],[-73.90542821032241,40.8498863650395],[-73.90562192826494,40.84992547006364],[-73.90608376923525,40.84934739737086],[-73.90576106987638,40.84918781946026],[-73.90632225941502,40.84757964519771],[-73.90733208959914,40.84777392313285],[-73.90738883709653,40.846782391721355],[-73.90855207234293,40.84681051436672],[-73.91077418105641,40.845169107402455],[-73.91412710507849,40.845228914482014],[-73.91197263841478,40.8482295954338],[-73.91396732337208,40.848608883893554],[-73.91287421490624,40.850125060221615],[-73.91232375082834,40.85055599662961],[-73.91184319791215,40.851445343522855],[-73.91257806362125,40.85183047651942],[-73.91117309191941,40.852879925150354],[-73.91020415615824,40.85418985841145],[-73.91007275339898,40.85446950339603],[-73.91119580665001,40.854822294254255],[-73.91041222452697,40.8557283659989],[-73.90966747830913,40.85748494865335],[-73.90777484290884,40.859609519622246],[-73.90486847215521,40.858693224709015],[-73.9035139056414,40.860917510150976],[-73.90254479392594,40.86057825533645],[-73.90162785087742,40.86205443458021],[-73.89797842705786,40.86672770770559],[-73.8969254664307,40.86625149287842],[-73.89631315736122,40.867038575444795],[-73.89740323298722,40.86747418971134],[-73.89521030470375,40.87030825674368],[-73.89444825262919,40.87072346107372],[-73.8896588466814,40.87697483725254],[-73.89212875531868,40.878057802282314],[-73.89123573693661,40.879161080245744],[-73.88997537554076,40.880233131422344],[-73.88803890887175,40.88278092614758],[-73.88716505265282,40.88257651139562],[-73.88704304071332,40.884040232881134],[-73.88705142602338,40.8843495758468],[-73.88758612608837,40.884255619663165],[-73.88859661906761,40.88276833740007],[-73.89038092790477,40.88251645954033],[-73.88889642247368,40.88450391915978],[-73.89972588559941,40.88651488701041],[-73.90230932953754,40.88723725965637],[-73.9028594906229,40.88916474400594],[-73.90413642428668,40.88708070903226],[-73.90533517129025,40.88735459996922],[-73.90607414979803,40.885632904918566],[-73.90700210601398,40.88584521525113],[-73.90732583312627,40.88517008583248],[-73.90812611213461,40.88531453746919],[-73.9086963817036,40.88376011143112],[-73.9104049282078,40.88349286522737],[-73.91170730045248,40.88070199686864],[-73.9120252528679,40.88081424662522],[-73.91311491977562,40.87982666064872],[-73.91411696260029,40.87933436757354],[-73.91329678501532,40.878772038953635],[-73.9114480216815,40.880076273279045],[-73.91052575983971,40.88047786940485],[-73.91033976290308,40.880052398007585],[-73.90967868322763,40.87951458833855],[-73.91033193566423,40.879038047307404],[-73.91148913190445,40.87901885880971],[-73.91205829964028,40.878119320048306],[-73.9148462409017,40.876666710276176],[-73.91578515571896,40.87571694506451],[-73.91726028337294,40.87580900358074],[-73.91775669395919,40.87566362786087],[-73.9190832635702,40.87606488182647],[-73.92002897662496,40.8765926471238],[-73.92206723651886,40.878572414803116],[-73.92273788287528,40.87890544542808],[-73.92451795851036,40.879058659562084],[-73.92490327473082,40.87888836785333],[-73.92380525605498,40.88032490163623],[-73.9203928019909,40.88764850022706],[-73.91781783790027,40.89441642556813],[-73.91789963124658,40.894669009537004],[-73.91694161078402,40.89664455170254],[-73.91518455871676,40.90158428286234],[-73.91543172958428,40.90181268368851],[-73.91501449586045,40.90308129910659],[-73.91459039243315,40.904119002196545],[-73.91418543529882,40.904140390968834],[-73.9128685787661,40.907535475893596],[-73.91311022264122,40.90784583394495],[-73.91264932172878,40.90807081195554],[-73.91149190703744,40.91223376931219],[-73.91143213027848,40.91282382621984],[-73.9116547240221,40.913417851896895],[-73.9111079047459,40.914364577888186],[-73.91071204477049,40.91465916116142],[-73.91033256848978,40.91553277650281],[-73.90245664004941,40.91295893342614],[-73.89725326354895,40.91165552044135],[-73.86789798628736,40.90294017690546]]]]}}]}