{"type":"FeatureCollection","features":[{"type":"Feature","properties":{"district":"30"},"geometry":{"type":"MultiPolygon","coordinates":[[[[-73.93445239397371,40.83598096015007],[-73.9349153357865,40.83523082193897],[-73.93516725294636,40.83287499227608],[-73.93442396339051,40.82704289397231],[-73.93397241531086,40.819729574765795],[-73.93383009163675,40.819719743429815],[-73.93382900884609,40.815585360187654],[-73.93401476726979,40.814483752624966],[-73.93385652638817,40.81448147441938],[-73.93386510261902,40.8141531579558],[-73.93433864584739,40.80956221383153],[-73.93412073484298,40.80865645197758],[-73.93356119311481,40.80760067738683],[-73.93115949987327,40.804966940262624],[-73.93001261302967,40.803287498428915],[-73.9299828842777,40.802984752494396],[-73.93069684953922,40.8024192557794],[-73.93089359142485,40.80248977402105],[-73.93059703777743,40.802931155933116],[-73.93074537858237,40.803242430183786],[-73.9326630394673,40.804065100661916],[-73.93308208218109,40.8034252152067],[-73.93531805352984,40.80436716238911],[-73.93581613118467,40.80369990095366],[-73.93357644747852,40.80275218023766],[-73.93537355579677,40.800162448446194],[-73.9376860045883,40.80114091651456],[-73.94187604660848,40.795405869050626],[-73.95152925608001,40.79945872639976],[-73.95201557524564,40.79883253421756],[-73.94878702811162,40.7974828390053],[-73.95577735912323,40.78791392447124],[-73.95618634782718,40.788138788056436],[-73.95640769986997,40.78883666974032],[-73.95690053672013,40.78925302702171],[-73.96019178935643,40.79040707622471],[-73.96194100104044,40.79140477312021],[-73.96294611201624,40.79175084726167],[-73.96346534070109,40.79138721807845],[-73.96468540739478,40.79166402679901],[-73.96282149737728,40.79423723569145],[-73.96991508284204,40.79721645372775],[-73.96945603445009,40.797837893652215],[-73.97088109374313,40.798444667905876],[-73.96996414366038,40.79970145734443],[-73.97145910423087,40.8003336541295],[-73.97192384162815,40.79970485083824],[-73.97466556722725,40.800813514734344],[-73.96855747771224,40.809072893821174],[-73.96414082888299,40.81577165745409],[-73.95999892229345,40.82038294480247],[-73.95981462674555,40.82029787470156],[-73.95913061580629,40.82116895377493],[-73.95942624349648,40.821252381738134],[-73.95914685715192,40.82157132855115],[-73.95903294155774,40.82151374622867],[-73.95923467193995,40.82127782527061],[-73.9590896024009,40.821206247056104],[-73.95881892233997,40.82151852484693],[-73.9589417294171,40.821569364009754],[-73.958745236605,40.82180551197381],[-73.95900018289892,40.822409728374524],[-73.95922976213465,40.8222869101325],[-73.95990999444398,40.82257111982217],[-73.9596033246028,40.8229946867835],[-73.95892614718302,40.822711755441524],[-73.95904953331708,40.82254133536842],[-73.95852731524258,40.82184375665232],[-73.95820019354012,40.82228313691829],[-73.95793904909121,40.822774353547466],[-73.95822838183035,40.822887867101066],[-73.95814312769203,40.823020722271615],[-73.95955575493863,40.823693797768954],[-73.95725897043309,40.82711730987351],[-73.95694866420469,40.82700055393517],[-73.9563178451031,40.827944215388754],[-73.95503912978361,40.82741343241461],[-73.95469736685665,40.82791838551466],[-73.95454188062094,40.827861476868264],[-73.95021218560015,40.83430311995851],[-73.94934122777474,40.83398211496264],[-73.94890543220046,40.83406529937924],[-73.94827676857172,40.833865456098245],[-73.9401413121009,40.8303719888809],[-73.93848743202643,40.83299450384494],[-73.93463510596277,40.836050192077316],[-73.93445239397371,40.83598096015007]]]]}}]}