{"type":"FeatureCollection","features":[{"type":"Feature","properties":{"district":"17"},"geometry":{"type":"MultiPolygon","coordinates":[[[[-73.97546660326205,40.64315263549935],[-73.9750150675714,40.64076194975191],[-73.97594321197116,40.64065900241944],[-73.97548810389321,40.638270326461104],[-73.97641727847291,40.638167797672914],[-73.97596212280565,40.635778817021965],[-73.97911188737734,40.63544038694215],[-73.97987360298706,40.639518205950644],[-73.98233704206189,40.64097618101448],[-73.98292167410668,40.64041620235208],[-73.98322908250323,40.64060523926959],[-73.9832929189956,40.641220473084154],[-73.98299419241442,40.641324996849285],[-73.9883498673701,40.64456224388752],[-73.9926445605762,40.64172829094664],[-73.99427350113287,40.64271029870706],[-73.99425993862171,40.64330091214609],[-73.99522874380152,40.64237480002463],[-73.99742590371999,40.6437070917512],[-74.00034122066634,40.64090531617336],[-73.99813866465468,40.6395755955897],[-73.99872187473305,40.63901609319765],[-74.00092541773434,40.640345902028926],[-74.00267214342665,40.63866701097275],[-73.999807422987,40.63693549764454],[-74.00702302486354,40.63210999547655],[-73.98842042010547,40.62087168924508],[-73.9878509553418,40.62143503244081],[-73.97682678945127,40.61477640190379],[-73.97857353449402,40.61309940230672],[-73.97637170304222,40.6117686855028],[-73.97520829413772,40.6128852582155],[-73.97477657974517,40.61263847542961],[-73.97403097835277,40.60870231015916],[-73.97299434004842,40.60881414180258],[-73.97217742734924,40.604194711537396],[-73.97092821208656,40.60423937417748],[-73.97079297187089,40.60351814897013],[-73.97235152087218,40.603348118861206],[-73.97312284633645,40.59779052143376],[-73.97163038223722,40.59794401746712],[-73.97148350854722,40.59717158495816],[-73.9775067418329,40.59650645342069],[-73.97710469944808,40.59438832760441],[-73.97610702564643,40.594499518873675],[-73.97589704122277,40.5933861219215],[-73.97689554871982,40.59327644559106],[-73.97663556455663,40.591990545627155],[-73.97722132077106,40.59192193351346],[-73.9807101319401,40.593997228635736],[-73.98463965435978,40.59355217604272],[-73.98346862925801,40.58726360764236],[-73.98450443042148,40.587889786187596],[-73.98745963402041,40.58511660660557],[-73.98798153777611,40.585975824694835],[-73.9890897615207,40.585460647103],[-73.98986302411079,40.58593784240193],[-73.9884837348516,40.586594094808014],[-73.99153934444449,40.590390903081484],[-73.99255747826085,40.5899216752267],[-73.99458827529554,40.59254860552292],[-73.99727749704934,40.59490995194421],[-73.99831932653142,40.59564490664863],[-73.99854364019622,40.595341047239465],[-73.9999818142897,40.59599966923202],[-73.9993450279677,40.596613902277845],[-74.00059373147968,40.596438953288214],[-74.00333390928904,40.5969104097567],[-74.00257227988821,40.59704081059293],[-74.00372956713744,40.59735820645538],[-74.01161032912438,40.60211138807557],[-74.01762387638264,40.60360675101657],[-74.01817142112371,40.603905837501834],[-74.01817646660614,40.60425260881753],[-74.01549855009637,40.60684152427709],[-74.01701910154738,40.60765441697132],[-74.01522379433119,40.60935638462122],[-74.01376688929142,40.608478685787944],[-74.01025069850942,40.61185336970604],[-74.00951152113721,40.61140615308413],[-74.00539676916912,40.61536287704967],[-74.00759806889579,40.616694461372035],[-74.00227586285989,40.62181427442718],[-74.00447604830414,40.623144189108174],[-74.00563745682207,40.6220235572895],[-74.00783924030348,40.623355603802395],[-74.00900199071451,40.62223556866968],[-74.0134087723857,40.62489587947158],[-74.01282730885728,40.62545573546123],[-74.01062410466348,40.62412551412227],[-74.01004189244219,40.624686202492256],[-74.01224533997598,40.62601560712536],[-74.01050029743425,40.627692799619304],[-74.01214162935817,40.6286843354372],[-74.01861503355354,40.62436918388249],[-74.02007423343322,40.62424643447751],[-74.01926375737062,40.625576263300914],[-74.01863896276926,40.627070526876295],[-74.02027718520772,40.62806209137757],[-74.01925892998652,40.63055955035491],[-74.02173709503877,40.63168788312766],[-74.02101222340077,40.63346837978433],[-74.02351866459269,40.63461578718498],[-74.02262573388921,40.63679904898004],[-74.01843070336915,40.6408373280595],[-74.01616711475117,40.63948244156956],[-74.01497963598209,40.640625468682536],[-74.0127753791903,40.639295632742325],[-74.00811636364485,40.64377628755334],[-74.00591235211326,40.64244496956129],[-74.00358060203985,40.644688607961285],[-74.00578487809275,40.6460180785675],[-74.00462168314371,40.64713100991441],[-74.00682351845911,40.64846488159075],[-73.99516890198151,40.65966952204427],[-73.9929640204198,40.658337409962726],[-73.99238339483462,40.658899016424634],[-73.99018841567013,40.65760081883146],[-73.98843135252152,40.65925121165801],[-73.98179568718419,40.65524609715838],[-73.97944230387601,40.64279621509573],[-73.97901883135754,40.64297192950483],[-73.9782489728011,40.642845929927525],[-73.97546660326205,40.64315263549935]]]]}}]}