{"type":"FeatureCollection","features":[{"type":"Feature","properties":{"district":"22"},"geometry":{"type":"MultiPolygon","coordinates":[[[[-73.91990064336036,40.599600522090384],[-73.9186588759807,40.59947242837085],[-73.91843548283046,40.59916639083193],[-73.91626393108342,40.598161137312935],[-73.91601641749946,40.59750843831359],[-73.91441508107108,40.59604501653259],[-73.91381765162045,40.595042289874904],[-73.91338305751259,40.5947215527782],[-73.91306340001262,40.59407211068721],[-73.91326180340427,40.59222877624616],[-73.91295122631982,40.59205432996972],[-73.91439422677793,40.591511657998346],[-73.91524478304683,40.59158750817872],[-73.91604992895567,40.592202597528924],[-73.91601046924528,40.59242852070584],[-73.91636827963086,40.59274707199727],[-73.91644112902229,40.59312680944066],[-73.91787543558036,40.59472218152505],[-73.92019954537206,40.5961833452807],[-73.9208294770879,40.59633469068305],[-73.92089682095303,40.596612654032825],[-73.92182277731904,40.597332932872675],[-73.92186423669085,40.59779822261291],[-73.92227201543724,40.59837681843631],[-73.922130493534,40.598662596177505],[-73.92084893682674,40.59954139732863],[-73.91990064336036,40.599600522090384]]],[[[-73.9843029314332,40.642084563596086],[-73.98299419241442,40.641324996849285],[-73.9832929189956,40.641220473084154],[-73.98322908250323,40.64060523926959],[-73.98292167410668,40.64041620235208],[-73.98233704206189,40.64097618101448],[-73.97987360298706,40.639518205950644],[-73.97911188737734,40.63544038694215],[-73.97688861212463,40.63567486202854],[-73.97604935657381,40.631275905646966],[-73.97241481651272,40.63299383426854],[-73.97182772517023,40.62986338560227],[-73.97156802753176,40.629988015246475],[-73.97092126268777,40.6265699855057],[-73.96184657346146,40.627570817608984],[-73.96211947350886,40.62904090740571],[-73.96161964736363,40.629102986242664],[-73.96128516569638,40.62763363931399],[-73.95805293080656,40.627971118631926],[-73.95759526820358,40.625597469145504],[-73.95536369123523,40.625844069003435],[-73.95490800486338,40.62345447819892],[-73.94927380969362,40.62407238991448],[-73.9488198885699,40.62168184811194],[-73.94789538373713,40.6217832635143],[-73.9469936511389,40.617001636334074],[-73.94606699612429,40.617103739180344],[-73.9457369197798,40.61536340675711],[-73.94482770996294,40.61604620910957],[-73.94417450694539,40.61272253843822],[-73.9429791988886,40.61344890656749],[-73.93934703447131,40.610187141369266],[-73.93572338066663,40.612529895638815],[-73.93390125797698,40.61089972930915],[-73.93315984132026,40.611381331581974],[-73.93134520149016,40.60974705838707],[-73.9298873498605,40.6106880521384],[-73.92806697076347,40.609055164430316],[-73.92296730273128,40.61236361752928],[-73.92111577948074,40.61070169191953],[-73.92249750838403,40.609809079614045],[-73.90090076276284,40.59014959138927],[-73.89141737067482,40.58179438993381],[-73.88812417873203,40.57872829231122],[-73.88769395836908,40.57806323884479],[-73.8888234939248,40.57812221126406],[-73.8897553358589,40.577788416514025],[-73.89118413767294,40.577872112238005],[-73.89454772078223,40.5768395097291],[-73.89552381007171,40.57676981843659],[-73.8965125431068,40.57900707457313],[-73.89675987675112,40.58125005430544],[-73.89657919126309,40.582356047837706],[-73.89674637030198,40.58318998480343],[-73.89727278198757,40.58432080708272],[-73.89816156619817,40.58535049055841],[-73.89793963862803,40.58588067187524],[-73.89826305550277,40.586785395352535],[-73.89891599908806,40.58753743606123],[-73.89973341305182,40.58716521211007],[-73.89899371735174,40.58762794668706],[-73.89957927958257,40.5879878065251],[-73.89981060525028,40.58801445705567],[-73.89990604460486,40.58779408924842],[-73.89994345059314,40.5879834165258],[-73.90000932514985,40.58781834881202],[-73.90121791883179,40.58738334002335],[-73.89995234070636,40.588041598697046],[-73.90088030290718,40.58805352387969],[-73.90209953736364,40.58735654117657],[-73.90285597557546,40.58736627066696],[-73.90426037350447,40.586912024831975],[-73.90587919851592,40.58749787630446],[-73.90588718425924,40.587877372914534],[-73.90651874670951,40.5880254736179],[-73.90712502406386,40.58752970296251],[-73.90649351281371,40.587344674917674],[-73.90633517612741,40.587131926250976],[-73.90647377807562,40.587020988912606],[-73.90810885035972,40.58679650530172],[-73.91088554171192,40.58594764500466],[-73.91160407148266,40.58615246651101],[-73.91197278431743,40.586697357471515],[-73.91175228445425,40.587310653341355],[-73.9120743896449,40.58850858450324],[-73.91155825495514,40.5900762443189],[-73.91143960356128,40.59114078552404],[-73.91194703970301,40.59254807928556],[-73.9120288463879,40.594367595782806],[-73.91248494895459,40.595364600159016],[-73.91311695895168,40.59587248245138],[-73.91355033858733,40.59672229672056],[-73.91426527341667,40.59724919101931],[-73.91454976988686,40.59772546011453],[-73.91506580774394,40.59799807835896],[-73.91516861345804,40.598667626415015],[-73.91580410672469,40.59925779433582],[-73.9170108791587,40.5995872493001],[-73.91862332548992,40.600672423126774],[-73.91987171530226,40.60085170784871],[-73.9208478610526,40.60146194343916],[-73.92170503324711,40.6017443703557],[-73.92215545194813,40.60169973725953],[-73.92296824879156,40.601105718413265],[-73.92329545554311,40.600742439783986],[-73.92325633485436,40.60036050632949],[-73.92360986659033,40.60019163305577],[-73.9239399708853,40.59971434937701],[-73.92470820335721,40.59974178896113],[-73.92799805103411,40.601927872124946],[-73.92852506942569,40.602211871221606],[-73.92883624643031,40.60212182060686],[-73.92888251643565,40.6024272716496],[-73.92954149151946,40.60274908136815],[-73.92960962169153,40.60315787624925],[-73.92907026548149,40.60370834910155],[-73.92934888398975,40.60393717189756],[-73.92999616208807,40.603643641706256],[-73.93017807942854,40.603736344167956],[-73.9301339385194,40.603998125870206],[-73.93056652946683,40.603736228001104],[-73.93100336143117,40.603935804164145],[-73.9319622706444,40.60312163761561],[-73.93211608839754,40.60268851664715],[-73.93176200342052,40.602596384217996],[-73.93144561470652,40.602059231162976],[-73.93032538113468,40.60118184218996],[-73.92970313339583,40.60122242716036],[-73.92935962488764,40.60098626107396],[-73.9292269825969,40.6004881090188],[-73.9286525041383,40.600385591828925],[-73.92859230600075,40.600611615976426],[-73.92837681026235,40.6003500953047],[-73.92784799166301,40.60031605848214],[-73.92720240400452,40.59991008043434],[-73.92290185533977,40.596447563816525],[-73.92177536324354,40.5950309262013],[-73.9203414206208,40.59473049560775],[-73.91818165129398,40.59310708336845],[-73.91641150528014,40.59114162761565],[-73.91487761529368,40.590313620486185],[-73.91506743494124,40.5900805427023],[-73.91456764109033,40.58959989532727],[-73.91454515553674,40.58885292151376],[-73.91725482169704,40.587477879517806],[-73.91791214500071,40.58687774048672],[-73.91805568585306,40.58643654567648],[-73.91917204255653,40.585955087874495],[-73.91960004700488,40.58616493297184],[-73.92017117347488,40.58593990878516],[-73.92040498231103,40.58608977964587],[-73.92081091615161,40.58598413713921],[-73.92073901660137,40.58573009669374],[-73.92092948644265,40.5858733062726],[-73.92090603836387,40.58559058153379],[-73.92101218266103,40.58575359585841],[-73.9218995512202,40.585693175673676],[-73.92184819107773,40.58583842143657],[-73.92235337377299,40.58602393656254],[-73.92492960627713,40.58566758431913],[-73.92720774188903,40.587722759186924],[-73.92765146660287,40.58745909654162],[-73.9272493769958,40.587749691781305],[-73.92735680928894,40.588022176276354],[-73.9279162574111,40.5875487358896],[-73.92807906817859,40.58770246052338],[-73.92736935753538,40.58804459880316],[-73.9274045224574,40.588206445197876],[-73.9279017574099,40.58795340928011],[-73.92802185276423,40.58806875635107],[-73.92745467790994,40.58829956407424],[-73.92776143639114,40.58866060975899],[-73.92395294850094,40.59113985052524],[-73.9241996339266,40.591364280188884],[-73.92460129938564,40.59119932500333],[-73.92815905123096,40.58882524959019],[-73.92841885809032,40.58893403509833],[-73.92821616994858,40.58878391290409],[-73.92835866230412,40.58886543132917],[-73.92863061415636,40.58857263642084],[-73.92875761553675,40.58867429700595],[-73.92837745971516,40.588981323616224],[-73.92862026499199,40.589120436296376],[-73.92895102993232,40.58890964240971],[-73.92866593842902,40.58914326406668],[-73.92921964005188,40.58881334544413],[-73.92924314818038,40.58895069162151],[-73.92875703499419,40.589152966925184],[-73.93003427450552,40.5894259965009],[-73.93057705718256,40.589890641203354],[-73.93010325988766,40.5896061050716],[-73.93029788091675,40.59003516763017],[-73.93058940447365,40.58995259113271],[-73.93062849364426,40.59025299033795],[-73.93046768917102,40.5900613730908],[-73.93065213846435,40.59029097949247],[-73.93047151959617,40.59085578498102],[-73.93062344246579,40.59091869427636],[-73.93064749948576,40.59061968367199],[-73.93064106700575,40.59094456641954],[-73.93046013661879,40.5910012190211],[-73.93069641658052,40.59101854140038],[-73.93044960172925,40.59107969192933],[-73.93072578729826,40.59108986026531],[-73.93037197719026,40.59121140087609],[-73.93060444306958,40.591186176221164],[-73.93040541662207,40.59173094214314],[-73.93060580656588,40.59154136250863],[-73.93045091922711,40.59224503726199],[-73.9303990560214,40.59175559642919],[-73.930364436033,40.592480093513736],[-73.93036221568062,40.59231177060923],[-73.93017616634198,40.59240622097059],[-73.93035364458575,40.5925549502942],[-73.93018970658281,40.59245411828898],[-73.93002301026205,40.592683046384984],[-73.93021251489367,40.592678370292624],[-73.92991250156446,40.59285339487319],[-73.93009899324113,40.592872440452496],[-73.93005244539405,40.593000243520926],[-73.92989066964314,40.59287079187085],[-73.92971282036602,40.59312004824824],[-73.93004238419589,40.59306087931824],[-73.92995591909573,40.5933085723268],[-73.92974147322654,40.59314392244574],[-73.92982317336796,40.59337269610159],[-73.93003922396669,40.593348430884],[-73.92978081742058,40.59343674147179],[-73.92996116581374,40.594005710816866],[-73.93021519470315,40.59397294418471],[-73.93008159453139,40.593595462871434],[-73.93022756280041,40.59393062089705],[-73.93052488661871,40.59388024070099],[-73.93035968941534,40.593975941324175],[-73.9305467907066,40.594199304588315],[-73.9302993440439,40.59393805451043],[-73.93004011947694,40.59410488733062],[-73.93043246129612,40.594402674950075],[-73.93076122839564,40.59438190052098],[-73.9306230568456,40.59420449766007],[-73.93083446436536,40.594413571304386],[-73.93066303510112,40.59446395093302],[-73.93093516114608,40.594459949861175],[-73.93122055938909,40.59418331726291],[-73.9313251214607,40.59427625619019],[-73.93095463426401,40.59446594520637],[-73.9313668482681,40.59452917209466],[-73.93176387399963,40.594284099265614],[-73.93161313737215,40.594503518414555],[-73.93078131379619,40.59449895527697],[-73.93230826395404,40.59491634048729],[-73.93256343839334,40.59476347229718],[-73.93243762903224,40.594843636039975],[-73.93260420556855,40.59492954452514],[-73.9328265485289,40.59480374496932],[-73.9326765397575,40.59423641796777],[-73.93175890743086,40.59283010489938],[-73.9317109079429,40.59305030052069],[-73.93143675613805,40.59216713451828],[-73.93113956057566,40.59200892874766],[-73.93139997986388,40.59180489056233],[-73.9310098934316,40.59193104248112],[-73.93135300954737,40.59179119396206],[-73.93142565439746,40.59160418414756],[-73.93104847875684,40.591726290866156],[-73.9310760222574,40.59159759276834],[-73.93123057043024,40.591641983133215],[-73.93130541636037,40.591360358668496],[-73.9312459249482,40.59163697699603],[-73.93142252650108,40.591588570390705],[-73.93143272420818,40.591239241308145],[-73.93155939441567,40.59129296457354],[-73.93121294858955,40.58953130811946],[-73.93068568059813,40.58882195422698],[-73.93009138279221,40.58898886237912],[-73.93065021927525,40.588669869770904],[-73.9303996759751,40.58846552041546],[-73.92972846380187,40.58861391582993],[-73.93038545256267,40.588441616079045],[-73.92972232646733,40.587560082903984],[-73.93134917824065,40.58732816722968],[-73.93125191267126,40.586849825214436],[-73.92857393936468,40.58706150237159],[-73.92808232971589,40.586697693937815],[-73.92814969379519,40.58617810776312],[-73.92791933785848,40.58613580604631],[-73.92827672497616,40.58610694357027],[-73.92815700695617,40.585864523066256],[-73.92736955785888,40.58600658531652],[-73.92751621995613,40.58639826671562],[-73.92730433823881,40.58586592842007],[-73.9263804188107,40.585295756347925],[-73.92654820963327,40.585575315387786],[-73.92549354358309,40.585019292003345],[-73.9263454207472,40.58527615475333],[-73.92529083981677,40.584640736167415],[-73.92344966315008,40.58481785396557],[-73.92019563053438,40.58463453736744],[-73.91566114963521,40.58622345450839],[-73.9134996167748,40.58609582566915],[-73.91258587400645,40.58556674463824],[-73.9123679028881,40.58452617424742],[-73.91260847719184,40.584319948276175],[-73.91250460035735,40.583886355710845],[-73.91271079739758,40.58369994166942],[-73.91242420853025,40.583514934039975],[-73.91246022036074,40.58335175392395],[-73.91304660950463,40.58300754849575],[-73.91305439371878,40.58318671645352],[-73.91463166275375,40.582757634402945],[-73.91489741970577,40.58287261036779],[-73.91498685680604,40.58315284032872],[-73.91614199473283,40.58285743763405],[-73.91656345737121,40.583152013699916],[-73.91729861410722,40.5831908017497],[-73.91681104385314,40.582762048557264],[-73.91632640568037,40.58281887042574],[-73.91596151080898,40.582435758340395],[-73.91541290900813,40.582364073798864],[-73.91438667636007,40.58238315804952],[-73.91446429302793,40.582609277816225],[-73.91423692445184,40.582597251922856],[-73.91417322816002,40.58280136166269],[-73.91372600624896,40.58272889387443],[-73.91335911446285,40.58295402101451],[-73.91296905167869,40.58297280262414],[-73.9129938424696,40.58270674016948],[-73.9128537958871,40.58301226729898],[-73.91191058860355,40.58296337725275],[-73.91152073412317,40.58274297140666],[-73.91128635983848,40.582313586292585],[-73.91149960130731,40.58181878096216],[-73.91444081609366,40.58171269722777],[-73.91505520170756,40.58154360772278],[-73.91814011869592,40.58213869717295],[-73.92221271877764,40.58325133291661],[-73.92443604094976,40.583558203444404],[-73.92963248074902,40.58339880862565],[-73.93067191890015,40.583159811778195],[-73.93089053173173,40.58293019412089],[-73.93074069433477,40.582758947695346],[-73.93096003144579,40.582728610786276],[-73.93171422041416,40.582811778842526],[-73.93194431270395,40.58310892942509],[-73.9327786668411,40.58294102796535],[-73.93298795344992,40.58411203582326],[-73.93107641209666,40.58437967553086],[-73.93126945000809,40.58543639392156],[-73.93139947576307,40.5860798954914],[-73.9334439929513,40.58653743835859],[-73.93370492064972,40.587931005188565],[-73.93178392907953,40.58814092809601],[-73.9322250759594,40.5904781999232],[-73.93261448223025,40.59251697082224],[-73.93453187006243,40.592312427273534],[-73.93580399752612,40.598923666884744],[-73.94148000390157,40.59830439173867],[-73.9397960378787,40.589565592809144],[-73.95819543156364,40.58754433228919],[-73.95805392082532,40.58675444108818],[-73.95928689105128,40.58661902195334],[-73.9593473679651,40.58741753723084],[-73.96034953585209,40.58730628607411],[-73.9604596836011,40.58872382032384],[-73.96231130588538,40.58852046438698],[-73.96244434683403,40.58923886450633],[-73.96051667238417,40.589452911647776],[-73.96057230464476,40.59018142713152],[-73.96258052081163,40.58995737416868],[-73.96283785851618,40.59136011151288],[-73.97419290200388,40.590106189991204],[-73.97389008165705,40.592304416920285],[-73.97663556455663,40.591990545627155],[-73.97689554871982,40.59327644559106],[-73.97589704122277,40.5933861219215],[-73.97610702564643,40.594499518873675],[-73.97710469944808,40.59438832760441],[-73.9775067418329,40.59650645342069],[-73.97148350854722,40.59717158495816],[-73.97163038223722,40.59794401746712],[-73.97312284633645,40.59779052143376],[-73.97235152087218,40.603348118861206],[-73.97079297187089,40.60351814897013],[-73.97099040623588,40.604321868812065],[-73.97217742734924,40.604194711537396],[-73.97299434004842,40.60881414180258],[-73.97403097835277,40.60870231015916],[-73.97477657974517,40.61263847542961],[-73.97520829413772,40.6128852582155],[-73.97637170304222,40.6117686855028],[-73.97857353449402,40.61309940230672],[-73.97682678945127,40.61477640190379],[-73.9878509553418,40.62143503244081],[-73.98842042010547,40.62087168924508],[-74.00702302486354,40.63210999547655],[-73.999807422987,40.63693549764454],[-74.00267214342665,40.63866701097275],[-74.00092541773434,40.640345902028926],[-73.99872187473305,40.63901609319765],[-73.99813866465468,40.6395755955897],[-74.00034122066634,40.64090531617336],[-73.99742590371999,40.6437070917512],[-73.99522874380152,40.64237480002463],[-73.99425993862171,40.64330091214609],[-73.99427350113287,40.64271029870706],[-73.9926445605762,40.64172829094664],[-73.9883498673701,40.64456224388752],[-73.9843029314332,40.642084563596086]]]]}}]}