{"type":"FeatureCollection","features":[{"type":"Feature","properties":{"district":"13"},"geometry":{"type":"MultiPolygon","coordinates":[[[[-73.84324381422691,40.75533680376809],[-73.85220450565855,40.752660682362915],[-73.85086439643948,40.74999564187392],[-73.84815114997973,40.746165358522596],[-73.84661696445647,40.74310745604738],[-73.84566347428458,40.74016993097344],[-73.8454731306568,40.74025329630085],[-73.84543235532047,40.74007992945377],[-73.84562308233009,40.73998984722454],[-73.84504021116554,40.73609538006267],[-73.84438721839513,40.73417395748309],[-73.8449680007075,40.734007128824274],[-73.84569341595918,40.73566648032142],[-73.84605541836494,40.73709918897238],[-73.8509980554869,40.73565568107522],[-73.8513417221125,40.73631642324361],[-73.85357940311282,40.73564747513238],[-73.85324927049167,40.73497731002188],[-73.85546561397048,40.73431944558461],[-73.85580770143105,40.734982839208115],[-73.85799293721331,40.73433365672609],[-73.8576518301079,40.7336678860264],[-73.86164235296008,40.73247153728039],[-73.86259399611545,40.73427384427631],[-73.86433941136872,40.733742560164224],[-73.8645724857608,40.734188397514906],[-73.86850101123835,40.733018002358875],[-73.87442387660886,40.73490458745093],[-73.8721011442671,40.73599385294642],[-73.87009417557893,40.73652188014387],[-73.87120034223287,40.73938946790358],[-73.87383531474745,40.73880273280962],[-73.87479557589724,40.74128809256805],[-73.87304492855894,40.74168468689613],[-73.87335854468863,40.742495589219665],[-73.87450515467866,40.743310984305026],[-73.87675965391408,40.74264557532355],[-73.87924995546952,40.74375683637289],[-73.88100387917946,40.74184066249211],[-73.88294286815257,40.74160954372033],[-73.88282912173035,40.74099228285447],[-73.88551225062444,40.74016501888535],[-73.88572588190418,40.7412887059276],[-73.88666826932578,40.74117814526569],[-73.88709844085888,40.74367591800079],[-73.89071647522985,40.74312778397567],[-73.89111026292481,40.74520271861279],[-73.89200455253422,40.745108241982116],[-73.89232090526336,40.74675274743125],[-73.89143128620402,40.7468447369549],[-73.89150522760774,40.74723844452288],[-73.89240906615736,40.74713532888842],[-73.89339757880256,40.752852330363545],[-73.89525968816135,40.75265693604325],[-73.89489907192842,40.7507172859444],[-73.8958359394766,40.75061579471551],[-73.8961921593641,40.75255968839726],[-73.89747876279577,40.75241634167697],[-73.899281901873,40.75529496884755],[-73.90003363834067,40.75701459088515],[-73.89995102035786,40.75783446879459],[-73.89957329603749,40.75866710911453],[-73.89645648072464,40.7632048374339],[-73.89509659634938,40.76435657765383],[-73.8945602113229,40.76581508609791],[-73.89408253475389,40.76632965569561],[-73.89103660435524,40.7661962955365],[-73.88691114361527,40.76691027458112],[-73.88252623843769,40.76851941121227],[-73.877461290627,40.7710853857401],[-73.87513442621166,40.77160392518485],[-73.87338412615095,40.7716778149722],[-73.87164349210826,40.77150658854966],[-73.86992239578936,40.77100314121116],[-73.86680796034666,40.76920295028459],[-73.86348899999949,40.766357991323474],[-73.86002323190637,40.762135865897825],[-73.85912375861514,40.761275498656644],[-73.85603980873547,40.759725787413366],[-73.85449593310997,40.75827863867488],[-73.85328041526448,40.75766028347195],[-73.85219116885825,40.757566795358656],[-73.84940192289808,40.75841115357421],[-73.84789548079708,40.759126783832855],[-73.84585235744356,40.76045539769335],[-73.84324381422691,40.75533680376809]]]]}}]}