{"type":"FeatureCollection","features":[{"type":"Feature","properties":{"district":"10"},"geometry":{"type":"MultiPolygon","coordinates":[[[[-73.82644661516991,40.59052744193847],[-73.82643165499539,40.590316005294724],[-73.82690355436803,40.58992883848128],[-73.82737385766713,40.58976440102506],[-73.82734320867813,40.589943381348895],[-73.82761912370023,40.58999525933869],[-73.82768905925707,40.59056854051901],[-73.82705426208373,40.59097841696064],[-73.82728545195897,40.5914787635647],[-73.82598356406453,40.59197061863448],[-73.82548333523305,40.59197338571119],[-73.82561798585449,40.591711613874374],[-73.8263277408655,40.591461408450904],[-73.82644661516991,40.59052744193847]]],[[[-73.83193277255799,40.59344779692433],[-73.83116882644683,40.591488144309416],[-73.83357376062695,40.58903517184931],[-73.83458673782742,40.58912216496806],[-73.83519078392412,40.58938174674038],[-73.83687949969914,40.589520256508145],[-73.83806756112828,40.590301872106636],[-73.8381470057435,40.59073375985538],[-73.83880085144699,40.591197765370424],[-73.83839527303603,40.590391752547504],[-73.84062613669406,40.59153455504988],[-73.84050451464873,40.591206651752316],[-73.84179835294992,40.592007596152584],[-73.84237933115936,40.5924783180692],[-73.8427900062687,40.59332737914619],[-73.84336470419548,40.59347014386899],[-73.84350065697967,40.59508410975606],[-73.84056972163728,40.597300702794335],[-73.83745833480236,40.59686286784318],[-73.83569788024873,40.59480894117082],[-73.83492802779556,40.59431189738088],[-73.83476026614483,40.59394429450175],[-73.83400002030305,40.59361971265105],[-73.83193277255799,40.59344779692433]]],[[[-73.80997059406056,40.600067537380404],[-73.81014417523036,40.600054855642384],[-73.80997465251733,40.59983670280408],[-73.81029493857315,40.59968938965025],[-73.81029011586071,40.598991670072536],[-73.81048808108193,40.59877931123712],[-73.8113156054143,40.59854983158484],[-73.81157550345522,40.59814119925974],[-73.81222073287758,40.598553908477975],[-73.81359530121023,40.60036184835613],[-73.81460712559036,40.601299029252694],[-73.81501471568563,40.60205629106121],[-73.81480117749582,40.60408034333366],[-73.81444222997993,40.604165201869485],[-73.8142869369858,40.60445566622179],[-73.81320862394746,40.60435543908565],[-73.81266625784592,40.6038889197751],[-73.81170299767513,40.603613945269686],[-73.81016958819596,40.60279976304262],[-73.80986333857315,40.601895789505484],[-73.81003425937743,40.60161090795807],[-73.80985064502396,40.60036561675879],[-73.80997059406056,40.600067537380404]]],[[[-73.80031807729914,40.607064401845086],[-73.79792736498872,40.606579404885785],[-73.79840918707966,40.606009968760645],[-73.79826575424987,40.60549019609661],[-73.79867707846408,40.60570368296186],[-73.79958079285763,40.60531174870977],[-73.80005328099905,40.60546543310207],[-73.80010928078991,40.6053188663213],[-73.7995254356845,40.60524348441606],[-73.79870714092648,40.605621108231944],[-73.79781142206308,40.60515992032976],[-73.79803735364929,40.60483703739881],[-73.79862422461082,40.60480604843245],[-73.7987685918107,40.605015969149335],[-73.79879614841535,40.60486522174858],[-73.79993794607618,40.60461003740552],[-73.80020559146213,40.60483462980742],[-73.80048632023508,40.60476281828105],[-73.80023550352566,40.60480163057844],[-73.80004650162621,40.60456168280313],[-73.79790083791092,40.60472008565295],[-73.79766326029701,40.60530838892538],[-73.79815149082475,40.60563252823001],[-73.79801861118872,40.6056570824498],[-73.79821561992897,40.60593629674097],[-73.7976614342219,40.606357756408386],[-73.79634761133646,40.60578800335621],[-73.79646765605271,40.605187564116974],[-73.79669375994447,40.605105923761386],[-73.79611452288293,40.60469396320254],[-73.79640372971178,40.60471938115602],[-73.79657663032023,40.60443474373496],[-73.79679652064151,40.60449886044589],[-73.79731901178185,40.60406667887668],[-73.79800480522084,40.60421036522704],[-73.79896550641939,40.60409881280053],[-73.79916891656309,40.60426791235126],[-73.80019814674449,40.60422429785931],[-73.80037472842119,40.60437665682303],[-73.80078919095749,40.60421295078419],[-73.8010685626969,40.60438008213786],[-73.80171364786658,40.604110116743435],[-73.80177730917227,40.60427020801374],[-73.80200208159533,40.60417060782821],[-73.80231331358746,40.604408892896345],[-73.80242464702377,40.60422243939958],[-73.8027240811416,40.60450736589486],[-73.80321951238241,40.60456598558422],[-73.80338062624413,40.60430406946996],[-73.80381183234223,40.60436099741666],[-73.80369450317168,40.60462452165203],[-73.80337740488017,40.60469893246112],[-73.80377309202328,40.60514932818821],[-73.80367025869101,40.60543786197107],[-73.80393554554064,40.60564374180608],[-73.80338852435882,40.60587044319307],[-73.80314302033186,40.606366934932936],[-73.80181702266873,40.6064229530483],[-73.80077334667854,40.607076295751675],[-73.80058101065406,40.606837222004465],[-73.80099698107443,40.606590875062416],[-73.80064444884306,40.606329315717204],[-73.80107400950135,40.60641056560764],[-73.80033863924557,40.606278815696925],[-73.80085479651733,40.606635045708366],[-73.80048279900514,40.6067926351448],[-73.8005283665261,40.60708862704324],[-73.80031807729914,40.607064401845086]]],[[[-73.82953035855815,40.60724067334978],[-73.82953035855815,40.60724067334978]]],[[[-73.79665699659022,40.60896091507148],[-73.79600863317904,40.608217360286154],[-73.79647817834127,40.608002119049615],[-73.79626124248149,40.60762499077681],[-73.79654941676456,40.60728754086634],[-73.79611287777539,40.607408655218514],[-73.79611533581901,40.607793713152525],[-73.79581987999927,40.60813391963247],[-73.7955169436739,40.60735496330088],[-73.79527814038407,40.605814321533884],[-73.79572698954331,40.6052306132468],[-73.79603208503855,40.60530040978384],[-73.79560502059154,40.605892468131046],[-73.79570141764704,40.606460525121975],[-73.79674937775796,40.606226355852655],[-73.7978974694127,40.60686880990857],[-73.7990199169041,40.606868440100726],[-73.80052617654209,40.60722633865083],[-73.80107067504782,40.60717936691719],[-73.80192792270964,40.60663741774661],[-73.80326523257317,40.606571932192224],[-73.80377411165689,40.6061205278826],[-73.80401493337446,40.60613150017502],[-73.8036054882775,40.60693415120957],[-73.80308415747787,40.60746513217984],[-73.80253792293627,40.60781046665622],[-73.80182143319743,40.607958823036164],[-73.801402636418,40.60822680699314],[-73.8016239788134,40.6083546166374],[-73.80099421230568,40.6086720979108],[-73.79817626416516,40.60899129448824],[-73.79665699659022,40.60896091507148]]],[[[-73.82730192542975,40.60948538975413],[-73.82635029826196,40.609289152068975],[-73.82581355251645,40.608917723174855],[-73.82576470455194,40.60864133950795],[-73.82604712343331,40.60829175026923],[-73.82576814632817,40.60785387461305],[-73.82604799274529,40.60781993570851],[-73.82625433623483,40.608017969621265],[-73.82679109718774,40.607909690360486],[-73.82566738192993,40.60778622441825],[-73.82540715279029,40.60669973580819],[-73.82453724237169,40.60507835259407],[-73.82460558197688,40.60473563330289],[-73.82770657743166,40.605237813032026],[-73.82908602632693,40.605820966856754],[-73.82940290644842,40.606581531209926],[-73.82903972670069,40.60735521367345],[-73.82776984301383,40.60776506853883],[-73.82747154564672,40.608225317265365],[-73.82707969381761,40.60833308436152],[-73.82760231973977,40.60929775823639],[-73.82730192542975,40.60948538975413]]],[[[-73.83212876903654,40.60951664237244],[-73.83122317315295,40.6088295866013],[-73.83130655041923,40.60841153207101],[-73.8308267330766,40.60847424004027],[-73.83005617447249,40.607924796435675],[-73.8297788496926,40.60711557188134],[-73.82987726436338,40.606322837407134],[-73.83092271504947,40.60536498222089],[-73.83177507584244,40.605094363641506],[-73.83195008173199,40.60527288631295],[-73.83438032359884,40.60515221948964],[-73.83552006079785,40.60545762109728],[-73.83574042804331,40.605785277354606],[-73.83446265620238,40.6071925329426],[-73.8342263130804,40.6080513433234],[-73.83247030669611,40.60946154039569],[-73.83212876903654,40.60951664237244]]],[[[-73.76669139771343,40.61425465494768],[-73.76516400829198,40.61375420268684],[-73.76501580220096,40.613475187493414],[-73.76515429478951,40.61308589571629],[-73.76505961679173,40.612035230610665],[-73.76229944090417,40.61135920604614],[-73.76172413788875,40.611847242757875],[-73.76023635756965,40.61082086495047],[-73.76178242960593,40.60915167005466],[-73.76155051905889,40.60903136580099],[-73.75998446975024,40.61087937734436],[-73.7594911983337,40.61081579591108],[-73.759720990391,40.61015159787129],[-73.75919672932062,40.61037038573402],[-73.75656053403193,40.610139425129994],[-73.75587091285605,40.610306797650814],[-73.75560684726135,40.61007736522709],[-73.75587412912142,40.61038518505501],[-73.75556369084146,40.61011842794653],[-73.75499501085474,40.61013220801509],[-73.75473219572567,40.61040524167861],[-73.75345836130877,40.61051986290754],[-73.75008771076786,40.61164055382737],[-73.7482158588267,40.612011077589685],[-73.74799307317252,40.61231015796798],[-73.7476141892917,40.61199801088509],[-73.74721567819046,40.61217883915201],[-73.74685539024536,40.611574099557224],[-73.74576150178679,40.611991654748905],[-73.74310894573772,40.60771599650397],[-73.74339731588074,40.60747217106825],[-73.74029138976128,40.604598232281184],[-73.73920739803127,40.604040143301404],[-73.73840394453619,40.60312113578491],[-73.7382259772822,40.602566027210074],[-73.7383561770226,40.59760047830733],[-73.73865280277474,40.59731935956338],[-73.73848900400793,40.597358894240394],[-73.73871968076894,40.5969488173266],[-73.73858466737627,40.59725319461581],[-73.73878797503635,40.596975355521614],[-73.73938023660168,40.597239072946756],[-73.73992747214845,40.597054949532605],[-73.7401177357879,40.596727747475484],[-73.739798757236,40.596428603789406],[-73.74009714262667,40.59620864729195],[-73.74039153834975,40.59618219567334],[-73.7403601274953,40.59677499554029],[-73.7406438431081,40.597001198658475],[-73.7410831534284,40.59682306656986],[-73.7415738033103,40.59690394589248],[-73.74183083523945,40.59669555145028],[-73.74151239169112,40.59652861251467],[-73.74052059818192,40.59657185645663],[-73.74054701362383,40.596119685718136],[-73.73992792985005,40.59606158731352],[-73.73957904997492,40.596376337848874],[-73.73946370303052,40.59687842009228],[-73.73949660873659,40.597020371261834],[-73.73988306007304,40.596770974189724],[-73.73974724022848,40.59654260483528],[-73.73990994690173,40.59677274452052],[-73.73979634028939,40.596882675628144],[-73.73939810824884,40.59704632565642],[-73.73892850726293,40.59687548946671],[-73.7393979636384,40.597029543018124],[-73.73943957124725,40.59689740230765],[-73.73894690694097,40.59676316642711],[-73.7383836033524,40.59711740856245],[-73.73841231034156,40.595923504946995],[-73.73798981846903,40.59455604324521],[-73.73848743971975,40.59435226298848],[-73.73877153079917,40.594525207530666],[-73.73877753514914,40.594355008215466],[-73.73900196778291,40.594586232244616],[-73.73929430628122,40.594453005560894],[-73.7395646533139,40.59456157857763],[-73.73958763297756,40.5944265251087],[-73.73961965222443,40.594580041879055],[-73.74013580364564,40.59451157273911],[-73.74062832064128,40.59472165227226],[-73.74090170596185,40.59448824925338],[-73.7413182062532,40.594792592881326],[-73.74169766300271,40.59464174405298],[-73.74222603097068,40.594905883324444],[-73.74242926334381,40.59486851780672],[-73.7423874258487,40.59472925606035],[-73.74334951603205,40.59479514827647],[-73.74348442282232,40.59459051648823],[-73.74462499793172,40.59466177479809],[-73.7466551146474,40.5942956949023],[-73.74912524757535,40.593216367270564],[-73.75169369495661,40.59131225132602],[-73.75344780177821,40.590964129913274],[-73.7559546362305,40.590874198050024],[-73.75789189861872,40.591356988277916],[-73.76134311678325,40.59172663385063],[-73.76295275572143,40.591611177431275],[-73.76796973006493,40.590729482964555],[-73.76872708525137,40.59087006895576],[-73.7759304282186,40.59018140832818],[-73.7758368859526,40.59032459875788],[-73.77918495356101,40.5895931088955],[-73.78043036101892,40.58959662142923],[-73.7845331104848,40.58847805521806],[-73.78768370715751,40.58792293771222],[-73.78878406873122,40.58745028886744],[-73.78941470793565,40.58762814730426],[-73.79200762464424,40.58721746494202],[-73.80182907323011,40.58535182671263],[-73.8032577124328,40.584893212907076],[-73.80372119405995,40.58501793745038],[-73.80584287341304,40.58445751724962],[-73.80679193346701,40.58441989920581],[-73.80799182895132,40.5840044095041],[-73.81352448727559,40.58347314904693],[-73.81928812030544,40.581766974354316],[-73.82222751243998,40.58111503216214],[-73.82717378884985,40.579444512955426],[-73.8338692317217,40.57764989760918],[-73.8377849130498,40.575923683475594],[-73.85720330672287,40.56910050048786],[-73.86255286029154,40.566810012301005],[-73.86286892277302,40.56683057154652],[-73.86269356691207,40.566502192177616],[-73.86300482943778,40.566875957731035],[-73.86355862677969,40.567027194390874],[-73.86557608357201,40.56656001470033],[-73.86661089295575,40.56609386518899],[-73.8663094123243,40.565546064125094],[-73.86663005715053,40.56609011165428],[-73.86686111965143,40.566086471070165],[-73.8684869484588,40.56552701030174],[-73.8682511755017,40.56506948945982],[-73.86852753205115,40.56554546343397],[-73.86924996432208,40.565384760453604],[-73.87062214815238,40.56481330949432],[-73.87027588464693,40.56417465359758],[-73.87064094150604,40.56480994521753],[-73.87091316206484,40.56476458551091],[-73.87263971280453,40.56408418402695],[-73.87237878047381,40.563575116059155],[-73.87274649784132,40.56410544733245],[-73.87320628037062,40.564060271744545],[-73.87624642690393,40.56310099654799],[-73.88026644423209,40.561532741337615],[-73.88029022254679,40.56137455089703],[-73.88128249221315,40.5613721338798],[-73.88241586728287,40.56091089700176],[-73.88237441679736,40.560760430809985],[-73.88324741562145,40.56085592198791],[-73.88488436886665,40.56018236804138],[-73.88485949479872,40.56004280745817],[-73.88511277798887,40.56015096173744],[-73.88611109684473,40.55992191902938],[-73.88696170683072,40.559558154144696],[-73.88697510801153,40.55940048299869],[-73.88707182997231,40.559542104885985],[-73.88789256106375,40.559510651379725],[-73.88963947542888,40.55866435179425],[-73.89021653553587,40.55881154912181],[-73.89079589630367,40.55861937890735],[-73.89192354828386,40.55816042152527],[-73.89213864396184,40.55787154149421],[-73.89252745099303,40.55811929404536],[-73.89347065050556,40.557945578638794],[-73.8949514249942,40.55729392540959],[-73.89491817266388,40.55707879579587],[-73.89518458696945,40.557385037151036],[-73.89551188771085,40.55741427014987],[-73.89699522942651,40.55689179163894],[-73.89707956116685,40.556657433587425],[-73.89735688619311,40.556998423041996],[-73.89799514796813,40.55710213718046],[-73.89911718426394,40.55680035379436],[-73.89912995192725,40.556641173386005],[-73.90027595919047,40.556603894783414],[-73.90058581786725,40.55642220952705],[-73.90070115515823,40.556633568543404],[-73.90124001641075,40.55675974374632],[-73.9027942267971,40.55673299509444],[-73.90691391033216,40.55560357223029],[-73.91948122277842,40.55062481534722],[-73.9264190939681,40.54815578032013],[-73.9305463182744,40.54642592080485],[-73.93611852939222,40.54451641432323],[-73.93889756292738,40.54323973570249],[-73.94047161197716,40.542863121313246],[-73.94055777426162,40.54186051024058],[-73.94073545513237,40.54183396045327],[-73.94012970302184,40.54800529233841],[-73.94008471877979,40.5505459430505],[-73.9402735647651,40.55240827293562],[-73.9399086569573,40.55383641311394],[-73.93925409758839,40.55498011004952],[-73.93865563831585,40.55567659226412],[-73.93647315964121,40.55693267217087],[-73.93509412137415,40.557269533479925],[-73.93314015930741,40.55736376593148],[-73.93177599971375,40.557899999918845],[-73.9261572327542,40.561552609723265],[-73.92421461302578,40.56200131882508],[-73.92107822881373,40.56207985288503],[-73.92036810280446,40.56221883246779],[-73.92025963172999,40.562612293058734],[-73.92009840148403,40.562571180610185],[-73.92033120142663,40.562226054886715],[-73.91766081900091,40.562826149686664],[-73.91455336961286,40.56435343243398],[-73.9131318012801,40.564638243946234],[-73.91220200769317,40.56505456985016],[-73.91188319662992,40.56499040523887],[-73.91195464366191,40.565811322673],[-73.91216181893262,40.56583625156831],[-73.91197024752503,40.56586941753265],[-73.9117361534006,40.56587265348591],[-73.91192551909776,40.56581386237741],[-73.91185809029383,40.564995438003514],[-73.91079817683057,40.56511099583168],[-73.9101009990952,40.56495600090465],[-73.91003762905775,40.5647937106021],[-73.90971684925964,40.565287425461364],[-73.91002307642118,40.56478020953865],[-73.90976258436969,40.56428483692834],[-73.90872545136813,40.56393129153775],[-73.90791915969069,40.564148439869946],[-73.90809155650997,40.56372163135072],[-73.90798575997265,40.5634424416282],[-73.90664724115204,40.5627859141763],[-73.90469455455373,40.562827185602046],[-73.90287143330069,40.56351486420628],[-73.90244774461503,40.5628995090335],[-73.90161118167623,40.562751450374535],[-73.9000039209185,40.563215692415135],[-73.89613262445299,40.56535842756706],[-73.8953372502706,40.56633210037106],[-73.89567174387955,40.56703164344951],[-73.8951870492531,40.566913600827796],[-73.89413028093446,40.56782014965302],[-73.89261013445609,40.568587247286864],[-73.88911103072223,40.56791623669109],[-73.88836803030881,40.568144925928046],[-73.88786222508217,40.5680380449867],[-73.88654683936431,40.56847097810963],[-73.88489678220193,40.56849958487709],[-73.88430973105274,40.568696119538856],[-73.8848870712472,40.568470205668945],[-73.88475594832832,40.56828913918762],[-73.88467738972615,40.56844134239836],[-73.8842987608294,40.56843680205324],[-73.88473689799127,40.568268513240795],[-73.88445975335584,40.56789283675905],[-73.88416646626057,40.56800195156418],[-73.8842560545,40.56815713340258],[-73.88414806727037,40.56800897730134],[-73.8839890745021,40.56806016069439],[-73.88407171935152,40.56819501413367],[-73.8837910370301,40.56812391182736],[-73.88402340092395,40.568503115611016],[-73.88378086756106,40.568127185960066],[-73.88357670672721,40.568209769754425],[-73.8836919497781,40.568395359722864],[-73.88347850081561,40.56847311410515],[-73.88390427884407,40.56890620425947],[-73.88336927316188,40.56833185975111],[-73.88262970640685,40.56836892982529],[-73.88192258910135,40.56873144152582],[-73.87867467361689,40.56863993983815],[-73.87780808995733,40.56880063006328],[-73.87598454034418,40.56951979017176],[-73.86554317468638,40.57464212861272],[-73.85305549585115,40.5812552678552],[-73.8504438514919,40.58213024358158],[-73.84861053538305,40.58218814214382],[-73.84520566344791,40.581579857050656],[-73.83935385899039,40.58185726280565],[-73.83895663981416,40.58257425854722],[-73.83855306451234,40.582791713796865],[-73.83584080097415,40.582878939362296],[-73.8285247126134,40.584854219879965],[-73.82803653640441,40.58605288672693],[-73.82476427875102,40.58703921577244],[-73.82481333907114,40.58715132203617],[-73.82293688631506,40.58749164972767],[-73.82145971991768,40.58676992492142],[-73.81741586147426,40.58891701410987],[-73.81763800450648,40.58928579898281],[-73.81674197582348,40.58931916984608],[-73.81524832375074,40.58998905629307],[-73.81470067461719,40.59061058988834],[-73.81363221410827,40.59079363189797],[-73.81325671566422,40.591046302491165],[-73.81358856612626,40.59169768582372],[-73.81323474432726,40.59107073951525],[-73.81312991669729,40.59124662634191],[-73.8122433822537,40.59132582310244],[-73.81170344836342,40.59159374663815],[-73.81151303182712,40.59178349031704],[-73.81149423585859,40.59290132669704],[-73.81133463623162,40.59174462318005],[-73.8110076658511,40.591768297259925],[-73.8108179187449,40.59209026919882],[-73.8109501895272,40.592503059144754],[-73.81138593152033,40.59244231845475],[-73.81140751227157,40.5928712572389],[-73.81107287021051,40.59302233057227],[-73.8113733128964,40.592703054284385],[-73.81074974913332,40.59279211355274],[-73.81137347255543,40.592684499633314],[-73.81135829315778,40.59246258404517],[-73.81093965894601,40.59254684780684],[-73.81080537904415,40.59209209573534],[-73.80989929913342,40.59227095388668],[-73.8100392058452,40.5930779100418],[-73.80990340300143,40.59308077605193],[-73.80973138393709,40.5924041860535],[-73.8098074971652,40.592710409504946],[-73.80970982436389,40.59243960833961],[-73.809486657449,40.59276603513677],[-73.80961196378863,40.59357698426387],[-73.80602807459842,40.59200930900474],[-73.80574947643512,40.59075800929481],[-73.80582389773117,40.5918893251901],[-73.80433925403108,40.591310757653716],[-73.80416569103024,40.59185470983296],[-73.80781870474202,40.59336543783759],[-73.80804688683963,40.59365031287636],[-73.80781142831067,40.59390737987563],[-73.80797687598292,40.59416141594834],[-73.80711253952029,40.59528407542448],[-73.80604149807385,40.595554555213724],[-73.80485298477258,40.595056336043505],[-73.80411459954651,40.594319170453566],[-73.80412568015268,40.59351380510341],[-73.80380902231202,40.59289116392555],[-73.80303153999354,40.59257718949023],[-73.8024384629031,40.59264006383529],[-73.80250965087272,40.59394812804169],[-73.80313503440718,40.593757943071374],[-73.80318082190897,40.59394537813114],[-73.80251304282976,40.59396685179259],[-73.8025683760107,40.5942722669944],[-73.80324253170998,40.59408723986565],[-73.80328793893025,40.59428211589189],[-73.80260442850975,40.594287751542616],[-73.80234513845657,40.59449597525708],[-73.8031857440441,40.59466300284184],[-73.80344017041448,40.594434209177074],[-73.80319675364944,40.59467819988342],[-73.80337754303827,40.59486904065922],[-73.80372454267375,40.59481711198008],[-73.80320010623193,40.5948728464243],[-73.80339097327904,40.59500651249434],[-73.80321494251257,40.59514564845081],[-73.80390842264723,40.59500481383502],[-73.80331453729211,40.595179561437085],[-73.80368468695728,40.595197790184],[-73.80470623094206,40.5963866750147],[-73.80511185479908,40.597151047998324],[-73.80470214568541,40.59768311083306],[-73.80393338922408,40.5979434985841],[-73.80297943325748,40.59884430455319],[-73.80167092680178,40.59889630926962],[-73.80094867862815,40.59915166462005],[-73.80091500623965,40.599390761135986],[-73.80077654707614,40.59916236047854],[-73.8004737922779,40.599331559123904],[-73.80045131861475,40.59918256837792],[-73.79912877642295,40.59937335357057],[-73.79843078589475,40.59917371408129],[-73.7955463762112,40.59949676214924],[-73.79457261550553,40.59942073709405],[-73.79330901736344,40.59998118333964],[-73.79233121548148,40.59996928119776],[-73.79025353547168,40.60125130259844],[-73.7878557488172,40.60311334463552],[-73.78635332811808,40.603194659038635],[-73.78617884041223,40.603032062874576],[-73.78716241855369,40.602326431072505],[-73.78792994192816,40.600995302548746],[-73.78953462130681,40.599971814926825],[-73.79033378979435,40.59919828434164],[-73.79124272166956,40.59662652165146],[-73.79093142251077,40.59596118340673],[-73.79103617492395,40.59552224010589],[-73.79086292379877,40.59501313776418],[-73.79042048230744,40.59475269551106],[-73.79080626141678,40.596093395884445],[-73.79059442974024,40.596108384773],[-73.79053857666516,40.59498078405622],[-73.79037896334765,40.594751965913304],[-73.79015263648805,40.59476820227299],[-73.79042481472277,40.59605393215407],[-73.79017830001315,40.596071319704606],[-73.79013119491621,40.594822874798695],[-73.78975503447937,40.59473725030945],[-73.78987360648384,40.596204443784735],[-73.78999909439095,40.59620894350346],[-73.78969872360817,40.59622803991152],[-73.78984110232885,40.59620694688005],[-73.78967389675819,40.59486047590034],[-73.78940242709974,40.594949785523895],[-73.78911306667307,40.59547475633231],[-73.78926858096266,40.59645372374903],[-73.78906829121502,40.59801992738281],[-73.78710231226577,40.599443300892595],[-73.78662409463627,40.60001863317852],[-73.78597109766216,40.60031649181488],[-73.78579378813426,40.60056892849607],[-73.78614358698641,40.600648618751876],[-73.78578006551935,40.60059326189322],[-73.78564205273257,40.600797194521064],[-73.78598359117777,40.6009182379421],[-73.78563276373285,40.60081638362869],[-73.78539358087029,40.60151802170865],[-73.784482331704,40.601800098583105],[-73.78350560905308,40.602563438742955],[-73.78312802405904,40.603760992350715],[-73.78394764971192,40.60482442511702],[-73.78366696292407,40.60532443643193],[-73.78040832267868,40.60842597482822],[-73.77856806939954,40.609643663429175],[-73.77727898274846,40.609849113092125],[-73.7762653833009,40.60964903839193],[-73.77535164745716,40.6097374069645],[-73.77422234411387,40.60889323163547],[-73.77422269363423,40.608601128640494],[-73.77481441008918,40.60839956311252],[-73.77421737753347,40.607636638971606],[-73.77460294599074,40.607417648882716],[-73.77523851986172,40.608550943000495],[-73.77600772152827,40.609190754248324],[-73.77494598484249,40.60806542027086],[-73.77459009469662,40.60729765659303],[-73.77458447675636,40.60652596732092],[-73.77518711261325,40.60450025631871],[-73.77468798964632,40.60432464838939],[-73.77491373899659,40.60411251323256],[-73.7753760831684,40.604157308868],[-73.7758814058216,40.603471681753604],[-73.77605391761065,40.60275289440248],[-73.77558895434596,40.603040299588166],[-73.77568814362705,40.60281474067073],[-73.77647924254978,40.6024481766436],[-73.77662545802484,40.60220777828833],[-73.77648988688918,40.6021717256867],[-73.77780302365805,40.60096655220429],[-73.77836872918753,40.60083878005197],[-73.77807565215485,40.60070077436686],[-73.77818086978304,40.60038554108597],[-73.78010900085108,40.600727429033945],[-73.78190681007317,40.5991141653403],[-73.78193601357016,40.59853114424349],[-73.7813297399812,40.5977530374471],[-73.78018334425897,40.59721257020608],[-73.78005719891783,40.596877499102824],[-73.77967070333735,40.597372167384165],[-73.77742174810759,40.598812404361524],[-73.7771985062932,40.59957695925321],[-73.77600163850968,40.60139432390505],[-73.77497207353781,40.601744487092105],[-73.77474212725778,40.600963425935355],[-73.77448133964758,40.60098770385091],[-73.77474724721814,40.60094979034346],[-73.77474285021891,40.60074378310963],[-73.77411995096888,40.59988138179279],[-73.77422338457663,40.599005218240656],[-73.77374432839068,40.59867015398173],[-73.77358545261635,40.59812047326169],[-73.77302409952458,40.597881081674394],[-73.77248585757451,40.5978938375396],[-73.77167906670005,40.597981577039775],[-73.7711284962987,40.598298728552216],[-73.77037277058409,40.5980900923546],[-73.76947725109342,40.598257769952724],[-73.76812285376313,40.597824359474956],[-73.76793592288794,40.5981397063817],[-73.76826549483131,40.598332444290854],[-73.76970071986851,40.598640131026464],[-73.77033634816473,40.59898422333293],[-73.77093086474137,40.59885759912524],[-73.7711605243632,40.599422452073945],[-73.77111103445863,40.60054602854758],[-73.77073733384827,40.60153550225501],[-73.77083917528664,40.601810916096454],[-73.77061758814736,40.60186873098181],[-73.77018588274089,40.6027488233253],[-73.7704203681374,40.602941983419],[-73.77016122222508,40.60308652353239],[-73.77056521407658,40.604840409753685],[-73.77000932453467,40.60533671530755],[-73.76983622740686,40.6062780087497],[-73.7700124964802,40.60722879213212],[-73.76977758264542,40.60753527214348],[-73.76978386359882,40.60792703951319],[-73.76922465174273,40.60844469432266],[-73.76900078034944,40.609391552985024],[-73.76981818454385,40.610087875920954],[-73.77125101879666,40.61038983659943],[-73.77184662279294,40.610824244209795],[-73.77223450234507,40.61150167675047],[-73.77340389078988,40.61109044877929],[-73.77296268686533,40.610152762945916],[-73.7737676775312,40.611256222475696],[-73.77393827753912,40.61212015175388],[-73.77417184679693,40.6118296699465],[-73.77338597971364,40.61367506630641],[-73.77296761789115,40.61355936092582],[-73.77174156702765,40.613961049954995],[-73.76933085131219,40.61397452507607],[-73.76835465017773,40.6142271484737],[-73.76669139771343,40.61425465494768]]],[[[-73.76671931113236,40.61500423164779],[-73.77087500376955,40.61586372321711],[-73.76854868123357,40.62055967827347],[-73.76745926884581,40.62051132206138],[-73.76671931113236,40.61500423164779]]],[[[-73.81251793553056,40.620199822550774],[-73.81260967501093,40.62064741708903],[-73.81251793553056,40.620199822550774]]],[[[-73.83190996134934,40.62417572208819],[-73.83227940196075,40.623735169593665],[-73.83241551492004,40.622924796385576],[-73.83275070786428,40.62282811330856],[-73.83309705335392,40.622414745835975],[-73.83311492954182,40.62198383443096],[-73.83324923690202,40.622016740711636],[-73.83305164268688,40.62191405380073],[-73.83310822090128,40.621680888575426],[-73.83368214952584,40.6213813056866],[-73.83362242002327,40.622602638829676],[-73.83308424999186,40.62276139830832],[-73.83303086384613,40.623067360007525],[-73.83322850123331,40.62335651084696],[-73.83267620048598,40.623908275227016],[-73.8327713438081,40.62403071789868],[-73.83306310884076,40.623691260532674],[-73.83325934713386,40.62383125984254],[-73.83340903770527,40.62354801788834],[-73.83357550576136,40.623597917278495],[-73.83355923880448,40.623936034500126],[-73.83269995491797,40.62422803677827],[-73.83215639047248,40.62469217942128],[-73.83179316908026,40.62447358608458],[-73.83190996134934,40.62417572208819]]],[[[-73.8122341921654,40.625300088367574],[-73.8122505778737,40.62455183351797],[-73.81243789543497,40.62439644777375],[-73.81168078177706,40.62364964369981],[-73.81208344133675,40.62339172841343],[-73.81251579982312,40.623539448327776],[-73.81252991145611,40.62313395335935],[-73.81301265177471,40.62226022792422],[-73.813250953106,40.62255809207517],[-73.8130319049184,40.6238567684221],[-73.8139968299479,40.62499917262055],[-73.81386198761575,40.62504389942085],[-73.81442910028773,40.625186782534364],[-73.81447870774272,40.625470874311084],[-73.81383288662272,40.625926233997795],[-73.81260003612245,40.626318868060984],[-73.81249149581198,40.62654067531403],[-73.81198752013151,40.62602204367667],[-73.8122341921654,40.625300088367574]]],[[[-73.79881981576617,40.62532794483111],[-73.79866235955059,40.625371825352055],[-73.79781573308009,40.624453154455075],[-73.79820877848233,40.62445724468067],[-73.79875482519184,40.62507775814774],[-73.80037265255179,40.624108341700286],[-73.80036269148214,40.62393509857876],[-73.79922701509861,40.62419346436876],[-73.79867716995602,40.62343495448778],[-73.79974914103252,40.62105401018869],[-73.79983636671778,40.62005774248742],[-73.80016273997366,40.619626849807965],[-73.80074082550813,40.61948507765282],[-73.8011217454249,40.619698781365905],[-73.80181355944615,40.62083123680774],[-73.80206419853624,40.62079091379661],[-73.80131044905464,40.61854287376459],[-73.80149300444626,40.618409384538204],[-73.80151104449415,40.61772390806265],[-73.80187093707063,40.61676936008928],[-73.80347411308159,40.6144009639251],[-73.80362092326818,40.61602056562998],[-73.80453517195802,40.61698403726671],[-73.80447871168393,40.61755341576564],[-73.8049256253514,40.618587594611945],[-73.80589870617261,40.61961911276764],[-73.80564293053473,40.619891759601984],[-73.80640927866622,40.621113071688974],[-73.8061672281016,40.62137379458401],[-73.80629105268979,40.62173604591741],[-73.80615277847392,40.62182593616892],[-73.80640950588405,40.62233955652874],[-73.80594981646442,40.62338033894661],[-73.80541649344103,40.62379186193321],[-73.8046603866242,40.62384293892274],[-73.80469918889246,40.62398747729082],[-73.80365377301744,40.62468100369328],[-73.80294573122995,40.62471800433303],[-73.80162741972283,40.62559619023175],[-73.79956441906673,40.62612023504819],[-73.79906021857397,40.626580525921945],[-73.79831656079713,40.62618185121418],[-73.79759190359371,40.62610142269964],[-73.7989766379127,40.62533756241364],[-73.79881981576617,40.62532794483111]]],[[[-73.81429373223955,40.629142401746066],[-73.81466886840825,40.627502561822915],[-73.81531549213119,40.62775854451804],[-73.81617361615918,40.62890143519914],[-73.81644551897877,40.62983606492812],[-73.81596975872556,40.63037871835661],[-73.81527605467807,40.63022810473038],[-73.81467414305273,40.629985289404814],[-73.81429373223955,40.629142401746066]]],[[[-73.83597646795205,40.63221669553862],[-73.83506421195499,40.631725749520704],[-73.83570839895008,40.6313166974463],[-73.83593708948864,40.631349653596665],[-73.83618912093954,40.63164536587245],[-73.83619745652483,40.63203014836595],[-73.83597646795205,40.63221669553862]]],[[[-73.82337592129343,40.6389876558978],[-73.82277105438676,40.63557691408522],[-73.8219820134843,40.63362622386876],[-73.8218460425281,40.632040188437514],[-73.8206721594249,40.62891486142964],[-73.82010003490798,40.627817036143554],[-73.81825637269327,40.62699602275209],[-73.81823704984782,40.62638710371675],[-73.81788868097152,40.62590845014476],[-73.81623096121099,40.62468982584848],[-73.81617548983075,40.62441264003516],[-73.81675264711568,40.623948497825864],[-73.81795284720822,40.62409327961497],[-73.81864345115447,40.62337490435807],[-73.81866204286725,40.62288315619305],[-73.81754878054136,40.62208740125605],[-73.81757890289364,40.621756160877716],[-73.81672238365486,40.62156829289307],[-73.81662369893492,40.621967233980016],[-73.81620712114795,40.62208787725209],[-73.81538719158678,40.62149777964196],[-73.81543174704281,40.62011653124242],[-73.81718053878453,40.61926727449339],[-73.81744426111126,40.61891175540937],[-73.81744645138964,40.61811089649395],[-73.81777429834501,40.61750112169583],[-73.81711893622202,40.61528219234564],[-73.81652681178392,40.614947009657755],[-73.81643150379566,40.61428233493024],[-73.81471812627856,40.614496088552116],[-73.81444032345223,40.61474903867091],[-73.81408062432926,40.61455840923651],[-73.81416449897701,40.61429106964102],[-73.8146826267648,40.61397515785526],[-73.81486725972125,40.614010649752984],[-73.814857222891,40.61429922621505],[-73.81549526637566,40.61403981513337],[-73.81479563255313,40.61319402998148],[-73.81503638494628,40.612976213749604],[-73.81523956494529,40.61298357925743],[-73.81546948317039,40.61334292951119],[-73.81615626632505,40.61294211551001],[-73.81540366189823,40.610384802015666],[-73.81450261566708,40.61105847350561],[-73.81449876827786,40.610735453659466],[-73.8152072079898,40.60981673359354],[-73.81476257639542,40.608463880054146],[-73.8150612987872,40.60731703028013],[-73.81574174063815,40.60646524523569],[-73.81546066483212,40.6064281375102],[-73.81552816722274,40.60616306994531],[-73.81552536723665,40.60640738028222],[-73.81595962002545,40.60626248335362],[-73.81588829778464,40.605929034359384],[-73.81642529923076,40.60522412357405],[-73.81739192106656,40.60515812378444],[-73.81725370593384,40.60394032469204],[-73.81772032638688,40.60222499974124],[-73.81831121054302,40.60133971221262],[-73.8184906612075,40.59938955947936],[-73.81928142201772,40.597529610374195],[-73.82033688571455,40.596648998119115],[-73.82067265991827,40.59519570617121],[-73.82120035429043,40.59471229444084],[-73.82413506905908,40.59463305674822],[-73.82547793498115,40.59508065758445],[-73.83321744106286,40.59421758738759],[-73.83425247335776,40.59465991963079],[-73.83472137081068,40.59505550964593],[-73.83484699931749,40.595542999938765],[-73.83420099977327,40.596656999982834],[-73.83348999898381,40.59691600036536],[-73.83336099929949,40.59723600025936],[-73.83250811841818,40.5975733114887],[-73.83239364453681,40.59780335338253],[-73.83154105940143,40.59795102605527],[-73.83062852179019,40.59743342572443],[-73.83038922482262,40.59773401958448],[-73.82948341823246,40.59813394190277],[-73.82909777422338,40.59776345522084],[-73.82806159675417,40.597680402649004],[-73.82784691505302,40.597999838263725],[-73.82722092998502,40.598331194570825],[-73.82710314493119,40.59868868550891],[-73.82597985976518,40.59947206719302],[-73.8255679068459,40.598548148082806],[-73.82465420597276,40.59814924670191],[-73.82431733671001,40.598313105032126],[-73.82395871058286,40.59887689667741],[-73.82452271276402,40.59895126399077],[-73.82477088992478,40.59839184387438],[-73.82452624858544,40.59912902722351],[-73.82439004315057,40.59909811302662],[-73.8245173365546,40.59896580873323],[-73.82407791355006,40.59890920383319],[-73.82416569888665,40.59929937966726],[-73.82376612281246,40.6000400708211],[-73.8231174097477,40.600079492525545],[-73.82303195166874,40.599930516884534],[-73.82292757811202,40.60006142816328],[-73.8230043648484,40.59992561939652],[-73.82194441759793,40.59980115597868],[-73.82146929833688,40.5999937227705],[-73.82234362281869,40.60022566140793],[-73.8244364376235,40.60034498385241],[-73.82445218008932,40.60079696268867],[-73.82398900124126,40.601001987127255],[-73.82353972095224,40.60155944884736],[-73.82361588815041,40.602286492616464],[-73.82306721637882,40.60234199290526],[-73.82294484740481,40.60258290946803],[-73.82276563477782,40.60420260506932],[-73.82290283003623,40.60468726854162],[-73.82246746702465,40.605524982822864],[-73.82290463377643,40.60585127692718],[-73.82236000876237,40.6064692606603],[-73.82126470342858,40.607002850410694],[-73.82003243563568,40.6089236562611],[-73.8196179536215,40.61047904106448],[-73.82057595436513,40.61223314088143],[-73.82087841790126,40.61225734582031],[-73.8212842105288,40.61109692878374],[-73.82054872610354,40.610430824209075],[-73.82055813673692,40.60995210896398],[-73.82085878505866,40.60923105827144],[-73.82161460089128,40.60848031922795],[-73.82182531339917,40.60896399718613],[-73.82166797839004,40.6092323166076],[-73.82186205241341,40.60986921256868],[-73.82233079781186,40.61028770325489],[-73.82289233348577,40.61033702219424],[-73.8231948971962,40.61093783561613],[-73.8240041278941,40.611631768409914],[-73.82410327024171,40.61232609748477],[-73.82467451637949,40.612419914122775],[-73.82468584347531,40.61307641875681],[-73.82520683961239,40.613494977196105],[-73.82555758997881,40.61413210471092],[-73.82593603373292,40.614162518209454],[-73.82725636632989,40.61337871412473],[-73.82787525471795,40.6136976285986],[-73.82724153726997,40.61406502057209],[-73.82750222609539,40.61420466672039],[-73.82845503182496,40.61421603915189],[-73.83091996001424,40.61500548703367],[-73.83401888134374,40.61438116692243],[-73.83370152272246,40.62097860134445],[-73.83305141576972,40.621258402302324],[-73.83254808933157,40.62175118579051],[-73.83158798714337,40.62203280792532],[-73.83267659706027,40.62186372945782],[-73.83288847088824,40.62222670758022],[-73.83258868618613,40.62268138655907],[-73.83226185529757,40.62275486652901],[-73.83140373147658,40.622403625633076],[-73.8310157246783,40.62277620382532],[-73.83038723126813,40.62239084765799],[-73.83007365663765,40.62304352530052],[-73.83020445003761,40.62339933649976],[-73.82995644707326,40.62370529413609],[-73.82986943301313,40.62339708014447],[-73.82918809223509,40.62420061235312],[-73.82966176956205,40.62419251317588],[-73.83011324801448,40.623828760152406],[-73.83052465124355,40.6228663820485],[-73.8303329445102,40.62284145156669],[-73.83041434354294,40.62263207389433],[-73.83087816625292,40.62286162045542],[-73.83060452993696,40.62325556691438],[-73.83070726903051,40.62374161247121],[-73.8304615157621,40.62407222103477],[-73.83076749837994,40.62368008429893],[-73.83065303587401,40.62326091989706],[-73.83109518037863,40.622928837873296],[-73.83153198708683,40.622878424490416],[-73.83192859030004,40.62319589289803],[-73.8317422448339,40.622876972518945],[-73.83213427171916,40.62317682822493],[-73.83154862281849,40.62409694559084],[-73.83096500894293,40.624576128513986],[-73.83092041000836,40.62483003727265],[-73.83134486557041,40.625006488972424],[-73.83076902736457,40.62530427213957],[-73.83095160908779,40.62552781454566],[-73.83062761781095,40.62617762415609],[-73.83082381413473,40.62681145290815],[-73.83166916554818,40.62713365027187],[-73.83230301496197,40.627078758414],[-73.83219237956543,40.62737443423205],[-73.83247393097037,40.62757579181237],[-73.83228937353509,40.6281337074823],[-73.83177644033681,40.62817203073235],[-73.831566868123,40.628478725917205],[-73.83161746228417,40.62875231114935],[-73.83187722233448,40.628881074079985],[-73.83163269210466,40.628523477340465],[-73.83188632030816,40.62817777385255],[-73.83262605056804,40.62826537176936],[-73.83301154481349,40.627919857691154],[-73.83304100841805,40.628261271059756],[-73.83286528731682,40.62840835026277],[-73.83289548956779,40.628903478733164],[-73.83236036671221,40.62914225774749],[-73.83196080768133,40.629652729879474],[-73.83189666398192,40.63057239405233],[-73.83114653243689,40.632843912759505],[-73.83133112864137,40.63361769142781],[-73.83193878472683,40.63423622542862],[-73.83195787786688,40.634978880565974],[-73.83249094435719,40.63557855183574],[-73.83340607979225,40.638501355899244],[-73.83289974361197,40.638862685067],[-73.83221658819181,40.638928490220955],[-73.82866782109734,40.63661471844817],[-73.82808567353285,40.63587972683679],[-73.82591657934665,40.6357474128444],[-73.82443032497171,40.636216520538326],[-73.8241357769007,40.63878799670474],[-73.8245737989033,40.63935387323939],[-73.82419331921291,40.639954072163256],[-73.82337592129343,40.6389876558978]]],[[[-73.83032725337058,40.65513280580348],[-73.83026601851492,40.65542864678493],[-73.82988919856007,40.65552282258423],[-73.83032725337058,40.65513280580348]]],[[[-73.79832690384863,40.694245773574025],[-73.79791856270201,40.69369142895583],[-73.79758092586432,40.693882879274334],[-73.7964304005145,40.692296770992286],[-73.79598353797927,40.69248269316054],[-73.79234694020559,40.68738618120364],[-73.7906753971632,40.68815052304871],[-73.79038468230092,40.68775361379837],[-73.78698344486982,40.68860847697074],[-73.78242712347496,40.69034436978773],[-73.78148675684062,40.688697183316116],[-73.77891249600697,40.689570647250065],[-73.77795771784136,40.687910932281504],[-73.77661911985217,40.688363723550815],[-73.77240015728704,40.68527961596876],[-73.76715533301287,40.68237709337284],[-73.76161350241557,40.67972794215601],[-73.76191764426106,40.678881831946235],[-73.7632492074976,40.67678980375271],[-73.76367677578405,40.67474552572684],[-73.7633904059182,40.67468111755503],[-73.76162534752348,40.67541780851569],[-73.76114911212619,40.67476362080597],[-73.76031464000941,40.675109971379506],[-73.75880484963704,40.67300565486241],[-73.75861795554903,40.673040833039664],[-73.75849761583999,40.67264844499452],[-73.76047002833852,40.67227592176069],[-73.75817470540453,40.67101357361117],[-73.75895066555432,40.67097806399685],[-73.75881985152898,40.669530980931974],[-73.75860944725976,40.66920222849073],[-73.75912138087858,40.66735162776224],[-73.75731692780404,40.66704031588057],[-73.7576312961815,40.66645115660721],[-73.75526231167026,40.66639476697986],[-73.75487242765477,40.6669827142342],[-73.7533672286318,40.666400625659456],[-73.73849170581421,40.66641540562967],[-73.73842853921347,40.66627038974903],[-73.73625791641037,40.66627027835188],[-73.73640088120369,40.66656849533368],[-73.73191953149873,40.666555712021065],[-73.7313981880703,40.66725280301259],[-73.72975287460382,40.66671848924757],[-73.72970382256926,40.6669074841149],[-73.72826620785702,40.66660628634426],[-73.72777029254473,40.66406439892217],[-73.72781751015872,40.66311678348365],[-73.72833071875961,40.66304394373133],[-73.727931243455,40.661748835103516],[-73.7264443860825,40.65916161542237],[-73.72556769770401,40.65672514308154],[-73.72550259072499,40.65551651557244],[-73.72498470778808,40.65425343540573],[-73.72522608107009,40.65200100014768],[-73.73051457301035,40.650310312006695],[-73.735135014725,40.64973203996446],[-73.73904482131428,40.6482011803446],[-73.74143706042352,40.64688917832163],[-73.74166141251544,40.642198062181116],[-73.74205084886786,40.641474204524386],[-73.74142279314958,40.64050339075354],[-73.74227387159938,40.640123381450174],[-73.74125900067378,40.63889749993777],[-73.73947121560819,40.63570643182811],[-73.73995957504393,40.635143809874585],[-73.74000390414142,40.635308864792975],[-73.74170620982906,40.63503754626711],[-73.74146473729922,40.63494288932982],[-73.74177038312104,40.63488103262095],[-73.74171935824074,40.634997161378855],[-73.7419556483044,40.6348918129039],[-73.74253691856377,40.63517496612196],[-73.74237215392348,40.635816546366314],[-73.74124959182484,40.63693970077006],[-73.74102309003337,40.63727201246065],[-73.7411179417444,40.63746814979451],[-73.74096487686366,40.637304775030245],[-73.74130372491103,40.63789881291866],[-73.74189040305612,40.63812221354046],[-73.7427296630336,40.63827015598191],[-73.74397128496219,40.63788001261504],[-73.74352226238186,40.638889486375],[-73.7437342150463,40.63902211766418],[-73.74479558148495,40.63707502907636],[-73.74471275511688,40.6373070468944],[-73.7451949696679,40.63719171231217],[-73.74629219000661,40.63643726798267],[-73.74679074638055,40.63677813554561],[-73.74645394301926,40.6372598208814],[-73.74527138642927,40.63791590124552],[-73.74515886775069,40.63807741225228],[-73.74529639409818,40.6383301395409],[-73.74567316004243,40.638124657428115],[-73.74551058251747,40.63794388103354],[-73.74702300440804,40.6369087828245],[-73.74699985138277,40.637127027760506],[-73.74715435857692,40.63712636360669],[-73.74699391257111,40.63715064468594],[-73.74704316341963,40.63756642696194],[-73.7466009130313,40.63835060986839],[-73.74617068906109,40.64039592151639],[-73.74635494255764,40.64067874596923],[-73.74631467868133,40.641394312679175],[-73.74729153885399,40.64318668655788],[-73.74875121261788,40.64447110284794],[-73.74869254853962,40.64494421589611],[-73.74885047914466,40.645169270113435],[-73.74945274272405,40.644931234269066],[-73.7517130246691,40.6465005907689],[-73.75327090492785,40.64733376201672],[-73.75340365356126,40.64716237460763],[-73.75323328269432,40.64705211468637],[-73.7535419183587,40.647196312319416],[-73.75329210674899,40.64734340272214],[-73.75427809856765,40.6478864220791],[-73.75475592551938,40.647812198893575],[-73.7549276864291,40.64757272103863],[-73.75461208438024,40.64720045895571],[-73.75379289369329,40.646705604685714],[-73.7537377082634,40.64696042357798],[-73.75340189507165,40.64680746120947],[-73.75376146361373,40.64668632265829],[-73.75057032811947,40.64472855667405],[-73.74870701496532,40.643343492337614],[-73.74742095899626,40.64141364368467],[-73.74752877886596,40.6393244347557],[-73.74812488584779,40.63687273164493],[-73.74839815536161,40.63665363732009],[-73.748554783949,40.63541155957582],[-73.74935446965928,40.63494725684251],[-73.75069606974144,40.63462797576578],[-73.75243758572938,40.63367677974091],[-73.75348397724734,40.6335142910793],[-73.75479100304916,40.63288248836342],[-73.75900955400878,40.6314892963801],[-73.76053159841472,40.6306633171898],[-73.76219407813787,40.630259432956706],[-73.76308789670844,40.629658898502214],[-73.76453002637294,40.62922113635718],[-73.76500891405117,40.62941218257731],[-73.76474289734864,40.62916808540039],[-73.76649560506911,40.628250375901466],[-73.76860408720783,40.624732718412396],[-73.76884275448084,40.62393929198469],[-73.76855326073441,40.62318922918052],[-73.76866781717264,40.622731964623405],[-73.76944652356401,40.62201544843225],[-73.76951843253488,40.62212182850632],[-73.76972348417151,40.6217616884658],[-73.76982199121251,40.62140497267227],[-73.76961487455476,40.62114696867299],[-73.77018829165735,40.619791010419256],[-73.77109318666908,40.61997770778098],[-73.7716545462262,40.62041642681574],[-73.77171699447133,40.620961679300756],[-73.7709149994609,40.622403888653146],[-73.77081128948615,40.6229497472961],[-73.77086001250763,40.62333053837307],[-73.77143883664012,40.62328461670514],[-73.77172760285129,40.623585028030526],[-73.77214546970639,40.62304610520065],[-73.77203131431371,40.622991212903244],[-73.77218824028016,40.62299579379533],[-73.77518045935551,40.61926471788504],[-73.77220950703997,40.62300523198469],[-73.7723626016271,40.62314732600442],[-73.77216897866818,40.62305554784142],[-73.7720046057531,40.623261929019236],[-73.77217018334763,40.62335963116936],[-73.7719966927056,40.62328155898526],[-73.77181882771771,40.62349901798325],[-73.77198776448427,40.623597581962265],[-73.77173897581244,40.62360572607363],[-73.77323537240508,40.624994162477165],[-73.77348616545042,40.62508511832723],[-73.77381024409397,40.62492559673115],[-73.77349461614574,40.62514256937113],[-73.77407526415493,40.625783482840376],[-73.7765422988783,40.627651724729105],[-73.77946897687943,40.62731550512165],[-73.78419483297877,40.62089266991051],[-73.78491900312562,40.620478691624754],[-73.78521543076681,40.62006349374462],[-73.78507784902251,40.619966613580836],[-73.78515920006002,40.61864728248359],[-73.78478111816777,40.61833567667887],[-73.78478547486286,40.61798072233823],[-73.78451882678748,40.617982670589534],[-73.7845818498871,40.617855050601456],[-73.78435569021109,40.6177644905876],[-73.78446087068049,40.617027834627265],[-73.78322554530014,40.61557873072347],[-73.78248993127501,40.615567549887],[-73.78229527471422,40.61516815367775],[-73.78189090283624,40.615047434393915],[-73.78171700912468,40.61517684879679],[-73.7807937650353,40.61458756709255],[-73.78070887195283,40.61402680900606],[-73.78114906073043,40.613998271479964],[-73.78088360834359,40.61364035463654],[-73.78355221437404,40.61192445198106],[-73.78497523353337,40.61192957008833],[-73.7852242315045,40.611415951745755],[-73.78577809315796,40.61099347707098],[-73.78646972800934,40.6106789689818],[-73.78684518697278,40.61079472358842],[-73.7871989741232,40.61065584166737],[-73.78719984810371,40.61038166491358],[-73.78741544568165,40.61026211109723],[-73.78770742637468,40.61036546776254],[-73.78785894330079,40.61019438497852],[-73.78865910627547,40.61009059422699],[-73.78876011660967,40.60963789567912],[-73.78908160165909,40.60955280596747],[-73.78901840238645,40.60922220694482],[-73.78995389362358,40.608981566326186],[-73.79011167083347,40.60885945333065],[-73.79001264272644,40.608685463307125],[-73.79047269491804,40.60845618791453],[-73.79038020614568,40.60824549017318],[-73.79085621325443,40.60804806724558],[-73.79087659100203,40.607695588785134],[-73.79139721012069,40.60761085474754],[-73.79159895008117,40.60780951011948],[-73.79151114690586,40.608154521417],[-73.79115751304454,40.60825180138941],[-73.79117287672634,40.60847459860635],[-73.79173302638982,40.608759343533464],[-73.79274948626328,40.60864636637573],[-73.79365104095486,40.60898581547189],[-73.79394893616981,40.609255632038916],[-73.79389688394961,40.609468516718444],[-73.79454166514695,40.609748744979846],[-73.79480633875197,40.610378359978824],[-73.79566026939078,40.6105463463494],[-73.79745676195705,40.61131820439642],[-73.7989852939449,40.61148245721681],[-73.79917318059654,40.61202624642941],[-73.80025700070239,40.61159728288837],[-73.80080125919629,40.61193390397919],[-73.80023948919145,40.61208196016945],[-73.79993435271605,40.6131438700306],[-73.79931694077477,40.61335822008919],[-73.799685101531,40.61377747404326],[-73.79903903506863,40.61555054198552],[-73.79878672544126,40.61554482615014],[-73.7985446566274,40.6158895966469],[-73.79816300611748,40.61571609028377],[-73.79806090382836,40.616326916511404],[-73.79727592497258,40.61666041255343],[-73.79743334153846,40.61691923278827],[-73.79713317353416,40.6173813796621],[-73.79724298146036,40.61759376347141],[-73.79678304297721,40.6177047226328],[-73.79700484778857,40.6183799439582],[-73.7963556790424,40.61845468453555],[-73.7961883089091,40.61960985302939],[-73.79559534308406,40.62021101310488],[-73.79554027260168,40.620912629674905],[-73.79502286259061,40.62129190728349],[-73.79523389664114,40.621606718870815],[-73.79482957564527,40.62182737813389],[-73.79446685514668,40.621785699811305],[-73.7947065002332,40.622180682954],[-73.79457567259594,40.62251914939957],[-73.7936837203645,40.62270233988122],[-73.79226568070139,40.622339427751236],[-73.79075818793622,40.62232836832445],[-73.78916270446422,40.62299975113101],[-73.78594058254244,40.625847005177334],[-73.78536320758097,40.62670665683843],[-73.78487888740895,40.62663147070813],[-73.78363079015826,40.62814252187056],[-73.78328415820381,40.62895434841496],[-73.78348975751075,40.63016511572027],[-73.78434764242147,40.63137332043368],[-73.78570293740455,40.632094989481],[-73.78690666684481,40.632261900729105],[-73.78949663072326,40.6342697792023],[-73.78971600034731,40.63406724975223],[-73.79076947473723,40.63384872578328],[-73.79066449490824,40.63415293947556],[-73.79079284299088,40.634282043205246],[-73.79811872226199,40.6310375092613],[-73.79827615415297,40.631252179365994],[-73.790811112505,40.63431035551095],[-73.7910813277265,40.63423263436598],[-73.79130877788221,40.63440130065499],[-73.79122898509743,40.63485706407009],[-73.79222318037623,40.63589008828015],[-73.79343369196113,40.63608669084751],[-73.79425964333869,40.6365642030473],[-73.79474387433272,40.636629366892116],[-73.79725742867075,40.63800761375793],[-73.79923711983864,40.6384201097038],[-73.80177220251416,40.63976028395292],[-73.80465930241435,40.64090520949681],[-73.80565939652627,40.641601983126456],[-73.80670200675765,40.64177618467306],[-73.80864568716697,40.64281492737801],[-73.81075749444096,40.64349239125605],[-73.81203333683291,40.644303575045974],[-73.81364360224747,40.644690949597404],[-73.81565104157626,40.645630022432194],[-73.81830316956352,40.64626766449117],[-73.81881842240742,40.64659251521879],[-73.82010812248005,40.64810402163736],[-73.8212292060586,40.64897515017099],[-73.82215143198066,40.65013528973995],[-73.82260572673476,40.65278610684331],[-73.8232184940707,40.65411655671603],[-73.82346560421553,40.65531301555449],[-73.82342121447223,40.6560254951472],[-73.82246765596551,40.659159866399065],[-73.82161125510135,40.65993528559844],[-73.82169139439411,40.66003508674328],[-73.82153552464848,40.65997238305635],[-73.82174650215691,40.660118366593544],[-73.82151179330785,40.6599821056023],[-73.81970074120684,40.660724086808884],[-73.81971419909215,40.66087372617609],[-73.81965725287023,40.66074191904562],[-73.8186953155868,40.66110505105535],[-73.81750491431545,40.66104832620168],[-73.81756727119134,40.66093673426222],[-73.81656759306618,40.66074251701304],[-73.81598180388713,40.66083581654876],[-73.81605203034718,40.66071157420537],[-73.81468148791375,40.660515214761915],[-73.81457011758246,40.66063459763931],[-73.81462533969847,40.66050667365333],[-73.81262125517662,40.66015704989859],[-73.81149882578244,40.66022623784153],[-73.81130119061753,40.660628073862654],[-73.81867184374161,40.66213277692886],[-73.82292563711152,40.66044162386904],[-73.82347625129688,40.66006003835425],[-73.82426410867653,40.65777909268677],[-73.82405929133718,40.6576959540204],[-73.82426776040361,40.657746511638706],[-73.82492940963316,40.65544153237472],[-73.8234752748072,40.65047629589143],[-73.82342199947176,40.64946400031588],[-73.8229071770089,40.648093446004935],[-73.82311296946082,40.64800269563792],[-73.82386954569375,40.64881873078266],[-73.82395972237428,40.64919353347329],[-73.824587603009,40.64948314918051],[-73.82499846516194,40.64937693088307],[-73.82534103085798,40.64966537615885],[-73.82588910297974,40.64948606881622],[-73.82614483059653,40.650081840942796],[-73.82630014811815,40.65002298577986],[-73.82617204535644,40.64952693570905],[-73.8264073556985,40.64928916257735],[-73.82622033638891,40.64836102759461],[-73.82650289819861,40.64832902669877],[-73.82701502572833,40.648759712732414],[-73.82846041105715,40.649118677724985],[-73.82959697362591,40.64982765808605],[-73.83001039818403,40.650328374657725],[-73.82986948766529,40.650429630141986],[-73.8300076744927,40.65090347505768],[-73.83093651353481,40.651626129256],[-73.83132175015783,40.65272653287063],[-73.83128774471702,40.65347883792681],[-73.83161314793684,40.65374895323639],[-73.82901417557974,40.656107884452666],[-73.82966677652134,40.65559904001654],[-73.83044328071922,40.65551947244465],[-73.83060245974772,40.654806889777745],[-73.8317081441153,40.65393117429707],[-73.83205445130537,40.65404641806782],[-73.83200052870741,40.65444081896525],[-73.83221698518575,40.65446038629321],[-73.83149330103005,40.654979820539964],[-73.83116100809754,40.655919233234805],[-73.83003301456556,40.656567168336274],[-73.82937603410595,40.6565063357187],[-73.82930974695338,40.656932457535355],[-73.82896778740296,40.65720524792025],[-73.82917919734568,40.657799778544465],[-73.83013028740517,40.65840264321881],[-73.82959986903147,40.65865680641295],[-73.83016243281726,40.65980411092638],[-73.82969520083391,40.65865592869167],[-73.83024427039375,40.658349969348365],[-73.82922393902857,40.6577065123841],[-73.82909434825203,40.6573342186635],[-73.8294982617395,40.65690590795557],[-73.82950265119837,40.6566474319835],[-73.83009172569676,40.65673635744886],[-73.83127112564203,40.65600327162474],[-73.8318523847929,40.654885038267196],[-73.83218186067892,40.65489475245753],[-73.83290309524585,40.65748377162328],[-73.83278194361473,40.657548460383694],[-73.8320849710086,40.6561310285115],[-73.83194394578256,40.65617142725365],[-73.83260036370599,40.65782659162752],[-73.83112664421819,40.65831878644126],[-73.83338439472544,40.658051859208165],[-73.83156681412632,40.65116771441598],[-73.83118719179551,40.65075171117112],[-73.83079877895905,40.64897655920662],[-73.83148723517212,40.647887278516464],[-73.83453497304737,40.64802513078843],[-73.83556587118942,40.648427455042324],[-73.83597223496483,40.64934876341625],[-73.8384530672249,40.65936161970112],[-73.83880690398891,40.66094183497778],[-73.838627242939,40.66108164278521],[-73.83892925173797,40.66127003385264],[-73.83807555639738,40.66158795982317],[-73.83822167662541,40.662217126499435],[-73.83872354363098,40.662407160984245],[-73.8396959651554,40.6622383041053],[-73.83962395791993,40.66199612919542],[-73.8399794997561,40.66190427386242],[-73.83972540352975,40.660950659377484],[-73.84041788330096,40.66083032193006],[-73.84081776353067,40.66250616406962],[-73.84261658643199,40.662248309156716],[-73.84220418892532,40.66057663476856],[-73.84680333249008,40.65991486593978],[-73.84639133749879,40.658239470048464],[-73.84731358086638,40.65810816878901],[-73.84841166567048,40.662556369033325],[-73.84881344454676,40.66280413465528],[-73.8496699991332,40.66397757747734],[-73.85033775487139,40.66632270183625],[-73.84792139427402,40.666806674473314],[-73.84714195144494,40.66562892876143],[-73.84543727579414,40.66642205096451],[-73.84505013895915,40.66691251894409],[-73.84503059387852,40.66734874823409],[-73.84215531048699,40.66793512844896],[-73.84292201076309,40.67059117181515],[-73.8407930006262,40.670894339931756],[-73.84118263095094,40.672428818734986],[-73.83641423893975,40.67311558923197],[-73.8397640843523,40.67999735700625],[-73.83678141216043,40.67957127198712],[-73.82883689439124,40.6776923733577],[-73.82131957772899,40.67648763422635],[-73.82304243386915,40.680009856103815],[-73.8204440399056,40.68075518707694],[-73.81872943892195,40.67725935961732],[-73.8178517370797,40.677508055865566],[-73.81870733678309,40.679254473200984],[-73.81607400903643,40.68000712295985],[-73.81637807998521,40.68061553882544],[-73.81359181154404,40.68470959482975],[-73.81393689434086,40.68459748073471],[-73.81497356887283,40.686695156594226],[-73.81345005217169,40.68715621070314],[-73.81335862945659,40.68927815409177],[-73.81290740753923,40.689827465227665],[-73.81354014221475,40.6912113678359],[-73.81026958007317,40.69204524900046],[-73.81064678836941,40.69273003568377],[-73.81013627571362,40.692874547556826],[-73.81089570276937,40.69424288685207],[-73.8083405692093,40.694968041725886],[-73.80752656968902,40.69368728594608],[-73.8071288352529,40.69401354366794],[-73.80629728084719,40.69345253844063],[-73.8054346939662,40.69418179803256],[-73.80463427512485,40.69363836821369],[-73.80376109826524,40.69437653859486],[-73.80295940045579,40.69381747113083],[-73.80211252615806,40.694544498944055],[-73.80141698338343,40.69406665801585],[-73.79910304804795,40.69531539328713],[-73.79832690384863,40.694245773574025]]]]}}]}