{"type":"FeatureCollection","features":[{"type":"Feature","properties":{"district":"16"},"geometry":{"type":"MultiPolygon","coordinates":[[[[-73.80784387577566,40.71599973406748],[-73.8091544301187,40.72030643671858],[-73.80956898618473,40.720185042564516],[-73.80989352645877,40.720895638683906],[-73.8111606366457,40.720626704175764],[-73.81150401463684,40.72128912532772],[-73.80959384543652,40.721648680838086],[-73.81012972011365,40.72303255446324],[-73.80804721052066,40.72326188270586],[-73.8081767829718,40.72396938710125],[-73.81039897156533,40.72372352768882],[-73.81062583783789,40.724419843139124],[-73.81070500956417,40.726771288573815],[-73.81111797292404,40.72781641649352],[-73.81187789865051,40.72774732986225],[-73.81298960431975,40.72808562613324],[-73.81394369351916,40.72785224594016],[-73.81488170086472,40.728321897220574],[-73.81523144911418,40.72879391256027],[-73.81502127704256,40.730465669542085],[-73.8185193289644,40.729855494680855],[-73.81958952491877,40.73193942562892],[-73.82388512023047,40.73067620324323],[-73.82421336673393,40.731340083137816],[-73.82618388077991,40.73077236744374],[-73.82652734170483,40.73143465255641],[-73.8285542214773,40.73083047411159],[-73.82893796459669,40.731591438372526],[-73.83386267219177,40.730553189010124],[-73.83307088023886,40.72991903138397],[-73.8317046593241,40.72804033224719],[-73.83268537943685,40.72799785798639],[-73.83821301303162,40.726367437858535],[-73.8393134058825,40.728237149315945],[-73.84064310584476,40.72981451158855],[-73.8427942937683,40.731877340362786],[-73.84262006228349,40.73197370904593],[-73.84393814002128,40.733772171950946],[-73.84478597528077,40.73592847040917],[-73.8454731306568,40.74025329630085],[-73.84566347428458,40.74016993097344],[-73.84661696445647,40.74310745604738],[-73.84815114997973,40.746165358522596],[-73.85086439643948,40.74999564187392],[-73.85220450565855,40.752660682362915],[-73.84199957037443,40.75571550370248],[-73.83875129617806,40.75699499164383],[-73.83852950116463,40.75597926896655],[-73.83840608361265,40.75610053852496],[-73.83861811078974,40.75709081642328],[-73.83679107269866,40.761166671253186],[-73.83689970202342,40.762698118217585],[-73.83790429522402,40.76458779680481],[-73.83935912292067,40.765409871854125],[-73.83905335035489,40.76595867810021],[-73.83925621768793,40.76603420963982],[-73.83820473755638,40.76764804641113],[-73.83626891727624,40.769609971149045],[-73.83183305742095,40.77238796159442],[-73.83015693195934,40.773824742320144],[-73.82888299766208,40.77542700714486],[-73.8262391020438,40.779892882471444],[-73.82566712067477,40.779729711646965],[-73.82601628303618,40.77909394354428],[-73.82488880979503,40.77871390772394],[-73.8238210896421,40.778360138150056],[-73.82376244803298,40.77850455199291],[-73.82147799291954,40.77830955192754],[-73.82180088203339,40.775259441109675],[-73.81873427952242,40.77526341961549],[-73.81873216114867,40.77654672472635],[-73.8149434679913,40.77586211918904],[-73.81531381831984,40.773651694271344],[-73.81383712042812,40.77353482804375],[-73.81391499048009,40.772822934197215],[-73.80427865560083,40.77206092717527],[-73.8046289568196,40.769485661351084],[-73.80089360751333,40.76919103280218],[-73.80048126981345,40.77220224017442],[-73.79724339755646,40.77389389713773],[-73.7956570207727,40.77303608671479],[-73.7936523027001,40.77336043864151],[-73.79163526132568,40.774238655587254],[-73.77678363328374,40.77840958379178],[-73.77583958332171,40.778612372614774],[-73.77553732247473,40.77702559798059],[-73.77113180322011,40.77834080978082],[-73.76956806576577,40.77518143111515],[-73.76696723975131,40.77575797832166],[-73.765986967759,40.774235958857446],[-73.76481165244937,40.77288155569572],[-73.76086768703965,40.769355779816884],[-73.7597716573448,40.76745667293323],[-73.75843838495256,40.763928488768705],[-73.75716345447186,40.76234850214956],[-73.75811452065416,40.76205389719128],[-73.75757285567605,40.76126063656733],[-73.7566995114781,40.76091018205974],[-73.75385294181,40.76046510128786],[-73.75128060061036,40.75966699377311],[-73.74990296260944,40.75903898603644],[-73.74847118303536,40.75807548592515],[-73.74740741725843,40.75704108448491],[-73.744408874328,40.753563341826386],[-73.74680794619653,40.75202841799899],[-73.74709885407715,40.752346829179615],[-73.74929088689441,40.75128240100998],[-73.75698991515893,40.749575010198406],[-73.76158017948183,40.747768672053056],[-73.76073106105277,40.745981300539064],[-73.75889434376532,40.746482610929064],[-73.7580824669165,40.7447640853722],[-73.75992654625433,40.744288180209175],[-73.75892078955702,40.7421584705009],[-73.76431495493789,40.74067262683733],[-73.76246348310228,40.736547501088296],[-73.76273303467737,40.73526216317498],[-73.76511018346312,40.734557738043726],[-73.76369979236233,40.73286411684935],[-73.77491335248848,40.73091286026985],[-73.78116055033684,40.72921275860039],[-73.77955659425697,40.72581377209157],[-73.77732562882011,40.72239270114463],[-73.7785150666423,40.72149989605343],[-73.78004674028462,40.720660987542004],[-73.78156587437465,40.72020980514195],[-73.78528503685843,40.71994095647152],[-73.78863953810695,40.719305863552314],[-73.79214019938162,40.71919897091326],[-73.7980479249926,40.71740839712385],[-73.79809522732708,40.71754225181438],[-73.80192181141656,40.71654951951859],[-73.80784387577566,40.71599973406748]]]]}}]}