{"type":"FeatureCollection","features":[{"type":"Feature","properties":{"district":"59"},"geometry":{"type":"MultiPolygon","coordinates":[[[[-73.95439555417087,40.73911477252269],[-73.9519879435446,40.738747620474406],[-73.94652352854786,40.73692685395834],[-73.94644229140863,40.736780626263325],[-73.94719983367159,40.73535517761173],[-73.94706532915387,40.734401992819414],[-73.94659806707352,40.734442224347475],[-73.94673908072966,40.735282693841185],[-73.9462474829692,40.736166165227154],[-73.9458731056289,40.73610183125833],[-73.94557048457217,40.73661230391059],[-73.94499908889487,40.73643669371279],[-73.94525492279563,40.73589278900394],[-73.94518507181319,40.735479152678],[-73.94503299031923,40.73542861568352],[-73.94448138831733,40.73628149303568],[-73.94239443542429,40.7354257499477],[-73.94177231077717,40.73498208139011],[-73.94114746701952,40.73415292753774],[-73.94103843274782,40.73348826020316],[-73.94064423421061,40.73317051147941],[-73.94371982936528,40.732390954474006],[-73.9429430610339,40.72766168705633],[-73.93819712504785,40.72810252180696],[-73.93724229248072,40.727794147972695],[-73.93676382339476,40.72483891922288],[-73.94904281657652,40.717428519193014],[-73.95114433699723,40.716034521288734],[-73.95348472164814,40.71407020807882],[-73.95599388157582,40.71409198734286],[-73.95755915948826,40.71449889406389],[-73.95906382958717,40.71216612566287],[-73.9605609155058,40.71271340327295],[-73.96102940067502,40.71196947930034],[-73.96407128158607,40.71307939329235],[-73.96839125213894,40.71426191867419],[-73.96710504006269,40.716908393254585],[-73.96725113674303,40.71698666660909],[-73.96659690266615,40.717967981390224],[-73.9673074147439,40.71831306718433],[-73.96706867689159,40.71843903579146],[-73.96715101172583,40.718316126435184],[-73.96656241831442,40.718015866806255],[-73.96575996467422,40.718689034779274],[-73.96663600829653,40.71913014271283],[-73.96651453667222,40.719430974242066],[-73.9663636385142,40.71905045604845],[-73.96574267142807,40.7187068777773],[-73.96511950416225,40.71922689399757],[-73.96540628102625,40.719701093800616],[-73.96511736757658,40.72031633885631],[-73.96559823311401,40.720744458402685],[-73.964479462231,40.72003618825576],[-73.96438190889278,40.72013942466061],[-73.96433475464111,40.720386538911406],[-73.96503100130579,40.720790841371304],[-73.96485304211545,40.720952804859785],[-73.96436107956328,40.720477239877326],[-73.9642746249727,40.72057576759408],[-73.96495059736691,40.72142418160451],[-73.96420193098605,40.72065389375459],[-73.9640659124426,40.72079991096256],[-73.9643750430115,40.72099255076879],[-73.96402617458553,40.72088089256612],[-73.96296566403016,40.722034477123074],[-73.96207271877824,40.72388030040289],[-73.96247195112905,40.72417498927368],[-73.96200744865104,40.723991901105606],[-73.96165984235287,40.72486045446301],[-73.96211461566836,40.72514806339908],[-73.9619023964316,40.7253205003087],[-73.96153679358694,40.725108918852264],[-73.96116366368389,40.72526460633369],[-73.9583307822691,40.72441170076634],[-73.95803916741664,40.72442744087881],[-73.95794183489497,40.72464920270007],[-73.95795096213239,40.725036439168576],[-73.95842611843923,40.72540053583232],[-73.96012497133243,40.725319636637074],[-73.96028544944211,40.725948122413136],[-73.96161518901998,40.72586556307444],[-73.96161716963762,40.726661421991196],[-73.9610168813666,40.72870444010192],[-73.9611509325364,40.729536204770845],[-73.96140171917759,40.73011102611357],[-73.9625493395233,40.72974406784672],[-73.96225228876577,40.7299855669821],[-73.96128450788402,40.7301590617018],[-73.96142843697933,40.730946392610385],[-73.96167446706403,40.731481253552694],[-73.9636593923288,40.73124981148223],[-73.96369938139063,40.7314366195574],[-73.96171289480758,40.73156611384529],[-73.96234062194122,40.73338922663305],[-73.9620903444991,40.73450799787379],[-73.95982931147842,40.73706090063335],[-73.95824213550955,40.738179919620435],[-73.95693002865116,40.7388870730717],[-73.95439555417087,40.73911477252269]]],[[[-73.96421230395704,40.74660431797426],[-73.96458318426947,40.74645440067351],[-73.9641598028843,40.74686554735975],[-73.96421230395704,40.74660431797426]]],[[[-73.9664907143314,40.75333126271899],[-73.96482397890765,40.75250344210565],[-73.9648017868766,40.75230386471549],[-73.96523050773773,40.75185714577645],[-73.96486224877134,40.75201110155694],[-73.96470952841109,40.751719415095934],[-73.96836519324148,40.74743349462028],[-73.96823171715788,40.74736847648939],[-73.9686922519053,40.74680860795781],[-73.9707883477664,40.7444062176905],[-73.97094062960419,40.74447144402558],[-73.97111438123977,40.74420436093265],[-73.97070317531687,40.74399049490893],[-73.97117346753164,40.74410753500842],[-73.97135752941868,40.743838455359636],[-73.97120546301967,40.74377151030149],[-73.97188888913065,40.74272481985312],[-73.97174059715825,40.74266358001168],[-73.97195955856255,40.742337921543836],[-73.97228992099217,40.740721039031946],[-73.97221685422328,40.740307625061696],[-73.97265743803038,40.73922275427715],[-73.97248994174741,40.735803280107795],[-73.97286939178467,40.73577086128574],[-73.97441385816532,40.73641439385913],[-73.97445975070463,40.7362940197185],[-73.97402692104305,40.73612576724569],[-73.97446647047286,40.73627845683008],[-73.97450376013228,40.736064588444215],[-73.97414062018392,40.73595565666492],[-73.97450488285943,40.73604228103946],[-73.97450793938161,40.735796945772556],[-73.97424630658303,40.73578011045604],[-73.97446537767371,40.735666886063875],[-73.97305698712047,40.73517745341573],[-73.97280661710461,40.735523918521324],[-73.97293031926458,40.73560761439685],[-73.97276308380353,40.73550508747374],[-73.97294520758682,40.735065170071294],[-73.9732989504614,40.73524235507728],[-73.97329627362966,40.7350408566427],[-73.97354472883961,40.73494432610164],[-73.97444065082591,40.73531677190073],[-73.97395905029711,40.73342116553862],[-73.9736762757606,40.733205933888215],[-73.97386810776207,40.73306568719578],[-73.97341321730858,40.73128241642885],[-73.97196340301248,40.730000377217664],[-73.97147994907228,40.729249577196],[-73.97162697271706,40.7266284534996],[-73.99075396816642,40.73483915457386],[-73.98986198872072,40.735326099687384],[-73.98407485260152,40.74332471841676],[-73.98245520730401,40.742646960084926],[-73.98200875374039,40.74326462089396],[-73.98362520028383,40.74394311456548],[-73.98134068727681,40.74707866368269],[-73.97972346503128,40.74640287633865],[-73.97923826234509,40.747067642195894],[-73.97763647870374,40.74639165711372],[-73.97350255883197,40.75206493215554],[-73.96890797166566,40.7501124437503],[-73.96722654996037,40.75268822334029],[-73.9664907143314,40.75333126271899]]],[[[-73.91625462894844,40.77624642943047],[-73.91845500484335,40.774449055397255],[-73.91216772593344,40.77003111148172],[-73.91291677989145,40.769161297906464],[-73.9119402607033,40.76901015312094],[-73.91449902422195,40.76585639951679],[-73.91370071387944,40.76548023943976],[-73.91499211551111,40.763892304538125],[-73.91579117446689,40.764267771130456],[-73.9229047573353,40.755506165071324],[-73.92370440093819,40.75588003743358],[-73.92495400083328,40.75433675217015],[-73.92415700043728,40.7539611423319],[-73.92562743791541,40.75213724475558],[-73.92874215694299,40.75204162471405],[-73.92971026588957,40.75255534629365],[-73.93015432293959,40.75201212454251],[-73.93227623313614,40.75195388603762],[-73.9338326940661,40.751604701940366],[-73.93609499043112,40.74973153087914],[-73.93538685321553,40.74941193315351],[-73.93686355668945,40.748421263647685],[-73.93439987251683,40.74603455675993],[-73.93769681588368,40.74523857476213],[-73.93726110738345,40.745176490734025],[-73.9376511573702,40.74330513458712],[-73.94044578297708,40.74364523060665],[-73.94059416664572,40.74288193008274],[-73.94228314080684,40.741181396997135],[-73.94459873502069,40.74163127526038],[-73.94530443336131,40.73955299055785],[-73.95212649592786,40.74089021009639],[-73.9524335527289,40.739543934999375],[-73.9538088392085,40.739820292978074],[-73.9571046178665,40.73962579772024],[-73.96072580373679,40.73808017017932],[-73.96216505619311,40.73827253825914],[-73.96213146112954,40.73845107065091],[-73.96255052381623,40.73870004585673],[-73.96262015898662,40.73903266212623],[-73.96220916557884,40.740006174995884],[-73.9617904826309,40.740013130417005],[-73.96124697945471,40.740423596612736],[-73.96193750086432,40.74079487881608],[-73.96180397423018,40.74109767347216],[-73.96121862852013,40.741107860130334],[-73.96107392567998,40.741694504752296],[-73.9613648658307,40.74183719790203],[-73.96110814501434,40.74182802540549],[-73.96155253168956,40.741993261407345],[-73.96119029789023,40.74264485525986],[-73.96054252040626,40.74346639397166],[-73.95977470797814,40.74350468370064],[-73.95970598360812,40.74385865006135],[-73.96012375375955,40.74393920790268],[-73.96005765843071,40.74380367501256],[-73.96064863700752,40.74413031711164],[-73.95963225023962,40.74393463191431],[-73.9593910660958,40.74428332424144],[-73.96012600962386,40.744443936991644],[-73.95923368945685,40.744310043026665],[-73.9587753700448,40.744555599863595],[-73.95944240940852,40.74460422061233],[-73.95887919943334,40.74462433145484],[-73.95875854834802,40.74494500525302],[-73.95966590587591,40.74517030058272],[-73.95849389303119,40.74498786491641],[-73.9584525226965,40.74511901182233],[-73.95925084238479,40.74531552963254],[-73.95933786844708,40.745507606896076],[-73.95905935607946,40.74575336834654],[-73.95850227459322,40.74576497421799],[-73.95914371692935,40.746000603678645],[-73.95704097276808,40.74892035137655],[-73.95485394268036,40.748040794641135],[-73.95318382492859,40.747734811961124],[-73.95305375571401,40.74808748722947],[-73.95478387869808,40.748427687773386],[-73.95632162509666,40.74908155393246],[-73.95601160302711,40.749373994226886],[-73.95622199020691,40.749517303030586],[-73.95600065094617,40.74938370320937],[-73.95576039140938,40.749596659530376],[-73.9562013686721,40.74968563332417],[-73.95546436936405,40.749674213082805],[-73.95534928514448,40.75001385690411],[-73.95513239152478,40.749926424332486],[-73.95520275040874,40.74967653740964],[-73.9550665256017,40.74963273037559],[-73.95451584573388,40.75058669897693],[-73.95465000413118,40.75083104095966],[-73.95449858097594,40.75122583574058],[-73.95131438087404,40.75457955064215],[-73.94570525640735,40.761488157056796],[-73.94350281966635,40.764499040743665],[-73.94131174941451,40.766918004769806],[-73.93983559349122,40.767988005939486],[-73.93936587223844,40.768159701879746],[-73.93895502453307,40.76795818671982],[-73.93819730754757,40.76869974435682],[-73.937887684264,40.7685575534323],[-73.93777816678481,40.76861905182275],[-73.93795822895135,40.768784934017994],[-73.93747109116867,40.76895155858922],[-73.93681460654729,40.76890394747858],[-73.9364038180227,40.76947488451742],[-73.93574021432624,40.76936722986672],[-73.93489533894557,40.7700418628897],[-73.93469499067032,40.770425338022726],[-73.935147154026,40.77054195605858],[-73.93500813872225,40.77116239486673],[-73.9345273010944,40.77117677510354],[-73.93443525743177,40.771462362333594],[-73.93482622761698,40.77157695807344],[-73.93480681344163,40.77173413889007],[-73.93746638537077,40.772531495125364],[-73.93781335903401,40.77356289464773],[-73.93765483024703,40.77508568538347],[-73.936089196991,40.77718432207721],[-73.93474353077397,40.77807633537756],[-73.93272210453966,40.77803476711813],[-73.93178834305155,40.777870607105],[-73.93104964298944,40.77744189731221],[-73.93062856554165,40.77659090274975],[-73.92988058566199,40.77622163190243],[-73.9286051502335,40.77659267510116],[-73.92631833403904,40.77824177518511],[-73.92487344547924,40.778625604007054],[-73.92295652690137,40.780441008122395],[-73.92209965433324,40.78085187463665],[-73.91996458792964,40.782635069039216],[-73.91796581435896,40.78125629196773],[-73.91861823142098,40.78073286893335],[-73.91647077026545,40.77921727299919],[-73.91798888417517,40.77797108068198],[-73.91592019888787,40.77651959643466],[-73.91625462894844,40.77624642943047]]]]}}]}