{"type":"FeatureCollection","features":[{"type":"Feature","properties":{"district":"47"},"geometry":{"type":"MultiPolygon","coordinates":[[[[-73.95577735912323,40.78791392447124],[-73.96372602608056,40.77700571789986],[-73.96517676715362,40.77794605016057],[-73.96709687726808,40.7783334043064],[-73.97102879293465,40.77994524167661],[-73.97165491032672,40.78049875644094],[-73.97143192874277,40.781647453129935],[-73.97172305555839,40.782021476462404],[-73.98167943639396,40.76839013093633],[-73.98144254389676,40.768163970162334],[-73.98149121492801,40.76788119859859],[-73.98211061533098,40.767744476546525],[-73.9939482565985,40.75152222216282],[-73.99111010109479,40.750319070313026],[-73.99156300545424,40.749705922819174],[-73.99437946790309,40.75093038980298],[-73.99709902854308,40.747205102042415],[-73.99426258628625,40.746003981358065],[-73.99564493951978,40.74409853467952],[-73.99280340949005,40.742910020203496],[-73.99328973329938,40.74223428154997],[-73.99612901013253,40.74343065428244],[-73.99828702268512,40.74046982206007],[-74.00112917391692,40.74166809759247],[-74.00155531453736,40.741080025861656],[-73.99871270610068,40.73988087804506],[-73.99968422973271,40.73855247381623],[-73.99683993860417,40.737360889398374],[-73.99871443827661,40.734783860928204],[-74.0013887854462,40.73448281952708],[-74.00120475889288,40.733843092594675],[-74.00278641385955,40.733632509017],[-74.00239106870303,40.73433981186291],[-74.00296962495032,40.73425234120058],[-74.00386573444193,40.737544058159806],[-74.00820601747525,40.73755381659177],[-74.0083084793816,40.736192153369],[-74.01067724659342,40.73605627995698],[-74.0104765981442,40.73806394059523],[-74.0110870663595,40.73809275008146],[-74.01113915602562,40.73838986281323],[-74.01045432864602,40.738364505725755],[-74.01039303134563,40.739174296561934],[-74.01158045502316,40.73926453611219],[-74.0114607395534,40.74058421475269],[-74.0126592820849,40.7407476384976],[-74.00949154621281,40.74074270943997],[-74.00941140266131,40.74115409331305],[-74.00961923440443,40.741363610514966],[-74.01020818993538,40.74160753792842],[-74.010383580722,40.74139785352676],[-74.01139609242074,40.741822813235274],[-74.01083987411933,40.742596734022634],[-74.01029100591903,40.742358524639805],[-74.01012563710833,40.742575831777195],[-74.00919185382803,40.742292631516854],[-74.00909156846193,40.742886149072554],[-74.00962015348912,40.74295124838993],[-74.00958464345703,40.74326352048325],[-74.01214813183593,40.74355930154771],[-74.01202085006399,40.743939770208996],[-74.00951201767367,40.74367609376045],[-74.00943800870864,40.743971255473234],[-74.00890032962842,40.7439179270962],[-74.00872986359421,40.74488153782985],[-74.00961227924414,40.74499790315071],[-74.00955832929749,40.74528882529887],[-74.00991660813456,40.74532725500723],[-74.00999822601715,40.74495505930228],[-74.0098721108548,40.74491650212594],[-74.01016790535392,40.744942329709765],[-74.0099739502192,40.745323135109416],[-74.01046920011868,40.74538676602916],[-74.0105504475589,40.74501305720761],[-74.01041937209388,40.74497682417123],[-74.01076419780692,40.745005032020956],[-74.01058579200931,40.74502044656174],[-74.01053106537704,40.745382050389644],[-74.01110359804885,40.745447670244126],[-74.01117183119825,40.74507825828352],[-74.01104459150831,40.74504621240219],[-74.01138769974182,40.74507311268278],[-74.0112303805723,40.74507583066286],[-74.0111541917691,40.74544637808411],[-74.01173958552815,40.745519918190354],[-74.01167067583798,40.74511397733999],[-74.01183642872417,40.74512596367891],[-74.0117827582809,40.74560157225559],[-74.01167885505596,40.74597946181612],[-74.00946389855972,40.74575014365962],[-74.0093636273423,40.74633560197741],[-74.01159123434022,40.74660150547614],[-74.01148373087554,40.74699058876545],[-74.00924314658675,40.7467627907539],[-74.00913736259926,40.74735976280317],[-74.0114067393552,40.74763055006822],[-74.0113035299375,40.748014571909074],[-74.00905847901343,40.74778564533301],[-74.00894606502322,40.74841189316889],[-74.01121561813416,40.74867799224373],[-74.01110891182985,40.749049875919766],[-74.0099481793803,40.74893198800587],[-74.00956174747358,40.7499699751995],[-74.00925340917918,40.749985205722105],[-74.00910453215725,40.750371069730505],[-74.01067737532614,40.751022674477085],[-74.01056463476439,40.75132146210147],[-74.00900098259454,40.75064818378276],[-74.00853256925024,40.7518836093045],[-74.00914082120002,40.75209759409922],[-74.0086511593681,40.75193951261581],[-74.00905774009662,40.75221435124337],[-74.00858095760466,40.75204388241179],[-74.0093408924528,40.752355609545724],[-74.008478955728,40.75201857192007],[-74.00842636447226,40.75215785023945],[-74.00997058797022,40.75293356415334],[-74.00879210090847,40.7523521383797],[-74.00868792219572,40.752493998628566],[-74.00835352838843,40.75235073934249],[-74.00761949611852,40.75428184177427],[-74.00774404830214,40.754336801931885],[-74.00747157990921,40.754477019921445],[-74.00728499944323,40.75473556820334],[-74.00741362036906,40.754789302669614],[-74.00714468360972,40.754932481173604],[-74.00541885841005,40.75732314034936],[-74.00521187705773,40.75723199854007],[-74.00480392560185,40.75780984316488],[-74.00527894797891,40.75802855492844],[-74.0050310513664,40.758357016473305],[-74.00700358904015,40.75923187034123],[-74.00650687640183,40.75989203231737],[-74.00450483093914,40.75908499655288],[-74.00420629125391,40.759501707688564],[-74.00390742032769,40.75937569218368],[-74.00380657835007,40.759510731466186],[-74.00424697128062,40.759699214171576],[-74.00414863814689,40.759835914170964],[-74.00431889425076,40.75991068576361],[-74.00366891453541,40.75970596957674],[-74.00357251040076,40.75984655897331],[-74.00392854933564,40.76000301972061],[-74.00313338991401,40.76107834509648],[-74.00278691552613,40.76092896970349],[-74.00233528130057,40.7615437270018],[-74.00455641560922,40.76252426502523],[-74.00439976203518,40.76267135909899],[-74.0022008207327,40.76172843222664],[-74.00153309066981,40.76264459812778],[-74.00375735037694,40.76358224164074],[-74.00361214794175,40.7637770439099],[-74.001386036986,40.762850095002065],[-74.00097308022016,40.76342027172584],[-74.00314976988994,40.76433288868739],[-74.00294809515722,40.764616835931506],[-74.00322275585363,40.764638037670395],[-74.00314652966799,40.76473628138387],[-73.99992712367728,40.763406528479514],[-73.99962263458187,40.76355908121064],[-73.99915098087908,40.76420525958287],[-74.00228802371481,40.76556154379539],[-74.00202454330335,40.765893266570565],[-73.99888473174988,40.76456937704867],[-73.99857638530538,40.76499860727096],[-73.99868870694561,40.76520857045002],[-73.9982709030835,40.76555223341343],[-74.0015618057548,40.76699649936847],[-74.00131469636004,40.76725112005011],[-73.99806675905354,40.76587188113588],[-73.99737808447966,40.76682338587715],[-74.00064950530418,40.76824523610574],[-74.00038586489076,40.76850419593204],[-73.99715588949212,40.76712869617297],[-73.9964571540504,40.76809881579582],[-73.99973590247853,40.7695061773317],[-73.99947253734024,40.76976421547192],[-73.99707176039311,40.76873264357703],[-73.99715035477146,40.76884738771358],[-73.99657126439577,40.769424568274005],[-73.99902682832902,40.77046327298224],[-73.99876206914315,40.77082505670939],[-73.99631327022085,40.76979883633659],[-73.99588004351685,40.770400579515005],[-73.99601693196199,40.77045484888637],[-73.99542474436302,40.771031615168134],[-73.99600175749052,40.77130746533072],[-73.99589990100937,40.77145029858229],[-73.99530566365357,40.77119600490969],[-73.99493501659009,40.77146814607559],[-73.9949768849473,40.771658774923495],[-73.99707328169315,40.77254286890211],[-73.9968729144914,40.77281748122877],[-73.99477407930823,40.77192954753038],[-73.99444501293384,40.77237712658849],[-73.99622972001936,40.773128975045495],[-73.99612087994667,40.773275391093186],[-73.99416328456306,40.772487191021455],[-73.99383108203092,40.77293178785083],[-73.99413665258861,40.77290187017444],[-73.99437655275096,40.773039551101554],[-73.99429402982382,40.77315624399199],[-73.99502327586075,40.77348119657636],[-73.99505028469918,40.773297153190036],[-73.9962406518988,40.77378979139785],[-73.99606316808179,40.77388688661024],[-73.99617945997379,40.77398695435169],[-73.99609524522621,40.774086186437806],[-73.9939369418221,40.77317951096707],[-73.99262266386542,40.77497405603712],[-73.99226708903541,40.77511603385873],[-73.9920590849371,40.775497598695026],[-73.99238604296033,40.775557179922245],[-73.99092717414969,40.77756687876315],[-73.99039616003651,40.77758506567923],[-73.98886861740003,40.77969292291159],[-73.99155105922745,40.77957482093496],[-73.99141982585964,40.77975528028724],[-73.98888614411696,40.77987889853291],[-73.98891926146842,40.78022609434386],[-73.98807644914505,40.78165093500181],[-73.98546581197026,40.78536070057562],[-73.98617270496545,40.786068452258874],[-73.98711901394266,40.78521031850171],[-73.98612842248589,40.78623900133132],[-73.98542932126942,40.78541394218482],[-73.98508113773205,40.78592193511063],[-73.98576566029752,40.78619627485881],[-73.98568287192252,40.78630978621333],[-73.98501696406484,40.7860142376984],[-73.98465507883023,40.786534741808154],[-73.98594956155668,40.786487113464126],[-73.9846194285841,40.786586016350014],[-73.97466556722725,40.800813514734344],[-73.97192384162815,40.79970485083824],[-73.97145910423087,40.8003336541295],[-73.96996414366038,40.79970145734443],[-73.97088109374313,40.798444667905876],[-73.96945603445009,40.797837893652215],[-73.96991508284204,40.79721645372775],[-73.96282149737728,40.79423723569145],[-73.96468540739478,40.79166402679901],[-73.96346534070109,40.79138721807845],[-73.96294611201624,40.79175084726167],[-73.96194100104044,40.79140477312021],[-73.96019178935643,40.79040707622471],[-73.95690053672013,40.78925302702171],[-73.95640769986997,40.78883666974032],[-73.95618634782718,40.788138788056436],[-73.95577735912323,40.78791392447124]],[[-74.00937125244927,40.742185150284826],[-74.0100880336451,40.74248815567386],[-74.01019827672162,40.74233375374003],[-74.0098223415751,40.74216605205829],[-74.01016559689417,40.74167234807372],[-74.00936174828294,40.74142362374203],[-74.0092377993956,40.74207162715807],[-74.00937125244927,40.742185150284826]]]]}}]}