{"type":"FeatureCollection","features":[{"type":"Feature","properties":{"district":"15"},"geometry":{"type":"MultiPolygon","coordinates":[[[[-73.84542613093986,40.73494980377959],[-73.84769447212847,40.73427729025744],[-73.8463253333888,40.731616230700645],[-73.84857845786354,40.73094867864471],[-73.84823715691947,40.73028259053248],[-73.85027461989563,40.729663726262636],[-73.85133166851084,40.72961086709842],[-73.85087912777642,40.72873015005087],[-73.85173037747188,40.72847757530246],[-73.85168796255043,40.7279516867159],[-73.85198453853047,40.72686618796103],[-73.85244782725606,40.72670505078263],[-73.85150362367482,40.726224999180985],[-73.8516699156875,40.72607746752698],[-73.84979941690236,40.724401579350584],[-73.84826850701904,40.72336481448279],[-73.84754489505941,40.722216534763874],[-73.84638478166052,40.7218802640875],[-73.84696438046205,40.720958912577146],[-73.84478856508021,40.72016435084155],[-73.84709876292538,40.716507674324156],[-73.84926978916668,40.71731165108513],[-73.84967676085499,40.71666929905841],[-73.85008162625606,40.71602370115536],[-73.84790247894684,40.71522951774175],[-73.84871372454329,40.71394171134548],[-73.85088995450108,40.71473481250799],[-73.85129612210395,40.714094110212024],[-73.84911981706169,40.7132995674306],[-73.85091563338545,40.71047121931882],[-73.84847384819426,40.71007908237011],[-73.84775221152398,40.7112140084464],[-73.84667944618458,40.7108219253338],[-73.84723748536841,40.70987604817703],[-73.84602682077472,40.70968873203776],[-73.84435590735305,40.71235002021647],[-73.84218069473012,40.71155306748217],[-73.84256681787964,40.71090852272714],[-73.84328240295811,40.71116558701895],[-73.84412030025172,40.7093782987125],[-73.83828428836244,40.708409358626035],[-73.83714702988892,40.70795704626353],[-73.83808137874298,40.70656204347424],[-73.8381363534196,40.706182028808755],[-73.83661882132142,40.70342001787204],[-73.83597534682144,40.70343215795197],[-73.83552298149094,40.703692843447506],[-73.83282474783668,40.70437101350923],[-73.83152109606644,40.70138962879893],[-73.8224589041013,40.70365553128476],[-73.82147824879263,40.7034156042513],[-73.82120263744741,40.702009159760486],[-73.81647531259802,40.70245042691698],[-73.81416657482868,40.69787986416459],[-73.81432315542573,40.69785490228931],[-73.8109881050938,40.69185504473344],[-73.81354014221486,40.69121136783586],[-73.81290740753933,40.689827465227616],[-73.81335862945659,40.68927815409177],[-73.81345005217169,40.6871562107031],[-73.81497356887294,40.68669515659419],[-73.81393689434096,40.684597480734666],[-73.81359181154414,40.68470959482971],[-73.81637807998533,40.68061553882544],[-73.81607400903647,40.68000712295985],[-73.81870733678315,40.67925447320095],[-73.8178517370797,40.67750805586553],[-73.81872943892195,40.67725935961732],[-73.8204440399056,40.68075518707694],[-73.82304243386915,40.680009856103815],[-73.82131957772908,40.67648763422635],[-73.82883689439129,40.6776923733577],[-73.83678141216038,40.679571271987086],[-73.8397640843524,40.67999735700625],[-73.83641423893975,40.67311558923197],[-73.84118263095088,40.672428818734986],[-73.8407930006262,40.67089433993172],[-73.84292201076309,40.67059117181515],[-73.84215531048709,40.66793512844892],[-73.84503059387852,40.66734874823409],[-73.84505013895921,40.66691251894409],[-73.84543727579414,40.66642205096451],[-73.84714195144505,40.66562892876139],[-73.84792139427397,40.66680667447326],[-73.85033775487146,40.666322701836194],[-73.84977068791315,40.66419087042425],[-73.84881344454686,40.66280413465528],[-73.84950500080934,40.66244081528677],[-73.85047734159453,40.66284191090038],[-73.8523825709602,40.66257470707415],[-73.8527962214002,40.664249983873205],[-73.85568461221035,40.663867492875696],[-73.85763323174372,40.67165619403902],[-73.85855466688884,40.671518146103146],[-73.85892432971283,40.673071397409956],[-73.8598673569897,40.67294534318861],[-73.85947416458082,40.67138053153496],[-73.86038519920734,40.67125171099068],[-73.86077512857382,40.67280562274188],[-73.86168953236569,40.672664885375475],[-73.86207432577108,40.674207957899995],[-73.86114396102506,40.67433014745016],[-73.86234580535127,40.679164785644474],[-73.86328297030434,40.679079370673605],[-73.86410096679134,40.68237285029281],[-73.86601993220731,40.681919587028176],[-73.8665984834927,40.685269559070086],[-73.86868454304549,40.694034691905046],[-73.86840519015212,40.69473118624479],[-73.86891762756782,40.69514656151495],[-73.870674218437,40.697841064849065],[-73.86931433218412,40.69935514733551],[-73.8695262776873,40.701605743380945],[-73.86898508371974,40.701744355953814],[-73.86915596157473,40.702893433660506],[-73.87639785216518,40.70229404227683],[-73.87621714178009,40.70159500481864],[-73.88174317650014,40.69953389456132],[-73.88280948496325,40.700683455656716],[-73.88431619451549,40.700201196338696],[-73.88676728328292,40.6998260853946],[-73.88700193836209,40.70143195726922],[-73.88282177080788,40.70177831947035],[-73.88373337303317,40.703995136081595],[-73.88459470056455,40.703790353403996],[-73.88553214224856,40.70644568324958],[-73.89014258576256,40.70836042300794],[-73.88964696235067,40.710358562332594],[-73.88877304406869,40.71228017782719],[-73.8950646952866,40.712479562728895],[-73.89553825122506,40.71380363370879],[-73.89628533119513,40.714817843128586],[-73.90093766168918,40.71384105052968],[-73.90115752579096,40.71462231505908],[-73.8921298109119,40.71898677515177],[-73.89415923683164,40.72160496611729],[-73.89321290596406,40.722030078479456],[-73.89366911332367,40.72262455802916],[-73.89458568137647,40.72220787061934],[-73.894972190599,40.722823595755294],[-73.89426494144978,40.72314318891679],[-73.8954168217192,40.72342409121584],[-73.89433570791154,40.723921482746896],[-73.89467832673814,40.72499879744984],[-73.89134307892094,40.725259025682355],[-73.88937237413953,40.726225764121246],[-73.8881730582934,40.726166855920226],[-73.88817981499503,40.72651995870645],[-73.88774699974674,40.72652800068807],[-73.88776495695996,40.72711108126155],[-73.88724113850517,40.727401608896464],[-73.88720482610206,40.72786882893811],[-73.88694927596957,40.72797865630294],[-73.88527716979446,40.72840707985909],[-73.8803901076565,40.7289052195954],[-73.87523717580798,40.7307239581414],[-73.87146074183508,40.729326374137855],[-73.87113283455845,40.72837172030058],[-73.86924271521093,40.72776793166992],[-73.868881871451,40.728358138599525],[-73.8666700020981,40.72758453759221],[-73.86447907542215,40.73108930141531],[-73.86259793824024,40.73041595893506],[-73.86433941136872,40.733742560164224],[-73.86259399611545,40.73427384427631],[-73.86164235296008,40.73247153728039],[-73.8576518301079,40.7336678860264],[-73.85799293721331,40.73433365672609],[-73.85580770143105,40.734982839208115],[-73.85546561397048,40.73431944558461],[-73.85324927049167,40.73497731002188],[-73.85357940311282,40.73564747513238],[-73.8513417221125,40.73631642324361],[-73.8509980554869,40.73565568107522],[-73.84605541836494,40.73709918897238],[-73.84542613093986,40.73494980377959]]]]}}]}