{"type":"FeatureCollection","features":[{"type":"Feature","properties":{"district":"28"},"geometry":{"type":"MultiPolygon","coordinates":[[[[-73.95763576836282,40.74840634746513],[-73.957493440047,40.74833646476307],[-73.9578395394205,40.74833800337541],[-73.9576883184342,40.748535026871835],[-73.95763576836282,40.74840634746513]]],[[[-73.93556797115848,40.77191877803665],[-73.93556621751405,40.77162911588921],[-73.93585195294749,40.77171600199284],[-73.93556797115848,40.77191877803665]]],[[[-73.94180032729426,40.769046926624874],[-73.94285528620705,40.76830349440948],[-73.94943175563205,40.76054861736164],[-73.95177822025997,40.75840254987715],[-73.95254079336877,40.75709531453745],[-73.95322009963168,40.75642684181784],[-73.95519503183567,40.754774523476385],[-73.95791452493187,40.75210985452551],[-73.96090586319525,40.74980198197352],[-73.96132845481047,40.74960095762467],[-73.96153855464473,40.749723119840674],[-73.96068557958185,40.75120193696811],[-73.96001132395902,40.751831517335226],[-73.9590161662748,40.753595059957576],[-73.95845836805675,40.753949236505065],[-73.95339140733955,40.75979676235788],[-73.95312451504947,40.76005275842971],[-73.9529778821611,40.75996210737449],[-73.95208632266514,40.76086215490759],[-73.95093734928088,40.762570495237995],[-73.94997191750257,40.763646030317226],[-73.94908628791565,40.76426402727513],[-73.94570357268658,40.768327934311664],[-73.94548114289289,40.76862477943799],[-73.94556302048748,40.76880177602729],[-73.94524510341354,40.768773268310575],[-73.94472478497455,40.769786271535025],[-73.94212674646828,40.7720347005096],[-73.94088707211625,40.772372516278764],[-73.94027460921222,40.77294743739572],[-73.94007665751654,40.77292618635813],[-73.94028207924197,40.7723014069914],[-73.94020021779653,40.77112830566291],[-73.9403553347751,40.770496574371236],[-73.94111778718026,40.76941440857483],[-73.94180032729426,40.769046926624874]]],[[[-73.93804640603439,40.7808295442757],[-73.93779448726416,40.78078125875562],[-73.93779944179563,40.78103133979683],[-73.93764631821483,40.781001215893035],[-73.93759894622623,40.78046784086164],[-73.93823773509402,40.780259079465516],[-73.93861200821945,40.780338955869134],[-73.93958378972476,40.77957647400733],[-73.93949329752056,40.7798736913156],[-73.93872802926595,40.780510743704774],[-73.93874423089275,40.78104387604242],[-73.93808213268714,40.78141843777737],[-73.93804640603439,40.7808295442757]]],[[[-73.94933170560955,40.785193126557786],[-73.94708951916724,40.78424490579509],[-73.94757763320617,40.783567905703194],[-73.95142582512732,40.78519175942447],[-73.95188295711606,40.78456521105171],[-73.95028254854698,40.783890469992535],[-73.95303367885595,40.780125455038586],[-73.94617055174528,40.77723138248965],[-73.94662849542544,40.77660407056025],[-73.94427810796877,40.77560732631739],[-73.9429129556169,40.77749340930516],[-73.9422805004479,40.7773474382288],[-73.94245545698132,40.77774786433379],[-73.94233541821181,40.77776881637426],[-73.94211982454031,40.77725556641191],[-73.94243403895558,40.77730046148639],[-73.94207418803877,40.776917846977256],[-73.94208160457377,40.77595701631722],[-73.94366431814802,40.77384076417699],[-73.94866416477923,40.76885762389705],[-73.950069793031,40.76702508788092],[-73.95441826078606,40.76218410495124],[-73.95877790822699,40.758270920848915],[-73.96065638180474,40.75592314955037],[-73.96162927534917,40.7551523842593],[-73.96470952841109,40.751719415095934],[-73.96486224877134,40.75201110155694],[-73.96523050773773,40.75185714577645],[-73.9648017868766,40.75230386471549],[-73.96482397890765,40.75250344210565],[-73.96653928079208,40.753347308408365],[-73.96722654996037,40.75268822334029],[-73.96890797166566,40.7501124437503],[-73.97350255883197,40.75206493215554],[-73.97763647870374,40.74639165711372],[-73.97923826234509,40.747067642195894],[-73.97972346503128,40.74640287633865],[-73.98134068727681,40.74707866368269],[-73.98362520028383,40.74394311456548],[-73.98200875374039,40.74326462089396],[-73.98245520730401,40.742646960084926],[-73.98407485260152,40.74332471841676],[-73.98986198872072,40.735326099687384],[-73.99075396816642,40.73483915457386],[-73.99968422973271,40.73855247381623],[-73.99871270610068,40.73988087804506],[-74.00155531453736,40.741080025861656],[-74.00112917391692,40.74166809759247],[-73.99828702268512,40.74046982206007],[-73.99612901013253,40.74343065428244],[-73.99328973329938,40.74223428154997],[-73.99280340949005,40.742910020203496],[-73.99564493951978,40.74409853467952],[-73.99426258628625,40.746003981358065],[-73.99709902854308,40.747205102042415],[-73.99437946790309,40.75093038980298],[-73.99156300545424,40.749705922819174],[-73.99111010109479,40.750319070313026],[-73.9939482565985,40.75152222216282],[-73.98211061533098,40.767744476546525],[-73.98149121492801,40.76788119859859],[-73.98144254389676,40.768163970162334],[-73.98167943639396,40.76839013093633],[-73.97172305555839,40.782021476462404],[-73.97143192874277,40.781647453129935],[-73.97165491032672,40.78049875644094],[-73.97102879293465,40.77994524167661],[-73.96709687726808,40.7783334043064],[-73.96517676715362,40.77794605016057],[-73.96372602608056,40.77700571789986],[-73.95577735912323,40.78791392447124],[-73.94933170560955,40.785193126557786]]]]}}]}