{"type":"FeatureCollection","features":[{"type":"Feature","properties":{"district":"19"},"geometry":{"type":"MultiPolygon","coordinates":[[[[-73.86327471071958,40.58387684853199],[-73.86381239461966,40.58360400358883],[-73.86449245335692,40.58361493817893],[-73.8677279690368,40.581663409429005],[-73.86896292210412,40.58169379478879],[-73.86925758051295,40.581909640571055],[-73.87050597918449,40.5833419525113],[-73.87061497794423,40.584915351060516],[-73.87115922675432,40.586873887967435],[-73.86981356482099,40.58946092678841],[-73.86849671647208,40.59008985028975],[-73.86635052164095,40.591892676564896],[-73.86430826692543,40.59141474432658],[-73.86327273492829,40.59090807569274],[-73.86274156028767,40.59036640659758],[-73.86272348498075,40.59007451075357],[-73.8614940111164,40.58854247309958],[-73.86125299377375,40.58798808592135],[-73.86167447867462,40.58614479499389],[-73.86327471071958,40.58387684853199]]],[[[-73.86952707548932,40.59871375035464],[-73.86967070711498,40.596688563622266],[-73.87020899836229,40.596954232789535],[-73.86952707548932,40.59871375035464]]],[[[-73.8701949148995,40.59899640590207],[-73.87108141811481,40.5989011474703],[-73.87049411914775,40.60260444620474],[-73.87026280565016,40.601681221756174],[-73.8701949148995,40.59899640590207]]],[[[-73.85243335807017,40.59733339779542],[-73.85465863090117,40.59657838892774],[-73.85492648581561,40.596301663870804],[-73.85673364394975,40.5960757643542],[-73.86044420533965,40.59647190609909],[-73.86054977985192,40.597063020191804],[-73.86274820792741,40.59907120542219],[-73.86328663134148,40.59981004216339],[-73.86335999147508,40.6003222032739],[-73.86297506260972,40.60101827261578],[-73.86187189847237,40.60216432581608],[-73.86112814224542,40.60255033107445],[-73.86078169166865,40.60260840025648],[-73.86048884213515,40.602339347394846],[-73.85905914327871,40.6020614310716],[-73.85482595782972,40.601867195353826],[-73.85427387360816,40.601430436697264],[-73.85372090340691,40.6014006651787],[-73.85276838155836,40.60094885402608],[-73.85176045305609,40.59969751381277],[-73.85076748001559,40.59883944383751],[-73.85153122893777,40.59843393622062],[-73.85243335807017,40.59733339779542]]],[[[-73.86702905185567,40.6037433888541],[-73.86768194154214,40.60307076667753],[-73.86830808464714,40.60313916064374],[-73.86793505372705,40.6039611354531],[-73.86702607287035,40.604171584008384],[-73.86702905185567,40.6037433888541]]],[[[-73.846736514711,40.604853014851855],[-73.84640850665576,40.6044845733708],[-73.84608059037885,40.604544593837204],[-73.84641368109902,40.60418741660592],[-73.84606999366491,40.60431229755974],[-73.84578322472349,40.6048216143822],[-73.84489298127988,40.60471631267144],[-73.84522811744671,40.604770844775906],[-73.84557100063377,40.60454417159596],[-73.84518624276541,40.60446929456902],[-73.84517506659421,40.604699117514905],[-73.84459295475084,40.60482001110201],[-73.84445489982681,40.60468732892302],[-73.8448151497333,40.60462156861739],[-73.84496295282486,40.60437570604547],[-73.84492199095145,40.60368207917783],[-73.84550164467836,40.60385321038756],[-73.84515425191294,40.60373106363232],[-73.8456230379246,40.6035194312536],[-73.84619623960161,40.604181323949334],[-73.84629233640368,40.604047604953294],[-73.84666632132983,40.60417789634798],[-73.84638196928539,40.60441005939368],[-73.8466458841174,40.604580761851864],[-73.8474532815578,40.604456101394064],[-73.84786248378626,40.60470270632692],[-73.84776455499473,40.604907621473444],[-73.846736514711,40.604853014851855]]],[[[-73.84827982667156,40.60543325523042],[-73.84795277186753,40.60535499863198],[-73.84783682255977,40.60508497038443],[-73.84824868418823,40.60514234873902],[-73.84827982667156,40.60543325523042]]],[[[-73.84840341186607,40.60592082886999],[-73.84826110013671,40.60577935306849],[-73.84871964443029,40.60589027875897],[-73.84840341186607,40.60592082886999]]],[[[-73.91560086104327,40.603936252654655],[-73.91476853163945,40.60336022167285],[-73.91489358102513,40.603288883760236],[-73.91442813462284,40.602863919563426],[-73.91389434799362,40.602703578271445],[-73.91368718510043,40.602850421012825],[-73.91385524392098,40.60269025150696],[-73.91364075667403,40.60252418170446],[-73.91332700399026,40.60276377777001],[-73.91347072649008,40.602911690690135],[-73.91329651030479,40.602765614678084],[-73.91366089338922,40.60246891002761],[-73.9134982641367,40.602366975565374],[-73.91327117511105,40.60255272109789],[-73.9133869327257,40.602634611550755],[-73.91301723241867,40.60275424871779],[-73.91347511544238,40.60234929587355],[-73.91329854635734,40.602250351749184],[-73.9131165873372,40.602220255929],[-73.91273866862338,40.60270867701661],[-73.91285319795082,40.60250740557483],[-73.91272398622357,40.602453262946284],[-73.91309691306886,40.602214453423194],[-73.91158427689338,40.60213548840357],[-73.91254170182432,40.60236443995559],[-73.91165189230664,40.60227825784446],[-73.91154411182987,40.60243932310409],[-73.91261098676532,40.60253200659405],[-73.91257290407599,40.602683299532295],[-73.91251889258047,40.60254030930378],[-73.91248882820432,40.6026741502694],[-73.91094007982456,40.60249781432215],[-73.91094634346709,40.60236464218675],[-73.91086536585779,40.60249048328862],[-73.91087683378198,40.602342354836765],[-73.91151957194401,40.60239686856954],[-73.91154234369176,40.60222454078581],[-73.91093999639916,40.60212847422264],[-73.91155529140805,40.602155464729954],[-73.91075830846505,40.60202750098357],[-73.91075123972259,40.60243729986271],[-73.90903689530533,40.60267734322033],[-73.90901848567081,40.6025248276694],[-73.91071154457035,40.60241949317849],[-73.91070633053954,40.60214451526551],[-73.90940934304595,40.60219076625809],[-73.91073123013267,40.602021376027814],[-73.90984702893728,40.60203960908955],[-73.90904083221544,40.60162520588616],[-73.90784279095395,40.60226974077191],[-73.90429966678126,40.60267077232105],[-73.90372774498887,40.60241508436924],[-73.90192868283417,40.60318272162345],[-73.9004195899776,40.60324239907364],[-73.89932620712385,40.60355074627511],[-73.89833044657819,40.60320776856821],[-73.89776531129958,40.60330506660111],[-73.89562281394231,40.60300891159018],[-73.89497375492749,40.603214833372746],[-73.8940634207042,40.603086155664236],[-73.89351580254059,40.60338645799636],[-73.89241272524174,40.60329895310978],[-73.89135659455124,40.60351788322943],[-73.89097867442402,40.603916563172284],[-73.8890994986371,40.6045101169552],[-73.88892110231124,40.60477951891959],[-73.88773089704642,40.605268270578264],[-73.88477565552678,40.605141388609894],[-73.88396434882077,40.6055491404266],[-73.88271777210468,40.604178837179525],[-73.8833636794474,40.60287745809502],[-73.88270028933873,40.60170035190825],[-73.88230056805907,40.60016855238643],[-73.88180618352285,40.59936527786279],[-73.88164249993812,40.597796018446196],[-73.88084453143227,40.596342922555046],[-73.88079981897936,40.59478884314193],[-73.87990713259003,40.592047994322606],[-73.87941617176989,40.59213200579822],[-73.87989902851933,40.59202063885226],[-73.87971492228003,40.591398891829186],[-73.87935729205896,40.59084373529768],[-73.8789689043874,40.59089677311774],[-73.87892411931155,40.59071278028166],[-73.8792932637739,40.59066143136822],[-73.87896831259086,40.58990093504847],[-73.87913901161357,40.58937320023144],[-73.87878760363468,40.58803046086918],[-73.87820200235987,40.58686794282718],[-73.87671672482074,40.584914430200975],[-73.87970231664,40.58013510069834],[-73.8817429002219,40.57959170026221],[-73.88186724526742,40.57945462578782],[-73.88174676983894,40.57915880721264],[-73.88206958203646,40.57907397869674],[-73.88306666157457,40.57904115110273],[-73.88390577992448,40.57862921204439],[-73.88613810599556,40.57813439866283],[-73.88769395836908,40.57806323884479],[-73.88812417873203,40.57872829231122],[-73.89141737067482,40.58179438993381],[-73.91852760833387,40.60611336664066],[-73.91794980567153,40.60620925234283],[-73.91560086104327,40.603936252654655]]],[[[-73.83446265620243,40.607192532942555],[-73.83573587587433,40.60579318845258],[-73.83532612639448,40.60685236297961],[-73.83474777167514,40.607264971745394],[-73.83437386502177,40.607851513919876],[-73.83446265620243,40.607192532942555]]],[[[-73.86702399475162,40.60806817876957],[-73.86874317559271,40.60703517877683],[-73.86868468826752,40.60824115818402],[-73.86777501561137,40.60853948877855],[-73.86702399475162,40.60806817876957]]],[[[-73.86966442958501,40.60654012341308],[-73.87109330768081,40.60469417399489],[-73.87105656646236,40.606285087991864],[-73.8724557981188,40.60818553034873],[-73.87300122724768,40.610555458460055],[-73.87180082867991,40.610280413580476],[-73.8710387011171,40.60972358252673],[-73.87076008541186,40.608705401410816],[-73.86966442958501,40.60654012341308]]],[[[-73.8504762496644,40.612342219057375],[-73.84967145086537,40.61210997940185],[-73.84986139375602,40.61195965025283],[-73.8495503812889,40.61145680546349],[-73.84985688093194,40.61101280421744],[-73.849604702245,40.610883950989276],[-73.84968263534667,40.61039733653072],[-73.84949618367905,40.610329408563956],[-73.85009329763288,40.6101621198813],[-73.84942148819671,40.609822060411936],[-73.84986875857045,40.60982323720406],[-73.84993173624908,40.6094285378392],[-73.85039248804989,40.60964680920278],[-73.85134775126467,40.60926678729025],[-73.85169868439945,40.60861152518973],[-73.85207814387779,40.60868907711152],[-73.85245699903214,40.608238000235694],[-73.8527690890412,40.60829653525749],[-73.85295254342435,40.60796282855121],[-73.85336754553778,40.60801067854979],[-73.85324221058985,40.60773065663136],[-73.85345111834661,40.607921553369636],[-73.8544587845092,40.60789579470978],[-73.85362640653476,40.60726470961467],[-73.8544195703025,40.607168373281645],[-73.85480411164927,40.60735408255462],[-73.85477543237154,40.60749059739743],[-73.85506642640546,40.60745986943576],[-73.85464016761341,40.60769457687133],[-73.85480521124593,40.60778541930284],[-73.85480344786893,40.60859621030309],[-73.8555495238704,40.60898251246575],[-73.85523373625963,40.60926198963548],[-73.85524868929981,40.60954326571769],[-73.85594678367828,40.609537365358364],[-73.85589039907795,40.609910045476],[-73.85620208806722,40.61006771928612],[-73.85633307890502,40.61065115271389],[-73.85659999315396,40.61083447245167],[-73.85618685108663,40.611045534577535],[-73.85536096522674,40.610414052786666],[-73.85541694900716,40.61011534043285],[-73.85322338065063,40.61013804394113],[-73.85270386202444,40.61041800216148],[-73.85196381218816,40.61024365919159],[-73.85199205714926,40.610557019234186],[-73.85263176051475,40.61098447890479],[-73.85265329597085,40.61117386961379],[-73.85245223540284,40.61094089941141],[-73.85172275100344,40.61094984741748],[-73.85196469359536,40.61119655936316],[-73.85174033534176,40.61156891273335],[-73.85142054745135,40.61177459404383],[-73.85105698906975,40.611469925203224],[-73.85086866559155,40.61179137089672],[-73.85095809094645,40.611964118669185],[-73.85069360119844,40.61198354905212],[-73.8504762496644,40.612342219057375]]],[[[-73.8447349265296,40.61396917180169],[-73.84357002441917,40.61367150671515],[-73.84346650535699,40.613557798600176],[-73.84368650259411,40.61336544009496],[-73.84343129679326,40.612971573746414],[-73.84264184886561,40.61317296630633],[-73.8418365785253,40.612688153049206],[-73.84150944621463,40.6123191599892],[-73.84157790018278,40.611825728049375],[-73.84070815291503,40.61163403860386],[-73.84067468895502,40.611446322137276],[-73.84034105597392,40.612041937204154],[-73.83980202182961,40.61236165954316],[-73.83911211112063,40.61246645077382],[-73.83871375352228,40.611994798841614],[-73.83879592263226,40.61279609459317],[-73.83817706043442,40.61308044415503],[-73.83738243759748,40.61300881923233],[-73.83623621146896,40.612270106413355],[-73.83697075068265,40.61111104264753],[-73.8375222398563,40.61085865099507],[-73.83746087176601,40.610156730594554],[-73.83781022726313,40.610050115433324],[-73.83811850421529,40.60948146250599],[-73.83832028334726,40.60950738452322],[-73.83851857902539,40.60923526170363],[-73.83887080449495,40.60790579854277],[-73.83900957546422,40.60790278816522],[-73.83910109566169,40.60831311998151],[-73.83960208679136,40.608063851952664],[-73.839778171914,40.608282018632266],[-73.84004319893226,40.60823431708715],[-73.84009612003635,40.6089618619645],[-73.84049656815607,40.608555418914335],[-73.84043418347474,40.608266907726296],[-73.83935927868202,40.607614852162705],[-73.83999441447739,40.60753562023483],[-73.83994009594252,40.60739133220606],[-73.84051299620124,40.606959491061],[-73.8410132010961,40.607033892937174],[-73.84136277623604,40.60679402201463],[-73.84126735294898,40.60625229232223],[-73.84096922217734,40.60607882610321],[-73.84046123558412,40.60621171801006],[-73.84041971570531,40.60577091134669],[-73.84059798357703,40.60540341695499],[-73.84075174158696,40.6056429328381],[-73.84122845055781,40.60552788857446],[-73.84126815167252,40.605335660292454],[-73.84105540558126,40.60521145002678],[-73.8413416134941,40.60509220290225],[-73.84112952895705,40.60469025115884],[-73.84148878849291,40.60449846406891],[-73.84185810591522,40.60479380720186],[-73.84235229882547,40.60443983055617],[-73.84276147820151,40.60447457477723],[-73.8429583110585,40.60421419321563],[-73.84326616483003,40.60442398910334],[-73.84360284156203,40.604296258989024],[-73.84356389803281,40.60416801656279],[-73.84442729406358,40.604156369842975],[-73.8444940021314,40.60435984206827],[-73.84361933184951,40.60439711213906],[-73.84339160774019,40.604682022587376],[-73.84270633510347,40.60463942508026],[-73.84266745807614,40.60507841865356],[-73.84243674789904,40.60484415828302],[-73.84193617890355,40.60492999800466],[-73.84243149925095,40.60528640270289],[-73.84296601844633,40.60506921296433],[-73.84282386345684,40.60472611342593],[-73.84318520728854,40.60483877225728],[-73.84334840245262,40.60517549034974],[-73.84338248378366,40.60498645901796],[-73.84382294802926,40.60542930881653],[-73.84356547344113,40.60584877756046],[-73.84390053212176,40.606416467895514],[-73.8439393868358,40.60598388428458],[-73.84370849739653,40.60582333395684],[-73.84405417411347,40.60544564696518],[-73.8436471057611,40.60510539304712],[-73.84360600408634,40.60470154237203],[-73.8437956826357,40.60450310802718],[-73.84406885474431,40.60456116367667],[-73.84460595564508,40.60503618991778],[-73.84469167618292,40.60614513921476],[-73.84433083108163,40.60581456471064],[-73.84411200151072,40.605891181152565],[-73.84457707891998,40.606603258847294],[-73.84462396639938,40.60633092111961],[-73.84529688836992,40.6062677344879],[-73.84529758641607,40.6059664914502],[-73.84504974750597,40.60586040203707],[-73.84539488991904,40.60571024492036],[-73.84505052104093,40.60552711190519],[-73.84530733227726,40.60538965577427],[-73.84498383295978,40.60527384934083],[-73.8449390597056,40.60503253416725],[-73.8458150644845,40.60516079908739],[-73.84627027297309,40.60471168328827],[-73.84674609627481,40.60510477794445],[-73.8474674283526,40.605082477588134],[-73.84742791242121,40.60567275969782],[-73.84717640379675,40.60569809154006],[-73.84727265830858,40.60582270280001],[-73.84667159949511,40.606037930878536],[-73.84683155183185,40.60579816028083],[-73.8465845158443,40.60583077007336],[-73.8466119783197,40.606092606766694],[-73.84590992090648,40.606292296735695],[-73.84624922115569,40.6064112457665],[-73.84617769070933,40.60676235543532],[-73.84663402795712,40.60675612085462],[-73.8463532711398,40.60705005746419],[-73.84653149019094,40.607167079223245],[-73.84640264726856,40.60730165693936],[-73.8465556255419,40.60716711144749],[-73.84639932928064,40.60703600200366],[-73.84668932762482,40.60687254991515],[-73.84663327563298,40.60659484745168],[-73.84684289060985,40.60672773812025],[-73.84689095135003,40.60657423007095],[-73.84622437960576,40.606717929672655],[-73.8464444171341,40.60622328370934],[-73.84766138110969,40.60591916707134],[-73.84884425387513,40.60636822064653],[-73.84964678348605,40.60605020405717],[-73.84962233759806,40.60666532718726],[-73.84934720205594,40.60674338247309],[-73.84921460542031,40.60654446593483],[-73.84875699281393,40.60651817724072],[-73.84850613375846,40.60684232443208],[-73.8480611333172,40.606729521895126],[-73.8482345963592,40.60709082239392],[-73.84754585891254,40.606979708799926],[-73.84698052398959,40.60751299394267],[-73.84682444495,40.60806318970009],[-73.84620410685498,40.60791965871208],[-73.84559766249687,40.60832263957468],[-73.84486233812142,40.60808770468991],[-73.84550051039149,40.60851158790463],[-73.84627897022372,40.608278687452874],[-73.84582825516895,40.60861778401486],[-73.84595392385506,40.60882625854857],[-73.8455532700862,40.60933527146455],[-73.84574157868046,40.609732909224384],[-73.84538823525133,40.609783709973854],[-73.84567799102447,40.60995394921972],[-73.84542106652405,40.61013306832753],[-73.84573576651385,40.61042832530272],[-73.84552961311631,40.61047291494108],[-73.84575180106383,40.61076804699298],[-73.84552465911474,40.610796584284934],[-73.84573342635628,40.61144101397879],[-73.84499023698805,40.610956101147266],[-73.84485550137117,40.61102962769752],[-73.84525812420053,40.6114916500825],[-73.84507534677593,40.61233424478482],[-73.84570908154606,40.612876694091455],[-73.84530071986596,40.61307163368592],[-73.84542329904387,40.613155496169966],[-73.84525671235063,40.6132698531058],[-73.84532526151003,40.61354676538],[-73.84564426528216,40.61369219588334],[-73.8447349265296,40.61396917180169]]],[[[-73.8337015227225,40.62097860134445],[-73.83401888134368,40.61438116692243],[-73.83542288683323,40.61461045443601],[-73.83551649420131,40.614948746412274],[-73.83585572623761,40.615208999053124],[-73.83634403495032,40.615119337102946],[-73.83628443659842,40.615232255020096],[-73.8365081016467,40.61529584208595],[-73.8366362635533,40.61514552697853],[-73.83776702143366,40.615522231418936],[-73.83690989150001,40.61615094961795],[-73.83644029720075,40.616170402327526],[-73.83527378301088,40.617247221955516],[-73.83496222645583,40.61778030881201],[-73.8351689232542,40.61803702429246],[-73.83496079783824,40.61853293069681],[-73.83535650781207,40.61871309017998],[-73.83570733216762,40.619729166952155],[-73.83551236293488,40.61995810614547],[-73.83522937910513,40.61995819493337],[-73.83495815063698,40.61983928773392],[-73.83513270384407,40.619513248306966],[-73.83488922611886,40.61960685655538],[-73.83479652145606,40.61992447145719],[-73.83531201853506,40.620145371311516],[-73.83490436791972,40.62046937856204],[-73.83454605781618,40.62037355796862],[-73.8347232100316,40.620220053760036],[-73.83439058638054,40.619853601887186],[-73.83380075580924,40.61964562068974],[-73.83411210594413,40.619846847329796],[-73.83407163758129,40.62002596263816],[-73.83423038839877,40.619895305537035],[-73.8344733045855,40.62012184765708],[-73.83419931385158,40.62032095835601],[-73.83428021757882,40.62064765471155],[-73.8337015227225,40.62097860134445]]],[[[-73.89772094578032,40.62178543800932],[-73.89647475412373,40.62142824659172],[-73.8962884780292,40.62073649997477],[-73.89622243312272,40.62084022100965],[-73.8957180308928,40.62021131655519],[-73.89561044677656,40.619350533384626],[-73.89585293851337,40.61914461936801],[-73.89608357746044,40.61838279088457],[-73.8964534797444,40.61807557101057],[-73.89664335225311,40.61734771264503],[-73.89646002707876,40.616129874393245],[-73.8961705245914,40.61600118370384],[-73.89617336977584,40.61565449123118],[-73.89573445152966,40.6148877471203],[-73.89602881667842,40.614804600052196],[-73.89586112894187,40.61451813749493],[-73.89427581408074,40.613882643750905],[-73.89249926249686,40.61379231168137],[-73.8913402845188,40.61325620690075],[-73.89095414564684,40.612834047317286],[-73.8914143047419,40.61212544769968],[-73.893932400722,40.61153659672437],[-73.89394013317663,40.611181426651406],[-73.89358085539405,40.611165725460786],[-73.89354938853043,40.61100089763662],[-73.89189389086525,40.611534670747474],[-73.89099709323193,40.61205245241639],[-73.8910779463262,40.61227686186869],[-73.89033390698192,40.61201147372946],[-73.8896963184647,40.61145355959244],[-73.88978451776195,40.61095524400554],[-73.8903021138949,40.610317656862705],[-73.89194461446813,40.60910225214848],[-73.8919820446748,40.6093849739409],[-73.89176940682312,40.609519268959424],[-73.89226735458972,40.60916527314685],[-73.89237210877518,40.60872812515536],[-73.89222320409768,40.608627086857716],[-73.89242327207616,40.608558243241475],[-73.89217035937482,40.608544721357475],[-73.89248324041495,40.60815330506749],[-73.89272944999252,40.607227192316664],[-73.89334621420018,40.60674344623483],[-73.89486168368417,40.606404763205994],[-73.89591344424802,40.605844711276625],[-73.89850211043296,40.60529669018305],[-73.8994804773002,40.60561302065802],[-73.90017063006057,40.60562514266389],[-73.90106340829078,40.606933287930104],[-73.90077753255865,40.607543491485885],[-73.90062485357967,40.60924267547513],[-73.90027950007605,40.61007401017643],[-73.90140646036211,40.61108804387789],[-73.90136619823114,40.61170184064235],[-73.90163551104794,40.61185066483028],[-73.90200357539973,40.611743024169414],[-73.90229090771793,40.611960641229054],[-73.90249392985298,40.611814999032454],[-73.90119253465448,40.61056381754676],[-73.90132962659406,40.61048104310346],[-73.90124836865569,40.61058027449926],[-73.90265077946786,40.61178062116436],[-73.90236032096212,40.61198041218273],[-73.90271854260655,40.61182602529611],[-73.90292666983436,40.61215944197659],[-73.903043928125,40.61209521498742],[-73.9029175037036,40.61218654344876],[-73.9026291824535,40.611925809170984],[-73.90242274717579,40.61203356000492],[-73.90418982390513,40.613564560182134],[-73.90347276540102,40.613986613168095],[-73.9021304041059,40.612780001263616],[-73.90137286225823,40.61327748205365],[-73.90270713357233,40.61447684356922],[-73.90199454057468,40.61493785515041],[-73.90067167845098,40.613744645266365],[-73.89855614228597,40.61514867350315],[-73.8998526238614,40.616322253880284],[-73.89910919267335,40.61680033055168],[-73.90274447177373,40.620067870708574],[-73.90016300924003,40.62167709424432],[-73.89772094578032,40.62178543800932]]],[[[-73.83478032317485,40.62262549414095],[-73.83413865340533,40.62235218099248],[-73.83362242002327,40.622602638829676],[-73.8336821495259,40.6213813056866],[-73.83400742535407,40.621034836832415],[-73.83498716099355,40.621011299889034],[-73.83475105045636,40.62126180654433],[-73.83486060431099,40.621526206066484],[-73.83464424766935,40.62199681592385],[-73.83501827177601,40.62268110453554],[-73.83478032317485,40.62262549414095]]],[[[-73.85023090762984,40.62332082311965],[-73.8501636457728,40.623134103660064],[-73.84978514487923,40.623051344946965],[-73.84939485574913,40.622479887288115],[-73.8484637152501,40.62236570273235],[-73.84908080628236,40.62168874605194],[-73.84902326277842,40.62148239301887],[-73.84982292634618,40.621299264718594],[-73.85025706410784,40.620999009046734],[-73.8501897562307,40.620834391263884],[-73.85048934201063,40.62089248950174],[-73.85085107926835,40.62024715775812],[-73.85110163609774,40.62037607516773],[-73.85135147673974,40.620139804277954],[-73.85205856119597,40.620285510411826],[-73.85346708738338,40.62019768204293],[-73.85402211708094,40.619868098662316],[-73.85491444701013,40.620033759074666],[-73.85545637622923,40.619797468087874],[-73.85614274027883,40.61983148069612],[-73.85655155624741,40.61956732249798],[-73.85676349057306,40.62040565790134],[-73.85740170805201,40.62030367412881],[-73.85737438695485,40.62064703668125],[-73.85700061428494,40.6207478689312],[-73.85705951904066,40.621021858479104],[-73.8566044357914,40.62114287959092],[-73.85674630838842,40.62129927424605],[-73.85656816105036,40.62147874841102],[-73.85635024348642,40.62141616943519],[-73.85596286045433,40.621797029640646],[-73.85532981555693,40.621688184739995],[-73.85517130927302,40.62195933773944],[-73.85499897723507,40.62191860194379],[-73.85496895343452,40.621645983336194],[-73.85464356472856,40.62159400376662],[-73.85451155864425,40.62079573981057],[-73.85358897081754,40.62046182354709],[-73.85185329658597,40.62056519378257],[-73.85166422395281,40.62080929055363],[-73.85140319498326,40.62080281451023],[-73.85129292955062,40.62183651392837],[-73.8523603825202,40.62297487051674],[-73.85189830362783,40.62279378345619],[-73.85179555742954,40.62334617989791],[-73.85133280538092,40.62346713842758],[-73.85089814828942,40.62327380528577],[-73.85024804081058,40.62358483157836],[-73.85023090762984,40.62332082311965]]],[[[-73.83359339215617,40.623594979413554],[-73.83363582579899,40.62395529191149],[-73.83359339215617,40.623594979413554]]],[[[-73.86212401541204,40.6239903724401],[-73.8622342709098,40.623815594688075],[-73.86249048285127,40.623916381264586],[-73.86271128044642,40.623425409922646],[-73.86303876770805,40.623302991769556],[-73.86350742741004,40.62340961138647],[-73.8637773910003,40.62395140755835],[-73.86343316829664,40.62389703760004],[-73.86343498174926,40.62420406198444],[-73.8631497749989,40.62395066218016],[-73.86264913337713,40.62395750728231],[-73.86244553857973,40.62422888438631],[-73.86206472231282,40.6243215133875],[-73.86212401541204,40.6239903724401]]],[[[-73.84589458446978,40.62497181581657],[-73.84476545398071,40.62485456957348],[-73.8447785733916,40.62423737902384],[-73.84383598677579,40.624292482224035],[-73.84389163279884,40.62381184708874],[-73.84322216416943,40.623653666388776],[-73.84293864765408,40.62332390397683],[-73.84333966395016,40.623368961249525],[-73.84428323440886,40.62295497377531],[-73.84536704025804,40.62304856573115],[-73.84509933511251,40.623423073598765],[-73.84553977722709,40.62407491874177],[-73.84521039692662,40.62407447573481],[-73.84520557917331,40.62435403207069],[-73.84580124498063,40.62459627297529],[-73.84599959134697,40.62503565003241],[-73.84589458446978,40.62497181581657]]],[[[-73.85777441018638,40.62482353414757],[-73.85790133312423,40.62484600460814],[-73.85784133903826,40.62519091321788],[-73.85765508760225,40.62530956095604],[-73.85733486430799,40.625145639546396],[-73.85777441018638,40.62482353414757]]],[[[-73.84048472674716,40.62749528852797],[-73.83973161387786,40.62732476435724],[-73.83977377091148,40.627497543116014],[-73.83946700887878,40.62729384076303],[-73.83965193611722,40.62697502854338],[-73.84014683702847,40.6267911939489],[-73.84072122115312,40.62586474512187],[-73.8408439003418,40.626137895264485],[-73.84168672317135,40.62639653117546],[-73.84179066548751,40.62658925398742],[-73.84150723038405,40.62678144333081],[-73.84238178647995,40.627440786271855],[-73.84044645651664,40.62658622483699],[-73.84014537016267,40.62698638743479],[-73.8406690439082,40.62741364440134],[-73.84048472674716,40.62749528852797]]],[[[-73.86872915290883,40.61735678500349],[-73.86956238965767,40.617247092464865],[-73.87395306206889,40.6158394157332],[-73.8779807086464,40.61579829287851],[-73.87862188757221,40.615935378690615],[-73.87951577316615,40.61656151979661],[-73.87972389608112,40.61695959318424],[-73.87978055533652,40.61863064242991],[-73.87937556321155,40.619857884714634],[-73.87779098888922,40.62165224205812],[-73.87662629717896,40.622230728717426],[-73.87481386865043,40.62358718918384],[-73.86645484055246,40.62825538680725],[-73.86547078432991,40.627935956198215],[-73.865187862763,40.62766280991856],[-73.86472766045426,40.62652554191369],[-73.86498193495922,40.62566070604117],[-73.86553589061393,40.6252419882166],[-73.86586582154153,40.62438982754583],[-73.8662690623231,40.62417431936559],[-73.86650860322545,40.623754008018096],[-73.86637583649498,40.62300361314219],[-73.86522936181831,40.621888282031385],[-73.86493256071745,40.621114958885016],[-73.86500830120069,40.62054668315783],[-73.86541855960235,40.619836027892894],[-73.8653387669192,40.619421710281095],[-73.86575831319405,40.618501449958124],[-73.8668486744204,40.61780931410806],[-73.86872915290883,40.61735678500349]]],[[[-73.84813977022664,40.62854270458837],[-73.84840686666027,40.628568977809394],[-73.84846848249634,40.62879314116168],[-73.84812593674316,40.628840444805526],[-73.84813977022664,40.62854270458837]]],[[[-73.84851993565123,40.63056102427568],[-73.84843274101267,40.63045941351083],[-73.84868437801534,40.63045904016141],[-73.8486937426674,40.63061270593681],[-73.84851993565123,40.63056102427568]]],[[[-73.853000146445,40.63202284225355],[-73.85256652765563,40.63124405035102],[-73.8516673995187,40.630870507387066],[-73.85187979307206,40.63050831942945],[-73.85246665046598,40.630342507147134],[-73.85366230517194,40.63087608326507],[-73.85509269644037,40.630110151173774],[-73.85679676428845,40.62984147336591],[-73.85775996792927,40.629941398696715],[-73.8585583634798,40.63045828819579],[-73.85809624947116,40.63124990598199],[-73.85816366672086,40.63197386055348],[-73.85758486742999,40.63271617553651],[-73.85535471793558,40.63281225942451],[-73.85496742335603,40.63341655452596],[-73.8543461721584,40.63372263130504],[-73.8532781866585,40.633851843651435],[-73.85241247454138,40.63364349814306],[-73.85231335377057,40.63322025396081],[-73.853000146445,40.63202284225355]]],[[[-73.84638458909977,40.63528576768905],[-73.84662440349443,40.63519422920225],[-73.84676272247238,40.6343614882933],[-73.84759945272117,40.63348728968415],[-73.84782653480777,40.63277973665493],[-73.84913692498479,40.632109389268024],[-73.85005000280401,40.63217364309566],[-73.84988187676963,40.63409658475863],[-73.8488553080005,40.635435435681664],[-73.84827983562192,40.637471560402794],[-73.84764555888744,40.63827969141861],[-73.84667914840229,40.63873171175726],[-73.84604982095271,40.638465930307646],[-73.8454475443692,40.637370220554104],[-73.84427265333407,40.63669234592974],[-73.8450180413497,40.63568082143157],[-73.84638458909977,40.63528576768905]]],[[[-73.86627174135589,40.6830340683551],[-73.86601993220731,40.681919587028176],[-73.86410096679134,40.68237285029281],[-73.86328297030434,40.679079370673605],[-73.86234580535127,40.679164785644474],[-73.86114396102506,40.67433014745016],[-73.86207432577108,40.674207957899995],[-73.86168953236569,40.672664885375475],[-73.86077512857382,40.67280562274188],[-73.86038519920734,40.67125171099068],[-73.85947416458082,40.67138053153496],[-73.8598673569897,40.67294534318861],[-73.85892432971283,40.673071397409956],[-73.85855466688884,40.671518146103146],[-73.85763323174372,40.67165619403902],[-73.85568461221035,40.663867492875696],[-73.8527962214002,40.664249983873205],[-73.8523825709602,40.66257470707415],[-73.85047734159453,40.66284191090038],[-73.84950500080934,40.66244081528677],[-73.84881344454686,40.66280413465528],[-73.84841166567048,40.662556369033275],[-73.84731358086633,40.65810816878897],[-73.84639133749879,40.658239470048464],[-73.84680333249008,40.65991486593975],[-73.84220418892527,40.66057663476852],[-73.84261658643214,40.66224830915668],[-73.84081776353067,40.66250616406962],[-73.84041788330096,40.660830321930014],[-73.8397254035298,40.66095065937743],[-73.83592320139142,40.645499791178665],[-73.83633074787276,40.645321149280676],[-73.8386089610291,40.64534790831288],[-73.84039185359002,40.644887914529384],[-73.84126005446507,40.64488479363774],[-73.84579484060227,40.64410150925752],[-73.84950699084176,40.64413376567895],[-73.85207628474056,40.64617614809116],[-73.8524319963248,40.64715929523086],[-73.85172587398132,40.648912154569956],[-73.85137202165077,40.64917990359891],[-73.8509055246141,40.649168196000545],[-73.85078185995906,40.64980609272553],[-73.85058099294757,40.64986220594798],[-73.85058665633542,40.65033798099515],[-73.85037708349654,40.6502744998758],[-73.85042261012721,40.65047699482562],[-73.84925726840824,40.651031532551066],[-73.84936074751855,40.65139383119375],[-73.84992253316291,40.65165796360385],[-73.85078499726184,40.65153285190447],[-73.8514911636992,40.651197973180075],[-73.85178606559366,40.65081563938234],[-73.85250949611584,40.65055140367126],[-73.8540332948805,40.65066031157172],[-73.85495939543755,40.65096843624971],[-73.85525081124445,40.65127037487834],[-73.85605277954849,40.651398891474166],[-73.85671288977001,40.65280166451748],[-73.85705388345801,40.65296670001528],[-73.85772331773968,40.652726229071845],[-73.85828132383817,40.65299487215201],[-73.85875807991698,40.65416162683264],[-73.85915498446028,40.65440246887124],[-73.85932735900943,40.6549405703952],[-73.86136381950391,40.65641475416545],[-73.8613603836126,40.65659420520724],[-73.86061669329688,40.65646465720711],[-73.86020839500954,40.657010374949245],[-73.8600677781954,40.65677986104971],[-73.86005569574453,40.656972255155544],[-73.85983363521488,40.65697706322063],[-73.86007499798225,40.657048611080185],[-73.85981027609678,40.65732241149387],[-73.8599389727954,40.65772017715055],[-73.85955850406121,40.65808366429431],[-73.85967919564258,40.658492276451646],[-73.86025847890083,40.65862971173924],[-73.86021585290148,40.65889590255416],[-73.86045182990571,40.65879671932188],[-73.86051208600026,40.65849767194643],[-73.86098077532198,40.658381303388566],[-73.86049000486244,40.658994143594285],[-73.8606494405176,40.65932152672383],[-73.86132276468818,40.65851493216602],[-73.86124850937952,40.65822408602463],[-73.86093499368775,40.65805606752885],[-73.85976839588906,40.658281936345944],[-73.8605764621807,40.65783458980614],[-73.8604071420188,40.65776134156833],[-73.86035030672483,40.657226067167805],[-73.86062372337481,40.65720545608306],[-73.86087003515479,40.65690897537276],[-73.86161371163618,40.65699651025297],[-73.86172714514386,40.65803365399336],[-73.86300202201289,40.657488116627455],[-73.86327623068608,40.65694121532833],[-73.86303937654394,40.65674328161262],[-73.86299057835198,40.656373994570494],[-73.86320115405671,40.65634937819366],[-73.86264117343165,40.65566753700785],[-73.86173355547592,40.655295221774196],[-73.86072015717333,40.6551971834431],[-73.85979242750736,40.65447615737718],[-73.85898002913167,40.652675457834874],[-73.85731941515513,40.651237099008036],[-73.85695870357813,40.650587373975306],[-73.8575526806712,40.64993257596552],[-73.85783469416329,40.64830233828782],[-73.85837605317673,40.64727441531365],[-73.85716978298213,40.643678558886165],[-73.85894097563549,40.643217036227796],[-73.86201301027748,40.642887041020266],[-73.86289463224388,40.642550679682635],[-73.86531173665126,40.640751191443975],[-73.86670411973779,40.64002176349559],[-73.8662847677707,40.63947288369331],[-73.86681528201251,40.63996352766691],[-73.86732291072713,40.63987198395302],[-73.86867282895088,40.64092507920359],[-73.86991239339434,40.64327820299374],[-73.87001708273581,40.64407137240561],[-73.8706149246106,40.644856741886926],[-73.87119172949545,40.645305356815214],[-73.87257043102892,40.64557561235981],[-73.87921658230898,40.65459108377317],[-73.87971979034303,40.654375929776506],[-73.87676193956312,40.65056095449532],[-73.87318593330954,40.645445013361794],[-73.87344344510453,40.64467191424094],[-73.8732703125524,40.643903214345094],[-73.8729732073257,40.64383923106545],[-73.87275635704988,40.643248964654966],[-73.87194880116554,40.64239408453892],[-73.87084503422274,40.64055662018334],[-73.87008544224426,40.639844181366435],[-73.87007958407015,40.63921169401717],[-73.86989583386149,40.63893452942232],[-73.8679970966813,40.63811526520981],[-73.86960972136565,40.637085534608914],[-73.8692084611064,40.63746580926118],[-73.86955902490303,40.63794748432769],[-73.8730677717611,40.636334865499585],[-73.87347939154407,40.63628554630156],[-73.87480874516432,40.636844458323125],[-73.87711428484626,40.63864148659316],[-73.87856413386811,40.63904355660802],[-73.87861705200106,40.639365265410405],[-73.87930954529786,40.64006707426914],[-73.87989404397653,40.64036327915739],[-73.88025625666039,40.64097010903616],[-73.88048386922625,40.640978034547665],[-73.8807362354642,40.641565957973356],[-73.88029248068572,40.64140491573332],[-73.88002616426265,40.641718113296164],[-73.88006714132425,40.64200344662691],[-73.88152855846558,40.64245168609184],[-73.88224108165657,40.64345349240925],[-73.88214832562572,40.64374372784077],[-73.88341999203027,40.64452381564966],[-73.88480750411128,40.643946303680444],[-73.88557762148994,40.64404094978996],[-73.88743444708422,40.64593668177392],[-73.88766589229476,40.64650492455406],[-73.88772611233226,40.64714302920005],[-73.88751623247263,40.64741516069443],[-73.88771211156097,40.64787443463672],[-73.88863638434101,40.64802449261584],[-73.88924677936025,40.64874565360693],[-73.89013023724257,40.64934907635878],[-73.89033529141227,40.64934776900215],[-73.89013701016974,40.649170412116625],[-73.89034734693776,40.64903360577827],[-73.89087180795609,40.64937802400193],[-73.89118832603002,40.64916297251262],[-73.89087444305507,40.64854570385259],[-73.8894146948438,40.647128704344226],[-73.8894815257607,40.646912755068406],[-73.88879690848671,40.64605025805653],[-73.88941387285534,40.64693843949173],[-73.88889569015318,40.64721881890873],[-73.88861004869386,40.647081360932106],[-73.88851637568523,40.64736069152213],[-73.88820050726657,40.647140869529274],[-73.88818990838847,40.64677356952407],[-73.88845015102358,40.646728552538],[-73.88853549293229,40.64696814919857],[-73.8886418159309,40.646785112948955],[-73.8880813888399,40.64662057013149],[-73.88809441935732,40.646212786549505],[-73.88828981420744,40.64604421554579],[-73.88800052027007,40.6460277053548],[-73.88740960156501,40.645329280124386],[-73.88791690723538,40.645067549205564],[-73.88808383164908,40.64516423112911],[-73.8879640644287,40.64503257382952],[-73.88734361665684,40.645224153871204],[-73.88691203454515,40.64447377760806],[-73.88654888955999,40.6443124903786],[-73.88623646791807,40.64381678772118],[-73.88469181436618,40.64312114697254],[-73.88373578763786,40.642450349188586],[-73.88078889725645,40.63975743313829],[-73.88055123882256,40.63915881973746],[-73.87953888017081,40.63821783932087],[-73.87896686071142,40.63845954369572],[-73.87863863908075,40.638293606260426],[-73.87838402330213,40.6379041080906],[-73.87858034238158,40.63751875659366],[-73.87780952677333,40.63688186427539],[-73.87714434868597,40.63597649800772],[-73.87820590489783,40.63457294366278],[-73.87998767503844,40.633514883481205],[-73.880376294891,40.63298026236348],[-73.88127068104541,40.632369119161226],[-73.88301362103512,40.631626149535556],[-73.8836445172823,40.63094331213879],[-73.88376932796376,40.630221761342554],[-73.88345412923383,40.6299076704376],[-73.88404726149385,40.62956011854668],[-73.88263248433402,40.628274273127076],[-73.88369231571589,40.6275593734116],[-73.8851295402378,40.62882725867158],[-73.88572167037314,40.628446715223916],[-73.88630687607846,40.62867770539395],[-73.887526737062,40.62833182448268],[-73.89042299743556,40.62627859879789],[-73.89148720748321,40.62448172241535],[-73.89300558864396,40.62335646859359],[-73.89351878316701,40.62335269284893],[-73.89548467972035,40.62248556837461],[-73.91446070959807,40.630994831285555],[-73.9160608002163,40.63203405036628],[-73.91663611993741,40.632034170598445],[-73.91719515076525,40.63173820625061],[-73.91860224806052,40.63206832825392],[-73.9191718039419,40.63746984127264],[-73.92014216919887,40.63698888588514],[-73.92042366976342,40.639619829782966],[-73.91946141154885,40.64023929345102],[-73.91995063032971,40.64470763073511],[-73.92174139439848,40.64338173238141],[-73.92191647741882,40.644909698607975],[-73.91997852225519,40.64503237634482],[-73.92089764689253,40.653625106385086],[-73.92540699914292,40.65767996986044],[-73.92464345614502,40.658183158320995],[-73.93068465493135,40.663620476270374],[-73.92439099384752,40.666381423278004],[-73.92209902558534,40.6642513320838],[-73.92232014484281,40.66534832952257],[-73.92136576611583,40.66549200700355],[-73.92097208151294,40.66395334887843],[-73.91909681470982,40.664230484459814],[-73.91870267616935,40.66269454734688],[-73.91774847452247,40.662836456527295],[-73.91735395361127,40.661296371773815],[-73.91643454325641,40.66143208076954],[-73.91603992100359,40.65990008661795],[-73.90946078795952,40.66087582193437],[-73.90985632468598,40.66241136141969],[-73.90042827387184,40.663807998267515],[-73.90347422276484,40.675506683277334],[-73.90004626208514,40.67689308953851],[-73.89653676543693,40.67859358116543],[-73.89621773666615,40.67735818427265],[-73.8890056975244,40.67855704427478],[-73.88859260468422,40.67695622207183],[-73.86630263853499,40.683186694603144],[-73.86627174135589,40.6830340683551]]]]}}]}