{"type":"FeatureCollection","features":[{"type":"Feature","properties":{"district":"14"},"geometry":{"type":"MultiPolygon","coordinates":[[[[-73.80784387577566,40.71599973406748],[-73.80763704282403,40.71502492654294],[-73.8128939552876,40.71497131988463],[-73.81286658914189,40.714256475430155],[-73.81244048540086,40.71287901644068],[-73.81245086117104,40.712114353569376],[-73.8111564916949,40.71174689885773],[-73.8104501670836,40.71187007330837],[-73.81035571720987,40.711138313939905],[-73.80830340424731,40.71172107540204],[-73.80802621679192,40.710851745370576],[-73.80717925052495,40.7096029117217],[-73.80804630832019,40.70935682763498],[-73.80728801011863,40.70806217128863],[-73.80399310771654,40.7089170852526],[-73.80302414740676,40.708139657094485],[-73.80165725607898,40.70576147590154],[-73.79542560262963,40.708049895529264],[-73.79487770976857,40.70720269001518],[-73.79167433178816,40.70837881697611],[-73.79079593259964,40.70686979105692],[-73.78957039436932,40.707221521839585],[-73.7888500556196,40.70550269732621],[-73.78337149554442,40.70683163579102],[-73.7831351316554,40.70629796926397],[-73.7885832606054,40.70485493701972],[-73.78833574161796,40.70425320786761],[-73.78456114761187,40.70518919140605],[-73.78434954007155,40.70478999728025],[-73.7822969710479,40.70546364800319],[-73.77802243076852,40.70560341837508],[-73.77582076071026,40.70537390653655],[-73.77732013378609,40.708925183256966],[-73.77629893096226,40.70903970295196],[-73.7713009594409,40.71044968658225],[-73.7706583896328,40.710818843684514],[-73.76916890390841,40.71220814217928],[-73.7676306204466,40.71302048944424],[-73.7663004724806,40.713278919031154],[-73.75531448103415,40.713568327489575],[-73.74935642100006,40.71514244979451],[-73.73642646309158,40.71805791216699],[-73.73314837185043,40.71958572856476],[-73.73032628902038,40.72215729678346],[-73.72917629515445,40.7191672145619],[-73.7269714678306,40.71071450403362],[-73.72678961229161,40.70194545236917],[-73.72620259742762,40.68898434081086],[-73.72579787942314,40.68435384982523],[-73.72590660060473,40.682656605126816],[-73.72563005119694,40.679587951284134],[-73.72629437250846,40.677058112805426],[-73.72755616356449,40.67416158819172],[-73.72826620785708,40.66660628634426],[-73.72970382256926,40.6669074841149],[-73.72975287460382,40.666718489247536],[-73.73139818807036,40.66725280301255],[-73.73191953149878,40.666555712021065],[-73.73640088120376,40.66656849533368],[-73.73625791641037,40.66627027835185],[-73.73842853921347,40.66627038974903],[-73.73849170581425,40.66641540562967],[-73.75336722863186,40.666400625659456],[-73.75487242765489,40.66698271423417],[-73.75526231167032,40.66639476697986],[-73.7576312961815,40.66645115660721],[-73.75731692780398,40.66704031588051],[-73.7591213808787,40.66735162776224],[-73.75860944725987,40.66920222849073],[-73.75881985152914,40.669530980931974],[-73.75895066555432,40.67097806399685],[-73.75817470540463,40.671013573611134],[-73.76047002833862,40.67227592176066],[-73.75849761584008,40.67264844499452],[-73.75861795554917,40.673040833039664],[-73.75880484963699,40.673005654862365],[-73.76031464000941,40.675109971379506],[-73.76114911212633,40.67476362080597],[-73.76162534752355,40.67541780851569],[-73.76339040591826,40.674681117555],[-73.7636767757841,40.67474552572684],[-73.7632492074976,40.67678980375271],[-73.76191764426106,40.678881831946235],[-73.76161350241561,40.67972794215601],[-73.76715533301297,40.68237709337279],[-73.77240015728715,40.68527961596876],[-73.77661911985217,40.68836372355078],[-73.77795771784142,40.68791093228147],[-73.77891249600707,40.689570647250065],[-73.78148675684056,40.688697183316116],[-73.78242712347496,40.690344369787695],[-73.78698344486996,40.68860847697074],[-73.79038468230088,40.68775361379837],[-73.7906753971632,40.688150523048684],[-73.79234694020559,40.68738618120364],[-73.79598353797927,40.69248269316054],[-73.7964304005146,40.692296770992286],[-73.79758092586427,40.69388287927427],[-73.79791856270201,40.69369142895583],[-73.79910304804795,40.69531539328713],[-73.80141698338343,40.69406665801585],[-73.80211252615815,40.694544498944055],[-73.80295940045589,40.69381747113083],[-73.80376109826524,40.69437653859486],[-73.80463427512485,40.693638368213655],[-73.80543469396615,40.69418179803252],[-73.80629728084726,40.69345253844063],[-73.80712883525305,40.69401354366789],[-73.80752656968907,40.69368728594604],[-73.8083405692094,40.69496804172586],[-73.81089570276937,40.69424288685202],[-73.81013627571362,40.69287454755677],[-73.81064678836957,40.69273003568377],[-73.81026958007322,40.69204524900046],[-73.8109881050938,40.69185504473344],[-73.81432315542573,40.69785490228931],[-73.81416657482868,40.69787986416459],[-73.81647531259802,40.70245042691698],[-73.82120263744741,40.702009159760486],[-73.82147824879263,40.7034156042513],[-73.8224589041013,40.70365553128476],[-73.83152109606644,40.70138962879893],[-73.83282474783668,40.70437101350923],[-73.83552298149094,40.703692843447506],[-73.83597534682144,40.70343215795197],[-73.83661882132142,40.70342001787204],[-73.8381363534196,40.706182028808755],[-73.83808137874298,40.70656204347424],[-73.83714702988892,40.70795704626353],[-73.83828428836244,40.708409358626035],[-73.84412030025172,40.7093782987125],[-73.84328240295811,40.71116558701895],[-73.84256681787964,40.71090852272714],[-73.84218069473012,40.71155306748217],[-73.84435590735305,40.71235002021647],[-73.84602682077472,40.70968873203776],[-73.84723748536841,40.70987604817703],[-73.84667944618458,40.7108219253338],[-73.84775221152398,40.7112140084464],[-73.84847384819426,40.71007908237011],[-73.85091563338545,40.71047121931882],[-73.84911981706169,40.7132995674306],[-73.85129612210395,40.714094110212024],[-73.85088995450108,40.71473481250799],[-73.84871372454329,40.71394171134548],[-73.84790247894684,40.71522951774175],[-73.85008162625606,40.71602370115536],[-73.84967676085499,40.71666929905841],[-73.84926978916668,40.71731165108513],[-73.84709876292538,40.716507674324156],[-73.84478856508021,40.72016435084155],[-73.84696438046205,40.720958912577146],[-73.84638478166052,40.7218802640875],[-73.84754489505941,40.722216534763874],[-73.84826850701904,40.72336481448279],[-73.84979941690236,40.724401579350584],[-73.8516699156875,40.72607746752698],[-73.85150362367482,40.726224999180985],[-73.85244782725606,40.72670505078263],[-73.85198453853047,40.72686618796103],[-73.85168796255043,40.7279516867159],[-73.85173037747188,40.72847757530246],[-73.85087912777642,40.72873015005087],[-73.85133166851084,40.72961086709842],[-73.85027461989563,40.729663726262636],[-73.84823715691947,40.73028259053248],[-73.84857845786354,40.73094867864471],[-73.8463253333888,40.731616230700645],[-73.84769447212847,40.73427729025744],[-73.84542613093986,40.73494980377959],[-73.8449680007075,40.734007128824274],[-73.84438721839513,40.73417395748309],[-73.84504021116554,40.73609538006267],[-73.84562308233009,40.73998984722454],[-73.84543235532047,40.74007992945377],[-73.84478597528077,40.73592847040917],[-73.84393814002128,40.733772171950946],[-73.84262006228349,40.73197370904593],[-73.8427942937683,40.731877340362786],[-73.84064310584476,40.72981451158855],[-73.8393134058825,40.728237149315945],[-73.83821301303162,40.726367437858535],[-73.83268537943685,40.72799785798639],[-73.8317046593241,40.72804033224719],[-73.83307088023886,40.72991903138397],[-73.83386267219177,40.730553189010124],[-73.82893796459669,40.731591438372526],[-73.8285542214773,40.73083047411159],[-73.82652734170483,40.73143465255641],[-73.82618388077991,40.73077236744374],[-73.82421336673393,40.731340083137816],[-73.82388512023047,40.73067620324323],[-73.81958952491877,40.73193942562892],[-73.8185193289644,40.729855494680855],[-73.81502127704256,40.730465669542085],[-73.81523144911418,40.72879391256027],[-73.81488170086472,40.728321897220574],[-73.81394369351916,40.72785224594016],[-73.81298960431975,40.72808562613324],[-73.81187789865051,40.72774732986225],[-73.81111797292404,40.72781641649352],[-73.81070500956417,40.726771288573815],[-73.81062583783789,40.724419843139124],[-73.81039897156533,40.72372352768882],[-73.8081767829718,40.72396938710125],[-73.80804721052066,40.72326188270586],[-73.81012972011365,40.72303255446324],[-73.80959384543652,40.721648680838086],[-73.81150401463684,40.72128912532772],[-73.8111606366457,40.720626704175764],[-73.80989352645877,40.720895638683906],[-73.80956898618473,40.720185042564516],[-73.8091544301187,40.72030643671858],[-73.80784387577566,40.71599973406748]]]]}}]}