{"type":"FeatureCollection","features":[{"type":"Feature","properties":{":id":"row-ctqi~rtyr-qxxb",":version":"rv-8x29-94dd_58x5",":created_at":"2026-02-02T21:06:53.142Z",":updated_at":"2026-02-02T21:06:53.142Z","borough":"BK","lp_number":"LP-00696","current_":"Yes","area_name":"Carroll Gardens Historic District","extension":"No","status_of_":"DESIGNATED","last_actio":"DESIGNATED","boundary_n":"PREVIOUSLY HEARD AS LP-00458 (SAME BOUNDARIES AS SECOND HEARING)","public_hea":"5/26/1970","other_hear":null,"desdate":"1973-09-25T00:00:00.000","caldate":null,"shape_leng":"2839.35696956","shape_area":"474878.076959"},"geometry":{"type":"Polygon","coordinates":[[[-73.99305161575738,40.67883899870062],[-73.9931178046828,40.67887090558023],[-73.9934769837731,40.67904405622024],[-73.99366614347382,40.67913519716392],[-73.99366692139914,40.679135571689436],[-73.99421648039353,40.67940035742518],[-73.9942172086171,40.67940070864805],[-73.99504971025434,40.67980219986809],[-73.99512822920433,40.679840693203474],[-73.99488953409599,40.680199850579676],[-73.99465372464029,40.68054024304118],[-73.99460850013429,40.680612349427875],[-73.99440120735106,40.680918849835564],[-73.99434285383725,40.681005627189535],[-73.99415806744929,40.68127812423302],[-73.99406942071099,40.6812427134024],[-73.99205355215099,40.68045871310216],[-73.99197328232343,40.68042749342612],[-73.99215804606294,40.68015512484964],[-73.99178801924056,40.680011280972195],[-73.99183175342556,40.67994488992344],[-73.9921684472478,40.67944688506236],[-73.99226298882773,40.67930596904988],[-73.99239468068258,40.67911153170074],[-73.99246259493563,40.67913722061773],[-73.99259873799596,40.67893621107369],[-73.99264745484653,40.67886448819128],[-73.99294737475212,40.6789954580305],[-73.99305161575738,40.67883899870062]]]}},{"type":"Feature","properties":{":id":"row-vt2c.4mfv_3ajc",":version":"rv-6pcp~rdgf_xnkx",":created_at":"2026-02-02T21:06:53.142Z",":updated_at":"2026-02-02T21:06:53.142Z","borough":"BK","lp_number":"LP-00320","current_":"Yes","area_name":"Cobble Hill Historic District","extension":"No","status_of_":"DESIGNATED","last_actio":"DESIGNATED","boundary_n":"BOUNDARIES DIFFER FROM TIME OF PUBLIC HEARING","public_hea":"<Null>","other_hear":null,"desdate":"1969-12-30T00:00:00.000","caldate":null,"shape_leng":"8669.82313505","shape_area":"3387649.3615"},"geometry":{"type":"Polygon","coordinates":[[[-73.99262285888723,40.689160561419556],[-73.9926855283757,40.68903326161303],[-73.9929348103566,40.68850955800186],[-73.99300619826663,40.688361301844516],[-73.99326829444469,40.687824468310275],[-73.99337852417139,40.68759488510489],[-73.99360423145426,40.68712725214925],[-73.9937873689044,40.68675598290302],[-73.99392929325403,40.686452889059936],[-73.99409367768799,40.686109187418865],[-73.99425368197736,40.68577801775846],[-73.99440801370557,40.68545251668376],[-73.99445219317467,40.6853677455838],[-73.9945780636156,40.68510015905154],[-73.99485883246507,40.68451670640325],[-73.99490113089084,40.68443026272261],[-73.99523058663353,40.68374458097915],[-73.99529981922856,40.68375963021335],[-73.99623171515401,40.68401972489819],[-73.99722684986455,40.68429778708372],[-73.99816570378401,40.68456330519295],[-73.99908064974628,40.684816015810924],[-73.99986579015295,40.685036487189485],[-74.00064145526778,40.68524701270259],[-73.99969626874218,40.687198047629586],[-73.99937882763955,40.687853204899255],[-73.99906962243752,40.688498089047386],[-73.99874207619654,40.68917703588418],[-73.99864369314011,40.68937962008346],[-73.99855681603367,40.68935560900311],[-73.99821559949888,40.68926097862939],[-73.99820968877027,40.68925936108175],[-73.9981502780533,40.689385102700236],[-73.99814867169957,40.689388502207436],[-73.99747340458184,40.689201265357816],[-73.99748722651209,40.68917200964666],[-73.99714573705612,40.68907731954324],[-73.99705648972649,40.689052677059614],[-73.99689489330657,40.68938925863311],[-73.99687397750826,40.68943282236505],[-73.99661965804016,40.6893624492019],[-73.99656193710834,40.68934647680125],[-73.99652378094781,40.689425919584515],[-73.99639491132798,40.68969498737613],[-73.99627460896248,40.689661739886645],[-73.99614910377038,40.68992311563568],[-73.99611961761637,40.68998430768517],[-73.9965480514683,40.69010354161707],[-73.99640622068475,40.69039785934472],[-73.99648144263284,40.69041895877133],[-73.99740180785409,40.690674232415],[-73.99739788702713,40.690682305152734],[-73.99731808884248,40.69084660034125],[-73.9961631,40.690518],[-73.9942911,40.689999],[-73.99245901006364,40.6894953358162],[-73.99262285888723,40.689160561419556]]]}},{"type":"Feature","properties":{":id":"row-kg79_them.vqks",":version":"rv-34gq.87qp-yh8f",":created_at":"2026-02-02T21:06:53.142Z",":updated_at":"2026-02-02T21:06:53.142Z","borough":"BK","lp_number":"LP-01554","current_":"Yes","area_name":"Cobble Hill Historic District Extension","extension":"Yes","status_of_":"DESIGNATED","last_actio":"DESIGNATED","boundary_n":null,"public_hea":"11/12/1985","other_hear":null,"desdate":"1988-06-07T00:00:00.000","caldate":null,"shape_leng":"516.068642251","shape_area":"16638.363796"},"geometry":{"type":"Polygon","coordinates":[[[-73.99734564515119,40.68947165281191],[-73.99732855739714,40.68950797182694],[-73.99695296385255,40.68940629013666],[-73.99689426393607,40.68939057254217],[-73.99705648972649,40.689052677059614],[-73.99748722651209,40.68917200964666],[-73.99734564515119,40.68947165281191]]]}},{"type":"Feature","properties":{":id":"row-p3u2-3uam-uiu3",":version":"rv-572j~dzjw.jbsq",":created_at":"2026-02-02T21:06:53.142Z",":updated_at":"2026-02-02T21:06:53.142Z","borough":"BK","lp_number":"LP-02443","current_":"Yes","area_name":"Park Slope Historic District Extension","extension":"Yes","status_of_":"DESIGNATED","last_actio":"DESIGNATED","boundary_n":null,"public_hea":"10/26/2010","other_hear":null,"desdate":"2012-04-17T00:00:00.000","caldate":"2010-08-10T00:00:00.000","shape_leng":"10628.5461688","shape_area":"2039995.1007"},"geometry":{"type":"MultiPolygon","coordinates":[[[[-73.97783988251031,40.666692538374406],[-73.97828808763191,40.66615502084951],[-73.9783214204888,40.666171136877374],[-73.97883009939558,40.6655586191166],[-73.97880101294123,40.66554456517417],[-73.97908955331069,40.66519696860031],[-73.97951429786876,40.665402174067175],[-73.97953301476086,40.66537970922077],[-73.97972041906745,40.66515477710705],[-73.97936821642085,40.664984798221106],[-73.97962175522609,40.66468248464752],[-73.97957610078873,40.66466044805553],[-73.97982788294038,40.66436121434746],[-73.97973374784816,40.664315705805286],[-73.97998584394517,40.66401565641883],[-73.98035749780173,40.664195774149455],[-73.98047248459494,40.66425114655502],[-73.98169974225843,40.66277733800331],[-73.98179698874584,40.662824706786395],[-73.98233750145837,40.66308825125878],[-73.98364098944195,40.66371862100521],[-73.98372191854108,40.663621333404755],[-73.98412310262069,40.66314357744942],[-73.98413957921956,40.66312321136215],[-73.98444653484214,40.663270175667165],[-73.98465953754442,40.663377212614996],[-73.98491771725935,40.663500259238056],[-73.9848977502915,40.66352355907544],[-73.98481563862605,40.663622056637344],[-73.98470277838719,40.663757435170744],[-73.98470607740482,40.663759029532166],[-73.98450605906959,40.663998955172055],[-73.9844217827152,40.66409563459684],[-73.9843964741391,40.66412582579827],[-73.98415069935203,40.66442064004759],[-73.98420882861521,40.66444871713601],[-73.98411158163292,40.66456536739591],[-73.98404586569639,40.66453362412256],[-73.98399357555026,40.66459634499625],[-73.98397003644807,40.66462578037338],[-73.98394451720567,40.66461341726876],[-73.9838622114191,40.664712710250356],[-73.98376482627168,40.664829399778974],[-73.98385278311848,40.66487196425485],[-73.98371342972908,40.66504176299402],[-73.98347967998278,40.66492740919805],[-73.98332294551446,40.665118471539984],[-73.98324142062287,40.6652162028872],[-73.98331518687678,40.665251528286866],[-73.98329098094639,40.66527952508729],[-73.98304073862997,40.665574175087244],[-73.98288974870398,40.665751956032324],[-73.98280776007766,40.6658506094779],[-73.98290511498452,40.66589819646386],[-73.98288030776206,40.66592784515325],[-73.98276009237593,40.66607144328458],[-73.98283056986863,40.66610546452516],[-73.98275084635667,40.666200695666724],[-73.98273743483948,40.66619422072008],[-73.98269958640921,40.666239429928005],[-73.98264539625032,40.66621326898006],[-73.98252662010954,40.6663552693393],[-73.98248582052655,40.66640388042195],[-73.98243270773924,40.66646733085425],[-73.9824435555005,40.6664725755178],[-73.98239052706674,40.66653471892483],[-73.98219007521669,40.66677235758457],[-73.98200705442709,40.666683717460984],[-73.98186092781437,40.666858408983565],[-73.98170830354124,40.66704328075291],[-73.98186785806554,40.66712051355413],[-73.98182411696138,40.66717204831585],[-73.98166775371728,40.6673572992337],[-73.9816930387087,40.66736950794346],[-73.98148790887822,40.667612626045425],[-73.98140723588094,40.66771030139252],[-73.98143336518181,40.66772296525276],[-73.98140965974531,40.66775132258353],[-73.98120947830343,40.66799015723415],[-73.98117468359318,40.667973328124226],[-73.98096967502435,40.66821791858822],[-73.9809506691001,40.6682409370729],[-73.98070474810372,40.66812247109298],[-73.9804899270377,40.6680158318466],[-73.97833390608709,40.66697148712923],[-73.97815679874462,40.666888606175895],[-73.97781467458348,40.666722895418786],[-73.97783988251031,40.666692538374406]]],[[[-73.98133446707378,40.66255328059979],[-73.98158357045165,40.662254185850145],[-73.9801597340938,40.661565625926244],[-73.97991121586561,40.66186568582782],[-73.97935058720574,40.661594836781354],[-73.97961274418763,40.661289677122376],[-73.97969049421089,40.661326354299916],[-73.97969360462793,40.66132518417726],[-73.97969679775956,40.66132417617774],[-73.97970008547179,40.661323339245065],[-73.97970344408787,40.66132268246159],[-73.97970684987301,40.66132219678493],[-73.97971202953491,40.661321801513594],[-73.97971722081266,40.66132182040893],[-73.97972067372677,40.661322055142406],[-73.97972579390395,40.66132274947742],[-73.97973180367805,40.66132424450721],[-73.97974612030792,40.661327656965106],[-73.97975556784453,40.66132975173387],[-73.97976721460574,40.66133201808392],[-73.97978589811152,40.66133525020137],[-73.97981661905892,40.661339208842456],[-73.9798525635676,40.66134180728683],[-73.97986319804572,40.66134223375372],[-73.97987878376712,40.661342452625895],[-73.97989436960539,40.66134228425257],[-73.97990993182263,40.66134172862962],[-73.97994095036341,40.661339437745596],[-73.97995589263195,40.6613377562378],[-73.97997170914547,40.661335588892776],[-73.97998695269332,40.66133308809366],[-73.9800020663047,40.66133020906482],[-73.98001629322364,40.661326564431434],[-73.98004421531954,40.661318185497954],[-73.98005656861918,40.6613139038932],[-73.98007131000851,40.6613083655615],[-73.98008450867997,40.661302928701645],[-73.98009745909603,40.661297149648526],[-73.9801101376459,40.66129102834982],[-73.9801225325188,40.661284582783416],[-73.98013461997454,40.66127782198363],[-73.98014640007912,40.66127073696054],[-73.98015786101912,40.661263354682056],[-73.98016897905701,40.661255675192464],[-73.98017974244837,40.66124770747976],[-73.98019012751364,40.66123946956819],[-73.980191641401,40.66123855131],[-73.98019477563702,40.661236849854035],[-73.9801980516758,40.661235319520934],[-73.98020145777556,40.661233960357066],[-73.98020320805824,40.661233348280106],[-73.98020679147152,40.661232268317555],[-73.98021045759249,40.66123137739918],[-73.98021608671137,40.66123041485059],[-73.98022182213452,40.66122990254119],[-73.98029329814823,40.66113645019128],[-73.98029237103556,40.66113157246684],[-73.9802919883602,40.661126913493845],[-73.98029223835154,40.66112115926015],[-73.9803019731669,40.66110080034398],[-73.98030943283023,40.66107947727898],[-73.98031254596536,40.6610688067233],[-73.98031596850792,40.66105406083642],[-73.9803190585952,40.66103652772599],[-73.98032041820028,40.661019554713775],[-73.98196393751631,40.66180701282428],[-73.98195033112327,40.661823331633194],[-73.98222744384786,40.661956768280724],[-73.9822752686462,40.66197917477889],[-73.98221559574108,40.66205074251646],[-73.98211262193603,40.662175150905725],[-73.98171114610996,40.66265508991962],[-73.98166355181806,40.662712260812334],[-73.98133446707378,40.66255328059979]]],[[[-73.97727273161567,40.6640898114601],[-73.97734616237726,40.664007257625485],[-73.97777433586579,40.66421427710056],[-73.97771625484293,40.66428401977346],[-73.97753756156361,40.66449873378573],[-73.97760277777645,40.664530243849185],[-73.97744663024525,40.6647185572065],[-73.97734454033666,40.66484059962852],[-73.97698633551614,40.664667462791215],[-73.97684516914786,40.664606406290076],[-73.97727273161567,40.6640898114601]]]]}},{"type":"Feature","properties":{":id":"row-5mqc-jgcw.6248",":version":"rv-z3uq_ngyq-t7nt",":created_at":"2026-02-02T21:06:53.142Z",":updated_at":"2026-02-02T21:06:53.142Z","borough":"BK","lp_number":"LP-00709","current_":"Yes","area_name":"Park Slope Historic District","extension":"No","status_of_":"DESIGNATED","last_actio":"DESIGNATED","boundary_n":"PREVIOUSLY HEARD AS LP-00455 (SMALLER BOUNDARIES)","public_hea":"5/26/1970; 6/23/1970","other_hear":null,"desdate":"1973-07-17T00:00:00.000","caldate":null,"shape_leng":"23339.1397865","shape_area":"6129551.93616"},"geometry":{"type":"Polygon","coordinates":[[[-73.97534940575831,40.67863517185855],[-73.97518367897793,40.6788796427179],[-73.97518332090549,40.678879502137164],[-73.97390148180176,40.67837448374856],[-73.97406687237601,40.67813051619418],[-73.97411674763535,40.67805778003968],[-73.97324839889487,40.6777163165951],[-73.97349849382562,40.67735231025896],[-73.97339020682207,40.6773092139442],[-73.97310026927988,40.677195413322536],[-73.97323521915253,40.676996766921675],[-73.97325862945655,40.676962304141185],[-73.97324114270133,40.676955411438094],[-73.97330910093008,40.676854921505914],[-73.97347922168866,40.67660181852573],[-73.97236009558469,40.67616205180082],[-73.97252777835641,40.67591257762822],[-73.97257162232172,40.675846407715326],[-73.97204905228024,40.67564058012383],[-73.9716184310993,40.67546325614237],[-73.97175544676574,40.67526089582557],[-73.9716446273933,40.67521690471992],[-73.9713339042009,40.67509701243025],[-73.97118377395661,40.675038497594265],[-73.9711982703931,40.67501781776181],[-73.9712204013401,40.67498623865351],[-73.97127991894035,40.67488881957819],[-73.97137037325196,40.67469660353049],[-73.9714297283692,40.674501377880496],[-73.9716658917468,40.674592498418626],[-73.97171521912195,40.67451963264037],[-73.9720471723738,40.67402928070422],[-73.97209599545143,40.67395715852637],[-73.9716441993892,40.67378338395998],[-73.9716899867865,40.673715335035425],[-73.97185797912982,40.673464954731394],[-73.97230661561004,40.67364008025147],[-73.9723454451972,40.67358174187753],[-73.97246011128661,40.67341129915511],[-73.97252222866585,40.67331873512565],[-73.9717233627037,40.67300677939387],[-73.97178136010947,40.67292152460883],[-73.97193378489344,40.6726948643915],[-73.97158087795933,40.67255883370678],[-73.97159730620274,40.67253440202178],[-73.97151358053223,40.67250212909246],[-73.97150536627342,40.67251434560597],[-73.97110706719461,40.67236081707475],[-73.97126976551803,40.672118824621585],[-73.97134125795883,40.67201335868097],[-73.9713543169498,40.67201856216287],[-73.97137971245844,40.67198123168291],[-73.97154657330553,40.671735942015],[-73.97124243143148,40.67161728030134],[-73.97108910697538,40.67155726948465],[-73.97132525858109,40.67124824322338],[-73.97166592625928,40.67081866662538],[-73.97180112614517,40.670884792629465],[-73.97207101794147,40.671015829237504],[-73.9721708503081,40.67089832953937],[-73.97216870498093,40.6708972876887],[-73.9722260226152,40.670828015498316],[-73.9718159457246,40.670629492989164],[-73.97205883682021,40.670338578715295],[-73.97219033486745,40.670402984649755],[-73.97269627442259,40.670644305291916],[-73.97290267774615,40.67039881869467],[-73.97295602631006,40.670336598224935],[-73.97287697852217,40.67029854927982],[-73.97293359297417,40.67023067092156],[-73.97312659933905,40.66999925799871],[-73.97315590929502,40.67001344184092],[-73.97335410818141,40.66977580253417],[-73.97340792536146,40.669711527425015],[-73.97281989876373,40.669427199438374],[-73.97332283854837,40.66882494257159],[-73.97356749106085,40.66853189166136],[-73.97368823799121,40.66859212843763],[-73.97405631026209,40.66877041856598],[-73.97405552727233,40.668771092198135],[-73.97412331381281,40.66880412211152],[-73.97431815727995,40.668571942455856],[-73.97438509684419,40.668493908325395],[-73.9742573437635,40.66843211101017],[-73.97432020789452,40.66835724287148],[-73.97452142444416,40.668116900325764],[-73.97452001141673,40.66811621653746],[-73.97470444429258,40.667895918138775],[-73.97475967098916,40.66782861226962],[-73.97433093516615,40.667621250169276],[-73.97458799704246,40.66730750294788],[-73.97482332424268,40.66702562853967],[-73.97524825105904,40.666517107413526],[-73.97568838010922,40.66598974430658],[-73.97583131485439,40.66581510087149],[-73.97592048357446,40.66571123776401],[-73.97603582264945,40.66557175661403],[-73.97606771176436,40.66553364372131],[-73.97621353797717,40.6653594956711],[-73.97627195785806,40.66528973604859],[-73.97633385108277,40.66521362790695],[-73.97640966303767,40.66512528010353],[-73.9767382906209,40.664731044767265],[-73.97675326682023,40.664713094101565],[-73.97684516305453,40.66460640614387],[-73.97698633551614,40.664667462791215],[-73.97734454033666,40.66484059962852],[-73.97744663024525,40.6647185572065],[-73.97760277790339,40.66453024399422],[-73.97753756226156,40.664498734510815],[-73.97771625484293,40.66428401977346],[-73.97777433586579,40.66421427710056],[-73.97734616237726,40.664007257625485],[-73.97742844770363,40.66390186387894],[-73.97778128546305,40.66347919977382],[-73.97784275039587,40.66340179216169],[-73.97792591266817,40.66330434516713],[-73.97793807286504,40.66328975951473],[-73.97825816655948,40.6629064101342],[-73.97827697201414,40.662884005000244],[-73.97834944181969,40.66279903508833],[-73.97842385594565,40.662710280930554],[-73.97876833537495,40.662298834352306],[-73.97877777098988,40.66228766519568],[-73.97893959420712,40.66209394401497],[-73.97935058720574,40.661594836781354],[-73.97991121586561,40.66186568582782],[-73.97996204935754,40.66180298939725],[-73.98015973383974,40.661565626554506],[-73.98050922434736,40.66173464056159],[-73.98158357045165,40.662254185850145],[-73.98138606385214,40.66249133925747],[-73.98133446707378,40.66255328059979],[-73.98137409899255,40.662572427246026],[-73.98172799335936,40.66274339210011],[-73.98122574260572,40.66334688005725],[-73.98072351863078,40.663950348384944],[-73.98047248459494,40.66425114655502],[-73.98035749780173,40.664195774149455],[-73.97998584394517,40.66401565641883],[-73.97978619643305,40.66425328931211],[-73.97973374784816,40.664315705805286],[-73.97982788294038,40.66436121434746],[-73.97977216805988,40.66442665867959],[-73.97957610078873,40.66466044805553],[-73.97962175522609,40.66468248464752],[-73.97942326449001,40.66491916107289],[-73.97936821642085,40.664984798221106],[-73.97972041906745,40.66515477710705],[-73.97951429786876,40.665402174067175],[-73.9793978783919,40.66534592906105],[-73.97908965047301,40.665197016129206],[-73.97905900582786,40.665233809487425],[-73.9789028584132,40.665422122050416],[-73.97880101294123,40.66554456517417],[-73.97883009939558,40.6655586191166],[-73.97873356816297,40.66567625156797],[-73.97857369971545,40.66586821395734],[-73.9783744204743,40.666107499337535],[-73.9783214204888,40.666171136877374],[-73.97828808763191,40.66615502084951],[-73.97823725364438,40.666217865616154],[-73.97783988174857,40.66669253847095],[-73.97784916085438,40.666697031978956],[-73.97774053384789,40.666826602425395],[-73.97754615327442,40.66705887186987],[-73.97708139236704,40.6668339195012],[-73.9768836975545,40.66707332487126],[-73.97682881673062,40.66714020215572],[-73.97771695266505,40.667569509937806],[-73.97720769602036,40.668168100716606],[-73.97673452602251,40.667939267176855],[-73.97668413322631,40.668000833170495],[-73.97628763896543,40.66848127000033],[-73.97623670333326,40.66854298793087],[-73.97629518774407,40.66857127299412],[-73.97623923720457,40.66863823787626],[-73.97615555425203,40.668738195779056],[-73.97615400874199,40.66873744895732],[-73.97605326177037,40.66885779121631],[-73.97589894130827,40.66878315380186],[-73.97569811731141,40.669023033132895],[-73.97563515470176,40.669098578609514],[-73.97578561783571,40.66917135803385],[-73.97571889086956,40.669250418593016],[-73.97552405232808,40.6694825994427],[-73.97582841531808,40.669630020640426],[-73.97593900434616,40.66968438998783],[-73.97620074432221,40.66937215714523],[-73.97668214563558,40.6696047569814],[-73.9767454050174,40.66952749687086],[-73.97694202288379,40.669290729647706],[-73.97688215531997,40.66926164066882],[-73.97706657598505,40.66903955754167],[-73.97712377104708,40.6689720770861],[-73.97712076345312,40.66897062195824],[-73.97717420608664,40.668907482328535],[-73.9773708814384,40.66867064094941],[-73.97796292156688,40.66895917646338],[-73.97776624797409,40.66919601990996],[-73.97771496392168,40.66925809666555],[-73.97864263127789,40.66970689236393],[-73.97858654694247,40.66977443075975],[-73.97820334122358,40.67023590083446],[-73.97814247909797,40.67030983061039],[-73.97819950982293,40.67033788058847],[-73.97813552564538,40.670413300354014],[-73.97794531387599,40.67063750726313],[-73.97794622273919,40.67063794446317],[-73.97774255129222,40.670878016083634],[-73.97769361686076,40.67093569551252],[-73.97764507553309,40.67091230844766],[-73.97759076099815,40.67097697755675],[-73.97739264387333,40.6712147280575],[-73.97719483809752,40.671452105335945],[-73.97714230483052,40.67151463826964],[-73.97714557688585,40.67151622191778],[-73.97709194195522,40.67158045964772],[-73.97689556789012,40.67181565252451],[-73.97690567808762,40.67182049523593],[-73.97671091723875,40.67205375248029],[-73.97665294182218,40.67212264439938],[-73.976688699348,40.67213998521685],[-73.97663372211042,40.67220596625795],[-73.9764355244989,40.67244383313778],[-73.97638688394314,40.6724202304449],[-73.97610830753376,40.67275456450979],[-73.97593771284123,40.672959915095],[-73.97588254262429,40.67302547968133],[-73.97590566666857,40.67303440280885],[-73.97585896478977,40.673104351110105],[-73.97552788093209,40.67360261273488],[-73.97548312490817,40.67366996635017],[-73.9754255494108,40.67364755990821],[-73.97538045158993,40.67371734290952],[-73.97522038221659,40.673956536019254],[-73.97523385445803,40.67396173373518],[-73.97506453271016,40.674214751788206],[-73.9749824158316,40.67433710699065],[-73.97496683849467,40.67433119457296],[-73.97493391221423,40.67438177884956],[-73.97488970988097,40.6744478304549],[-73.97524273749022,40.67458536031959],[-73.97535356921502,40.67462853611836],[-73.97525023868596,40.67477821106565],[-73.97535017916536,40.67481794317608],[-73.97579046264498,40.67499038270551],[-73.97578289077342,40.67500161458407],[-73.9760255336373,40.675096647033676],[-73.97603332073507,40.67508509691234],[-73.97670016992713,40.675346263834754],[-73.97694123941565,40.67544067575635],[-73.97700844132589,40.67546699474239],[-73.97731394908432,40.67558664152475],[-73.97730245681326,40.67560368649381],[-73.97763567446347,40.67573418333784],[-73.97767743821444,40.67575058846183],[-73.97766116680299,40.67577410256669],[-73.97781741015287,40.67583559665714],[-73.97812445094357,40.67595540595698],[-73.97798032998256,40.676168063844656],[-73.97793896663842,40.676231196444924],[-73.97753089711112,40.67607291945066],[-73.97710229933678,40.67670721250323],[-73.97752795548863,40.676873429001134],[-73.97748295381405,40.67694054257397],[-73.97708796149499,40.67753501408552],[-73.97706818553478,40.67756477606553],[-73.97704054058534,40.67755386714879],[-73.97697159493825,40.67765747528872],[-73.97666625894269,40.67810442473898],[-73.97663721038106,40.67809311012232],[-73.9766011961036,40.678145830633774],[-73.9765571505532,40.678212627787246],[-73.97618050225769,40.67806433752026],[-73.97579563152001,40.677913247992045],[-73.97583883153396,40.67784988016433],[-73.97601063168959,40.677597872286334],[-73.97435404707022,40.676950923722714],[-73.97418408301782,40.6772002317178],[-73.97411755382451,40.67729781864717],[-73.97405172261247,40.67727179906297],[-73.97403070723198,40.67730336513565],[-73.97386221599598,40.677556445451714],[-73.9755307175049,40.678214657204165],[-73.97552960018403,40.67821632647914],[-73.97544405831536,40.678344195323135],[-73.97552124827473,40.67837464584108],[-73.97548629359922,40.678426896674004],[-73.97550202584671,40.678433103833086],[-73.97545739306192,40.6784998214626],[-73.97543561150307,40.67853223252979],[-73.97542214883171,40.67852694267191],[-73.97534940575831,40.67863517185855]]]}},{"type":"Feature","properties":{":id":"row-dahi~y6u5-dwdt",":version":"rv-n2kk-9cyw-sdyp",":created_at":"2026-02-02T21:06:53.142Z",":updated_at":"2026-02-02T21:06:53.142Z","borough":"BK","lp_number":"LP-02558","current_":"Yes","area_name":"Park Slope Historic District Extension II","extension":"Yes","status_of_":"DESIGNATED","last_actio":"DESIGNATED","boundary_n":null,"public_hea":"10/29/2013","other_hear":null,"desdate":"2016-04-12T00:00:00.000","caldate":"2013-09-17T00:00:00.000","shape_leng":"11383.4554855","shape_area":"896046.181985"},"geometry":{"type":"MultiPolygon","coordinates":[[[[-73.97829406054636,40.67880517700978],[-73.97827182935225,40.678839649342585],[-73.9778783545961,40.67868424634396],[-73.97780457557222,40.678792834833665],[-73.97763587611857,40.67904081736642],[-73.97737814149536,40.67893911329084],[-73.97720815371429,40.67918898692748],[-73.9771884003213,40.67921757100746],[-73.97621190390821,40.678837137251264],[-73.9761433007246,40.678938707189864],[-73.97597684049721,40.679184552648884],[-73.97767243047835,40.67985081289876],[-73.97750403206183,40.680098118944166],[-73.9774085448133,40.680239490013086],[-73.977267280835,40.68044479478203],[-73.97712944679638,40.68064511205961],[-73.97708654959234,40.68070907490428],[-73.97709247614328,40.680711390549426],[-73.97704624366942,40.68077862919591],[-73.9768853560954,40.68102068401174],[-73.97680720314526,40.68099023630372],[-73.97680550719086,40.68099278624272],[-73.97671499849164,40.68095752362753],[-73.97631332112745,40.680801029505474],[-73.97547370699256,40.68047390478103],[-73.9754877293719,40.680452807788576],[-73.97534735242122,40.68039811478522],[-73.97536751614167,40.68036777987009],[-73.97529619592692,40.68033999273716],[-73.97531523415631,40.68031135146122],[-73.97524650772169,40.68028446084743],[-73.97535994670547,40.68011884906697],[-73.97542818069672,40.68001868330911],[-73.97506263168728,40.67987465648148],[-73.97492033766427,40.67981861042685],[-73.97487399657072,40.67988654727042],[-73.97487114494793,40.679889014038096],[-73.9748690625122,40.67989052644884],[-73.9748668382237,40.679891930756376],[-73.97486449564279,40.67989320898607],[-73.97486078083138,40.67989488314835],[-73.97485686507183,40.679896251078155],[-73.97485277198481,40.67989730379079],[-73.97484996839214,40.67989782546246],[-73.97484569806932,40.67989831979539],[-73.97484139244976,40.6798984719724],[-73.974838506301,40.679898381297264],[-73.97483281696036,40.67989774964806],[-73.97482865361837,40.67989688425654],[-73.9748259451674,40.67989612725537],[-73.97482204226277,40.67989472160802],[-73.97465160765141,40.679822715073065],[-73.97454479278012,40.67978246543968],[-73.97446430529187,40.679752127364196],[-73.97446020128875,40.67975085670181],[-73.97445622745308,40.67974936997214],[-73.97445053888435,40.67974676622848],[-73.97444695561623,40.679744793308686],[-73.9744419178638,40.679741496278155],[-73.97443706609805,40.679737450323316],[-73.97443329782642,40.67973383100121],[-73.9744297981737,40.67972953478915],[-73.97442778850471,40.67972653562939],[-73.974426039043,40.67972343744516],[-73.97442458533418,40.67972025832077],[-73.97438451387042,40.67966446893424],[-73.97444092861167,40.67964078162623],[-73.9746765864044,40.67954148271955],[-73.97472638860872,40.67946838810258],[-73.97469354330265,40.67945551792455],[-73.97484434230496,40.67923418652217],[-73.97491525103193,40.67912896076083],[-73.97454729994601,40.678984516576385],[-73.97456618921939,40.678955916807915],[-73.97473715121842,40.67870372396873],[-73.97518332090549,40.678879502137164],[-73.97534940575831,40.67863517185855],[-73.97542286408546,40.67852722272009],[-73.97543561150307,40.67853223252979],[-73.97550202584671,40.678433103833086],[-73.97548629359922,40.678426896674004],[-73.97552124827473,40.67837464584108],[-73.97544378225501,40.678344608799925],[-73.9755307175049,40.678214657204165],[-73.97464984321834,40.67786716316982],[-73.97482094595368,40.67761349117139],[-73.97483980861129,40.67758376069761],[-73.97516256570694,40.67771020315088],[-73.97522907895174,40.67761049815754],[-73.9754003954461,40.67735920398819],[-73.97601063168959,40.677597872286334],[-73.97583883153396,40.67784988016433],[-73.97579563152001,40.677913247992045],[-73.9765559015242,40.67821213482788],[-73.9766011961036,40.678145830633774],[-73.97663721038106,40.67809311012232],[-73.97666625894269,40.67810442473898],[-73.97680099740188,40.67790719512202],[-73.97839181698926,40.67853346154644],[-73.97846110816594,40.678560739424036],[-73.97829406054636,40.67880517700978]]],[[[-73.97937657598425,40.6767447393436],[-73.97796317081408,40.67619314196851],[-73.97798032998256,40.676168063844656],[-73.97812445094357,40.67595540595698],[-73.97781741015287,40.67583559665714],[-73.97766116680299,40.67577410256669],[-73.97767746978077,40.6757505428901],[-73.97763567446347,40.67573418333784],[-73.97730245700365,40.675603686638844],[-73.97731394876699,40.6755866412347],[-73.97734222422697,40.67559771594602],[-73.977493930698,40.67537269175859],[-73.97752544335596,40.67532398566057],[-73.97784481589862,40.67544935852661],[-73.97802126497369,40.67551571527767],[-73.97833755330184,40.67564059642677],[-73.97830405403404,40.67569038691131],[-73.9781445835384,40.67592569818372],[-73.97982921551586,40.67658286741457],[-73.97984288470828,40.67658819816713],[-73.97968035745703,40.676828025293304],[-73.97965945515641,40.67686041185005],[-73.97937657598425,40.6767447393436]]],[[[-73.97149184180493,40.67452534366559],[-73.97150977598618,40.674462395681076],[-73.97151933757888,40.674423396723995],[-73.97152794682016,40.674374255267935],[-73.97153282589132,40.67434512699046],[-73.97153888518777,40.67430281119259],[-73.97154358830957,40.67425441541424],[-73.97154755109528,40.67420752395739],[-73.97154949733574,40.674164019457855],[-73.97155142645757,40.674100516462424],[-73.97154878985835,40.674020062779036],[-73.97154601575116,40.67397222735741],[-73.97154123945475,40.673921993453966],[-73.97153168469758,40.67384895473356],[-73.97149481076693,40.67366749831302],[-73.971480252486,40.67360909629015],[-73.97144517455565,40.67349722186962],[-73.97140647631328,40.67340146849339],[-73.97138079138794,40.673346610017006],[-73.97134609543245,40.67328004080071],[-73.97129324661738,40.67319253451934],[-73.9712560029372,40.67313754018677],[-73.9712502,40.673124],[-73.9712062,40.673034],[-73.9711572,40.672946],[-73.9711032,40.672859],[-73.97106636249775,40.67280501400532],[-73.97106843647205,40.672806283286484],[-73.97110267886889,40.67282005259613],[-73.9716922524509,40.67305091685075],[-73.97172181289461,40.67300617422386],[-73.972040520634,40.67313063001257],[-73.97197939832662,40.67322365169036],[-73.97182589889358,40.67345243239161],[-73.97185797912982,40.673464954731394],[-73.9716899867865,40.673715335035425],[-73.97164563757431,40.67378393714562],[-73.97209599545143,40.67395715852637],[-73.9720471723738,40.67402928070422],[-73.97171521912195,40.67451963264037],[-73.9716658917468,40.674592498418626],[-73.97149184180493,40.67452534366559]]],[[[-73.97290842452655,40.677150994514555],[-73.97305993576035,40.6769279681071],[-73.97313343411385,40.67681817028422],[-73.97294521734693,40.67674616767202],[-73.97273410971763,40.676665407556854],[-73.9721704723144,40.676440683099095],[-73.97204288166111,40.676389024815975],[-73.97205991781048,40.676364048802526],[-73.97228826910168,40.67602432086959],[-73.97238347662727,40.6760617340479],[-73.97233075349084,40.67615052113556],[-73.97236009558469,40.67616205180082],[-73.97347922168885,40.6766018180424],[-73.97330910093008,40.676854921505914],[-73.97324079594196,40.676955274720555],[-73.97325906641228,40.67696247775764],[-73.97323521915253,40.676996766921675],[-73.97308370714238,40.677219793557775],[-73.97290842452655,40.677150994514555]]],[[[-73.97156032510959,40.675382869540144],[-73.9711902399589,40.675257749962164],[-73.97118145458725,40.67525161524201],[-73.97117563756342,40.67524644482855],[-73.9711705540145,40.67524084235792],[-73.97116759876107,40.67523690635699],[-73.97116384021686,40.675230727897215],[-73.97116093340485,40.67522428846012],[-73.97115891372064,40.675217651177334],[-73.97115807585331,40.67521315741416],[-73.97115753451008,40.675210138312195],[-73.97115760669914,40.67520409812608],[-73.97115774956401,40.67520182883803],[-73.9711581326972,40.67519797511455],[-73.97115919064854,40.675193389994206],[-73.97116155306776,40.675186241868296],[-73.97116324011466,40.67518257426303],[-73.97116622585435,40.67517721958688],[-73.97116945819677,40.67517163220146],[-73.97117232162003,40.67516668262041],[-73.97117595019775,40.675160410409255],[-73.97118303757381,40.67514821790391],[-73.9712217466581,40.675099078113426],[-73.97124733800808,40.67506376146495],[-73.9713339042009,40.67509701243025],[-73.9716446273933,40.67521690471992],[-73.97175612956731,40.67525988728667],[-73.9716515483255,40.67541434339567],[-73.97156032510959,40.675382869540144]]]]}},{"type":"Feature","properties":{":id":"row-v2x3-gi2a~vyk7",":version":"rv-uy6b_jd3t_g475",":created_at":"2026-02-02T21:06:53.142Z",":updated_at":"2026-02-02T21:06:53.142Z","borough":"BK","lp_number":"LP-02599","current_":"Yes","area_name":"Boerum Hill Historic District Extension","extension":"Yes","status_of_":"DESIGNATED","last_actio":"DESIGNATED","boundary_n":null,"public_hea":"5/8/2018","other_hear":null,"desdate":"2018-06-26T00:00:00.000","caldate":"2017-10-31T00:00:00.000","shape_leng":"7241.88712442","shape_area":"747285.3483"},"geometry":{"type":"Polygon","coordinates":[[[-73.98669103540784,40.684044820514],[-73.9867261059143,40.684058503228606],[-73.9866268152652,40.684200986800235],[-73.9864931,40.684149],[-73.9865451,40.684074],[-73.98659199484791,40.684006262997464],[-73.98669103540784,40.684044820514]]]}}]}