{"type":"FeatureCollection","features":[{"type":"Feature","properties":{"zone":"C4-3A","zoning_family":"Commercial","family_label":"Commercial zoning","description":"Contextual commercial. Max FAR 3.0, 70 ft height limit.","location":"Bounded by Smith St to Hoyt St, 25th St to 9th St","source_file":"Commercial(C)Zoning.kml","source_index":4,"color":"#2563eb"},"geometry":{"type":"Polygon","coordinates":[[[-73.987217,40.668781],[-73.986988,40.669052],[-73.986445,40.669712],[-73.986214,40.669985],[-73.985372,40.669593],[-73.98561,40.669293],[-73.985872,40.668964],[-73.985715,40.668888],[-73.985964,40.66859],[-73.986101,40.668655],[-73.98900498699855,40.665210975895576],[-73.9892431,40.665326],[-73.98987830341692,40.665633600633385],[-73.987217,40.668781]]]}},{"type":"Feature","properties":{"zone":"C4-4A","zoning_family":"Commercial","family_label":"Commercial zoning","description":"Contextual commercial. Max FAR 4.0, 80 ft height limit.","location":"Along Union St from 3rd Ave to 4th Ave","source_file":"Commercial(C)Zoning.kml","source_index":5,"color":"#2563eb"},"geometry":{"type":"Polygon","coordinates":[[[-73.975464,40.682163],[-73.97562554632043,40.68238512619059],[-73.9738862,40.68203],[-73.973949613102,40.68185099253497],[-73.975464,40.682163]]]}},{"type":"Feature","properties":{"zone":"C4-4A","zoning_family":"Commercial","family_label":"Commercial zoning","description":"Contextual commercial. Max FAR 4.0, 80 ft height limit.","location":"Along 9th St from Court St to Smith St","source_file":"Commercial(C)Zoning.kml","source_index":6,"color":"#2563eb"},"geometry":{"type":"Polygon","coordinates":[[[-73.992526,40.669655],[-73.993027,40.669055],[-73.993452,40.66926],[-73.992447,40.670464],[-73.992022,40.670257],[-73.992526,40.669655]]]}},{"type":"Feature","properties":{"zone":"C4-4D","zoning_family":"Commercial","family_label":"Commercial zoning","description":"Contextual commercial. Max FAR 4.0.","location":"Bounded by Smith St to Nevins St, 15th St to Sackett St","source_file":"Commercial(C)Zoning.kml","source_index":7,"color":"#2563eb"},"geometry":{"type":"Polygon","coordinates":[[[-73.982327,40.677539],[-73.982448,40.677361],[-73.982768,40.676887],[-73.982972,40.676586],[-73.98282,40.676525],[-73.982862,40.676462],[-73.9832,40.675963],[-73.983246,40.675894],[-73.983293,40.675825],[-73.983294,40.675824],[-73.9834,40.675667],[-73.98351,40.675536],[-73.983619,40.675406],[-73.984016,40.674933],[-73.984125,40.674803],[-73.984524,40.674328],[-73.984525,40.674327],[-73.984629,40.674203],[-73.985006,40.673753],[-73.985007,40.673753],[-73.985071,40.673676],[-73.98509,40.673686],[-73.985213,40.673745],[-73.985277,40.673668],[-73.985581,40.673815],[-73.985978,40.673342],[-73.985673,40.673195],[-73.986175,40.672596],[-73.987974,40.670448],[-73.987977,40.670444],[-73.988347,40.670002],[-73.988502,40.669817],[-73.988521,40.669794],[-73.988747,40.669524],[-73.991217,40.666574],[-73.991272,40.666509],[-73.991908,40.666818],[-73.992212,40.666965],[-73.992214,40.666966],[-73.991653,40.667634],[-73.989469,40.670247],[-73.988909,40.670917],[-73.987931,40.672087],[-73.986172,40.674192],[-73.985711,40.673968],[-73.985213,40.674569],[-73.984714,40.675171],[-73.985177,40.675396],[-73.985175,40.675399],[-73.985116,40.675469],[-73.984443,40.67627],[-73.98443,40.676284],[-73.984346,40.676408],[-73.984009,40.676906],[-73.983959,40.676979],[-73.983915,40.677045],[-73.983914,40.677045],[-73.983759,40.677274],[-73.983593,40.677519],[-73.983472,40.677698],[-73.983311,40.677935],[-73.98331,40.677937],[-73.98315,40.678172],[-73.983102,40.678242],[-73.983107,40.678244],[-73.983057,40.678318],[-73.983056,40.67832],[-73.982722,40.678811],[-73.982627,40.67895],[-73.982294,40.679439],[-73.982247,40.679508],[-73.9822,40.679577],[-73.981861,40.680076],[-73.981816,40.680144],[-73.981601,40.680464],[-73.981387,40.680783],[-73.981342,40.68085],[-73.981264,40.680967],[-73.98107614756033,40.6812467724684],[-73.9804862,40.681018],[-73.9803922,40.680983],[-73.9799652,40.681613],[-73.9795472,40.682251],[-73.9791142,40.682889],[-73.9786902,40.683525],[-73.9786342,40.683504],[-73.97834962355229,40.6833961487395],[-73.982327,40.677539]]]}},{"type":"Feature","properties":{"zone":"C6-1","zoning_family":"Commercial","family_label":"Commercial zoning","description":"General central commercial. Max FAR 6.0.","location":"Bounded by Nevins St to 3rd Ave, Union St to Sackett St","source_file":"Commercial(C)Zoning.kml","source_index":12,"color":"#2563eb"},"geometry":{"type":"Polygon","coordinates":[[[-73.976302,40.682472],[-73.97635,40.682538],[-73.97635802337182,40.68254896074185],[-73.9762815785806,40.68252836311755],[-73.976302,40.682472]]]}},{"type":"Feature","properties":{"zone":"M1-1/R5","zoning_family":"Mixed Use","family_label":"Mixed-use zoning","description":"Mixed use: Light manufacturing with R5 residential.","location":"Bounded by Ferris St to Columbia St, 5th St to 1st St","source_file":"MixedUseZoning.kml","source_index":1,"color":"#0d9488"},"geometry":{"type":"Polygon","coordinates":[[[-74.01603,40.676565],[-74.015716,40.676833],[-74.015714,40.676832],[-74.015622,40.676769],[-74.015451,40.676652],[-74.015309,40.676555],[-74.015217,40.676493],[-74.015142,40.676443],[-74.015059,40.676387],[-74.014912,40.676287],[-74.014702,40.67615],[-74.014636,40.676106],[-74.014591,40.676076],[-74.014543,40.676043],[-74.014486,40.676005],[-74.014808,40.675735],[-74.015438,40.675205],[-74.01740383691138,40.67355347168362],[-74.017682,40.673808],[-74.017728,40.673776],[-74.017745,40.67379],[-74.017823,40.673725],[-74.01781,40.673717],[-74.017874,40.673643],[-74.017911,40.67366],[-74.017941,40.673673],[-74.017888,40.673747],[-74.017853,40.673735],[-74.017766,40.6738],[-74.017787,40.673818],[-74.017732,40.673855],[-74.018045,40.674103],[-74.018066,40.674119],[-74.018084,40.674137],[-74.018096,40.674157],[-74.018105,40.674179],[-74.018108,40.674202],[-74.018106,40.674224],[-74.017975,40.674528],[-74.017954,40.674613],[-74.01796,40.674684],[-74.017966,40.674719],[-74.017939,40.674754],[-74.017947,40.674769],[-74.017854,40.674836],[-74.017916,40.674885],[-74.017764,40.675018],[-74.01781139201837,40.67504949469575],[-74.01603,40.676565]]]}},{"type":"Feature","properties":{"zone":"M1-4/R6A","zoning_family":"Mixed Use","family_label":"Mixed-use zoning","description":"Mixed use: Light manufacturing with R6A residential.","location":"Along Court St from 1st St to Carroll St","source_file":"MixedUseZoning.kml","source_index":2,"color":"#0d9488"},"geometry":{"type":"Polygon","coordinates":[[[-73.994155,40.677204],[-73.994243,40.677247],[-73.994727,40.677481],[-73.994832,40.67753],[-73.995346,40.677778],[-73.995101,40.678072],[-73.993942,40.67752],[-73.994155,40.677204]]]}},{"type":"Feature","properties":{"zone":"M1-4/R6A","zoning_family":"Mixed Use","family_label":"Mixed-use zoning","description":"Mixed use: Light manufacturing with R6A residential.","location":"Near Hoyt St and Carroll St","source_file":"MixedUseZoning.kml","source_index":3,"color":"#0d9488"},"geometry":{"type":"Polygon","coordinates":[[[-73.984679,40.677631],[-73.985225,40.677843],[-73.985655,40.67801],[-73.985648,40.678018],[-73.986303,40.678272],[-73.986306,40.678273],[-73.986087,40.678599],[-73.984453,40.677961],[-73.984679,40.677631]]]}},{"type":"Feature","properties":{"zone":"M1-4/R6A","zoning_family":"Mixed Use","family_label":"Mixed-use zoning","description":"Mixed use: Light manufacturing with R6A residential.","location":"Bounded by Smith St to Hoyt St, Union St to Sackett St","source_file":"MixedUseZoning.kml","source_index":4,"color":"#0d9488"},"geometry":{"type":"Polygon","coordinates":[[[-73.986798,40.683283],[-73.985422,40.682748],[-73.985847,40.682115],[-73.986685,40.682442],[-73.986902,40.682527],[-73.987223,40.682653],[-73.987652,40.682018],[-73.987331,40.681893],[-73.987544,40.681577],[-73.988282,40.681863],[-73.98828,40.681866],[-73.986997,40.683766],[-73.986995,40.683765],[-73.986901,40.683729],[-73.98680930482968,40.68369329315797],[-73.9868201,40.683678],[-73.9868701,40.683605],[-73.9869251,40.683525],[-73.9866946333217,40.68343520506299],[-73.986798,40.683283]]]}},{"type":"Feature","properties":{"zone":"M1-4/R6A","zoning_family":"Mixed Use","family_label":"Mixed-use zoning","description":"Mixed use: Light manufacturing with R6A residential.","location":"Bounded by Hoyt St to Bond St, President St to Union St","source_file":"MixedUseZoning.kml","source_index":5,"color":"#0d9488"},"geometry":{"type":"Polygon","coordinates":[[[-73.981601,40.680464],[-73.983066,40.681033],[-73.982849,40.681352],[-73.982846,40.681351],[-73.982528,40.681227],[-73.981401,40.680789],[-73.981387,40.680783],[-73.981601,40.680464]]]}},{"type":"Feature","properties":{"zone":"M1-4/R6A","zoning_family":"Mixed Use","family_label":"Mixed-use zoning","description":"Mixed use: Light manufacturing with R6A residential.","location":"Along Hoyt St from President St to Union St","source_file":"MixedUseZoning.kml","source_index":6,"color":"#0d9488"},"geometry":{"type":"Polygon","coordinates":[[[-73.984352,40.680732],[-73.98548,40.681172],[-73.985264,40.681489],[-73.984863,40.681332],[-73.984649,40.681647],[-73.983924,40.681365],[-73.984352,40.680732]]]}},{"type":"Feature","properties":{"zone":"M1-4/R6A","zoning_family":"Mixed Use","family_label":"Mixed-use zoning","description":"Mixed use: Light manufacturing with R6A residential.","location":"Bounded by Smith St to Hoyt St, Carroll St to President St","source_file":"MixedUseZoning.kml","source_index":7,"color":"#0d9488"},"geometry":{"type":"Polygon","coordinates":[[[-73.985218,40.679461],[-73.98543,40.679146],[-73.985632,40.678843],[-73.986765,40.679279],[-73.98721,40.678624],[-73.986368,40.678297],[-73.986579,40.677985],[-73.987422,40.678312],[-73.98785,40.677681],[-73.988251,40.677837],[-73.986959,40.679744],[-73.986958,40.679744],[-73.986957,40.679743],[-73.986561,40.679588],[-73.986348,40.6799],[-73.985218,40.679461]]]}},{"type":"Feature","properties":{"zone":"M1-4/R6B","zoning_family":"Mixed Use","family_label":"Mixed-use zoning","description":"Mixed use: Light manufacturing with R6B residential.","location":"Along Court St from 1st St to Carroll St","source_file":"MixedUseZoning.kml","source_index":8,"color":"#0d9488"},"geometry":{"type":"Polygon","coordinates":[[[-73.995842,40.677183],[-73.996456,40.677472],[-73.99629,40.677818],[-73.995592,40.677483],[-73.995842,40.677183]]]}},{"type":"Feature","properties":{"zone":"M1-4/R6B","zoning_family":"Mixed Use","family_label":"Mixed-use zoning","description":"Mixed use: Light manufacturing with R6B residential.","location":"Near Smith St and 5th St","source_file":"MixedUseZoning.kml","source_index":9,"color":"#0d9488"},"geometry":{"type":"Polygon","coordinates":[[[-73.988802,40.672083],[-73.989599,40.672468],[-73.989347,40.67277],[-73.988546,40.672382],[-73.988802,40.672083]]]}},{"type":"Feature","properties":{"zone":"M1-4/R6B","zoning_family":"Mixed Use","family_label":"Mixed-use zoning","description":"Mixed use: Light manufacturing with R6B residential.","location":"Bounded by Smith St to Hoyt St, 3rd St to Carroll St","source_file":"MixedUseZoning.kml","source_index":10,"color":"#0d9488"},"geometry":{"type":"Polygon","coordinates":[[[-73.983959,40.676979],[-73.984009,40.676906],[-73.984346,40.676408],[-73.98443,40.676284],[-73.984443,40.67627],[-73.985116,40.675469],[-73.985175,40.675399],[-73.985177,40.675396],[-73.986987,40.676281],[-73.986687,40.67664],[-73.98712,40.676849],[-73.987415,40.676488],[-73.987754,40.676651],[-73.988326,40.676927],[-73.987826,40.677671],[-73.98785,40.677681],[-73.987422,40.678312],[-73.986579,40.677985],[-73.986368,40.678297],[-73.986306,40.678273],[-73.986303,40.678272],[-73.985648,40.678018],[-73.985655,40.67801],[-73.985225,40.677843],[-73.985857,40.676906],[-73.984902,40.676526],[-73.984513,40.677102],[-73.984462,40.677177],[-73.984238,40.677089],[-73.98398,40.676987],[-73.983959,40.676979]]]}},{"type":"Feature","properties":{"zone":"M1-4/R6B","zoning_family":"Mixed Use","family_label":"Mixed-use zoning","description":"Mixed use: Light manufacturing with R6B residential.","location":"Along Union St from Smith St to Hoyt St","source_file":"MixedUseZoning.kml","source_index":11,"color":"#0d9488"},"geometry":{"type":"Polygon","coordinates":[[[-73.986899,40.682126],[-73.987116,40.682211],[-73.987124,40.682199],[-73.987166,40.682137],[-73.987331,40.681893],[-73.987652,40.682018],[-73.987223,40.682653],[-73.986902,40.682527],[-73.986685,40.682442],[-73.986899,40.682126]]]}},{"type":"Feature","properties":{"zone":"M1-4/R6B","zoning_family":"Mixed Use","family_label":"Mixed-use zoning","description":"Mixed use: Light manufacturing with R6B residential.","location":"Along 5th St from Court St to Smith St","source_file":"MixedUseZoning.kml","source_index":12,"color":"#0d9488"},"geometry":{"type":"Polygon","coordinates":[[[-73.991441,40.671666],[-73.992744,40.672293],[-73.992493,40.672598],[-73.991189,40.671967],[-73.991441,40.671666]]]}},{"type":"Feature","properties":{"zone":"M1-4/R7-2","zoning_family":"Mixed Use","family_label":"Mixed-use zoning","description":"Mixed use: Light manufacturing with R7-2 residential.","location":"Bounded by Smith St to Hoyt St, 3rd St to Union St","source_file":"MixedUseZoning.kml","source_index":13,"color":"#0d9488"},"geometry":{"type":"Polygon","coordinates":[[[-73.988326,40.676927],[-73.989249,40.677372],[-73.989257,40.677295],[-73.989713,40.676755],[-73.988256,40.676052],[-73.988765,40.675445],[-73.990211,40.676144],[-73.990602,40.675693],[-73.990631,40.67566],[-73.991573,40.675806],[-73.991546,40.675839],[-73.99148,40.67592],[-73.99099,40.676519],[-73.99187,40.676949],[-73.990912,40.678108],[-73.990543,40.678555],[-73.990436,40.678684],[-73.990436,40.678685],[-73.988282,40.681863],[-73.987544,40.681577],[-73.98706,40.681388],[-73.987487,40.68075],[-73.986533,40.680372],[-73.986959,40.679744],[-73.988251,40.677837],[-73.98785,40.677681],[-73.987826,40.677671],[-73.988326,40.676927]]]}},{"type":"Feature","properties":{"zone":"M1-4/R7-2","zoning_family":"Mixed Use","family_label":"Mixed-use zoning","description":"Mixed use: Light manufacturing with R7-2 residential.","location":"Along Court St from 3rd St to 1st St","source_file":"MixedUseZoning.kml","source_index":14,"color":"#0d9488"},"geometry":{"type":"Polygon","coordinates":[[[-73.994583,40.676574],[-73.994401,40.676837],[-73.993224,40.676269],[-73.993411,40.676061],[-73.99358,40.676063],[-73.993749,40.676057],[-73.993917,40.676046],[-73.994034,40.676031],[-73.994149,40.676012],[-73.994263,40.675988],[-73.994374,40.675959],[-73.994484,40.675925],[-73.994601,40.675879],[-73.994716,40.675828],[-73.994826,40.675772],[-73.994933,40.675713],[-73.995035,40.675649],[-73.995133,40.675581],[-73.995241,40.67549],[-73.995343,40.675395],[-73.99544,40.675296],[-73.995764,40.674923],[-73.995777,40.674927],[-73.997448,40.675401],[-73.996456,40.677472],[-73.995842,40.677183],[-73.994583,40.676574]]]}},{"type":"Feature","properties":{"zone":"M1-4/R7A","zoning_family":"Mixed Use","family_label":"Mixed-use zoning","description":"Mixed use: Light manufacturing with R7A residential.","location":"Along Hoyt St from 1st St to President St","source_file":"MixedUseZoning.kml","source_index":15,"color":"#0d9488"},"geometry":{"type":"Polygon","coordinates":[[[-73.985632,40.678843],[-73.98543,40.679146],[-73.985108,40.679021],[-73.984897,40.678939],[-73.984575,40.678815],[-73.98457,40.678813],[-73.984775,40.678507],[-73.98331,40.677937],[-73.983311,40.677935],[-73.983472,40.677698],[-73.983593,40.677519],[-73.983759,40.677274],[-73.983914,40.677045],[-73.983915,40.677045],[-73.983959,40.676979],[-73.98398,40.676987],[-73.984238,40.677089],[-73.984194,40.677154],[-73.984039,40.677382],[-73.984679,40.677631],[-73.984453,40.677961],[-73.986087,40.678599],[-73.986306,40.678273],[-73.986368,40.678297],[-73.98721,40.678624],[-73.986765,40.679279],[-73.985632,40.678843]]]}},{"type":"Feature","properties":{"zone":"M1-4/R7X","zoning_family":"Mixed Use","family_label":"Mixed-use zoning","description":"Mixed use: Light manufacturing with R7X residential.","location":"Bounded by Smith St to Hoyt St, 5th St to 3rd St","source_file":"MixedUseZoning.kml","source_index":16,"color":"#0d9488"},"geometry":{"type":"Polygon","coordinates":[[[-73.98767,40.673823],[-73.988646,40.674297],[-73.987996,40.675074],[-73.987019,40.674601],[-73.98702,40.674601],[-73.98767,40.673823]]]}},{"type":"Feature","properties":{"zone":"M1-4/R7X","zoning_family":"Mixed Use","family_label":"Mixed-use zoning","description":"Mixed use: Light manufacturing with R7X residential.","location":"Bounded by Smith St to Hoyt St, 3rd St to 1st St","source_file":"MixedUseZoning.kml","source_index":17,"color":"#0d9488"},"geometry":{"type":"Polygon","coordinates":[[[-73.986987,40.676281],[-73.987992,40.675079],[-73.988765,40.675445],[-73.988256,40.676052],[-73.987758,40.676646],[-73.987754,40.676651],[-73.987415,40.676488],[-73.98712,40.676849],[-73.986687,40.67664],[-73.986987,40.676281]]]}},{"type":"Feature","properties":{"zone":"M1-4/R7X","zoning_family":"Mixed Use","family_label":"Mixed-use zoning","description":"Mixed use: Light manufacturing with R7X residential.","location":"Near Hoyt St and Union St","source_file":"MixedUseZoning.kml","source_index":18,"color":"#0d9488"},"geometry":{"type":"Polygon","coordinates":[[[-73.985441,40.681957],[-73.985847,40.682115],[-73.985422,40.682748],[-73.985007,40.682586],[-73.985217,40.682282],[-73.985441,40.681957]]]}},{"type":"Feature","properties":{"zone":"M1-4/R7X","zoning_family":"Mixed Use","family_label":"Mixed-use zoning","description":"Mixed use: Light manufacturing with R7X residential.","location":"Along Hoyt St from Carroll St to Union St","source_file":"MixedUseZoning.kml","source_index":19,"color":"#0d9488"},"geometry":{"type":"Polygon","coordinates":[[[-73.983715,40.68008],[-73.983394,40.679955],[-73.983818,40.679331],[-73.98414,40.679456],[-73.98457,40.678813],[-73.984575,40.678815],[-73.984897,40.678939],[-73.985108,40.679021],[-73.98543,40.679146],[-73.985218,40.679461],[-73.986348,40.6799],[-73.986561,40.679588],[-73.986957,40.679743],[-73.986958,40.679744],[-73.986959,40.679744],[-73.986533,40.680372],[-73.985669,40.681626],[-73.985658,40.681642],[-73.985264,40.681489],[-73.98548,40.681172],[-73.984352,40.680732],[-73.983924,40.681365],[-73.984649,40.681647],[-73.984483,40.681892],[-73.984426,40.681976],[-73.984425,40.681978],[-73.984424,40.681978],[-73.984363,40.681955],[-73.984212,40.681896],[-73.984091,40.681849],[-73.983841,40.681753],[-73.983698,40.681698],[-73.983265,40.68153],[-73.983274,40.681517],[-73.982849,40.681352],[-73.983066,40.681033],[-73.983715,40.68008]],[[-73.986071,40.680907],[-73.986403,40.680416],[-73.984954,40.679853],[-73.984633,40.679729],[-73.984632,40.679728],[-73.9843,40.680218],[-73.984617,40.680341],[-73.985344,40.680624],[-73.985745,40.68078],[-73.986066,40.680905],[-73.986071,40.680907]]]}},{"type":"Feature","properties":{"zone":"R5","zoning_family":"Residential","family_label":"Residential zoning","description":"Low-density general residential. Permits rowhouses and small apartments. Max FAR 1.25.","location":"Bounded by Columbia St to Hicks St, 3rd St to President St","source_file":"Residential(R)zoning.kml","source_index":2,"color":"#f59e0b"},"geometry":{"type":"Polygon","coordinates":[[[-74.008306,40.678973],[-74.008929,40.678437],[-74.010064,40.679213],[-74.010377,40.678948],[-74.00923,40.678163],[-74.011391,40.676331],[-74.009903,40.675315],[-74.009934,40.675288],[-74.0103,40.674975],[-74.010554,40.674758],[-74.010594,40.674723],[-74.010871,40.674486],[-74.010972,40.674555],[-74.01135,40.674814],[-74.011404,40.674851],[-74.011951,40.675225],[-74.012274,40.675445],[-74.012374,40.675514],[-74.012687,40.675247],[-74.013166,40.675574],[-74.012853,40.675839],[-74.013189,40.676068],[-74.013498,40.6758],[-74.014178,40.676264],[-74.014486,40.676005],[-74.014543,40.676043],[-74.014591,40.676076],[-74.014636,40.676106],[-74.014702,40.67615],[-74.014912,40.676287],[-74.015059,40.676387],[-74.015142,40.676443],[-74.015217,40.676493],[-74.015309,40.676555],[-74.015451,40.676652],[-74.015622,40.676769],[-74.015714,40.676832],[-74.015716,40.676833],[-74.014778,40.67763],[-74.013528,40.678694],[-74.012669,40.678111],[-74.011413,40.67917],[-74.011388,40.679153],[-74.010759,40.679686],[-74.010428,40.67946],[-74.009805,40.679991],[-74.009302,40.67965],[-74.008306,40.678973]]]}},{"type":"Feature","properties":{"zone":"R5","zoning_family":"Residential","family_label":"Residential zoning","description":"Low-density general residential. Permits rowhouses and small apartments. Max FAR 1.25.","location":"Bounded by Hicks St to Clinton St, 9th St to Carroll St","source_file":"Residential(R)zoning.kml","source_index":3,"color":"#f59e0b"},"geometry":{"type":"Polygon","coordinates":[[[-74.003194,40.676271],[-74.002228,40.678257],[-74.001028,40.676413],[-74.001104,40.676259],[-74.00082,40.675797],[-74.001203,40.67499],[-74.001357,40.674666],[-74.001709,40.673923],[-74.001713,40.673914],[-74.002186,40.674053],[-74.00291,40.672535],[-74.002911,40.672532],[-74.000901,40.671974],[-74.001831,40.670046],[-74.006016,40.671226],[-74.005939,40.671389],[-74.005694,40.671336],[-74.005566,40.671178],[-74.003936,40.670726],[-74.003421,40.671791],[-74.004142,40.671993],[-74.005474,40.672365],[-74.00825,40.673139],[-74.008466,40.672685],[-74.008476,40.672665],[-74.008482,40.672649],[-74.008488,40.67263],[-74.008494,40.672604],[-74.008496,40.672573],[-74.008495,40.672545],[-74.008491,40.672522],[-74.008484,40.672494],[-74.008338,40.672],[-74.008331,40.671978],[-74.008327,40.671959],[-74.008324,40.671944],[-74.008321,40.671922],[-74.008319,40.671901],[-74.008318,40.671868],[-74.008319,40.671844],[-74.008325,40.671801],[-74.008336,40.671758],[-74.008348,40.671723],[-74.008356,40.671707],[-74.009095,40.670161],[-74.009104,40.670143],[-74.009228,40.670178],[-74.008486,40.671724],[-74.008452,40.671824],[-74.008962,40.671962],[-74.009094,40.671695],[-74.009711,40.671875],[-74.011024,40.672246],[-74.010552,40.673199],[-74.008634,40.672664],[-74.008343,40.673276],[-74.00665,40.672803],[-74.00617,40.673801],[-74.007878,40.674281],[-74.007711,40.674626],[-74.007373,40.675332],[-74.007358,40.675363],[-74.005853,40.67848],[-74.00585,40.678479],[-74.004146,40.677997],[-74.004764,40.67671],[-74.003194,40.676271]],[[-74.0086,40.671936],[-74.008692,40.672234],[-74.008808,40.671999],[-74.0086,40.671936]],[[-74.010508,40.673111],[-74.010891,40.672316],[-74.009169,40.671839],[-74.008776,40.67263],[-74.010508,40.673111]],[[-74.004563,40.673662],[-74.005944,40.674045],[-74.006505,40.672877],[-74.005125,40.672503],[-74.004563,40.673662]],[[-74.004362,40.673591],[-74.00492,40.672437],[-74.003326,40.671995],[-74.002778,40.673148],[-74.004362,40.673591]],[[-74.004306,40.673741],[-74.002712,40.673292],[-74.0025,40.673731],[-74.004098,40.674173],[-74.004306,40.673741]],[[-74.003147,40.671715],[-74.003659,40.670647],[-74.001916,40.670144],[-74.001394,40.671226],[-74.003147,40.671715]],[[-74.003057,40.671902],[-74.00131,40.671416],[-74.001057,40.671945],[-74.002803,40.67243],[-74.003057,40.671902]]]}},{"type":"Feature","properties":{"zone":"R5B","zoning_family":"Residential","family_label":"Residential zoning","description":"Low-density contextual. Rowhouses up to 33 ft. Max FAR 1.35.","location":"Bounded by Smith St to Hoyt St, 39th St to 25th St","source_file":"Residential(R)zoning.kml","source_index":5,"color":"#f59e0b"},"geometry":{"type":"Polygon","coordinates":[[[-73.986509,40.664211],[-73.985015,40.663489],[-73.98513811030993,40.66334195157424],[-73.9866321138344,40.664064570489636],[-73.986509,40.664211]]]}},{"type":"Feature","properties":{"zone":"R6","zoning_family":"Residential","family_label":"Residential zoning","description":"Medium-density residential. Max FAR 2.43-3.0.","location":"Along Columbia St from 3rd St to 1st St","source_file":"Residential(R)zoning.kml","source_index":9,"color":"#f59e0b"},"geometry":{"type":"Polygon","coordinates":[[[-74.013166,40.675574],[-74.013498,40.6758],[-74.013189,40.676068],[-74.012853,40.675839],[-74.013166,40.675574]]]}},{"type":"Feature","properties":{"zone":"R6","zoning_family":"Residential","family_label":"Residential zoning","description":"Medium-density residential. Max FAR 2.43-3.0.","location":"Bounded by Hicks St to Henry St, 5th St to President St","source_file":"Residential(R)zoning.kml","source_index":11,"color":"#f59e0b"},"geometry":{"type":"Polygon","coordinates":[[[-74.006728,40.678855],[-74.006601,40.678768],[-74.006185,40.678485],[-74.00581,40.678829],[-74.005699,40.678798],[-74.005853,40.67848],[-74.007358,40.675363],[-74.007373,40.675332],[-74.007711,40.674626],[-74.007878,40.674281],[-74.008031,40.673966],[-74.009911,40.674493],[-74.009615,40.675118],[-74.009903,40.675315],[-74.011391,40.676331],[-74.00923,40.678163],[-74.010377,40.678948],[-74.010064,40.679213],[-74.008929,40.678437],[-74.008306,40.678973],[-74.007687,40.679507],[-74.006728,40.678855]],[[-74.009149,40.678107],[-74.00944,40.677858],[-74.009441,40.677857],[-74.010008,40.677372],[-74.008682,40.676456],[-74.006932,40.677949],[-74.008268,40.67886],[-74.009149,40.678107]]]}},{"type":"Feature","properties":{"zone":"R6","zoning_family":"Residential","family_label":"Residential zoning","description":"Medium-density residential. Max FAR 2.43-3.0.","location":"Bounded by Bond St to Nevins St, 15th St to 9th St","source_file":"Residential(R)zoning.kml","source_index":13,"color":"#f59e0b"},"geometry":{"type":"Polygon","coordinates":[[[-73.978213,40.666964],[-73.978628,40.667165],[-73.980141,40.667896],[-73.980569,40.668104],[-73.979563,40.669313],[-73.979113,40.669093],[-73.978516,40.668801],[-73.97876,40.668514],[-73.977885,40.668079],[-73.977463,40.667869],[-73.978213,40.666964]]]}},{"type":"Feature","properties":{"zone":"R6","zoning_family":"Residential","family_label":"Residential zoning","description":"Medium-density residential. Max FAR 2.43-3.0.","location":"Bounded by Smith St to Bond St, Union St to Degraw St","source_file":"Residential(R)zoning.kml","source_index":15,"color":"#f59e0b"},"geometry":{"type":"MultiPolygon","coordinates":[[[[-73.986995,40.683765],[-73.986997,40.683766],[-73.98828,40.681866],[-73.990424,40.682694],[-73.98925310183193,40.684425041625815],[-73.9890581,40.684349],[-73.9890281,40.684396],[-73.9889991,40.68444],[-73.9887491,40.684821],[-73.9887181,40.684868],[-73.9886421,40.684985],[-73.98831863571037,40.68485892533593],[-73.988491,40.684604],[-73.987481,40.684212],[-73.98730947952708,40.684466398012354],[-73.98667909212189,40.6842213113795],[-73.986995,40.683765]]],[[[-73.982846,40.681351],[-73.982849,40.681352],[-73.983274,40.681517],[-73.983265,40.68153],[-73.983698,40.681698],[-73.983841,40.681753],[-73.984091,40.681849],[-73.984212,40.681896],[-73.984363,40.681955],[-73.984424,40.681978],[-73.984636,40.68206],[-73.98474,40.6821],[-73.984828,40.682132],[-73.985217,40.682282],[-73.985007,40.682586],[-73.985422,40.682748],[-73.986798,40.683283],[-73.9866946333217,40.68343520506299],[-73.9847281,40.682669],[-73.9843041,40.683302],[-73.9841511,40.683243],[-73.9840841,40.683217],[-73.9840181,40.683191],[-73.9839451,40.683163],[-73.9838911,40.683142],[-73.9838411,40.683122],[-73.9828211,40.682725],[-73.98253719244481,40.68261502317862],[-73.982854,40.682149],[-73.98266773950418,40.68207689916291],[-73.9827841,40.681909],[-73.9826621,40.681861],[-73.9825721,40.681827],[-73.98253416958087,40.68181215766209],[-73.982846,40.681351]]]]}},{"type":"Feature","properties":{"zone":"R6","zoning_family":"Residential","family_label":"Residential zoning","description":"Medium-density residential. Max FAR 2.43-3.0.","location":"Bounded by Clinton St to Smith St, Sackett St to Dean St","source_file":"Residential(R)zoning.kml","source_index":17,"color":"#f59e0b"},"geometry":{"type":"Polygon","coordinates":[[[-73.995232,40.683741],[-73.995686,40.683868],[-73.996784,40.684175],[-73.997227,40.684298],[-73.998648,40.684696],[-73.999081,40.684817],[-74.000817,40.685302],[-73.999874,40.687254],[-73.999554,40.687916],[-73.999737,40.687976],[-73.999736,40.687977],[-73.999431,40.688625],[-73.99928,40.688946],[-73.999125,40.689275],[-74.000463,40.689638],[-74.000211,40.690148],[-73.99956928988664,40.691447413002116],[-73.9994431,40.691411],[-73.99942211431997,40.69140561178486],[-74.00029,40.689685],[-73.999163,40.68937],[-73.998524,40.690706],[-73.998576,40.690721],[-73.998564,40.69077],[-73.998551,40.690813],[-73.998535,40.690859],[-73.998506,40.690924],[-73.99848,40.690973],[-73.998455,40.691014],[-73.998441,40.691037],[-73.998422,40.691063],[-73.998399,40.691086],[-73.99837,40.69111],[-73.99835256180904,40.69112162546064],[-73.9979601,40.691014],[-73.9976991,40.690955],[-73.9961631,40.690518],[-73.9942911,40.689999],[-73.99245712926145,40.68949481876041],[-73.995232,40.683741]],[[-73.995599,40.687945],[-73.99548,40.688194],[-73.996469,40.688467],[-73.99654,40.688318],[-73.996568,40.68826],[-73.995599,40.687945]]]}},{"type":"Feature","properties":{"zone":"R6","zoning_family":"Residential","family_label":"Residential zoning","description":"Medium-density residential. Max FAR 2.43-3.0.","location":"Bounded by Bond St to 7th Ave, 39th St to 5th St","source_file":"Residential(R)zoning.kml","source_index":18,"color":"#f59e0b"},"geometry":{"type":"Polygon","coordinates":[[[-73.971125,40.671273],[-73.971697,40.670569],[-73.972474,40.669646],[-73.973096,40.668893],[-73.973641,40.668238],[-73.973643,40.668237],[-73.973759,40.668094],[-73.974601,40.667091],[-73.975501,40.665995],[-73.976354,40.664957],[-73.978015,40.662936],[-73.979183,40.661514],[-73.979275,40.661559],[-73.97935,40.661595],[-73.978855,40.662202],[-73.97842,40.662716],[-73.978349,40.662799],[-73.978067,40.663137],[-73.977846,40.663402],[-73.977343,40.664006],[-73.977152,40.664235],[-73.976843,40.664606],[-73.976434,40.665095],[-73.976273,40.665289],[-73.975891,40.665744],[-73.975831,40.665815],[-73.975774,40.665886],[-73.975409,40.666332],[-73.975326,40.666435],[-73.975285,40.666482],[-73.974916,40.666922],[-73.974835,40.66702],[-73.97477,40.667096],[-73.974664,40.66722],[-73.974575,40.667324],[-73.974464,40.667459],[-73.974387,40.667553],[-73.974331,40.667622],[-73.974287,40.667671],[-73.973927,40.668101],[-73.973825,40.668223],[-73.973744,40.66832],[-73.973383,40.668753],[-73.973323,40.668825],[-73.97282,40.669428],[-73.972334,40.67005],[-73.971788,40.670684],[-73.97044701049224,40.67242235485696],[-73.9703372,40.672407],[-73.9704332,40.672205],[-73.97043811359868,40.672196866664294],[-73.971125,40.671273]]]}},{"type":"Feature","properties":{"zone":"R6A","zoning_family":"Residential","family_label":"Residential zoning","description":"Medium-density contextual. Max FAR 3.0, 70 ft height limit.","location":"Along 9th St from Smith St to Hoyt St","source_file":"Residential(R)zoning.kml","source_index":20,"color":"#f59e0b"},"geometry":{"type":"Polygon","coordinates":[[[-73.987945,40.669548],[-73.988098,40.669622],[-73.988502,40.669817],[-73.988347,40.670002],[-73.987977,40.670444],[-73.987974,40.670448],[-73.986445,40.669712],[-73.98672,40.669377],[-73.98746,40.669741],[-73.987715,40.669437],[-73.987945,40.669548]]]}},{"type":"Feature","properties":{"zone":"R6A","zoning_family":"Residential","family_label":"Residential zoning","description":"Medium-density contextual. Max FAR 3.0, 70 ft height limit.","location":"Along Clinton St from Kane St to Baltic St","source_file":"Residential(R)zoning.kml","source_index":21,"color":"#f59e0b"},"geometry":{"type":"Polygon","coordinates":[[[-73.99928,40.688946],[-74.000167,40.689217],[-74.000319,40.688919],[-74.000748,40.689061],[-74.000697,40.689164],[-74.000463,40.689638],[-73.999125,40.689275],[-73.99928,40.688946]]]}},{"type":"Feature","properties":{"zone":"R6A","zoning_family":"Residential","family_label":"Residential zoning","description":"Medium-density contextual. Max FAR 3.0, 70 ft height limit.","location":"Bounded by Hoyt St to 3rd Ave, 39th St to Union St","source_file":"Residential(R)zoning.kml","source_index":22,"color":"#f59e0b"},"geometry":{"type":"Polygon","coordinates":[[[-73.985015,40.663489],[-73.982679,40.666274],[-73.981919,40.667171],[-73.977535,40.672447],[-73.976848,40.673264],[-73.976705,40.673437],[-73.976123,40.674301],[-73.98026,40.67591],[-73.980868,40.675022],[-73.981437,40.674343],[-73.985372,40.669593],[-73.986214,40.669985],[-73.984702,40.671791],[-73.984289,40.671591],[-73.983282,40.672796],[-73.98367,40.672983],[-73.981801,40.675241],[-73.981704,40.675395],[-73.981139,40.676245],[-73.982751,40.67688],[-73.982768,40.676887],[-73.982448,40.677361],[-73.982327,40.677539],[-73.982309,40.677533],[-73.980699,40.676926],[-73.977032,40.682301],[-73.976747,40.682191],[-73.975917,40.681062],[-73.976588,40.681323],[-73.979796,40.676593],[-73.975706,40.674976],[-73.97364,40.677962],[-73.973456,40.677716],[-73.973398,40.677634],[-73.973311,40.677509],[-73.973279,40.677461],[-73.973246,40.677414],[-73.97308,40.677185],[-73.975884,40.673027],[-73.979113,40.669093],[-73.979563,40.669313],[-73.980569,40.668104],[-73.980141,40.667896],[-73.980142,40.667895],[-73.98429065627145,40.66293200161654],[-73.9845221,40.663044],[-73.98513811030993,40.66334195157424],[-73.985015,40.663489]]]}},{"type":"Feature","properties":{"zone":"R6A","zoning_family":"Residential","family_label":"Residential zoning","description":"Medium-density contextual. Max FAR 3.0, 70 ft height limit.","location":"Bounded by Henry St to Clinton St, Union St to Kane St","source_file":"Residential(R)zoning.kml","source_index":24,"color":"#f59e0b"},"geometry":{"type":"Polygon","coordinates":[[[-74.001501,40.685493],[-74.001924,40.685611],[-74.003862,40.681585],[-74.0042,40.68168],[-74.004301,40.681708],[-74.00426,40.681793],[-74.004017,40.682298],[-74.003981,40.682373],[-74.003977,40.682381],[-74.00301,40.684391],[-74.003471,40.68452],[-74.003632,40.684565],[-74.003647,40.684569],[-74.003608,40.68465],[-74.003479,40.684918],[-74.003296,40.684867],[-74.003154,40.68516],[-74.00314,40.685189],[-74.002686,40.685062],[-74.002585,40.685273],[-74.002365,40.685735],[-74.002364,40.685736],[-74.002364,40.685738],[-74.002316,40.685835],[-74.002022,40.686438],[-74.001956,40.686574],[-74.001753,40.686995],[-74.001661,40.687186],[-74.00158,40.687355],[-74.001413,40.687703],[-74.001388,40.687753],[-74.000541,40.687474],[-74.001501,40.685493]]]}},{"type":"Feature","properties":{"zone":"R6A","zoning_family":"Residential","family_label":"Residential zoning","description":"Medium-density contextual. Max FAR 3.0, 70 ft height limit.","location":"Along Clinton St from Union St to Sackett St","source_file":"Residential(R)zoning.kml","source_index":25,"color":"#f59e0b"},"geometry":{"type":"Polygon","coordinates":[[[-73.999285,40.683351],[-73.999726,40.683473],[-74.000049,40.682804],[-73.999604,40.68268],[-73.999922,40.682008],[-74.000372,40.682133],[-74.000242,40.682402],[-74.000667,40.682521],[-74.000476,40.682922],[-74.001783,40.683284],[-74.001461,40.683958],[-74.000156,40.683594],[-73.999675,40.684603],[-73.999633,40.684591],[-73.999239,40.684484],[-73.999081,40.684817],[-73.998648,40.684696],[-73.999285,40.683351]]]}},{"type":"Feature","properties":{"zone":"R6A","zoning_family":"Residential","family_label":"Residential zoning","description":"Medium-density contextual. Max FAR 3.0, 70 ft height limit.","location":"Along Hoyt St from 15th St to 9th St","source_file":"Residential(R)zoning.kml","source_index":29,"color":"#f59e0b"},"geometry":{"type":"Polygon","coordinates":[[[-73.984621,40.667941],[-73.985964,40.66859],[-73.985715,40.668888],[-73.985872,40.668964],[-73.98561,40.669293],[-73.984091,40.66856],[-73.984621,40.667941]]]}},{"type":"Feature","properties":{"zone":"R6A","zoning_family":"Residential","family_label":"Residential zoning","description":"Medium-density contextual. Max FAR 3.0, 70 ft height limit.","location":"Bounded by Court St to Smith St, 9th St to 5th St","source_file":"Residential(R)zoning.kml","source_index":30,"color":"#f59e0b"},"geometry":{"type":"Polygon","coordinates":[[[-73.988909,40.670917],[-73.989469,40.670247],[-73.989486,40.670255],[-73.990872,40.67093],[-73.992111,40.669454],[-73.992119,40.669458],[-73.992526,40.669655],[-73.992022,40.670257],[-73.990008,40.672668],[-73.989601,40.67247],[-73.989599,40.672468],[-73.990321,40.671604],[-73.988909,40.670917]]]}},{"type":"Feature","properties":{"zone":"R6A","zoning_family":"Residential","family_label":"Residential zoning","description":"Medium-density contextual. Max FAR 3.0, 70 ft height limit.","location":"Near Court St and 15th St","source_file":"Residential(R)zoning.kml","source_index":31,"color":"#f59e0b"},"geometry":{"type":"Polygon","coordinates":[[[-73.993532,40.66846],[-73.993531,40.66846],[-73.993115,40.668251],[-73.993113,40.66825],[-73.99373442786627,40.667496144021115],[-73.9939661,40.667608],[-73.99415756088179,40.66770182958297],[-73.993532,40.66846]]]}},{"type":"Feature","properties":{"zone":"R6A","zoning_family":"Residential","family_label":"Residential zoning","description":"Medium-density contextual. Max FAR 3.0, 70 ft height limit.","location":"Bounded by Clinton St to Bond St, 5th St to Baltic St","source_file":"Residential(R)zoning.kml","source_index":32,"color":"#f59e0b"},"geometry":{"type":"Polygon","coordinates":[[[-73.994142,40.684932],[-73.994208,40.684958],[-73.995837,40.681581],[-73.996208,40.681723],[-73.996528,40.681061],[-73.99624,40.680981],[-73.996597,40.680235],[-73.996428,40.680187],[-73.996623,40.679783],[-73.996785,40.679829],[-73.997376,40.6786],[-73.997278,40.678572],[-73.997666,40.677756],[-73.997596,40.677736],[-73.998261,40.676357],[-73.998336,40.676378],[-73.998638,40.675732],[-73.997448,40.675401],[-73.997761,40.674759],[-73.997766,40.67475],[-73.998883,40.675065],[-73.999353,40.674098],[-73.999273,40.674076],[-73.999398,40.67381],[-73.999424,40.673754],[-73.999596,40.673801],[-74.00014,40.674689],[-74.000136,40.674688],[-74.000049,40.674664],[-73.99975,40.675308],[-73.999897,40.675347],[-73.99974,40.675674],[-73.999596,40.675634],[-73.998808,40.677242],[-73.998716,40.677216],[-73.998365,40.677949],[-73.998455,40.677974],[-73.998257,40.678385],[-73.997868,40.678277],[-73.997672,40.678682],[-73.997959,40.678762],[-73.99737,40.67999],[-73.999072,40.680466],[-73.998877,40.680872],[-73.999251,40.680976],[-73.997697,40.6842],[-73.997324,40.684097],[-73.997227,40.684298],[-73.996784,40.684175],[-73.996784,40.684174],[-73.997105,40.683504],[-73.996799,40.683418],[-73.997123,40.682746],[-73.997427,40.682832],[-73.997748,40.682162],[-73.997182,40.682001],[-73.997212,40.681937],[-73.997337,40.681668],[-73.997908,40.681827],[-73.998229,40.681158],[-73.997143,40.680855],[-73.996974,40.680807],[-73.996813,40.68114],[-73.996982,40.681187],[-73.99682,40.681524],[-73.99665,40.681477],[-73.996492,40.681804],[-73.996661,40.681852],[-73.995686,40.683868],[-73.995232,40.683741],[-73.99245712926145,40.68949481876041],[-73.9922941,40.68945],[-73.9925531,40.688921],[-73.9926161,40.688793],[-73.9928591,40.688279],[-73.9929351,40.688125],[-73.9931981,40.687584],[-73.9932681,40.687439],[-73.9935341,40.686887],[-73.9937171,40.686516],[-73.9938591,40.686213],[-73.99357655145303,40.68610365795545],[-73.994142,40.684932]]]}},{"type":"Feature","properties":{"zone":"R6A","zoning_family":"Residential","family_label":"Residential zoning","description":"Medium-density contextual. Max FAR 3.0, 70 ft height limit.","location":"Along Smith St from Carroll St to President St","source_file":"Residential(R)zoning.kml","source_index":33,"color":"#f59e0b"},"geometry":{"type":"Polygon","coordinates":[[[-73.990912,40.678108],[-73.99126,40.67826],[-73.991762,40.678491],[-73.991383,40.679052],[-73.990692,40.678784],[-73.990436,40.678685],[-73.990436,40.678684],[-73.990543,40.678555],[-73.990912,40.678108]]]}},{"type":"Feature","properties":{"zone":"R6B","zoning_family":"Residential","family_label":"Residential zoning","description":"Medium-density contextual. Max FAR 2.0, 50 ft height limit. Brownstone scale.","location":"Along Henry St from Union St to Sackett St","source_file":"Residential(R)zoning.kml","source_index":35,"color":"#f59e0b"},"geometry":{"type":"Polygon","coordinates":[[[-74.003977,40.682381],[-74.005369,40.682767],[-74.004885,40.683774],[-74.004853,40.683766],[-74.004726,40.684027],[-74.004705,40.68407],[-74.00469,40.6841],[-74.004639,40.684086],[-74.004603,40.684162],[-74.004478,40.684422],[-74.0037,40.684205],[-74.003664,40.68428],[-74.003595,40.684261],[-74.003471,40.68452],[-74.00301,40.684391],[-74.003977,40.682381]]]}},{"type":"Feature","properties":{"zone":"R6B","zoning_family":"Residential","family_label":"Residential zoning","description":"Medium-density contextual. Max FAR 2.0, 50 ft height limit. Brownstone scale.","location":"Bounded by Bond St to 3rd Ave, 15th St to 5th St","source_file":"Residential(R)zoning.kml","source_index":39,"color":"#f59e0b"},"geometry":{"type":"Polygon","coordinates":[[[-73.977885,40.668079],[-73.97876,40.668514],[-73.978516,40.668801],[-73.979113,40.669093],[-73.975884,40.673027],[-73.974666,40.672554],[-73.975494,40.67156],[-73.975119,40.671379],[-73.977883,40.668082],[-73.977885,40.668079]]]}},{"type":"Feature","properties":{"zone":"R6B","zoning_family":"Residential","family_label":"Residential zoning","description":"Medium-density contextual. Max FAR 2.0, 50 ft height limit. Brownstone scale.","location":"Along Smith St from 9th St to 5th St","source_file":"Residential(R)zoning.kml","source_index":41,"color":"#f59e0b"},"geometry":{"type":"Polygon","coordinates":[[[-73.988802,40.672083],[-73.988546,40.672382],[-73.987931,40.672087],[-73.988909,40.670917],[-73.990321,40.671604],[-73.989599,40.672468],[-73.988802,40.672083]]]}},{"type":"Feature","properties":{"zone":"R6B","zoning_family":"Residential","family_label":"Residential zoning","description":"Medium-density contextual. Max FAR 2.0, 50 ft height limit. Brownstone scale.","location":"Bounded by Bond St to 3rd Ave, 3rd St to Union St","source_file":"Residential(R)zoning.kml","source_index":42,"color":"#f59e0b"},"geometry":{"type":"Polygon","coordinates":[[[-73.975706,40.674976],[-73.979796,40.676593],[-73.976588,40.681323],[-73.975917,40.681062],[-73.97591,40.681053],[-73.975801,40.68091],[-73.975796,40.680903],[-73.975765,40.680861],[-73.975489,40.680493],[-73.975457,40.680451],[-73.97543,40.680414],[-73.975353,40.6803],[-73.975291,40.680216],[-73.975167,40.680048],[-73.975105,40.679965],[-73.974959,40.679767],[-73.974922,40.679718],[-73.974888,40.679672],[-73.974739,40.679469],[-73.974574,40.679239],[-73.974521,40.679165],[-73.974481,40.679112],[-73.974468,40.679094],[-73.974396,40.678999],[-73.974273,40.678836],[-73.974213,40.678756],[-73.973961,40.678417],[-73.973686,40.678047],[-73.97365,40.67798],[-73.97364,40.677962],[-73.975706,40.674976]]]}},{"type":"Feature","properties":{"zone":"R6B","zoning_family":"Residential","family_label":"Residential zoning","description":"Medium-density contextual. Max FAR 2.0, 50 ft height limit. Brownstone scale.","location":"Bounded by Smith St to Bond St, 9th St to 1st St","source_file":"Residential(R)zoning.kml","source_index":45,"color":"#f59e0b"},"geometry":{"type":"Polygon","coordinates":[[[-73.98367,40.672983],[-73.983282,40.672796],[-73.984289,40.671591],[-73.984702,40.671791],[-73.986214,40.669985],[-73.986445,40.669712],[-73.987974,40.670448],[-73.986175,40.672596],[-73.985673,40.673195],[-73.985652,40.673185],[-73.985073,40.672906],[-73.985061,40.672906],[-73.985049,40.672906],[-73.985037,40.672905],[-73.985027,40.672904],[-73.985016,40.672902],[-73.985004,40.672899],[-73.984991,40.672895],[-73.984977,40.672889],[-73.984965,40.672882],[-73.984954,40.672876],[-73.984948,40.672871],[-73.984937,40.672862],[-73.984928,40.672853],[-73.984919,40.672842],[-73.984909,40.672828],[-73.984899,40.672816],[-73.984889,40.672807],[-73.984878,40.672799],[-73.984868,40.672793],[-73.984851,40.672784],[-73.98385,40.672302],[-73.983447,40.672785],[-73.985154,40.673609],[-73.985256,40.673658],[-73.985277,40.673668],[-73.985213,40.673745],[-73.98509,40.673686],[-73.985071,40.673676],[-73.985007,40.673753],[-73.985006,40.673753],[-73.984629,40.674203],[-73.984525,40.674327],[-73.984524,40.674328],[-73.984125,40.674803],[-73.984016,40.674933],[-73.983619,40.675406],[-73.98351,40.675536],[-73.9834,40.675667],[-73.983294,40.675824],[-73.983293,40.675825],[-73.983246,40.675894],[-73.9832,40.675963],[-73.982862,40.676462],[-73.98282,40.676525],[-73.982972,40.676586],[-73.982768,40.676887],[-73.982751,40.67688],[-73.981139,40.676245],[-73.981704,40.675395],[-73.981801,40.675241],[-73.98367,40.672983]]]}},{"type":"Feature","properties":{"zone":"R6B","zoning_family":"Residential","family_label":"Residential zoning","description":"Medium-density contextual. Max FAR 2.0, 50 ft height limit. Brownstone scale.","location":"Bounded by Court St to Smith St, 25th St to 9th St","source_file":"Residential(R)zoning.kml","source_index":47,"color":"#f59e0b"},"geometry":{"type":"Polygon","coordinates":[[[-73.993113,40.66825],[-73.992872,40.668542],[-73.992571,40.668398],[-73.992053,40.669013],[-73.992357,40.669161],[-73.992111,40.669454],[-73.990872,40.67093],[-73.989486,40.670255],[-73.989469,40.670247],[-73.991653,40.667634],[-73.992214,40.666966],[-73.99233597147386,40.66682094106859],[-73.99373442786627,40.667496144021115],[-73.993113,40.66825]]]}},{"type":"Feature","properties":{"zone":"R6B","zoning_family":"Residential","family_label":"Residential zoning","description":"Medium-density contextual. Max FAR 2.0, 50 ft height limit. Brownstone scale.","location":"Bounded by Hoyt St to Nevins St, 39th St to 15th St","source_file":"Residential(R)zoning.kml","source_index":48,"color":"#f59e0b"},"geometry":{"type":"Polygon","coordinates":[[[-73.980142,40.667895],[-73.980141,40.667896],[-73.978628,40.667165],[-73.979639,40.665951],[-73.978796,40.665543],[-73.978522,40.665872],[-73.977005,40.665162],[-73.979788,40.661807],[-73.979882,40.661691],[-73.979971,40.661687],[-73.98006,40.661676],[-73.980146,40.661659],[-73.98023,40.661635],[-73.98031,40.661606],[-73.980387,40.66157],[-73.980458,40.661528],[-73.980523,40.661482],[-73.980582,40.66143],[-73.980634,40.661375],[-73.980678,40.661316],[-73.980715,40.661254],[-73.98073120735012,40.66121637579437],[-73.9821601,40.661901],[-73.98429065627145,40.66293200161654],[-73.980142,40.667895]]]}},{"type":"Feature","properties":{"zone":"R6B","zoning_family":"Residential","family_label":"Residential zoning","description":"Medium-density contextual. Max FAR 2.0, 50 ft height limit. Brownstone scale.","location":"Along Clinton St from Kane St to Baltic St","source_file":"Residential(R)zoning.kml","source_index":53,"color":"#f59e0b"},"geometry":{"type":"Polygon","coordinates":[[[-73.999431,40.688625],[-74.000138,40.688859],[-74.000446,40.688209],[-73.999737,40.687976],[-73.999554,40.687916],[-73.999874,40.687254],[-74.000541,40.687474],[-74.001388,40.687753],[-74.001067,40.688415],[-74.000748,40.689061],[-74.000319,40.688919],[-74.000167,40.689217],[-73.99928,40.688946],[-73.999431,40.688625]]]}},{"type":"Feature","properties":{"zone":"R6B","zoning_family":"Residential","family_label":"Residential zoning","description":"Medium-density contextual. Max FAR 2.0, 50 ft height limit. Brownstone scale.","location":"Bounded by Bond St to Nevins St, 1st St to Sackett St","source_file":"Residential(R)zoning.kml","source_index":54,"color":"#f59e0b"},"geometry":{"type":"Polygon","coordinates":[[[-73.977267,40.682942],[-73.977239,40.682903],[-73.977199,40.682845],[-73.977039,40.682616],[-73.976883,40.682393],[-73.976835,40.682324],[-73.97681,40.682288],[-73.976747,40.682191],[-73.977032,40.682301],[-73.980699,40.676926],[-73.982309,40.677533],[-73.982327,40.677539],[-73.97834962355229,40.6833961487395],[-73.9773084229282,40.68300154545929],[-73.977267,40.682942]]]}},{"type":"Feature","properties":{"zone":"R6B","zoning_family":"Residential","family_label":"Residential zoning","description":"Medium-density contextual. Max FAR 2.0, 50 ft height limit. Brownstone scale.","location":"Bounded by Court St to Hoyt St, 25th St to 9th St","source_file":"Residential(R)zoning.kml","source_index":55,"color":"#f59e0b"},"geometry":{"type":"Polygon","coordinates":[[[-73.991272,40.666509],[-73.991217,40.666574],[-73.988747,40.669524],[-73.987217,40.668781],[-73.98987830341692,40.665633600633385],[-73.99139085864745,40.666366063549276],[-73.991272,40.666509]]]}},{"type":"Feature","properties":{"zone":"R6B","zoning_family":"Residential","family_label":"Residential zoning","description":"Medium-density contextual. Max FAR 2.0, 50 ft height limit. Brownstone scale.","location":"Along Clinton St from 5th St to 3rd St","source_file":"Residential(R)zoning.kml","source_index":56,"color":"#f59e0b"},"geometry":{"type":"Polygon","coordinates":[[[-73.998076,40.674115],[-73.998513,40.674235],[-73.998669,40.67391],[-73.999273,40.674076],[-73.999353,40.674098],[-73.998883,40.675065],[-73.997766,40.67475],[-73.99777,40.674742],[-73.997782,40.67472],[-73.997787,40.674712],[-73.998076,40.674115]]]}},{"type":"Feature","properties":{"zone":"R6B","zoning_family":"Residential","family_label":"Residential zoning","description":"Medium-density contextual. Max FAR 2.0, 50 ft height limit. Brownstone scale.","location":"Bounded by Clinton St to Court St, President St to Sackett St","source_file":"Residential(R)zoning.kml","source_index":57,"color":"#f59e0b"},"geometry":{"type":"Polygon","coordinates":[[[-73.996661,40.681852],[-73.996492,40.681804],[-73.99665,40.681477],[-73.99682,40.681524],[-73.996982,40.681187],[-73.996813,40.68114],[-73.996974,40.680807],[-73.997143,40.680855],[-73.998229,40.681158],[-73.997908,40.681827],[-73.997337,40.681668],[-73.997212,40.681937],[-73.997182,40.682001],[-73.997748,40.682162],[-73.997427,40.682832],[-73.997123,40.682746],[-73.996799,40.683418],[-73.997105,40.683504],[-73.996784,40.684174],[-73.996784,40.684175],[-73.995686,40.683868],[-73.996661,40.681852]]]}},{"type":"Feature","properties":{"zone":"R6B","zoning_family":"Residential","family_label":"Residential zoning","description":"Medium-density contextual. Max FAR 2.0, 50 ft height limit. Brownstone scale.","location":"Bounded by 3rd Ave to 5th Ave, 1st St to Union St","source_file":"Residential(R)zoning.kml","source_index":61,"color":"#f59e0b"},"geometry":{"type":"Polygon","coordinates":[[[-73.974229,40.6815],[-73.974392,40.681082],[-73.974728,40.681154],[-73.975096,40.681659],[-73.975464,40.682163],[-73.973949613102,40.68185099253497],[-73.974084614742,40.68146989934452],[-73.974229,40.6815]]]}},{"type":"Feature","properties":{"zone":"R6B","zoning_family":"Residential","family_label":"Residential zoning","description":"Medium-density contextual. Max FAR 2.0, 50 ft height limit. Brownstone scale.","location":"Bounded by Clinton St to Bond St, 3rd St to Kane St","source_file":"Residential(R)zoning.kml","source_index":63,"color":"#f59e0b"},"geometry":{"type":"MultiPolygon","coordinates":[[[[-73.990424,40.682694],[-73.98828,40.681866],[-73.988282,40.681863],[-73.990436,40.678685],[-73.990692,40.678784],[-73.991383,40.679052],[-73.991762,40.678491],[-73.99126,40.67826],[-73.990912,40.678108],[-73.99187,40.676949],[-73.991872,40.676947],[-73.993725,40.677842],[-73.993942,40.67752],[-73.995101,40.678072],[-73.995346,40.677778],[-73.994832,40.67753],[-73.995076,40.677236],[-73.995592,40.677483],[-73.99629,40.677818],[-73.996456,40.677472],[-73.997448,40.675401],[-73.998638,40.675732],[-73.998336,40.676378],[-73.998261,40.676357],[-73.997596,40.677736],[-73.997666,40.677756],[-73.997278,40.678572],[-73.997376,40.6786],[-73.996785,40.679829],[-73.996623,40.679783],[-73.996428,40.680187],[-73.996597,40.680235],[-73.99624,40.680981],[-73.996528,40.681061],[-73.996208,40.681723],[-73.995837,40.681581],[-73.994208,40.684958],[-73.994142,40.684932],[-73.99357655145303,40.68610365795545],[-73.9912621,40.685208],[-73.9909891,40.685102],[-73.98925310183193,40.684425041625815],[-73.990424,40.682694]],[[-73.996131,40.681609],[-73.996374,40.681101],[-73.994714,40.68064],[-73.994487,40.680975],[-73.996131,40.681609]],[[-73.997531,40.675489],[-73.997288,40.676009],[-73.99755,40.676084],[-73.997672,40.675822],[-73.997793,40.675562],[-73.997531,40.675489]],[[-73.997398,40.67635],[-73.997421,40.676302],[-73.997444,40.676255],[-73.997467,40.676206],[-73.997222,40.676136],[-73.996973,40.676658],[-73.997217,40.676727],[-73.99724,40.676679],[-73.997265,40.676628],[-73.997286,40.676583],[-73.997307,40.676539],[-73.997331,40.676489],[-73.997353,40.676443],[-73.997374,40.676399],[-73.997398,40.67635]]],[[[-73.986901,40.683729],[-73.986995,40.683765],[-73.98667909212189,40.6842213113795],[-73.9864931,40.684149],[-73.9865451,40.684074],[-73.9866531,40.683918],[-73.9867601,40.683763],[-73.98680930482968,40.68369329315797],[-73.986901,40.683729]]]]}},{"type":"Feature","properties":{"zone":"R6B","zoning_family":"Residential","family_label":"Residential zoning","description":"Medium-density contextual. Max FAR 2.0, 50 ft height limit. Brownstone scale.","location":"Bounded by Henry St to Court St, 3rd St to Degraw St","source_file":"Residential(R)zoning.kml","source_index":65,"color":"#f59e0b"},"geometry":{"type":"Polygon","coordinates":[[[-73.999239,40.684484],[-73.999633,40.684591],[-73.999675,40.684603],[-74.000156,40.683594],[-74.001461,40.683958],[-74.001783,40.683284],[-74.000476,40.682922],[-74.000667,40.682521],[-74.000242,40.682402],[-74.000372,40.682133],[-73.999922,40.682008],[-73.999604,40.68268],[-74.000049,40.682804],[-73.999726,40.683473],[-73.999285,40.683351],[-73.998648,40.684696],[-73.997227,40.684298],[-73.997324,40.684097],[-73.997697,40.6842],[-73.999251,40.680976],[-73.998877,40.680872],[-73.999072,40.680466],[-73.99737,40.67999],[-73.997959,40.678762],[-73.997672,40.678682],[-73.997868,40.678277],[-73.998257,40.678385],[-73.998455,40.677974],[-73.998365,40.677949],[-73.998716,40.677216],[-73.998808,40.677242],[-73.999596,40.675634],[-73.99974,40.675674],[-73.999897,40.675347],[-73.99975,40.675308],[-74.000049,40.674664],[-74.000136,40.674688],[-74.00014,40.674689],[-74.00082,40.675797],[-74.001104,40.676259],[-74.001028,40.676413],[-74.002228,40.678257],[-74.001947,40.678848],[-74.00292,40.679132],[-74.003207,40.679452],[-74.003718,40.680021],[-74.003695,40.680041],[-74.003616,40.680099],[-74.003542,40.68016],[-74.003448,40.680262],[-74.00336,40.680368],[-74.003278,40.680475],[-74.003218,40.680558],[-74.003165,40.680643],[-74.003117,40.68073],[-74.003074,40.680819],[-74.002837,40.681299],[-74.003862,40.681585],[-74.001924,40.685611],[-74.001501,40.685493],[-74.000817,40.685302],[-73.999081,40.684817],[-73.999239,40.684484]],[[-74.00103,40.676613],[-74.000837,40.677012],[-74.001372,40.67716],[-74.00103,40.676613]],[[-74.002669,40.682098],[-74.00254,40.682363],[-74.002574,40.682372],[-74.002702,40.682108],[-74.002669,40.682098]],[[-74.002084,40.680419],[-74.002084,40.680416],[-74.00191,40.680367],[-74.001836,40.680522],[-74.001834,40.680522],[-74.001784,40.680626],[-74.001786,40.680626],[-74.001871,40.68065],[-74.001954,40.680673],[-74.00183,40.680931],[-74.002398,40.681085],[-74.002419,40.681091],[-74.002574,40.681046],[-74.002785,40.680611],[-74.002084,40.680419]],[[-74.002844,40.680463],[-74.003125,40.679874],[-74.003136,40.679852],[-74.003143,40.679834],[-74.003154,40.679799],[-74.003162,40.679763],[-74.003164,40.679745],[-74.003166,40.679727],[-74.003167,40.679708],[-74.003168,40.67969],[-74.003167,40.679672],[-74.003167,40.679658],[-74.003164,40.679633],[-74.003159,40.679608],[-74.003152,40.679583],[-74.003143,40.679559],[-74.003137,40.679548],[-74.003117,40.67951],[-74.003096,40.679472],[-74.003079,40.679448],[-74.003051,40.679411],[-74.003002,40.679435],[-74.002949,40.67946],[-74.002898,40.679485],[-74.002861,40.679505],[-74.002824,40.679527],[-74.002788,40.679549],[-74.002753,40.679572],[-74.002719,40.679596],[-74.002686,40.679621],[-74.002653,40.679646],[-74.002622,40.679672],[-74.002592,40.679697],[-74.002564,40.679724],[-74.002537,40.679751],[-74.002511,40.679779],[-74.002486,40.679808],[-74.002462,40.679837],[-74.002425,40.679884],[-74.002389,40.679932],[-74.002356,40.67998],[-74.002324,40.68003],[-74.002312,40.680047],[-74.002301,40.680065],[-74.002291,40.680082],[-74.002273,40.680118],[-74.002265,40.680136],[-74.002258,40.680155],[-74.002252,40.680173],[-74.002242,40.680211],[-74.002235,40.68025],[-74.002228,40.680289],[-74.002844,40.680463]],[[-74.002583,40.679385],[-74.002614,40.679347],[-74.002636,40.679319],[-74.002656,40.679289],[-74.002673,40.679259],[-74.002682,40.679238],[-74.002685,40.679233],[-74.002695,40.679206],[-74.002703,40.67918],[-74.00271,40.679153],[-74.002715,40.679127],[-74.002711,40.679126],[-74.002706,40.679152],[-74.0027,40.679179],[-74.002691,40.679206],[-74.002681,40.679232],[-74.002669,40.679258],[-74.002653,40.679288],[-74.002633,40.679317],[-74.002611,40.679346],[-74.00258,40.679384],[-74.002527,40.679443],[-74.002464,40.67951],[-74.002415,40.679565],[-74.002354,40.679634],[-74.002322,40.679671],[-74.002257,40.679756],[-74.002241,40.679781],[-74.002231,40.679795],[-74.002219,40.679815],[-74.002196,40.679855],[-74.002172,40.6799],[-74.002157,40.679931],[-74.002145,40.679957],[-74.002127,40.679998],[-74.002122,40.680013],[-74.002111,40.680042],[-74.002095,40.680091],[-74.002046,40.68024],[-74.002049,40.680241],[-74.002071,40.680177],[-74.002085,40.680134],[-74.002103,40.680079],[-74.002115,40.680042],[-74.002121,40.680025],[-74.002131,40.679999],[-74.002149,40.679957],[-74.002173,40.679905],[-74.002198,40.679859],[-74.002224,40.679813],[-74.002234,40.679798],[-74.002243,40.679783],[-74.00226,40.679759],[-74.002287,40.67972],[-74.002302,40.679701],[-74.002325,40.679673],[-74.002357,40.679636],[-74.002418,40.679567],[-74.002467,40.679512],[-74.00253,40.679444],[-74.002583,40.679385]]]}},{"type":"Feature","properties":{"zone":"R6B","zoning_family":"Residential","family_label":"Residential zoning","description":"Medium-density contextual. Max FAR 2.0, 50 ft height limit. Brownstone scale.","location":"Bounded by Court St to 3rd Ave, 39th St to 3rd St","source_file":"Residential(R)zoning.kml","source_index":66,"color":"#f59e0b"},"geometry":{"type":"Polygon","coordinates":[[[-73.986101,40.668655],[-73.985964,40.66859],[-73.984621,40.667941],[-73.984091,40.66856],[-73.98561,40.669293],[-73.985372,40.669593],[-73.981437,40.674343],[-73.980868,40.675022],[-73.98026,40.67591],[-73.976123,40.674301],[-73.976705,40.673437],[-73.976848,40.673264],[-73.977535,40.672447],[-73.981919,40.667171],[-73.982679,40.666274],[-73.985015,40.663489],[-73.986509,40.664211],[-73.9866321138344,40.664064570489636],[-73.9868811,40.664185],[-73.98900498699855,40.665210975895576],[-73.986101,40.668655]]]}},{"type":"Feature","properties":{"zone":"R6B","zoning_family":"Residential","family_label":"Residential zoning","description":"Medium-density contextual. Max FAR 2.0, 50 ft height limit. Brownstone scale.","location":"Along 3rd Ave from President St to Union St","source_file":"Residential(R)zoning.kml","source_index":69,"color":"#f59e0b"},"geometry":{"type":"Polygon","coordinates":[[[-73.974052,40.680646],[-73.974413,40.680721],[-73.974517,40.680742],[-73.974392,40.681082],[-73.97423452104326,40.681048595372815],[-73.9743212,40.680806],[-73.97401131091254,40.68075872878327],[-73.974052,40.680646]]]}},{"type":"Feature","properties":{"zone":"R7-3","zoning_family":"Residential","family_label":"Residential zoning","description":"Medium-density with lower parking. Max FAR 3.44.","location":"Bounded by Smith St to Hoyt St, 15th St to 9th St","source_file":"Residential(R)zoning.kml","source_index":75,"color":"#f59e0b"},"geometry":{"type":"Polygon","coordinates":[[[-73.987715,40.669437],[-73.98746,40.669741],[-73.98672,40.669377],[-73.986988,40.669052],[-73.987217,40.668781],[-73.988747,40.669524],[-73.988521,40.669794],[-73.988502,40.669817],[-73.988098,40.669622],[-73.987945,40.669548],[-73.987715,40.669437]]]}},{"type":"Feature","properties":{"zone":"R7A","zoning_family":"Residential","family_label":"Residential zoning","description":"Medium-density contextual. Max FAR 4.0, 80 ft height limit.","location":"Bounded by Smith St to Nevins St, Union St to Kane St","source_file":"Residential(R)zoning.kml","source_index":77,"color":"#f59e0b"},"geometry":{"type":"Polygon","coordinates":[[[-73.982854,40.682149],[-73.98253719244481,40.68261502317862],[-73.9823461,40.682541],[-73.98266773950418,40.68207689916291],[-73.982854,40.682149]]]}},{"type":"Feature","properties":{"zone":"R7A","zoning_family":"Residential","family_label":"Residential zoning","description":"Medium-density contextual. Max FAR 4.0, 80 ft height limit.","location":"Along Clinton St from Degraw St to Kane St","source_file":"Residential(R)zoning.kml","source_index":82,"color":"#f59e0b"},"geometry":{"type":"Polygon","coordinates":[[[-74.000817,40.685302],[-74.001501,40.685493],[-74.000541,40.687474],[-73.999874,40.687254],[-74.000817,40.685302]]]}},{"type":"Feature","properties":{"zone":"R7A","zoning_family":"Residential","family_label":"Residential zoning","description":"Medium-density contextual. Max FAR 4.0, 80 ft height limit.","location":"Bounded by Bond St to 3rd Ave, 39th St to 9th St","source_file":"Residential(R)zoning.kml","source_index":85,"color":"#f59e0b"},"geometry":{"type":"Polygon","coordinates":[[[-73.97935,40.661595],[-73.979788,40.661807],[-73.977005,40.665162],[-73.973254,40.669638],[-73.973012,40.669521],[-73.97282,40.669428],[-73.973323,40.668825],[-73.973383,40.668753],[-73.973744,40.66832],[-73.973825,40.668223],[-73.973927,40.668101],[-73.974287,40.667671],[-73.974331,40.667622],[-73.974387,40.667553],[-73.974464,40.667459],[-73.974575,40.667324],[-73.974664,40.66722],[-73.97477,40.667096],[-73.974835,40.66702],[-73.974916,40.666922],[-73.975285,40.666482],[-73.975326,40.666435],[-73.975409,40.666332],[-73.975774,40.665886],[-73.975831,40.665815],[-73.975891,40.665744],[-73.976273,40.665289],[-73.976434,40.665095],[-73.976843,40.664606],[-73.977152,40.664235],[-73.977343,40.664006],[-73.977846,40.663402],[-73.978067,40.663137],[-73.978349,40.662799],[-73.97842,40.662716],[-73.978855,40.662202],[-73.97935,40.661595]]]}},{"type":"Feature","properties":{"zone":"R7A","zoning_family":"Residential","family_label":"Residential zoning","description":"Medium-density contextual. Max FAR 4.0, 80 ft height limit.","location":"Near Clinton St and Kane St","source_file":"Residential(R)zoning.kml","source_index":86,"color":"#f59e0b"},"geometry":{"type":"Polygon","coordinates":[[[-73.999737,40.687976],[-74.000446,40.688209],[-74.000138,40.688859],[-73.999431,40.688625],[-73.999736,40.687977],[-73.999737,40.687976]]]}},{"type":"Feature","properties":{"zone":"R7A","zoning_family":"Residential","family_label":"Residential zoning","description":"Medium-density contextual. Max FAR 4.0, 80 ft height limit.","location":"Bounded by Nevins St to 4th Ave, 3rd St to Sackett St","source_file":"Residential(R)zoning.kml","source_index":87,"color":"#f59e0b"},"geometry":{"type":"MultiPolygon","coordinates":[[[[-73.975464,40.682163],[-73.975096,40.681659],[-73.974728,40.681154],[-73.974392,40.681082],[-73.974517,40.680742],[-73.974413,40.680721],[-73.974052,40.680646],[-73.97401131091254,40.68075872878327],[-73.9739082,40.680743],[-73.9740342,40.68041],[-73.9744342,40.680493],[-73.9750732,40.680632],[-73.9746212,40.680027],[-73.9742402,40.679495],[-73.9734392,40.678399],[-73.9729832,40.677759],[-73.9726462,40.677283],[-73.9723752,40.676922],[-73.9718162,40.676155],[-73.97147292567419,40.67568049553236],[-73.971618,40.675464],[-73.971912,40.675585],[-73.971946,40.675618],[-73.972015,40.675713],[-73.972063,40.675779],[-73.972148,40.675896],[-73.972317,40.676131],[-73.972434,40.676293],[-73.972608,40.676533],[-73.97265,40.676592],[-73.972747,40.676726],[-73.972836,40.676849],[-73.972847,40.676864],[-73.972881,40.67691],[-73.972969,40.677032],[-73.973,40.677075],[-73.97308,40.677185],[-73.973246,40.677414],[-73.973279,40.677461],[-73.973311,40.677509],[-73.973398,40.677634],[-73.973456,40.677716],[-73.97364,40.677962],[-73.97365,40.67798],[-73.973686,40.678047],[-73.973961,40.678417],[-73.974213,40.678756],[-73.974273,40.678836],[-73.974396,40.678999],[-73.974468,40.679094],[-73.974481,40.679112],[-73.974521,40.679165],[-73.974574,40.679239],[-73.974739,40.679469],[-73.974888,40.679672],[-73.974922,40.679718],[-73.974959,40.679767],[-73.975105,40.679965],[-73.975167,40.680048],[-73.975291,40.680216],[-73.975353,40.6803],[-73.97543,40.680414],[-73.975457,40.680451],[-73.975489,40.680493],[-73.975765,40.680861],[-73.975796,40.680903],[-73.975801,40.68091],[-73.97591,40.681053],[-73.975917,40.681062],[-73.976747,40.682191],[-73.97681,40.682288],[-73.976835,40.682324],[-73.976883,40.682393],[-73.977039,40.682616],[-73.977199,40.682845],[-73.977239,40.682903],[-73.977267,40.682942],[-73.9773084229282,40.68300154545929],[-73.9765972,40.682732],[-73.9764992,40.682587],[-73.97635802337182,40.68254896074185],[-73.97635,40.682538],[-73.976302,40.682472],[-73.9762815785806,40.68252836311755],[-73.9761392,40.68249],[-73.97562554632043,40.68238512619059],[-73.975464,40.682163]]],[[[-73.974229,40.6815],[-73.974084614742,40.68146989934452],[-73.9741572,40.681265],[-73.97423452104326,40.681048595372815],[-73.974392,40.681082],[-73.974229,40.6815]]]]}},{"type":"Feature","properties":{"zone":"R7B","zoning_family":"Residential","family_label":"Residential zoning","description":"Medium-density contextual. Max FAR 3.0, 75 ft height limit.","location":"Bounded by Hoyt St to Bond St, President St to Union St","source_file":"Residential(R)zoning.kml","source_index":90,"color":"#f59e0b"},"geometry":{"type":"Polygon","coordinates":[[[-73.981264,40.680967],[-73.981342,40.68085],[-73.981387,40.680783],[-73.981401,40.680789],[-73.982528,40.681227],[-73.982846,40.681351],[-73.98253416958087,40.68181215766209],[-73.9825031,40.6818],[-73.9823551,40.681742],[-73.9818961,40.681565],[-73.9818091,40.681531],[-73.98107614756033,40.6812467724684],[-73.981264,40.680967]]]}},{"type":"Feature","properties":{"zone":"R7B","zoning_family":"Residential","family_label":"Residential zoning","description":"Medium-density contextual. Max FAR 3.0, 75 ft height limit.","location":"Bounded by Bond St to 4th Ave, 25th St to 1st St","source_file":"Residential(R)zoning.kml","source_index":91,"color":"#f59e0b"},"geometry":{"type":"Polygon","coordinates":[[[-73.973254,40.669638],[-73.977005,40.665162],[-73.978522,40.665872],[-73.978796,40.665543],[-73.979639,40.665951],[-73.978628,40.667165],[-73.978213,40.666964],[-73.977463,40.667869],[-73.977885,40.668079],[-73.977883,40.668082],[-73.975119,40.671379],[-73.975494,40.67156],[-73.974666,40.672554],[-73.975884,40.673027],[-73.97308,40.677185],[-73.973,40.677075],[-73.972969,40.677032],[-73.972881,40.67691],[-73.972847,40.676864],[-73.972836,40.676849],[-73.972747,40.676726],[-73.97265,40.676592],[-73.972608,40.676533],[-73.972434,40.676293],[-73.972317,40.676131],[-73.972148,40.675896],[-73.972063,40.675779],[-73.972015,40.675713],[-73.971946,40.675618],[-73.971912,40.675585],[-73.971618,40.675464],[-73.972096,40.674759],[-73.97166,40.674591],[-73.972515,40.673316],[-73.9710119954246,40.67273093781629],[-73.9709812,40.672691],[-73.97092147842079,40.672619861060056],[-73.973254,40.669638]]]}},{"type":"Feature","properties":{"zone":"R8A","zoning_family":"Residential","family_label":"Residential zoning","description":"High-density contextual. Max FAR 6.02, 120 ft height limit.","location":"Bounded by Clinton St to Smith St, 39th St to 15th St","source_file":"Residential(R)zoning.kml","source_index":100,"color":"#f59e0b"},"geometry":{"type":"Polygon","coordinates":[[[-73.992214,40.666966],[-73.992212,40.666965],[-73.991908,40.666818],[-73.991272,40.666509],[-73.99139085864745,40.666366063549276],[-73.9915931,40.666464],[-73.9916641,40.666497],[-73.9917251,40.666526],[-73.99233597147386,40.66682094106859],[-73.992214,40.666966]]]}},{"type":"Feature","properties":{"zone":"R8B","zoning_family":"Residential","family_label":"Residential zoning","description":"High-density contextual. Max FAR 4.0, 75 ft height limit.","location":"Near Bond St and 39th St","source_file":"Residential(R)zoning.kml","source_index":102,"color":"#f59e0b"},"geometry":{"type":"Polygon","coordinates":[[[-73.980715,40.661254],[-73.980678,40.661316],[-73.980634,40.661375],[-73.980582,40.66143],[-73.980523,40.661482],[-73.980458,40.661528],[-73.980387,40.66157],[-73.98031,40.661606],[-73.98023,40.661635],[-73.980146,40.661659],[-73.98006,40.661676],[-73.979971,40.661687],[-73.979882,40.661691],[-73.979788,40.661807],[-73.97935,40.661595],[-73.979275,40.661559],[-73.979183,40.661514],[-73.979412,40.661236],[-73.97939979618278,40.66121722489658],[-73.9795842,40.661003],[-73.9796362,40.661022],[-73.9796922,40.661034],[-73.9797492,40.661041],[-73.9798072,40.66104],[-73.9798652,40.661034],[-73.9799202,40.661021],[-73.9799732,40.661002],[-73.9800212,40.660978],[-73.9800642,40.660949],[-73.9801022,40.660915],[-73.98073120735012,40.66121637579437],[-73.980715,40.661254]]]}},{"type":"Feature","properties":{"zone":"R8X","zoning_family":"Residential","family_label":"Residential zoning","description":"High-density contextual. Max FAR 5.4, 150 ft height limit.","location":"Bounded by 3rd Ave to 7th Ave, 9th St to 1st St","source_file":"Residential(R)zoning.kml","source_index":103,"color":"#f59e0b"},"geometry":{"type":"MultiPolygon","coordinates":[[[[-73.972515,40.673316],[-73.97166,40.674591],[-73.972096,40.674759],[-73.971618,40.675464],[-73.97147292567419,40.67568049553236],[-73.9713532,40.675515],[-73.9709792,40.674997],[-73.9710552,40.674916],[-73.9711242,40.67483],[-73.9711842,40.674741],[-73.9712372,40.674649],[-73.9712812,40.674555],[-73.9713162,40.674459],[-73.9713422,40.674361],[-73.9713602,40.674261],[-73.9713952,40.674063],[-73.9714082,40.673863],[-73.9714002,40.673663],[-73.9713692,40.673465],[-73.9713122,40.67327],[-73.9713112,40.673269],[-73.9712892,40.673215],[-73.9712502,40.673124],[-73.9712062,40.673034],[-73.9711572,40.672946],[-73.9711032,40.672859],[-73.9710452,40.672774],[-73.9710119954246,40.67273093781629],[-73.972515,40.673316]]],[[[-73.971788,40.670684],[-73.972334,40.67005],[-73.97282,40.669428],[-73.973012,40.669521],[-73.973254,40.669638],[-73.97092147842079,40.672619861060056],[-73.9709132,40.67261],[-73.9708412,40.672531],[-73.9708092,40.672473],[-73.97044701049224,40.67242235485696],[-73.971788,40.670684]]]]}},{"type":"Feature","properties":{"zone":"M1-1","zoning_family":"Manufacturing","family_label":"Manufacturing zoning","description":"Light manufacturing/commercial. Max FAR 1.0.","location":"Bounded by Columbia St to Henry St, 15th St to 1st St","source_file":"Manufacturing(M)Zoning.kml","source_index":2,"color":"#7c3aed"},"geometry":{"type":"Polygon","coordinates":[[[-74.013056,40.673584],[-74.01243,40.673159],[-74.011803,40.67369],[-74.014803,40.675731],[-74.014808,40.675735],[-74.014486,40.676005],[-74.014178,40.676264],[-74.013498,40.6758],[-74.013166,40.675574],[-74.012687,40.675247],[-74.012374,40.675514],[-74.012274,40.675445],[-74.011951,40.675225],[-74.011404,40.674851],[-74.01135,40.674814],[-74.010972,40.674555],[-74.010871,40.674486],[-74.010594,40.674723],[-74.010554,40.674758],[-74.0103,40.674975],[-74.009934,40.675288],[-74.009903,40.675315],[-74.009615,40.675118],[-74.009911,40.674493],[-74.008031,40.673966],[-74.007878,40.674281],[-74.00617,40.673801],[-74.00665,40.672803],[-74.008343,40.673276],[-74.008634,40.672664],[-74.010552,40.673199],[-74.011024,40.672246],[-74.009711,40.671875],[-74.009715,40.671868],[-74.010463,40.670336],[-74.009308,40.670012],[-74.010097,40.668377],[-74.0102858377605,40.668429609167326],[-74.010268,40.668838],[-74.01049,40.668951],[-74.01084,40.66895],[-74.010803,40.66947],[-74.011473,40.669544],[-74.011552,40.669874],[-74.011444,40.670167],[-74.011555,40.670341],[-74.013992,40.669466],[-74.01401689913045,40.669469062459896],[-74.01417681890331,40.66951361523402],[-74.014172,40.669568],[-74.011684,40.670418],[-74.011702,40.670463],[-74.011727,40.670506],[-74.011759,40.670547],[-74.011798,40.670584],[-74.011842,40.670618],[-74.011893,40.670648],[-74.011949,40.670674],[-74.012008,40.670694],[-74.012071,40.670708],[-74.012135,40.670715],[-74.0122,40.670717],[-74.012265,40.670712],[-74.012328,40.670702],[-74.012389,40.670685],[-74.012447,40.670663],[-74.012501,40.670635],[-74.01255,40.670602],[-74.013028,40.670815],[-74.013482,40.671017],[-74.013528,40.670987],[-74.01358,40.670963],[-74.013636,40.670945],[-74.013693,40.670934],[-74.013751,40.670929],[-74.013809,40.670931],[-74.013866,40.670939],[-74.013921,40.670954],[-74.014204,40.671139],[-74.01501,40.670446],[-74.01513,40.670514],[-74.014299,40.671215],[-74.014053,40.671429],[-74.013803,40.671641],[-74.014163,40.67189],[-74.015526,40.67073],[-74.015616,40.670799],[-74.014217,40.672001],[-74.014159,40.671967],[-74.012906,40.673088],[-74.013294,40.673352],[-74.013881,40.672872],[-74.01390347071111,40.67285362711548],[-74.013056,40.673584]]]}},{"type":"Feature","properties":{"zone":"M1-1","zoning_family":"Manufacturing","family_label":"Manufacturing zoning","description":"Light manufacturing/commercial. Max FAR 1.0.","location":"Bounded by Henry St to Clinton St, 5th St to 3rd St","source_file":"Manufacturing(M)Zoning.kml","source_index":3,"color":"#7c3aed"},"geometry":{"type":"Polygon","coordinates":[[[-74.000883,40.674532],[-74.000609,40.674089],[-74.000157,40.673964],[-74.000737,40.674854],[-74.001203,40.67499],[-74.00082,40.675797],[-74.00014,40.674689],[-73.999596,40.673801],[-73.999424,40.673754],[-73.999398,40.67381],[-73.999273,40.674076],[-73.998669,40.67391],[-73.998513,40.674235],[-73.998076,40.674115],[-73.998818,40.672577],[-73.999202,40.672571],[-73.99966,40.671627],[-74.000901,40.671974],[-74.002911,40.672532],[-74.00291,40.672535],[-74.002186,40.674053],[-74.001713,40.673914],[-74.001709,40.673923],[-74.001357,40.674666],[-74.000883,40.674532]]]}},{"type":"Feature","properties":{"zone":"M1-1","zoning_family":"Manufacturing","family_label":"Manufacturing zoning","description":"Light manufacturing/commercial. Max FAR 1.0.","location":"Bounded by Ferris St to Columbia St, 1st St to Carroll St","source_file":"Manufacturing(M)Zoning.kml","source_index":4,"color":"#7c3aed"},"geometry":{"type":"Polygon","coordinates":[[[-74.01603,40.676565],[-74.016101,40.676613],[-74.016848,40.677116],[-74.017197,40.67735],[-74.017547,40.677586],[-74.017464,40.677656],[-74.01709,40.677968],[-74.016905,40.678124],[-74.016625,40.67836],[-74.016287,40.678649],[-74.016209,40.678597],[-74.014778,40.67763],[-74.015716,40.676833],[-74.01603,40.676565]]]}},{"type":"Feature","properties":{"zone":"M1-1","zoning_family":"Manufacturing","family_label":"Manufacturing zoning","description":"Light manufacturing/commercial. Max FAR 1.0.","location":"Bounded by Hicks St to Clinton St, 1st St to Kane St","source_file":"Manufacturing(M)Zoning.kml","source_index":5,"color":"#7c3aed"},"geometry":{"type":"Polygon","coordinates":[[[-74.002686,40.685062],[-74.00314,40.685189],[-74.003154,40.68516],[-74.003296,40.684867],[-74.003479,40.684918],[-74.003608,40.68465],[-74.003647,40.684569],[-74.003632,40.684565],[-74.003471,40.68452],[-74.003595,40.684261],[-74.003664,40.68428],[-74.0037,40.684205],[-74.004478,40.684422],[-74.004603,40.684162],[-74.004639,40.684086],[-74.00469,40.6841],[-74.004705,40.68407],[-74.004726,40.684027],[-74.004853,40.683766],[-74.004885,40.683774],[-74.005369,40.682767],[-74.003977,40.682381],[-74.003981,40.682373],[-74.004017,40.682298],[-74.00426,40.681793],[-74.004301,40.681708],[-74.0042,40.68168],[-74.003862,40.681585],[-74.002837,40.681299],[-74.003074,40.680819],[-74.003117,40.68073],[-74.003165,40.680643],[-74.003218,40.680558],[-74.003278,40.680475],[-74.00336,40.680368],[-74.003448,40.680262],[-74.003542,40.68016],[-74.003616,40.680099],[-74.003695,40.680041],[-74.003718,40.680021],[-74.003207,40.679452],[-74.00292,40.679132],[-74.001947,40.678848],[-74.002228,40.678257],[-74.003194,40.676271],[-74.004764,40.67671],[-74.004146,40.677997],[-74.00585,40.678479],[-74.005853,40.67848],[-74.005699,40.678798],[-74.00581,40.678829],[-74.006185,40.678485],[-74.006601,40.678768],[-74.006728,40.678855],[-74.007687,40.679507],[-74.008306,40.678973],[-74.009302,40.67965],[-74.009805,40.679991],[-74.006063,40.683186],[-74.003514,40.688422],[-74.001388,40.687753],[-74.001413,40.687703],[-74.00158,40.687355],[-74.001661,40.687186],[-74.001753,40.686995],[-74.001956,40.686574],[-74.002022,40.686438],[-74.002316,40.685835],[-74.002364,40.685738],[-74.002364,40.685736],[-74.002365,40.685735],[-74.002585,40.685273],[-74.002686,40.685062]],[[-74.006439,40.680575],[-74.007062,40.680041],[-74.006646,40.679758],[-74.006027,40.680295],[-74.006439,40.680575]],[[-74.002454,40.678647],[-74.002452,40.678644],[-74.002419,40.678601],[-74.002288,40.67888],[-74.002335,40.678893],[-74.002338,40.678894],[-74.002454,40.678647]],[[-74.003351,40.678108],[-74.003336,40.678137],[-74.003338,40.67814],[-74.003353,40.678111],[-74.003568,40.678168],[-74.003533,40.678237],[-74.003886,40.67833],[-74.003887,40.678327],[-74.003538,40.678235],[-74.003573,40.678166],[-74.003351,40.678108]]]}},{"type":"Feature","properties":{"zone":"M1-2","zoning_family":"Manufacturing","family_label":"Manufacturing zoning","description":"Light manufacturing/commercial. Max FAR 2.0.","location":"Bounded by Columbia St to Hicks St, 5th St to 3rd St","source_file":"Manufacturing(M)Zoning.kml","source_index":8,"color":"#7c3aed"},"geometry":{"type":"Polygon","coordinates":[[[-74.01243,40.673159],[-74.013056,40.673584],[-74.015438,40.675205],[-74.014808,40.675735],[-74.014803,40.675731],[-74.011803,40.67369],[-74.01243,40.673159]]]}},{"type":"Feature","properties":{"zone":"M1-2","zoning_family":"Manufacturing","family_label":"Manufacturing zoning","description":"Light manufacturing/commercial. Max FAR 2.0.","location":"Bounded by Clinton St to Court St, 9th St to 5th St","source_file":"Manufacturing(M)Zoning.kml","source_index":9,"color":"#7c3aed"},"geometry":{"type":"Polygon","coordinates":[[[-73.997453,40.669979],[-73.997532,40.6701],[-73.998503,40.671661],[-73.997476,40.6729],[-73.996013,40.672192],[-73.996527,40.671582],[-73.99623,40.671436],[-73.997453,40.669979]]]}},{"type":"Feature","properties":{"zone":"M1-2","zoning_family":"Manufacturing","family_label":"Manufacturing zoning","description":"Light manufacturing/commercial. Max FAR 2.0.","location":"Bounded by Court St to Smith St, 15th St to 9th St","source_file":"Manufacturing(M)Zoning.kml","source_index":10,"color":"#7c3aed"},"geometry":{"type":"Polygon","coordinates":[[[-73.992571,40.668398],[-73.992872,40.668542],[-73.993113,40.66825],[-73.993115,40.668251],[-73.993531,40.66846],[-73.993532,40.66846],[-73.993027,40.669055],[-73.992526,40.669655],[-73.992119,40.669458],[-73.992111,40.669454],[-73.992357,40.669161],[-73.992053,40.669013],[-73.992571,40.668398]]]}},{"type":"Feature","properties":{"zone":"M1-2","zoning_family":"Manufacturing","family_label":"Manufacturing zoning","description":"Light manufacturing/commercial. Max FAR 2.0.","location":"Bounded by Smith St to Hoyt St, 5th St to 1st St","source_file":"Manufacturing(M)Zoning.kml","source_index":14,"color":"#7c3aed"},"geometry":{"type":"Polygon","coordinates":[[[-73.985711,40.673968],[-73.986172,40.674192],[-73.987019,40.674601],[-73.987996,40.675074],[-73.987992,40.675079],[-73.986987,40.676281],[-73.985177,40.675396],[-73.984714,40.675171],[-73.985213,40.674569],[-73.985711,40.673968]]]}},{"type":"Feature","properties":{"zone":"M1-2","zoning_family":"Manufacturing","family_label":"Manufacturing zoning","description":"Light manufacturing/commercial. Max FAR 2.0.","location":"Near Hoyt St and Union St","source_file":"Manufacturing(M)Zoning.kml","source_index":15,"color":"#7c3aed"},"geometry":{"type":"Polygon","coordinates":[[[-73.984863,40.681332],[-73.985264,40.681489],[-73.985658,40.681642],[-73.985441,40.681957],[-73.985217,40.682282],[-73.984828,40.682132],[-73.98474,40.6821],[-73.984636,40.68206],[-73.984424,40.681978],[-73.984425,40.681978],[-73.984426,40.681976],[-73.984483,40.681892],[-73.984649,40.681647],[-73.984863,40.681332]]]}},{"type":"Feature","properties":{"zone":"M1-4","zoning_family":"Manufacturing","family_label":"Manufacturing zoning","description":"Light manufacturing/commercial. Max FAR 2.0.","location":"Bounded by Court St to Smith St, 3rd St to Carroll St","source_file":"Manufacturing(M)Zoning.kml","source_index":18,"color":"#7c3aed"},"geometry":{"type":"Polygon","coordinates":[[[-73.991872,40.676947],[-73.99187,40.676949],[-73.99099,40.676519],[-73.99148,40.67592],[-73.991546,40.675839],[-73.991573,40.675806],[-73.992317,40.675921],[-73.992557,40.675961],[-73.992799,40.675997],[-73.993042,40.676028],[-73.993286,40.676055],[-73.993411,40.676061],[-73.993224,40.676269],[-73.994401,40.676837],[-73.994583,40.676574],[-73.995842,40.677183],[-73.995592,40.677483],[-73.995076,40.677236],[-73.994832,40.67753],[-73.994727,40.677481],[-73.994243,40.677247],[-73.994155,40.677204],[-73.993942,40.67752],[-73.993725,40.677842],[-73.991872,40.676947]]]}},{"type":"Feature","properties":{"zone":"M1-4","zoning_family":"Manufacturing","family_label":"Manufacturing zoning","description":"Light manufacturing/commercial. Max FAR 2.0.","location":"Bounded by Smith St to Hoyt St, 5th St to 3rd St","source_file":"Manufacturing(M)Zoning.kml","source_index":19,"color":"#7c3aed"},"geometry":{"type":"Polygon","coordinates":[[[-73.987931,40.672087],[-73.988546,40.672382],[-73.989347,40.67277],[-73.989599,40.672468],[-73.989601,40.67247],[-73.990008,40.672668],[-73.988646,40.674297],[-73.98767,40.673823],[-73.98702,40.674601],[-73.987019,40.674601],[-73.986172,40.674192],[-73.987931,40.672087]]]}},{"type":"Feature","properties":{"zone":"M1-4","zoning_family":"Manufacturing","family_label":"Manufacturing zoning","description":"Light manufacturing/commercial. Max FAR 2.0.","location":"Along Hoyt St from 1st St to Carroll St","source_file":"Manufacturing(M)Zoning.kml","source_index":20,"color":"#7c3aed"},"geometry":{"type":"Polygon","coordinates":[[[-73.984194,40.677154],[-73.984238,40.677089],[-73.984462,40.677177],[-73.984513,40.677102],[-73.984902,40.676526],[-73.985857,40.676906],[-73.985225,40.677843],[-73.984679,40.677631],[-73.984039,40.677382],[-73.984194,40.677154]]]}},{"type":"Feature","properties":{"zone":"M1-4","zoning_family":"Manufacturing","family_label":"Manufacturing zoning","description":"Light manufacturing/commercial. Max FAR 2.0.","location":"Bounded by Hoyt St to Bond St, Carroll St to Union St","source_file":"Manufacturing(M)Zoning.kml","source_index":21,"color":"#7c3aed"},"geometry":{"type":"Polygon","coordinates":[[[-73.982627,40.67895],[-73.982722,40.678811],[-73.983056,40.67832],[-73.983057,40.678318],[-73.983107,40.678244],[-73.983102,40.678242],[-73.98315,40.678172],[-73.98331,40.677937],[-73.984775,40.678507],[-73.98457,40.678813],[-73.98414,40.679456],[-73.983818,40.679331],[-73.983394,40.679955],[-73.983715,40.68008],[-73.983066,40.681033],[-73.981601,40.680464],[-73.981816,40.680144],[-73.981861,40.680076],[-73.9822,40.679577],[-73.982247,40.679508],[-73.982294,40.679439],[-73.982627,40.67895]]]}},{"type":"Feature","properties":{"zone":"M1-4","zoning_family":"Manufacturing","family_label":"Manufacturing zoning","description":"Light manufacturing/commercial. Max FAR 2.0.","location":"Near Hoyt St and Union St","source_file":"Manufacturing(M)Zoning.kml","source_index":22,"color":"#7c3aed"},"geometry":{"type":"Polygon","coordinates":[[[-73.985658,40.681642],[-73.986899,40.682126],[-73.986685,40.682442],[-73.985847,40.682115],[-73.985441,40.681957],[-73.985658,40.681642]]]}},{"type":"Feature","properties":{"zone":"M1-5","zoning_family":"Manufacturing","family_label":"Manufacturing zoning","description":"Light manufacturing/commercial. Max FAR 5.0.","location":"Near Henry St and President St","source_file":"Manufacturing(M)Zoning.kml","source_index":23,"color":"#7c3aed"},"geometry":{"type":"Polygon","coordinates":[[[-74.006646,40.679758],[-74.007062,40.680041],[-74.006439,40.680575],[-74.006027,40.680295],[-74.006646,40.679758]]]}},{"type":"Feature","properties":{"zone":"M1-5","zoning_family":"Manufacturing","family_label":"Manufacturing zoning","description":"Light manufacturing/commercial. Max FAR 5.0.","location":"Along Clinton St from 5th St to 3rd St","source_file":"Manufacturing(M)Zoning.kml","source_index":24,"color":"#7c3aed"},"geometry":{"type":"Polygon","coordinates":[[[-74.001203,40.67499],[-74.000737,40.674854],[-74.000157,40.673964],[-74.000609,40.674089],[-74.000883,40.674532],[-74.001357,40.674666],[-74.001203,40.67499]]]}},{"type":"Feature","properties":{"zone":"M2-1","zoning_family":"Manufacturing","family_label":"Manufacturing zoning","description":"Medium manufacturing. Max FAR 2.0.","location":"Bounded by Ferris St to Court St, 5th St to Dean St","source_file":"Manufacturing(M)Zoning.kml","source_index":26,"color":"#7c3aed"},"geometry":{"type":"Polygon","coordinates":[[[-74.000211,40.690148],[-74.000463,40.689638],[-74.000697,40.689164],[-74.000748,40.689061],[-74.001067,40.688415],[-74.001388,40.687753],[-74.003514,40.688422],[-74.006063,40.683186],[-74.009805,40.679991],[-74.010428,40.67946],[-74.010759,40.679686],[-74.011388,40.679153],[-74.011413,40.67917],[-74.012669,40.678111],[-74.013528,40.678694],[-74.014778,40.67763],[-74.016209,40.678597],[-74.016287,40.678649],[-74.016625,40.67836],[-74.016905,40.678124],[-74.01709,40.677968],[-74.017464,40.677656],[-74.017547,40.677586],[-74.017197,40.67735],[-74.016848,40.677116],[-74.016101,40.676613],[-74.01603,40.676565],[-74.01781139201837,40.67504949469575],[-74.01808,40.675228],[-74.018125,40.6752],[-74.01816,40.675222],[-74.018228,40.675219],[-74.018342,40.675125],[-74.01825,40.675063],[-74.018193,40.67511],[-74.018101,40.675051],[-74.018317,40.674857],[-74.018405,40.674913],[-74.018353,40.674968],[-74.018452,40.675029],[-74.018687,40.674816],[-74.018697,40.67481],[-74.01871,40.674806],[-74.018722,40.674803],[-74.018736,40.674802],[-74.018749,40.674802],[-74.018763,40.674804],[-74.018775,40.674808],[-74.018786,40.674814],[-74.018796,40.674821],[-74.018805,40.674829],[-74.018811,40.674838],[-74.018815,40.674848],[-74.018817,40.674858],[-74.018817,40.674868],[-74.018814,40.674878],[-74.01834,40.675279],[-74.018348,40.675298],[-74.01836,40.675316],[-74.018374,40.675333],[-74.018392,40.675348],[-74.018412,40.67536],[-74.018467,40.675529],[-74.018465,40.675547],[-74.018458,40.675565],[-74.018448,40.675582],[-74.018434,40.675597],[-74.018417,40.675611],[-74.018397,40.675621],[-74.018374,40.675629],[-74.018351,40.675634],[-74.018326,40.675635],[-74.017948,40.675644],[-74.017904,40.675709],[-74.017868,40.675776],[-74.017841,40.675845],[-74.017821,40.675916],[-74.01781,40.675988],[-74.017807,40.67606],[-74.017813,40.676133],[-74.017827,40.676204],[-74.01785,40.676275],[-74.017903,40.676273],[-74.017907,40.676328],[-74.019039,40.676304],[-74.019051,40.676376],[-74.019699,40.676373],[-74.019882,40.676863],[-74.019013,40.6769],[-74.019072,40.677483],[-74.019119,40.677501],[-74.019121,40.677503],[-74.019149,40.677537],[-74.019107,40.677587],[-74.019018,40.677591],[-74.019013,40.677591],[-74.018995,40.67761],[-74.018971,40.677637],[-74.018964,40.677637],[-74.01836,40.677668],[-74.01836,40.677688],[-74.018341,40.678167],[-74.018525,40.678158],[-74.018555,40.67813],[-74.018558,40.67813],[-74.01856,40.67813],[-74.01858,40.678145],[-74.018592,40.678154],[-74.018884,40.678141],[-74.018913,40.678112],[-74.01892,40.678113],[-74.018951,40.678137],[-74.019402,40.678118],[-74.019469,40.678062],[-74.019592,40.678146],[-74.019593,40.678148],[-74.019482,40.678242],[-74.019448,40.678219],[-74.019359,40.67816],[-74.019356,40.67816],[-74.019295,40.678162],[-74.019209,40.678164],[-74.019207,40.678167],[-74.019205,40.678168],[-74.019177,40.678192],[-74.019172,40.678192],[-74.019137,40.678168],[-74.019051,40.678173],[-74.018994,40.678176],[-74.018963,40.678203],[-74.01896,40.678203],[-74.018956,40.678202],[-74.018924,40.67818],[-74.01892,40.67818],[-74.018917,40.67818],[-74.018781,40.678183],[-74.018778,40.678186],[-74.018754,40.678205],[-74.018746,40.678212],[-74.018742,40.678212],[-74.01871,40.67819],[-74.018705,40.67819],[-74.018648,40.678192],[-74.018563,40.678194],[-74.018562,40.678195],[-74.018532,40.678221],[-74.01853,40.678221],[-74.018525,40.678221],[-74.018495,40.6782],[-74.018441,40.678201],[-74.018335,40.678202],[-74.018348,40.67831],[-74.0182,40.678314],[-74.018213,40.678488],[-74.018271,40.678489],[-74.018313,40.678505],[-74.018509,40.678743],[-74.01937,40.678693],[-74.019386,40.678692],[-74.019403,40.678694],[-74.019419,40.678697],[-74.019434,40.678702],[-74.019448,40.678709],[-74.01946,40.678718],[-74.01947,40.678728],[-74.019478,40.678739],[-74.019483,40.678752],[-74.019486,40.678764],[-74.019486,40.678777],[-74.019483,40.678789],[-74.019211,40.679408],[-74.018998,40.679521],[-74.018858,40.679604],[-74.018921,40.679665],[-74.017655,40.680422],[-74.017577,40.680362],[-74.0175,40.680411],[-74.017399,40.680375],[-74.016778,40.680746],[-74.016718,40.680782],[-74.015131,40.681739],[-74.015251,40.681871],[-74.015013,40.682014],[-74.014798,40.682143],[-74.01275,40.683382],[-74.012554,40.683229],[-74.012053,40.682722],[-74.012065,40.682666],[-74.014035,40.681473],[-74.013539,40.680982],[-74.013804,40.68077],[-74.013672,40.680678],[-74.012948,40.680172],[-74.011793,40.681158],[-74.010539,40.682229],[-74.009601,40.683029],[-74.010016,40.683415],[-74.010703,40.684119],[-74.011713,40.68352],[-74.011863,40.683648],[-74.012106,40.683855],[-74.010046,40.685102],[-74.008716,40.685907],[-74.008626,40.685953],[-74.0085281,40.686013],[-74.0082841,40.68616],[-74.0080941,40.685935],[-74.0079121,40.686036],[-74.0078641,40.686042],[-74.0078171,40.686006],[-74.0077571,40.686001],[-74.0076981,40.686009],[-74.0076471,40.686024],[-74.0074751,40.686078],[-74.0069501,40.686286],[-74.0063711,40.686048],[-74.0058121,40.685956],[-74.0055971,40.686458],[-74.0055601,40.686544],[-74.0077631,40.687145],[-74.0073501,40.687966],[-74.0049341,40.687366],[-74.0045231,40.687975],[-74.0067141,40.688587],[-74.0062951,40.68943],[-74.0037501,40.68869],[-74.0033391,40.689373],[-74.0056891,40.689996],[-74.0052721,40.690852],[-74.0029061,40.690187],[-74.0018931,40.689896],[-74.0017831,40.690148],[-74.0008921,40.689889],[-74.0006291,40.690372],[-74.0047241,40.691522],[-74.0043391,40.692289],[-74.0018991,40.691603],[-74.0017481,40.691982],[-74.0017411,40.691998],[-74.0017281,40.69203],[-74.0016741,40.692167],[-74.0016301,40.692143],[-74.0017241,40.691945],[-74.0007031,40.691656],[-74.0006141,40.691658],[-74.0005531,40.691801],[-74.0001201,40.691656],[-73.9998451,40.691527],[-73.99956928988664,40.691447413002116],[-74.000211,40.690148]]]}},{"type":"Feature","properties":{"zone":"M2-1","zoning_family":"Manufacturing","family_label":"Manufacturing zoning","description":"Medium manufacturing. Max FAR 2.0.","location":"Bounded by Smith St to Hoyt St, President St to Union St","source_file":"Manufacturing(M)Zoning.kml","source_index":27,"color":"#7c3aed"},"geometry":{"type":"Polygon","coordinates":[[[-73.986533,40.680372],[-73.987487,40.68075],[-73.98706,40.681388],[-73.987544,40.681577],[-73.987331,40.681893],[-73.987166,40.682137],[-73.987124,40.682199],[-73.987116,40.682211],[-73.986899,40.682126],[-73.985658,40.681642],[-73.985669,40.681626],[-73.986533,40.680372]]]}},{"type":"Feature","properties":{"zone":"M2-1","zoning_family":"Manufacturing","family_label":"Manufacturing zoning","description":"Medium manufacturing. Max FAR 2.0.","location":"Near Smith St and 1st St","source_file":"Manufacturing(M)Zoning.kml","source_index":28,"color":"#7c3aed"},"geometry":{"type":"Polygon","coordinates":[[[-73.988256,40.676052],[-73.989713,40.676755],[-73.989257,40.677295],[-73.989249,40.677372],[-73.988326,40.676927],[-73.987754,40.676651],[-73.987758,40.676646],[-73.988256,40.676052]]]}},{"type":"Feature","properties":{"zone":"M2-1","zoning_family":"Manufacturing","family_label":"Manufacturing zoning","description":"Medium manufacturing. Max FAR 2.0.","location":"Bounded by Court St to Smith St, 25th St to 1st St","source_file":"Manufacturing(M)Zoning.kml","source_index":29,"color":"#7c3aed"},"geometry":{"type":"Polygon","coordinates":[[[-73.996987,40.669168],[-73.997297,40.669737],[-73.997453,40.669979],[-73.99623,40.671436],[-73.996527,40.671582],[-73.996013,40.672192],[-73.997476,40.6729],[-73.997447,40.672935],[-73.996487,40.674083],[-73.996237,40.674378],[-73.995764,40.674923],[-73.99544,40.675296],[-73.995343,40.675395],[-73.995241,40.67549],[-73.995133,40.675581],[-73.995035,40.675649],[-73.994933,40.675713],[-73.994826,40.675772],[-73.994716,40.675828],[-73.994601,40.675879],[-73.994484,40.675925],[-73.994374,40.675959],[-73.994263,40.675988],[-73.994149,40.676012],[-73.994034,40.676031],[-73.993917,40.676046],[-73.993749,40.676057],[-73.99358,40.676063],[-73.993411,40.676061],[-73.993286,40.676055],[-73.993042,40.676028],[-73.992799,40.675997],[-73.992557,40.675961],[-73.992317,40.675921],[-73.991573,40.675806],[-73.990631,40.67566],[-73.990602,40.675693],[-73.990211,40.676144],[-73.988765,40.675445],[-73.987992,40.675079],[-73.987996,40.675074],[-73.988646,40.674297],[-73.990008,40.672668],[-73.992022,40.670257],[-73.992447,40.670464],[-73.993452,40.66926],[-73.993027,40.669055],[-73.993532,40.66846],[-73.99415756088179,40.66770182958297],[-73.9963331,40.668768],[-73.9965231,40.668853],[-73.9966821,40.668821],[-73.9967751,40.668791],[-73.9968601,40.668935],[-73.9968951,40.668995],[-73.99692534367365,40.66904266883662],[-73.996987,40.669168]],[[-73.991441,40.671666],[-73.991189,40.671967],[-73.992493,40.672598],[-73.992744,40.672293],[-73.991441,40.671666]],[[-73.993938,40.670427],[-73.993738,40.670665],[-73.993567,40.670582],[-73.993367,40.670821],[-73.993849,40.671053],[-73.994248,40.670576],[-73.993938,40.670427]]]}},{"type":"Feature","properties":{"zone":"M2-1","zoning_family":"Manufacturing","family_label":"Manufacturing zoning","description":"Medium manufacturing. Max FAR 2.0.","location":"Near Court St and 3rd St","source_file":"Manufacturing(M)Zoning.kml","source_index":31,"color":"#7c3aed"},"geometry":{"type":"Polygon","coordinates":[[[-73.996237,40.674378],[-73.995777,40.674927],[-73.995764,40.674923],[-73.996237,40.674378]]]}},{"type":"Feature","properties":{"zone":"M2-3","zoning_family":"Manufacturing","family_label":"Manufacturing zoning","description":"Medium manufacturing. Max FAR 2.0.","location":"Along 3rd St from Clinton St to Court St","source_file":"Manufacturing(M)Zoning.kml","source_index":32,"color":"#7c3aed"},"geometry":{"type":"Polygon","coordinates":[[[-73.996487,40.674083],[-73.997782,40.67472],[-73.99777,40.674742],[-73.997766,40.67475],[-73.997761,40.674759],[-73.997448,40.675401],[-73.995777,40.674927],[-73.996237,40.674378],[-73.996487,40.674083]]]}},{"type":"Feature","properties":{"zone":"M3-1","zoning_family":"Manufacturing","family_label":"Manufacturing zoning","description":"Heavy manufacturing. Max FAR 2.0.","location":"Bounded by Ferris St to Court St, 39th St to 3rd St","source_file":"Manufacturing(M)Zoning.kml","source_index":33,"color":"#7c3aed"},"geometry":{"type":"MultiPolygon","coordinates":[[[[-74.015438,40.675205],[-74.013056,40.673584],[-74.01390347071111,40.67285362711548],[-74.015049,40.671917],[-74.016251,40.672668],[-74.014509,40.674174],[-74.014894,40.674438],[-74.01537,40.674033],[-74.016638,40.672954],[-74.018098,40.671699],[-74.018731,40.672011],[-74.017201,40.673369],[-74.017223,40.673388],[-74.01740383691138,40.67355347168362],[-74.015438,40.675205]]],[[[-74.018628,40.670631],[-74.018713,40.671238],[-74.0188820314921,40.67136548185157],[-74.018813,40.671362],[-74.01744,40.670795],[-74.016618,40.665197],[-74.016505,40.664799],[-74.01644823011236,40.66472932786517],[-74.016676,40.664751],[-74.017559,40.66529],[-74.0178496092288,40.66582496533711],[-74.018506,40.670152],[-74.01861615902837,40.67055493462781],[-74.018628,40.670631]]],[[[-74.012679,40.664914],[-74.013834,40.664771],[-74.015604,40.664649],[-74.01594741101665,40.664681675301956],[-74.015867,40.665231],[-74.01221,40.665492],[-74.010807,40.668362],[-74.010287,40.668403],[-74.0102858377605,40.668429609167326],[-74.010097,40.668377],[-74.009308,40.670012],[-74.010463,40.670336],[-74.009715,40.671868],[-74.009711,40.671875],[-74.009094,40.671695],[-74.008962,40.671962],[-74.008452,40.671824],[-74.008486,40.671724],[-74.009228,40.670178],[-74.009104,40.670143],[-74.006971,40.669548],[-74.006957,40.669572],[-74.00632,40.670674],[-74.006088,40.671074],[-74.006052,40.671152],[-74.006016,40.671226],[-74.001831,40.670046],[-74.000901,40.671974],[-73.99966,40.671627],[-73.999202,40.672571],[-73.998818,40.672577],[-73.998076,40.674115],[-73.997787,40.674712],[-73.997782,40.67472],[-73.996487,40.674083],[-73.997447,40.672935],[-73.997476,40.6729],[-73.998503,40.671661],[-73.997532,40.6701],[-73.997453,40.669979],[-73.997297,40.669737],[-73.996987,40.669168],[-73.99692534367365,40.66904266883662],[-73.9970461,40.669233],[-73.9975071,40.669959],[-73.9975481,40.670024],[-73.9975781,40.670071],[-73.9976451,40.670175],[-73.9978011,40.670421],[-73.9979191,40.670602],[-73.9981551,40.670963],[-73.9982741,40.67115],[-73.9983871,40.671328],[-73.9984711,40.671465],[-73.9985491,40.67159],[-73.9986111,40.671499],[-73.99866375952762,40.67141701868996],[-73.998809,40.671649],[-74.00018,40.668793],[-74.00052821874472,40.668566631555095],[-74.0009871,40.668706],[-74.0013451,40.668119],[-74.0021451,40.668339],[-74.00262965075245,40.66746182062312],[-74.002929,40.667339],[-74.00297,40.667257],[-74.004098,40.667586],[-74.00414905585056,40.66748888677376],[-74.0043331,40.667539],[-74.0050311,40.667735],[-74.0050321,40.667736],[-74.0054001,40.667711],[-74.0054571,40.667659],[-74.0057941,40.667754],[-74.0059031,40.667642],[-74.0059321,40.66765],[-74.0061871,40.667097],[-74.0061571,40.667094],[-74.00663555323369,40.66608898580345],[-74.00680111546895,40.666041306883095],[-74.0066831,40.666295],[-74.0062371,40.667254],[-74.0061881,40.667355],[-74.0059761,40.667813],[-74.0052491,40.669314],[-74.0046841,40.670481],[-74.0048597544764,40.67053228597852],[-74.004858,40.670536],[-74.00474,40.670786],[-74.005045,40.670871],[-74.005067,40.670877],[-74.005334,40.670951],[-74.005349,40.670956],[-74.006145,40.669316],[-74.00660208706684,40.66837341932546],[-74.0067331,40.668351],[-74.0074781,40.666812],[-74.0077271,40.66692],[-74.0070171,40.668351],[-74.009784,40.668284],[-74.01133953393762,40.66511203933718],[-74.012679,40.664914]]],[[[-74.01401689913045,40.669469062459896],[-74.014179,40.669489],[-74.01417681890331,40.66951361523402],[-74.01401689913045,40.669469062459896]]]]}}]}