{"type": "FeatureCollection", "features": [{"type": "Feature", "geometry": {"type": "MultiPolygon", "coordinates": [[[[-73.93308540348283, 40.828225674320635], [-73.93307251134303, 40.82815615203681], [-73.9331572982496, 40.82822317065339], [-73.93308540348283, 40.828225674320635]]], [[[-73.9212971968614, 40.85428933985667], [-73.91606202448767, 40.85174103303231], [-73.9157160833004, 40.85070008218648], [-73.91415552115292, 40.84996747069036], [-73.91493915870902, 40.84879569127004], [-73.91197263841478, 40.8482295954338], [-73.90733289722291, 40.853816414564776], [-73.90277421432607, 40.85179309383386], [-73.90169546688111, 40.85314209002663], [-73.89836535832444, 40.85191325506511], [-73.90009696107374, 40.84920904118117], [-73.89557756002105, 40.847854641996065], [-73.89617713042934, 40.846658321072724], [-73.89290102346996, 40.84626833032271], [-73.89537836180654, 40.84293877945931], [-73.89410150522251, 40.84219030239457], [-73.89761651697367, 40.83699731988155], [-73.8976119793514, 40.83535696632773], [-73.89630199965576, 40.833543217997494], [-73.8990760642138, 40.831960441858115], [-73.8986266193841, 40.83050533895799], [-73.89892544491673, 40.82979222069998], [-73.89947938323677, 40.829944535334114], [-73.89926581399304, 40.83045814647111], [-73.89973112314564, 40.83080600819764], [-73.90093510700845, 40.827928101757365], [-73.90205539168097, 40.82819759507991], [-73.90275376403643, 40.82652135502501], [-73.90507952808359, 40.82711427084108], [-73.90651737764672, 40.82860264022564], [-73.90703121213086, 40.82827955339582], [-73.90821187502168, 40.82531366268845], [-73.90991777742533, 40.82584890311373], [-73.91058589685812, 40.824633816462665], [-73.91316674503234, 40.82545645531306], [-73.91384000315655, 40.82418799080388], [-73.92682453948149, 40.8280771157758], [-73.93008759448209, 40.82995738364403], [-73.92973754897628, 40.83037853078957], [-73.93347556906167, 40.831221411077834], [-73.93299639001609, 40.83567878918892], [-73.93051572386136, 40.839933642184434], [-73.92861574822354, 40.84467686503018], [-73.92256178946535, 40.853188911527496], [-73.9212971968614, 40.85428933985667]]]]}, "properties": {"schooldist": "9"}}, {"type": "Feature", "geometry": {"type": "Polygon", "coordinates": [[[-73.86789798562494, 40.90294017690474], [-73.86996153657644, 40.900833735460616], [-73.87521979695866, 40.89814776488252], [-73.8771197410579, 40.89546866364373], [-73.87048672642307, 40.89664021101398], [-73.86182532361795, 40.89481152100562], [-73.86426826386642, 40.892200173986886], [-73.86648542221785, 40.887482204403376], [-73.86995296439383, 40.87859906852666], [-73.87203241853722, 40.871508141135685], [-73.87229872055676, 40.868699413036694], [-73.87186744397454, 40.86304962009923], [-73.87263924393643, 40.85772698012974], [-73.87140153570445, 40.8514564454248], [-73.87133643512095, 40.846794341736015], [-73.87252783914585, 40.84075398300699], [-73.87817546958672, 40.84261769604524], [-73.87733907238245, 40.843991755058106], [-73.883228776676, 40.84834587833777], [-73.88895256316071, 40.851440780773196], [-73.89133401730527, 40.84746957984192], [-73.89242068939595, 40.848002825669724], [-73.89337309855698, 40.84640119377858], [-73.8953584903285, 40.846518031633906], [-73.89617713042934, 40.846658321072724], [-73.89557756002026, 40.84785464249863], [-73.90009696107374, 40.84920904118117], [-73.89836535832444, 40.85191325506511], [-73.90169546688111, 40.85314209002663], [-73.90277421432533, 40.85179309433644], [-73.90733289722222, 40.85381641506735], [-73.91197263841478, 40.8482295954338], [-73.91493915870902, 40.84879569127004], [-73.91415552115292, 40.84996747069036], [-73.91571608329976, 40.85070008268906], [-73.91606202448767, 40.85174103303231], [-73.91740667144458, 40.852145632081964], [-73.91825427600364, 40.8530274483114], [-73.92174035403008, 40.8542212378407], [-73.91341462193644, 40.86336749370088], [-73.91276271995396, 40.86302917466031], [-73.91227279043171, 40.86363214899739], [-73.91279762195069, 40.86389887593609], [-73.91041774503186, 40.866569544590575], [-73.90864943177567, 40.87138578380349], [-73.9089323517537, 40.87215734797027], [-73.90774270784556, 40.87284595211176], [-73.90665099539471, 40.87575250419279], [-73.90703748936642, 40.87689516121084], [-73.9103319356648, 40.879038046804844], [-73.9114891319045, 40.87901885880971], [-73.9120583003023, 40.87811932004886], [-73.915785155719, 40.87571694506451], [-73.91775669329705, 40.875663627860405], [-73.91978381232792, 40.87642143660867], [-73.92273788287523, 40.87890544542808], [-73.92490327473082, 40.87888836785337], [-73.92380525605498, 40.88032490163623], [-73.9203928019909, 40.8876485002271], [-73.91518455871676, 40.90158428286234], [-73.91501449586045, 40.90308129910659], [-73.9145903924332, 40.904119002196545], [-73.91418543529805, 40.90414039147146], [-73.91286857942846, 40.90753547589409], [-73.91311022264128, 40.90784583394491], [-73.91264932172878, 40.90807081195554], [-73.91149190703744, 40.91223376931219], [-73.91165472402199, 40.913417851896895], [-73.91033256848978, 40.91553277650281], [-73.86789798562494, 40.90294017690474]]]}, "properties": {"schooldist": "10"}}, {"type": "Feature", "geometry": {"type": "Polygon", "coordinates": [[[-73.88735662003364, 40.85087389761821], [-73.8773390723824, 40.843991755058106], [-73.87817546958672, 40.8426176960452], [-73.872527839146, 40.84075398300699], [-73.87312728158592, 40.838335096918684], [-73.87024015226773, 40.839546525537244], [-73.87009473182162, 40.8392457049642], [-73.86358014047265, 40.841277956632865], [-73.8626694937502, 40.841171616372215], [-73.86037144168805, 40.83938192559214], [-73.85895724469079, 40.839148750964064], [-73.86039073838666, 40.83764663881096], [-73.86084980515396, 40.83645964202741], [-73.86061817182814, 40.83369223599847], [-73.86366561257752, 40.83269532457172], [-73.86264225702611, 40.82817014526492], [-73.86542001824017, 40.82780136236717], [-73.86468967868109, 40.825379269298786], [-73.86766354974822, 40.825022731910856], [-73.86819369966659, 40.82553272264589], [-73.86984341835006, 40.82532127751863], [-73.8698417082605, 40.82492309385579], [-73.87202920992816, 40.82691494629922], [-73.87765492007703, 40.82615170428731], [-73.87852075479032, 40.826500405572524], [-73.87917067097911, 40.828582182949425], [-73.88471733976378, 40.82824098549995], [-73.8919300142961, 40.824656409553924], [-73.8916185874387, 40.82101284923039], [-73.89470196105792, 40.82122688487299], [-73.89488228864188, 40.82313435574682], [-73.89893339042528, 40.821068167459494], [-73.8989435264013, 40.82173908229063], [-73.90313946008257, 40.82271548130167], [-73.90262321018466, 40.82396038718816], [-73.90345035978197, 40.82415832747736], [-73.90264971152617, 40.82594943551453], [-73.90213251762788, 40.82582190966755], [-73.90224063738917, 40.826398571028854], [-73.90275376403643, 40.82652135502498], [-73.90205539168103, 40.828197595079864], [-73.90093510700856, 40.827928101757365], [-73.89973112314574, 40.83080600819761], [-73.8992658146547, 40.830458146471685], [-73.89947938323677, 40.829944535334114], [-73.89892544491596, 40.82979222120254], [-73.89862661938422, 40.83050533895795], [-73.89907606421386, 40.831960441858115], [-73.89630199965588, 40.833543217997494], [-73.89761197935155, 40.83535696632768], [-73.89761651697299, 40.83699732038406], [-73.89410150522255, 40.84219030239453], [-73.89537836180732, 40.842938778956736], [-73.89290102347, 40.846268330322644], [-73.89337309855703, 40.84640119377854], [-73.89242068939595, 40.84800282566968], [-73.89133401730534, 40.84746957984192], [-73.88895256316077, 40.85144078077317], [-73.88735662003364, 40.85087389761821]]]}, "properties": {"schooldist": "12"}}, {"type": "Feature", "geometry": {"type": "MultiPolygon", "coordinates": [[[[-73.83979488496121, 40.835619206989506], [-73.83941220244705, 40.834600065106656], [-73.83992048478798, 40.833320794297066], [-73.8422133473086, 40.83155050727824], [-73.84310691599906, 40.829794139320036], [-73.84253325731062, 40.827527303646065], [-73.84001752995962, 40.82219024212052], [-73.83999860407422, 40.81993494681325], [-73.84198684767891, 40.81877437390742], [-73.84528019170413, 40.81177811674494], [-73.8461730287217, 40.81067666392803], [-73.84719684575794, 40.81058048761523], [-73.84821486515708, 40.81246290899589], [-73.85060246203962, 40.813930199539655], [-73.85301328287127, 40.814584423623714], [-73.85261815190952, 40.81405869212329], [-73.85336857802673, 40.813593903135626], [-73.85538030243578, 40.814288882585444], [-73.85346774058523, 40.81347771160878], [-73.8511999765915, 40.813553143872895], [-73.84914506570465, 40.812298793675545], [-73.84917358424738, 40.81092434128675], [-73.85004241612907, 40.80921540848781], [-73.84955076934828, 40.80872086801365], [-73.84996696802818, 40.80857801884382], [-73.84961166420273, 40.80812418555394], [-73.84876007745984, 40.80833745779323], [-73.84952218256736, 40.80805527772038], [-73.8484164096165, 40.807368775795496], [-73.84837953721414, 40.80636018633473], [-73.8474882264191, 40.805448909149334], [-73.84864784606214, 40.80469937148052], [-73.84982107183734, 40.80509443134619], [-73.85019839036305, 40.80451002547669], [-73.8556095879817, 40.80447020507335], [-73.85662613833743, 40.80483030422096], [-73.85569047098377, 40.80467656557571], [-73.85572072708754, 40.80512210417985], [-73.85724491988569, 40.80530723811626], [-73.85683421024561, 40.804909270212924], [-73.85812705699665, 40.80546652055204], [-73.85891121135134, 40.80591275573428], [-73.85831487707078, 40.80599859101236], [-73.85851704174387, 40.80663788425989], [-73.85905039378453, 40.80656396774258], [-73.85897232007956, 40.80596606723804], [-73.85936602266179, 40.80667568320718], [-73.85937656291263, 40.80756829567457], [-73.85915868214963, 40.806878974650154], [-73.8586650510305, 40.80683275149499], [-73.85838996294959, 40.80825880914977], [-73.85895141287922, 40.81027141758751], [-73.86012695169545, 40.80960549938806], [-73.85932919264776, 40.80899654096591], [-73.85938982020575, 40.80816376836323], [-73.86065965819598, 40.80963190345153], [-73.8676564621832, 40.810583761936584], [-73.8707780488584, 40.81448689599054], [-73.87860395693178, 40.816960937516924], [-73.8824743432264, 40.81979043988763], [-73.88372322956951, 40.82243451020535], [-73.88442351645895, 40.82262137267332], [-73.88296908132882, 40.81952958265576], [-73.87939581493434, 40.8164302168134], [-73.87239437966144, 40.81397433610932], [-73.87056806861786, 40.81208731762185], [-73.87055342191732, 40.81124338022053], [-73.86811219206221, 40.806751832832774], [-73.8717450937392, 40.80154736611633], [-73.87355096572506, 40.800853302772026], [-73.87526517037323, 40.801398152548636], [-73.87814218819832, 40.80131929080922], [-73.87816581140154, 40.802551683745115], [-73.8789245383548, 40.80277208050836], [-73.88372326665923, 40.801862843941215], [-73.88505172336708, 40.80213090679819], [-73.88795897223955, 40.80499792592084], [-73.88906442025988, 40.805021912904735], [-73.88922416091071, 40.805845351694764], [-73.89014756243947, 40.80496060928421], [-73.88937439253695, 40.80592527311545], [-73.89178618135604, 40.805622892086355], [-73.89197929534274, 40.806384708976395], [-73.89270681132653, 40.806343948093705], [-73.89253177073283, 40.805656551567886], [-73.89227315843533, 40.805702433124985], [-73.89216364547643, 40.80530259256561], [-73.89126710689112, 40.80501048892236], [-73.89173240995696, 40.805049362917906], [-73.89219739671562, 40.80528468791955], [-73.89230020327578, 40.80566060567035], [-73.8925666767219, 40.80562071050679], [-73.89274814037323, 40.806340261804756], [-73.89485360535798, 40.80621490866146], [-73.89484295983553, 40.805723997514896], [-73.89509836487397, 40.80686363917372], [-73.89550633968567, 40.806595305303816], [-73.8952796287393, 40.805766184570665], [-73.89559109091823, 40.80658134334765], [-73.89597794753813, 40.806517616342944], [-73.89579066958004, 40.80583055971184], [-73.89610824517882, 40.8064961509514], [-73.89749681953896, 40.806214400202684], [-73.89741472698572, 40.80580005947825], [-73.89801340830095, 40.80616660385882], [-73.89787127990657, 40.805534981759784], [-73.89816110752622, 40.80613807060264], [-73.89852656516604, 40.805434309098096], [-73.90209394229583, 40.804799550332206], [-73.90341720373648, 40.81150688285582], [-73.90446551410517, 40.81228196041587], [-73.90354054234179, 40.813684374377665], [-73.90346997117642, 40.81507578848351], [-73.90442611786476, 40.815272108597455], [-73.90399970060983, 40.816514361694836], [-73.90665794659527, 40.8171727011886], [-73.89985994896976, 40.82056261799383], [-73.90129277627032, 40.82047544261435], [-73.90990894137934, 40.82255110811757], [-73.91130974473535, 40.82484855789008], [-73.91058589619657, 40.82463381646215], [-73.90991777742528, 40.825848903113695], [-73.90821187436012, 40.825313662687925], [-73.90703121146917, 40.82827955339528], [-73.9065173769851, 40.82860264022511], [-73.90507952742207, 40.82711427084054], [-73.90224063672756, 40.8263985710283], [-73.90213251762788, 40.82582190966755], [-73.90264971152617, 40.82594943551453], [-73.90345035978197, 40.82415832747736], [-73.90262321018466, 40.82396038718816], [-73.90313946008257, 40.82271548130167], [-73.89894352573972, 40.82173908229004], [-73.89893338976296, 40.8210681679615], [-73.89488228864188, 40.82313435574682], [-73.89470196039636, 40.82122688487238], [-73.8916185874387, 40.82101284923039], [-73.8919300142961, 40.824656409553924], [-73.88502638846101, 40.82818715774442], [-73.87917067097911, 40.828582182949425], [-73.87852075479032, 40.826500405572524], [-73.87765491941543, 40.82615170428661], [-73.8720292092675, 40.8269149457959], [-73.8698417082605, 40.82492309385579], [-73.86984341835006, 40.82532127751863], [-73.86819369966659, 40.82553272264589], [-73.86766354974822, 40.825022731910856], [-73.86468967801947, 40.825379269298004], [-73.86542001824017, 40.82780136236717], [-73.86264225702611, 40.82817014526492], [-73.86366561257752, 40.83269532457172], [-73.86085019682676, 40.83361353810006], [-73.8590567217064, 40.83341322529178], [-73.83979488496121, 40.835619206989506]]], [[[-73.8264559001349, 40.8566042003342], [-73.82628403250196, 40.85358142028745], [-73.82728561181338, 40.84942888482484], [-73.82578990399678, 40.84540629768827], [-73.82048405617269, 40.848501026132915], [-73.82014043680648, 40.848020598551855], [-73.81514191918801, 40.84908061223263], [-73.81590281354632, 40.84801312097827], [-73.8156045139199, 40.84765868316229], [-73.81609670609345, 40.847512145530494], [-73.81610537477155, 40.84645454443762], [-73.81571903834562, 40.846293443498986], [-73.81545867549151, 40.84660302927321], [-73.8146272778874, 40.847142794761105], [-73.81464594697547, 40.84721961352912], [-73.81451106835777, 40.84710607802798], [-73.81570353255636, 40.84629134042501], [-73.81368634738338, 40.84727432500665], [-73.81356372861671, 40.84715141127868], [-73.81490858203334, 40.84646876437664], [-73.81442352513646, 40.846187825071546], [-73.81502627604162, 40.84549999556117], [-73.81318865072643, 40.84622953597282], [-73.81403198219381, 40.84558929786809], [-73.81363258232705, 40.84528076903152], [-73.81335905651065, 40.845845499834844], [-73.81328932692877, 40.845951022731775], [-73.8132129524411, 40.84592294034459], [-73.81361858333368, 40.8452750418872], [-73.81325997724694, 40.84523399045836], [-73.81284939958523, 40.84631879949846], [-73.81324326351064, 40.845235907850174], [-73.81310050630461, 40.84517241447135], [-73.81287703597569, 40.84513466794604], [-73.81315597110434, 40.84521210037756], [-73.81285536957496, 40.84518628596415], [-73.81241445328276, 40.84655938024637], [-73.81227790834181, 40.846543458780886], [-73.81285774337815, 40.845129545091844], [-73.81254457815471, 40.84497959851104], [-73.81188458844649, 40.84659496756398], [-73.81243625060675, 40.84673771207574], [-73.811699718897, 40.84668170131748], [-73.81266141349053, 40.84420764950098], [-73.81311795023566, 40.84478760356984], [-73.81254909054671, 40.84495227464261], [-73.81367848761444, 40.845056980413034], [-73.81416729101653, 40.84478090606488], [-73.81369979221634, 40.84484845686251], [-73.81418334587534, 40.84468219913211], [-73.8134659702823, 40.8442631889335], [-73.81347956591408, 40.8436511193518], [-73.81499955106102, 40.843504452140536], [-73.81567292547398, 40.84442877611073], [-73.81643583750184, 40.844064906999066], [-73.81750072974577, 40.8443674444079], [-73.81824065889217, 40.84434212798992], [-73.81662677391274, 40.843944898561475], [-73.81572300132142, 40.84253656548452], [-73.81517113664873, 40.84257716162403], [-73.81570207846413, 40.84251972168978], [-73.81526263331362, 40.84125983992472], [-73.81473345817399, 40.841375728813595], [-73.8152340495356, 40.84100964099517], [-73.81480646696288, 40.83980436638403], [-73.81436596502351, 40.83986536426771], [-73.81472319750517, 40.839588887103844], [-73.81431578800085, 40.839649526509604], [-73.81430900133549, 40.839622416882], [-73.81602281915313, 40.83852638674745], [-73.81647878477874, 40.8377039838886], [-73.81606068234815, 40.8360301959545], [-73.815503386753, 40.83595321296568], [-73.81606339574078, 40.835772927976436], [-73.8155739699393, 40.83552508183022], [-73.81608188313598, 40.835361182400376], [-73.81608401401112, 40.83459034626538], [-73.81566358139116, 40.83449084980968], [-73.8160374705557, 40.8341686148044], [-73.8148793738859, 40.8310300864916], [-73.81449221012446, 40.83117114022453], [-73.81484313432425, 40.8309861205138], [-73.81452008577702, 40.83062287579444], [-73.81391425388722, 40.83092425753825], [-73.81389783360494, 40.830907554158415], [-73.81451016521449, 40.83061404705128], [-73.81385671910972, 40.83056144342433], [-73.81429959361213, 40.83035010370385], [-73.81275469994522, 40.82824823625153], [-73.80992799241444, 40.828193222258825], [-73.81009578138104, 40.82781949359422], [-73.81105446059631, 40.82798479483612], [-73.81003791995568, 40.82778156892486], [-73.8126397525795, 40.82783640609998], [-73.81384974871098, 40.82680352923695], [-73.81372207686613, 40.82627159251522], [-73.81291776065066, 40.82635038911971], [-73.81399111587866, 40.826069598458375], [-73.81395054076151, 40.825729151443774], [-73.81342102197065, 40.825925017271054], [-73.8139416195339, 40.82571703172866], [-73.81379523517522, 40.825298086504276], [-73.81211350556441, 40.82555263465948], [-73.81327735515306, 40.82516132170772], [-73.81397110343502, 40.82419026920771], [-73.8132741733273, 40.82396666632125], [-73.8127333916033, 40.824778470747134], [-73.81177284871205, 40.82433980617299], [-73.80909234567389, 40.82587339816316], [-73.8076660476525, 40.825896992059235], [-73.80697771086191, 40.82538837039394], [-73.80666166066787, 40.82341958423841], [-73.80595169124452, 40.822882595349604], [-73.80599159848938, 40.82082355849026], [-73.80461931205356, 40.81902711421393], [-73.80348320715467, 40.81827698546792], [-73.80207892871863, 40.81855673696875], [-73.80070859721168, 40.818043276298695], [-73.7975903277748, 40.8165075315677], [-73.79732960951857, 40.81579982152606], [-73.79902816379997, 40.815541135442565], [-73.8001114686428, 40.81402452556079], [-73.80174561215964, 40.81286501741587], [-73.80133906141208, 40.81239373439257], [-73.80198617000619, 40.812807217917154], [-73.80305792069676, 40.81245229789028], [-73.80361424976927, 40.81252311416324], [-73.80351997906503, 40.81292187125176], [-73.80377912019883, 40.8128099060432], [-73.80435810280545, 40.813608538673016], [-73.80361455739798, 40.81297219119063], [-73.80325294454983, 40.813196773550146], [-73.80453081609834, 40.81425461992452], [-73.80322176299296, 40.813374109942366], [-73.80471812332675, 40.8152305055967], [-73.80658358725697, 40.81659458816575], [-73.80508103466838, 40.81519796351018], [-73.80455440585168, 40.81462984173579], [-73.80465942749034, 40.81454498861847], [-73.80632932566311, 40.81613795831517], [-73.80671967987067, 40.81657517074711], [-73.80660603189658, 40.81666449404126], [-73.8070460021966, 40.81653369387658], [-73.80545612134954, 40.81468657406177], [-73.80499834751986, 40.812206634063585], [-73.80391186062475, 40.812110497881335], [-73.80235340278853, 40.81003705946174], [-73.80101172843702, 40.81071339964633], [-73.80146670007328, 40.81014171796329], [-73.79853765964961, 40.80958707552987], [-73.79228907337429, 40.80684900557966], [-73.79140059873731, 40.80699787841099], [-73.7915235904667, 40.80748908740795], [-73.79086475738721, 40.80734113943557], [-73.79006256327888, 40.80540894233715], [-73.79065958323953, 40.804485792583485], [-73.79224529219009, 40.80399636481761], [-73.79338982352864, 40.804204330037614], [-73.79577769393842, 40.80616294953194], [-73.7979157898759, 40.80671223052465], [-73.80175278661164, 40.80904200248596], [-73.80278236265666, 40.80912012289739], [-73.80392673417204, 40.808527970811845], [-73.80992029081796, 40.812929152261944], [-73.8140031899991, 40.813551467264965], [-73.8144306731257, 40.8135183752133], [-73.81449994182155, 40.81290828760574], [-73.814477272573, 40.81351854133981], [-73.81620056896578, 40.813847475474354], [-73.8205552151732, 40.813017655077076], [-73.82024436122057, 40.81243067757415], [-73.82106512071091, 40.81220359146245], [-73.8203235551589, 40.812439652195074], [-73.82112969804916, 40.81244975686701], [-73.82044179557862, 40.812657578337934], [-73.82058709210142, 40.81301944660932], [-73.82408760847811, 40.81216384832624], [-73.82505782096884, 40.81182991738335], [-73.82480905293718, 40.81143928210172], [-73.82524350467837, 40.81176134024024], [-73.82487938871935, 40.811272983827365], [-73.82565070298233, 40.811592290413664], [-73.82535766859549, 40.8110276439239], [-73.82567229084664, 40.81158474423311], [-73.82553710461548, 40.81101552428081], [-73.82581255718782, 40.811533705023066], [-73.82579755905232, 40.81120533513735], [-73.82802775144887, 40.81145236638728], [-73.83018245574922, 40.81083908712692], [-73.83162199947404, 40.8095681453482], [-73.83217486842543, 40.80815977894151], [-73.8316157445545, 40.80493825599344], [-73.83691225653483, 40.80592909322208], [-73.83804695971023, 40.80701132105132], [-73.84043199606981, 40.812541128740584], [-73.83956806528747, 40.81449124911085], [-73.84009277062718, 40.817798970405605], [-73.83868347767142, 40.819591380515334], [-73.83906398857707, 40.819802432340865], [-73.83888231646739, 40.82214048985618], [-73.84222047999208, 40.828341888446566], [-73.84223013648113, 40.82983069124909], [-73.84188643774445, 40.83071317653463], [-73.83885232384732, 40.83369066784842], [-73.83911300794168, 40.83591795497417], [-73.8385872403592, 40.8358965152066], [-73.83839056225074, 40.840676814134376], [-73.83671179756843, 40.846057369668955], [-73.8361427906827, 40.85104175857444], [-73.83536217251198, 40.8533159217439], [-73.8328350232271, 40.856035845259655], [-73.8264559001349, 40.8566042003342]]]]}, "properties": {"schooldist": "8"}}, {"type": "Feature", "geometry": {"type": "MultiPolygon", "coordinates": [[[[-73.89680883223778, 40.795808445159985], [-73.89796839783742, 40.79564483916218], [-73.89919434249981, 40.79650245601842], [-73.89788253306311, 40.797116532147804], [-73.89713149795635, 40.79679807772849], [-73.89680883223778, 40.795808445159985]]], [[[-73.88885148496418, 40.798706328456376], [-73.88665108524664, 40.79803819619756], [-73.88375741590156, 40.795708565420014], [-73.8783743781276, 40.79452080676742], [-73.87288457445655, 40.79145210820734], [-73.87121154143406, 40.790036122239954], [-73.87080888567336, 40.787896692185804], [-73.87308761689025, 40.78585495228099], [-73.87830680057644, 40.78535662050863], [-73.889052124432, 40.78737256025829], [-73.89030135498923, 40.78987672733488], [-73.89218182984935, 40.79039426960916], [-73.89282283610926, 40.792817081951654], [-73.89179289686568, 40.79677524575884], [-73.89062148266619, 40.79774892294615], [-73.89079505127152, 40.79802183685063], [-73.88835248098358, 40.798139358696], [-73.88885148496418, 40.798706328456376]]], [[[-73.89833036270552, 40.80241282094024], [-73.89646668834577, 40.80079047089154], [-73.89864038714995, 40.79910116462153], [-73.90021004993142, 40.79926415589619], [-73.89978738800987, 40.7995095533696], [-73.90003735815661, 40.80090874255298], [-73.8994891942373, 40.800901115427166], [-73.89938748570975, 40.80193566557303], [-73.89833036270552, 40.80241282094024]]], [[[-73.92682453881986, 40.828077115775386], [-73.91384000315655, 40.82418799080388], [-73.91316674503234, 40.82545645531306], [-73.91130974473518, 40.82484855789008], [-73.90990894137934, 40.82255110811757], [-73.90129277627032, 40.82047544261435], [-73.89985994896976, 40.820562617993865], [-73.90665794659522, 40.81717270118863], [-73.90399969994832, 40.816514361694274], [-73.90442611720314, 40.81527210859694], [-73.90346997117636, 40.81507578848355], [-73.90354054234173, 40.8136843743777], [-73.90418337761729, 40.813086455480914], [-73.90387616403943, 40.812691591059874], [-73.90446551476653, 40.81228196041646], [-73.90341720373642, 40.81150688285582], [-73.90229231992846, 40.80456477563931], [-73.9045295409574, 40.803170235652104], [-73.90807397255666, 40.79957281916741], [-73.90779307559532, 40.79949348953819], [-73.9076822280089, 40.799388313925455], [-73.90842190767927, 40.79944209294773], [-73.9083030354222, 40.79895913491514], [-73.91168831241184, 40.79662376988898], [-73.91372255973513, 40.796789439261474], [-73.91903181973083, 40.79898494674643], [-73.92024068158868, 40.79961368787051], [-73.9213273077852, 40.801284591631585], [-73.92292709999647, 40.80237329464266], [-73.92762788658787, 40.80269566598434], [-73.92728271943585, 40.80350826441722], [-73.92764500352527, 40.80398863334882], [-73.9287260742369, 40.80410362522707], [-73.93228261982833, 40.80836397312063], [-73.93286397083318, 40.8101244368861], [-73.93237498438046, 40.81959069718454], [-73.93347556906217, 40.83122141057527], [-73.92973754897628, 40.83037853078957], [-73.93008759448209, 40.82995738364403], [-73.92682453881986, 40.828077115775386]]]]}, "properties": {"schooldist": "7"}}, {"type": "Feature", "geometry": {"type": "MultiPolygon", "coordinates": [[[[-73.7883334983436, 40.83466713026211], [-73.78931223606466, 40.834464887056185], [-73.78951019872146, 40.83536404302845], [-73.78845699948879, 40.83530991481694], [-73.7883334983436, 40.83466713026211]]], [[[-73.80222295355102, 40.84163481364685], [-73.80263811156433, 40.84108115226217], [-73.8069460864188, 40.84146244618143], [-73.80680801372397, 40.8424891399877], [-73.80393073307404, 40.842594072550085], [-73.80222295355102, 40.84163481364685]]], [[[-73.78068945291416, 40.854928807433495], [-73.78101002725501, 40.85487625069318], [-73.78123322636526, 40.85539866814683], [-73.78086994707114, 40.85553169939752], [-73.78068945291416, 40.854928807433495]]], [[[-73.78330379042221, 40.85584858232035], [-73.78259711592071, 40.85482256046909], [-73.7838586191202, 40.85483156741573], [-73.78330379042221, 40.85584858232035]]], [[[-73.79020122975736, 40.85860158971066], [-73.78876651996593, 40.85840216757863], [-73.78878402854728, 40.857420689834136], [-73.788043429758, 40.85755991768736], [-73.78802830701665, 40.85751468178645], [-73.78877898544017, 40.85740092519987], [-73.7884773265335, 40.85440052053239], [-73.78734753146585, 40.8543858849571], [-73.78834514784103, 40.8541320123503], [-73.78690734702697, 40.8540639722994], [-73.78800064949667, 40.85352463632825], [-73.78588186506653, 40.85178867244104], [-73.78338158610377, 40.85158673391453], [-73.78460077697598, 40.85109569219537], [-73.78384119307984, 40.850692899498476], [-73.78420047134377, 40.85006064424078], [-73.7830353553807, 40.849071907625465], [-73.78154449088599, 40.84940043464351], [-73.78214108697668, 40.849100663170425], [-73.78149386587489, 40.84858047582596], [-73.78267467079034, 40.8481396719416], [-73.78097820938946, 40.848458347913756], [-73.78263740397888, 40.84807264924602], [-73.78148432016752, 40.847882193850104], [-73.78216393435422, 40.84663633828361], [-73.78040326958434, 40.84693113466882], [-73.78106043973004, 40.846802551854495], [-73.78115182578729, 40.846246304124705], [-73.78110675760784, 40.84674699714134], [-73.78174288903251, 40.84641229011609], [-73.78109301885019, 40.84679849209014], [-73.78251345116685, 40.84640877205391], [-73.78249597258944, 40.845661561949214], [-73.78309442048653, 40.84551828556489], [-73.78314644227363, 40.8453099420262], [-73.78307455830657, 40.84550976429207], [-73.78242487155674, 40.845676336164615], [-73.78181646104147, 40.845764978553724], [-73.783050749408, 40.84549682317608], [-73.78306023126578, 40.84508570856724], [-73.7818153590045, 40.845480582880526], [-73.78307457446681, 40.84505636873404], [-73.78315245505563, 40.84529598383058], [-73.78297579244172, 40.84468094852317], [-73.7833653613534, 40.844444722981876], [-73.78301129829549, 40.844172690347435], [-73.78348428814996, 40.84367854599985], [-73.78290650949755, 40.84393612584032], [-73.78052736048552, 40.84452514033834], [-73.77992703744262, 40.843883081858586], [-73.7805330271455, 40.84445302176285], [-73.78039623281839, 40.84396640868252], [-73.78058464728879, 40.8444345726984], [-73.78106261364299, 40.84432831787688], [-73.78087690198701, 40.843862220487964], [-73.78108977797687, 40.8443201275804], [-73.78154602523335, 40.84421588974787], [-73.78137674098193, 40.84370448704283], [-73.78157590302851, 40.844207702968106], [-73.78200770536664, 40.84410960066983], [-73.78183306599355, 40.84357551830506], [-73.78203757586105, 40.84410347547624], [-73.78243679895445, 40.844009431100055], [-73.78224871668732, 40.84343616841767], [-73.78282243971395, 40.84391948119968], [-73.78257210724104, 40.843294581440894], [-73.78309186112205, 40.84368505531395], [-73.78287388243189, 40.84312410236253], [-73.78313252568665, 40.84369749673193], [-73.78280661506554, 40.84377931612224], [-73.78284151617675, 40.84389478720214], [-73.78347481249244, 40.8436547381099], [-73.78288778301486, 40.84249482884979], [-73.78229941204735, 40.842605896412294], [-73.7824445240442, 40.843042034919456], [-73.78180048362269, 40.84269614629641], [-73.78193306593508, 40.843228088579245], [-73.7817719692772, 40.842702273492186], [-73.78124656634328, 40.84279710779225], [-73.78142785188767, 40.843370873276584], [-73.78121601119454, 40.84280477689333], [-73.7806742992485, 40.84290730504047], [-73.78082903681144, 40.84350729764843], [-73.78029552532065, 40.84297304489416], [-73.78022773872509, 40.84377818180051], [-73.78022662418408, 40.84288326793048], [-73.78286499304913, 40.842478101882875], [-73.78059735822595, 40.84278659994118], [-73.78236855953504, 40.84242849314983], [-73.78162055021923, 40.842329494888226], [-73.78230643317913, 40.84221111530764], [-73.78233257215892, 40.84192284411156], [-73.78144003107849, 40.842142133493596], [-73.78216624418963, 40.84168914411031], [-73.78034805158214, 40.84210909822463], [-73.78042577181687, 40.84249439370444], [-73.78019599955127, 40.842046211478944], [-73.78185048197783, 40.8416539463945], [-73.78166051213775, 40.84112417458327], [-73.78089220610157, 40.84155308419848], [-73.78079752923449, 40.84125614604854], [-73.7816485529559, 40.84109776352898], [-73.78113875725964, 40.839494278801894], [-73.78188455720435, 40.83765027610237], [-73.78290629191042, 40.83732000557034], [-73.78282260139727, 40.8363381558881], [-73.78338168059156, 40.83690927218344], [-73.78498060328258, 40.836746425578205], [-73.78450333965199, 40.83705776567392], [-73.78485009222503, 40.837470489681245], [-73.78563997911458, 40.837064435089324], [-73.78583067964114, 40.83720998000472], [-73.78516584428648, 40.837471334061945], [-73.7857350929868, 40.839234231776], [-73.78740758746173, 40.83967762269453], [-73.78749166412584, 40.84084234167426], [-73.78815921166512, 40.84049077856722], [-73.78761237782592, 40.84119800529605], [-73.78836617475129, 40.84150461001161], [-73.78802003550352, 40.84178384145895], [-73.78883864961325, 40.8423503959626], [-73.78852780801347, 40.84242557639117], [-73.78905825501361, 40.84323533177022], [-73.78993093388252, 40.84304226436384], [-73.78933708725556, 40.843681498558325], [-73.78947182214253, 40.844292977849655], [-73.79098858375902, 40.845652832062655], [-73.79097333376853, 40.84635731152634], [-73.7914907651371, 40.84625100446286], [-73.79118128785345, 40.84655567593], [-73.79179343625607, 40.846731671826895], [-73.79136709858446, 40.846887642686], [-73.79144049688328, 40.84730604348378], [-73.79177232700852, 40.847228253279255], [-73.79191997810095, 40.84725821803094], [-73.79126708567354, 40.84760186735432], [-73.79161765431287, 40.84805292491061], [-73.7910136233899, 40.848985209717036], [-73.78975711070451, 40.84953146979042], [-73.78985836952175, 40.849972559362044], [-73.7909477685762, 40.84973917964398], [-73.79098877124969, 40.84982834852718], [-73.7898663031397, 40.84998938969825], [-73.79035766981566, 40.850142335118676], [-73.78989186585679, 40.85046418129208], [-73.79026824507268, 40.850961088073994], [-73.78951371515998, 40.851300772215914], [-73.78956272464036, 40.85148733732484], [-73.79098717984141, 40.8512640158018], [-73.78966490344354, 40.85150038263488], [-73.79089217930074, 40.85154690354906], [-73.79019588667121, 40.85175290506567], [-73.790463705281, 40.85176700615418], [-73.79008396904264, 40.8520345268798], [-73.7901550926101, 40.852251285235994], [-73.79016095150176, 40.852040235425996], [-73.79249450978061, 40.85155072509292], [-73.79017007126137, 40.85228066165614], [-73.79311837183832, 40.85157829524103], [-73.79323786787468, 40.85193117517721], [-73.79124556783773, 40.85230468141089], [-73.79138052695512, 40.85260203830498], [-73.79340987631014, 40.85202188423315], [-73.79350762831913, 40.852264043925004], [-73.79042053780161, 40.85302297821269], [-73.79281511966919, 40.85249481930909], [-73.79080758663576, 40.85319906056585], [-73.79126573165874, 40.85370686423337], [-73.79252408728738, 40.85340992120768], [-73.79240931037083, 40.85305333561235], [-73.79297928311203, 40.85330294440704], [-73.79287610048584, 40.85294418132866], [-73.79303991170104, 40.853371249787926], [-73.79105721254825, 40.853918412426836], [-73.79245816778624, 40.85360070875395], [-73.79107002765942, 40.85394495666483], [-73.79253714605014, 40.853849327310535], [-73.7912928216079, 40.85458402547447], [-73.79250306685435, 40.85578866613724], [-73.79201712228527, 40.85617694860646], [-73.79256814126133, 40.85625611826764], [-73.79190183340093, 40.85654691187081], [-73.79309492152204, 40.85668644190691], [-73.79189422958875, 40.85656888932982], [-73.79170704257515, 40.85685184235265], [-73.79282713237976, 40.85743578991807], [-73.79301264382849, 40.85700302654599], [-73.79288403888904, 40.85747920249383], [-73.79185978715203, 40.85700410725963], [-73.79268338575642, 40.85742039309031], [-73.79189451913076, 40.85743712186542], [-73.79256970440441, 40.85763962586507], [-73.79239521723282, 40.85784554775238], [-73.79174254016156, 40.85739395000313], [-73.79184303217382, 40.85702870201153], [-73.79094202260366, 40.85755274818905], [-73.79178529423406, 40.85777542535322], [-73.79143695907948, 40.858154685625856], [-73.7916186607567, 40.85790134255085], [-73.79093222800743, 40.85756778747071], [-73.79020122975736, 40.85860158971066]]], [[[-73.76783205636997, 40.854442206244784], [-73.76938529139694, 40.85253613399701], [-73.76860817687106, 40.850788395378316], [-73.76959674311291, 40.84759451960099], [-73.76789492672987, 40.8452894325147], [-73.76901389181107, 40.84509734272204], [-73.77157218833064, 40.84750005908314], [-73.77088920220999, 40.849751771840786], [-73.7720496366846, 40.85161828975761], [-73.77296356611284, 40.85215925395881], [-73.77173060411904, 40.8524768313193], [-73.77234917455166, 40.85385141973175], [-73.77296285334695, 40.85380006274922], [-73.7721403684164, 40.854412713103365], [-73.7721922305525, 40.85998663909974], [-73.77084562360403, 40.8601010133595], [-73.76947305423839, 40.85933013717134], [-73.76836277290603, 40.858358289354655], [-73.76836085919149, 40.857655362700996], [-73.76533243929107, 40.85504359512371], [-73.76783205636997, 40.854442206244784]]], [[[-73.78457451654569, 40.86053199775851], [-73.78436960694052, 40.85985020347803], [-73.785140170419, 40.85879261197568], [-73.78607540488363, 40.8592746033861], [-73.78669393087262, 40.85868606505971], [-73.78773372273308, 40.85877099208082], [-73.78700130484442, 40.860224388914325], [-73.78457451654569, 40.86053199775851]]], [[[-73.77333634590616, 40.86085386036116], [-73.77326219958742, 40.860630611649825], [-73.77339678514288, 40.86073948468019], [-73.77333634590616, 40.86085386036116]]], [[[-73.77491794834289, 40.86142825656266], [-73.77527340232487, 40.86144667092562], [-73.77493188967397, 40.86155230286426], [-73.77491794834289, 40.86142825656266]]], [[[-73.77485681624572, 40.8619836348371], [-73.77463383677043, 40.8618168910858], [-73.77484905645683, 40.861810388682784], [-73.77485681624572, 40.8619836348371]]], [[[-73.78328053506085, 40.862780706210124], [-73.78288197831337, 40.86240643258889], [-73.78314504354333, 40.862068678907065], [-73.78328053506085, 40.862780706210124]]], [[[-73.78469165850865, 40.8625427894058], [-73.78354105299506, 40.86309550682763], [-73.78376770348979, 40.862610608464536], [-73.78469165850865, 40.8625427894058]]], [[[-73.7696354462226, 40.86554256158247], [-73.76994076930318, 40.865523409496824], [-73.76944774766791, 40.86576135090618], [-73.7696354462226, 40.86554256158247]]], [[[-73.81856325550696, 40.86520288805326], [-73.81866394874292, 40.866098585587324], [-73.81793297868968, 40.86599498412215], [-73.81813212495835, 40.86547351925779], [-73.81856325550696, 40.86520288805326]]], [[[-73.76692046625034, 40.867049555851395], [-73.76722845921702, 40.86692866738869], [-73.76668098944072, 40.867320684140125], [-73.76692046625034, 40.867049555851395]]], [[[-73.77084864464895, 40.87162776297062], [-73.77223564721527, 40.871563993068285], [-73.77263488154172, 40.87188020876713], [-73.77084864464895, 40.87162776297062]]], [[[-73.78563326684171, 40.874287465697805], [-73.78562773622744, 40.87409515567935], [-73.78579874873586, 40.87414911299406], [-73.78563326684171, 40.874287465697805]]], [[[-73.77483042594515, 40.874028736939024], [-73.77513690028402, 40.87455444694521], [-73.77467379743139, 40.8747905574114], [-73.77454436919932, 40.874286311038176], [-73.77483042594515, 40.874028736939024]]], [[[-73.78194122869088, 40.87521595072236], [-73.78212699063377, 40.87453122255998], [-73.78259880880877, 40.87468739667811], [-73.78244064983289, 40.87521232612932], [-73.78194122869088, 40.87521595072236]]], [[[-73.78120684177695, 40.876277684076356], [-73.78151357091774, 40.87604602393967], [-73.78120581379403, 40.87659007834781], [-73.78120684177695, 40.876277684076356]]], [[[-73.85107116183939, 40.91037151971954], [-73.85347522399941, 40.907530293024294], [-73.85092059296586, 40.906616494488915], [-73.85017317552095, 40.907507865651596], [-73.8448188698489, 40.905529950177446], [-73.84489264975362, 40.90419086729986], [-73.84138689238422, 40.904172741533245], [-73.84077858945814, 40.9016278566926], [-73.83921829517689, 40.899418417107576], [-73.83964812813004, 40.89733053534083], [-73.83839199189734, 40.894067008049184], [-73.82252377666747, 40.88942882441936], [-73.82255290044698, 40.88980640514993], [-73.82337443102399, 40.8899217624359], [-73.82337003996082, 40.890967295878525], [-73.82285335072685, 40.8912068290964], [-73.79300652649343, 40.88335873688056], [-73.7949170558667, 40.88054379098505], [-73.79554579908852, 40.88069101537513], [-73.79502596232678, 40.879747797714465], [-73.7974381545744, 40.87513533245079], [-73.79981389580328, 40.87415984971642], [-73.80080515564886, 40.871494061246516], [-73.80267298767075, 40.870154470944115], [-73.80297847593309, 40.8687433302645], [-73.80594428659224, 40.86892980232654], [-73.80569186812536, 40.86955351940423], [-73.80670425166406, 40.8704198377245], [-73.80786348838299, 40.871131774526646], [-73.80924423453129, 40.87122460147253], [-73.80841020282985, 40.87092778352045], [-73.80872549256146, 40.87043273548407], [-73.80754063636171, 40.870377552173665], [-73.80870942498512, 40.86908693085252], [-73.80785387653275, 40.86972975164993], [-73.80672958392853, 40.86952964580061], [-73.80694997701814, 40.868859087825584], [-73.80487266170081, 40.86823330232991], [-73.80473569836649, 40.86665506589653], [-73.80385280781442, 40.867166484800215], [-73.8029138708842, 40.86697824729512], [-73.80300695884918, 40.86574900707735], [-73.80177260000694, 40.865876849915026], [-73.7977404198542, 40.87234517694846], [-73.79479044681598, 40.873200484034165], [-73.79316703778704, 40.877055639066654], [-73.79440294586094, 40.87764184350173], [-73.79289389454404, 40.879577109995104], [-73.79095239067752, 40.880073944963016], [-73.79076163255088, 40.88084078046473], [-73.78914050790853, 40.8812619235903], [-73.78912020636906, 40.88008021099363], [-73.79006332860774, 40.87959466151503], [-73.7895230936896, 40.87899812655819], [-73.78611470510785, 40.879057892653215], [-73.78421715885797, 40.87828178375187], [-73.78467950721335, 40.87606091820709], [-73.78691061020376, 40.87398751796683], [-73.78713685620639, 40.87276046589154], [-73.78624874452605, 40.87238284677232], [-73.78508139658926, 40.873589962220784], [-73.78553456958697, 40.87254402950554], [-73.78521974032056, 40.871634753409154], [-73.7840152230201, 40.87376790371924], [-73.78340673949684, 40.87371717103243], [-73.78395100413773, 40.872896330018314], [-73.78306853425862, 40.872153576425525], [-73.78328614178682, 40.87069891608], [-73.78488459457503, 40.869514043541855], [-73.78560245305442, 40.86834165222387], [-73.78595115207338, 40.86932175714071], [-73.78858339378358, 40.86917114124368], [-73.79025594388429, 40.868492199936206], [-73.79153128143534, 40.867318044282634], [-73.79223025408633, 40.86525725932752], [-73.79146291125284, 40.86227438460017], [-73.79189070810901, 40.861071221861316], [-73.7935953273796, 40.86051731268542], [-73.79412037337143, 40.8596962681982], [-73.79487469148799, 40.85807556038882], [-73.79435005934272, 40.85652702380403], [-73.79685461759917, 40.85626435821358], [-73.79798533480687, 40.854848933098474], [-73.7987225560008, 40.854914401172785], [-73.79902419392448, 40.8539572676523], [-73.79795583310546, 40.852988329711316], [-73.79780522990897, 40.85194959759211], [-73.7981936599684, 40.85059256140686], [-73.7993204316036, 40.849912774874134], [-73.80019221958418, 40.848201787896045], [-73.80146735253476, 40.8487702139625], [-73.80197064757184, 40.8503826760682], [-73.80417557932397, 40.85334012018936], [-73.80452526711176, 40.85485186479956], [-73.80352359791945, 40.85555669481545], [-73.80478643015658, 40.861538472923215], [-73.80601085112782, 40.86177306539543], [-73.80582041215932, 40.86003461146447], [-73.80741432489924, 40.86011443766151], [-73.8081787051344, 40.85948671567668], [-73.81085022792251, 40.862331993972205], [-73.81327423918889, 40.86322083863628], [-73.81395857354453, 40.86410270471887], [-73.81437997747572, 40.863254397843434], [-73.81510315384149, 40.86305746536796], [-73.81517320219248, 40.86560120776696], [-73.81662129429255, 40.86417825384305], [-73.81699760266432, 40.864459031143284], [-73.81438039082545, 40.867944920257635], [-73.81525395641252, 40.86819083062364], [-73.81583774182677, 40.87038885343416], [-73.81722578745021, 40.869009273791974], [-73.81815573516809, 40.8692970137655], [-73.81833026225085, 40.8698790058599], [-73.81882936364669, 40.869484735938194], [-73.81816610662023, 40.86843821749143], [-73.81734085490794, 40.86834475152178], [-73.8172811510871, 40.867321984990284], [-73.81892669317295, 40.86904240959336], [-73.81999722806769, 40.86899098097646], [-73.82101366003941, 40.87031504154817], [-73.8218935210308, 40.87040548053199], [-73.82195783615448, 40.87166981530582], [-73.82102046891934, 40.87281611233153], [-73.8219456770169, 40.87268223365345], [-73.82046784228075, 40.87354844241006], [-73.82127407212272, 40.874180098311186], [-73.82190176320205, 40.87372700730551], [-73.82209812766098, 40.87477424460251], [-73.82074608426558, 40.87414159139206], [-73.82042948454482, 40.874380927059455], [-73.82007094639313, 40.8734381879346], [-73.81894644041465, 40.8736694045424], [-73.81994803234078, 40.8738251467912], [-73.8191842773238, 40.87447880974721], [-73.81990519396643, 40.87422225657372], [-73.82030472400845, 40.87489006043554], [-73.82164916150946, 40.875145077030204], [-73.82036389786484, 40.87526818742207], [-73.8197601349038, 40.876260626788394], [-73.82068026468767, 40.87725487014878], [-73.82044281880329, 40.87603632930324], [-73.82116398202929, 40.87669823924921], [-73.82105687445674, 40.877566583074206], [-73.82021305474676, 40.8781329962345], [-73.82010217622542, 40.88095036808097], [-73.81911709766402, 40.881322273746356], [-73.81978882190002, 40.88164537920216], [-73.8192594614563, 40.88208994560081], [-73.81970622079785, 40.88214203601089], [-73.81977692438954, 40.882704027049286], [-73.81934497461545, 40.883562820315355], [-73.8199430109055, 40.88638392206941], [-73.82049652671552, 40.88703574221669], [-73.82367864238685, 40.887893391323054], [-73.8238028362787, 40.887431602920245], [-73.82187799257022, 40.88692919916585], [-73.82098951843312, 40.88604465152686], [-73.82042354896879, 40.88412413930174], [-73.82119227553002, 40.88058570833293], [-73.82352943152156, 40.875033251996705], [-73.8235512383494, 40.87003676703395], [-73.82066687550977, 40.86811560180521], [-73.82000377573077, 40.866240229655176], [-73.82015584689766, 40.863254759190646], [-73.81885125997898, 40.86237607097921], [-73.82031191444247, 40.861031107570334], [-73.82046441958653, 40.86031311886812], [-73.819992278823, 40.859873839858096], [-73.82100279502784, 40.85999113909326], [-73.82110890487118, 40.85931521579794], [-73.82165901874284, 40.86059515157934], [-73.82277541566695, 40.86012178425342], [-73.82197311935825, 40.86013882172433], [-73.82240724387107, 40.85979840186658], [-73.82168527462834, 40.85977901519105], [-73.82196739639933, 40.859279998615605], [-73.82054801307243, 40.859064618952694], [-73.81857003309936, 40.859510918757586], [-73.81863950552332, 40.86069829754105], [-73.81822394885704, 40.86106071067936], [-73.81479629757474, 40.86112895624439], [-73.8138180258687, 40.860548278670905], [-73.81273146495035, 40.85887754194796], [-73.81230602708416, 40.85416202647344], [-73.81640870908151, 40.85408225461233], [-73.81720828353117, 40.8518281657775], [-73.81691731869554, 40.850984877213676], [-73.81569845466488, 40.85079711732447], [-73.81628619094234, 40.850194576449205], [-73.81514191918791, 40.84908061223267], [-73.82014043614454, 40.848020598550825], [-73.82048405617257, 40.848501026132965], [-73.82578990399678, 40.84540629768827], [-73.82728561247524, 40.84942888482589], [-73.82628403184015, 40.85358142028645], [-73.82645589947295, 40.856604200333244], [-73.8328350232271, 40.856035845259655], [-73.83473537507979, 40.854247180134486], [-73.83599087755456, 40.851796282019485], [-73.83647055049677, 40.84714937328565], [-73.83839056291255, 40.840676814135335], [-73.83858724035926, 40.8358965152066], [-73.83911300794156, 40.83591795497417], [-73.83919255235578, 40.83871362856053], [-73.83972014515646, 40.839565405483775], [-73.8403028253707, 40.839524314447786], [-73.83960098545313, 40.83567071920134], [-73.86037967123934, 40.833336102974016], [-73.86085019682676, 40.8336135381001], [-73.86084980515385, 40.83645964202745], [-73.86039073838661, 40.83764663881096], [-73.85895724469067, 40.839148750964064], [-73.86037144102613, 40.83938192559134], [-73.8626694937501, 40.841171616372264], [-73.86546450190856, 40.84085689196487], [-73.87312728092509, 40.838335096415406], [-73.87133643512193, 40.846794341233476], [-73.87140153570445, 40.8514564454248], [-73.87263924393643, 40.85772698012974], [-73.87186744397454, 40.86304962009923], [-73.87229872055676, 40.868699413036694], [-73.87203241853722, 40.871508141135685], [-73.86995296439483, 40.878599068024094], [-73.86648542221785, 40.887482204403376], [-73.86426826386642, 40.892200173986886], [-73.86182532361795, 40.89481152100562], [-73.87048672642307, 40.89664021101398], [-73.8771197410579, 40.89546866364373], [-73.87521979696629, 40.89814776454747], [-73.86996153657742, 40.90083373495805], [-73.86789798628736, 40.902940176905496], [-73.85946778766896, 40.900517209770484], [-73.85907692274915, 40.901007992597464], [-73.85937696525154, 40.90156521766194], [-73.85886401316337, 40.901711695049734], [-73.85957883014396, 40.90244084327494], [-73.8581600000485, 40.902305710202945], [-73.85711090479973, 40.90364953269614], [-73.85717766075955, 40.90528654166164], [-73.85601023323022, 40.90530598362625], [-73.85681013638526, 40.90615582832618], [-73.85423776686882, 40.90703286825461], [-73.8537410363087, 40.90778791623317], [-73.85471078273515, 40.90800630943979], [-73.85458940521998, 40.908939499297695], [-73.85295618487672, 40.91035304418028], [-73.85227451616593, 40.90985409914083], [-73.85107116183939, 40.91037151971954]]]]}, "properties": {"schooldist": "11"}}, {"type": "Feature", "geometry": {"type": "MultiPolygon", "coordinates": [[[[-73.9089323517538, 40.87215734797027], [-73.91092118009641, 40.874146396040274], [-73.91578515571896, 40.87571694506451], [-73.9120583003024, 40.87811932004882], [-73.91148913190445, 40.87901885880971], [-73.90949832117538, 40.878776731679324], [-73.90703748936642, 40.87689516121084], [-73.90665099539478, 40.87575250419279], [-73.90774270784561, 40.87284595211176], [-73.9089323517538, 40.87215734797027]]], [[[-73.92362973950414, 40.87896394324346], [-73.92363695289222, 40.87881535593227], [-73.92367919311681, 40.87882607449882], [-73.92362973950414, 40.87896394324346]]]]}, "properties": {"schooldist": "10"}}]}