{"type": "FeatureCollection", "features": [{"type": "Feature", "geometry": {"type": "MultiPolygon", "coordinates": [[[[-73.92263378594897, 40.80186873814122], [-73.9203146552123, 40.799375459290175], [-73.9166298518167, 40.797858139436784], [-73.91443827299443, 40.79566551786453], [-73.91378385370594, 40.79383628548226], [-73.91514134426238, 40.79201248198991], [-73.91686540584952, 40.79036206296178], [-73.91856299774986, 40.78969533382608], [-73.92219097991176, 40.78551067157354], [-73.92285203280153, 40.78355569341784], [-73.92448052214306, 40.78232049064557], [-73.92571808678534, 40.78217655794476], [-73.92810118987339, 40.780920320042306], [-73.93105352807888, 40.782396593566745], [-73.93502345134512, 40.78300638202899], [-73.93607064617002, 40.78421721562042], [-73.93571265997697, 40.78568048949272], [-73.93240145513691, 40.789720290170315], [-73.92972400781915, 40.791366178343196], [-73.92807273575714, 40.79082339078063], [-73.92610410186754, 40.790731606614955], [-73.92615942315902, 40.79171538899528], [-73.92656766339974, 40.791858134781954], [-73.9255872987962, 40.79182083090712], [-73.92673798846978, 40.79192842279197], [-73.92648803031017, 40.79102232379843], [-73.92786889241192, 40.79095483762944], [-73.9271356372808, 40.79192930660329], [-73.92826720296209, 40.792328523445775], [-73.92832271609294, 40.79310198863781], [-73.92693614767529, 40.79549706219686], [-73.92711806878732, 40.79720386073275], [-73.92770694127177, 40.79729866287715], [-73.92720299704214, 40.79738674779956], [-73.92747588537361, 40.79812289966467], [-73.92669572629558, 40.800146977152636], [-73.92724770789282, 40.800392957369134], [-73.92666565480394, 40.80018271403597], [-73.92655241742347, 40.80060482509203], [-73.92704640297909, 40.800651743031466], [-73.92650954867361, 40.80065703102215], [-73.92527521020182, 40.80199852224094], [-73.92263378594897, 40.80186873814122]]], [[[-73.93453295718538, 40.801452226478844], [-73.93357644747852, 40.80275218023766], [-73.92901644642042, 40.80083071554227], [-73.92927936675041, 40.79585313952037], [-73.93019664459078, 40.79459322385024], [-73.93583106855034, 40.791094704870765], [-73.93708104448426, 40.7893663957105], [-73.93621859869954, 40.78880049757446], [-73.93714965461105, 40.78916844905963], [-73.9381157015585, 40.787184762756915], [-73.93982619696507, 40.78525655191307], [-73.9435442071252, 40.78288052382281], [-73.94708951916724, 40.78424490579509], [-73.94658817821288, 40.784941376959296], [-73.94882667165382, 40.785881175019504], [-73.94746093950829, 40.787753170576664], [-73.95067619923714, 40.78911005184158], [-73.95160507342028, 40.7878566145712], [-73.9548172375053, 40.78920474437001], [-73.94646133785935, 40.800665305379574], [-73.94323386335302, 40.7993071866496], [-73.93998242364906, 40.803752734980904], [-73.93453295718538, 40.801452226478844]]]]}, "properties": {"schooldist": "4"}}, {"type": "Feature", "geometry": {"type": "Polygon", "coordinates": [[[-73.94459915296271, 40.80322504784043], [-73.97301487242221, 40.764278879445534], [-73.99393694248319, 40.773179510967104], [-73.99092717414969, 40.77756687876315], [-73.99039616003651, 40.77758506567923], [-73.98886861806118, 40.77969292291167], [-73.99155105922745, 40.77957482093496], [-73.98888614411696, 40.77987889853291], [-73.98546581263146, 40.78536070057572], [-73.98617270496545, 40.786068452258874], [-73.98711901394266, 40.78521031850171], [-73.98612842248589, 40.78623900133132], [-73.98542932126942, 40.78541394218482], [-73.98508113839327, 40.785921935110736], [-73.98576566095873, 40.7861962748589], [-73.98501696406484, 40.7860142376984], [-73.98465507883023, 40.786534741808154], [-73.98594956155668, 40.786487113464126], [-73.9846194292453, 40.78658601635011], [-73.96534706551702, 40.8139396518969], [-73.94527043859708, 40.80516836906152], [-73.94620045835062, 40.80390652243253], [-73.94459915296271, 40.80322504784043]]]}, "properties": {"schooldist": "3"}}, {"type": "Feature", "geometry": {"type": "Polygon", "coordinates": [[[-73.93569543281704, 40.83515186541571], [-73.93495775984087, 40.83468276036353], [-73.93515659239551, 40.832682406237794], [-73.93383009163675, 40.819719743429815], [-73.93433864584739, 40.80956221383153], [-73.93356119311481, 40.80760067738683], [-73.93030876458775, 40.803786015368274], [-73.92901644642042, 40.80083071554227], [-73.93357644813992, 40.80275218023803], [-73.9344546690174, 40.80141917942826], [-73.93998242431044, 40.80375273498124], [-73.94323386401436, 40.79930718664993], [-73.94646133852031, 40.800665305882454], [-73.94459915296271, 40.80322504784043], [-73.94620045835062, 40.80390652243253], [-73.94527043859708, 40.80516836906152], [-73.96534706551702, 40.8139396518969], [-73.95885403985397, 40.82167475024741], [-73.9480073293346, 40.8171165088998], [-73.94278135818364, 40.827344488641636], [-73.94059472654725, 40.826413604029405], [-73.93864026693869, 40.82973887442072], [-73.9401413121009, 40.8303719888809], [-73.93990123909738, 40.830953895469214], [-73.93848743202058, 40.832994503677426], [-73.93569543281704, 40.83515186541571]]]}, "properties": {"schooldist": "5"}}, {"type": "Feature", "geometry": {"type": "MultiPolygon", "coordinates": [[[[-74.04614707208631, 40.691122645530776], [-74.04350596078567, 40.68968735963629], [-74.04270428360738, 40.69015520464474], [-74.04255372037339, 40.68996275979236], [-74.04346752310265, 40.68963699010365], [-74.04364078627412, 40.68876655957033], [-74.0443852177728, 40.68851617840287], [-74.0468028483255, 40.689953256266485], [-74.0474765152837, 40.68961136999821], [-74.04772962763064, 40.6899153184662], [-74.04689205434565, 40.69005909832307], [-74.04717029423398, 40.69099132924552], [-74.04614707208631, 40.691122645530776]]], [[[-74.01674756096058, 40.69334336771521], [-74.01422123084885, 40.692822905339064], [-74.01343563361452, 40.69211544203167], [-74.01181185647236, 40.69247933506453], [-74.01190309722551, 40.69209058300547], [-74.01333264149608, 40.69201997010252], [-74.01218355071057, 40.691136215940816], [-74.01230688304491, 40.68928018293776], [-74.01316926402744, 40.68815477019818], [-74.0148809797501, 40.68725457048872], [-74.01604730539523, 40.6873380062979], [-74.02354160370125, 40.68400298359273], [-74.02546836768583, 40.68415292257847], [-74.02633404242411, 40.684801697724346], [-74.02642577177183, 40.68617533982994], [-74.02020527500306, 40.69203392385428], [-74.0197330820005, 40.69311410708301], [-74.01674756096058, 40.69334336771521]]], [[[-74.04074713630999, 40.70016092580959], [-74.03885397699936, 40.69962589529322], [-74.03836269358591, 40.698673137973216], [-74.03993272066951, 40.69854442279407], [-74.04025555083275, 40.698804823307505], [-74.03979339404084, 40.698956229496794], [-74.04074713630999, 40.70016092580959]]], [[[-73.9641598028843, 40.74686554735975], [-73.96444522752678, 40.74641042475821], [-73.96458318426947, 40.74645440067351], [-73.9641598028843, 40.74686554735975]]], [[[-73.9403553347751, 40.770496574371236], [-73.95322009963203, 40.75642684131528], [-73.95791452493187, 40.75210985452551], [-73.96153855464473, 40.749723119840674], [-73.9590161662751, 40.753595059454994], [-73.9520863226655, 40.76086215440501], [-73.94472478497455, 40.769786271535025], [-73.94212674580719, 40.77203470050927], [-73.94007665751654, 40.77292618635813], [-73.9403553347751, 40.770496574371236]]], [[[-73.93804640603439, 40.7808295442757], [-73.93764631821483, 40.781001215893035], [-73.93759894622623, 40.78046784086164], [-73.93958378972431, 40.77957647450991], [-73.93874423089275, 40.78104387604242], [-73.93808213268763, 40.78141843727481], [-73.93804640603439, 40.7808295442757]]], [[[-73.9517317999925, 40.7879097842546], [-73.95067619923714, 40.78911005184158], [-73.94746093950829, 40.787753170576664], [-73.9488266709926, 40.78588117501923], [-73.94658817755167, 40.78494137695899], [-73.94708951916724, 40.78424490579509], [-73.9435697971985, 40.78292307857361], [-73.94387075988708, 40.781273026571775], [-73.94343876735945, 40.779763242468604], [-73.94241378169747, 40.78003053994164], [-73.94211585271391, 40.7794643817834], [-73.94300246547283, 40.77885287951761], [-73.94200266722274, 40.7761853173829], [-73.94366431814845, 40.773840763674414], [-73.95441826078606, 40.76218410495124], [-73.96223125165591, 40.75452213042204], [-73.97094062960419, 40.74447144402558], [-73.97070317465584, 40.743990495411346], [-73.97135752941868, 40.743838455359636], [-73.97265743869113, 40.7392227542773], [-73.97248994174741, 40.735803280107795], [-73.97441385816532, 40.73641439385913], [-73.97402692170377, 40.736125767245824], [-73.9744664711336, 40.736278456830235], [-73.97414062018372, 40.73595565716749], [-73.97451459772599, 40.735894598411406], [-73.97305698778139, 40.735177452913284], [-73.97276308380353, 40.73550508747374], [-73.97294520692591, 40.73506517057372], [-73.97354472883961, 40.73494432610164], [-73.97444065082591, 40.73531677190073], [-73.97341321730877, 40.73128241592624], [-73.97147994907249, 40.72924957669343], [-73.97162697271706, 40.7266284534996], [-73.9899029597005, 40.73443479013707], [-73.99123439559044, 40.72772680526254], [-73.9940415520236, 40.72032097982332], [-73.98576634138375, 40.71772367648474], [-73.98711330371913, 40.715064239132566], [-73.98688737770246, 40.712614410871325], [-73.98837296778066, 40.71172746941936], [-73.98986944068768, 40.7120429823954], [-73.98973389860063, 40.711242881088495], [-73.99260241865181, 40.71080014033611], [-73.99190544366458, 40.70952539607984], [-73.99728287195578, 40.708731619843086], [-73.9999485594979, 40.707591496371165], [-74.0011868526283, 40.70685982526937], [-74.00098276757775, 40.7064167134957], [-74.00140666691954, 40.70617938802082], [-74.0005924020935, 40.70541007840852], [-74.00145437418846, 40.704873302929656], [-74.00256965059467, 40.70552357952368], [-74.00197070397945, 40.70473786748223], [-74.00243071075865, 40.70467785800453], [-74.00332307270787, 40.705628595220254], [-74.00383327532258, 40.70530324302658], [-74.002866897815, 40.704075225511744], [-74.00405666439265, 40.70514736343912], [-74.00659591913875, 40.70368590245202], [-74.00530412596079, 40.702559865633226], [-74.00549427805096, 40.702431380950586], [-74.00678502191042, 40.70356812690029], [-74.00929072600611, 40.701930071822154], [-74.00869964313567, 40.70113986754241], [-74.0077554915064, 40.70154800167199], [-74.008349275591, 40.700669348388395], [-74.00958483083636, 40.701837385060784], [-74.01118088303541, 40.70145139225388], [-74.01081530667376, 40.700200444603915], [-74.01115033556847, 40.7008984006037], [-74.01163147918649, 40.70045821824831], [-74.01208668214693, 40.700681308739355], [-74.01196196116918, 40.70003754559562], [-74.01239160032276, 40.70062052759162], [-74.01261382087355, 40.70010826530868], [-74.01310747847371, 40.70050745218082], [-74.01311303826294, 40.699774164880274], [-74.01395152690473, 40.70099098246022], [-74.01422063261519, 40.700111490863236], [-74.01428920741134, 40.70064414476523], [-74.01467119991996, 40.7002104006947], [-74.01432384363015, 40.700661304127294], [-74.01464323168875, 40.70081730432538], [-74.01506818269304, 40.70031825755512], [-74.01509832270126, 40.700334265523615], [-74.01467365628477, 40.70083460852601], [-74.01714508062659, 40.70270534997635], [-74.01757035640019, 40.70418388098674], [-74.0184470473703, 40.704162354961944], [-74.01865886564083, 40.70442877929014], [-74.01748090549341, 40.7046672608579], [-74.01888747947997, 40.704729142804425], [-74.01930552804934, 40.706079882381395], [-74.01812094240341, 40.7078404035987], [-74.01871668887303, 40.70812849856256], [-74.01777014254505, 40.71283457478931], [-74.01780037822346, 40.71234512415882], [-74.01662424491327, 40.71215731849282], [-74.01632006627594, 40.713407982981], [-74.01757952575043, 40.7135954903837], [-74.01772496219296, 40.71307018162288], [-74.01671018605823, 40.718624176058164], [-74.01321322719193, 40.71831571989594], [-74.01306805492318, 40.71892219382567], [-74.01290892764027, 40.71973485220921], [-74.01341376512872, 40.72001948201438], [-74.01637848291469, 40.72037660832847], [-74.0163057334285, 40.72072702054086], [-74.01299980679079, 40.720333090750216], [-74.01289730270861, 40.72086804547342], [-74.01569471973286, 40.72120642487545], [-74.01562245781948, 40.7215434536739], [-74.01253875807262, 40.72150317657655], [-74.01196432115192, 40.72432986474244], [-74.01165326569942, 40.725871761851536], [-74.01516324118435, 40.726319712439555], [-74.01512356549462, 40.726793942564726], [-74.01154201897604, 40.72644734692726], [-74.01138323604748, 40.72822927186478], [-74.01439069932388, 40.728463047520314], [-74.01408693559907, 40.730663172537895], [-74.01116195696476, 40.730450676349214], [-74.01099350879153, 40.73232041794078], [-74.0109411822674, 40.733007762766924], [-74.01399957174895, 40.73333227751798], [-74.01072972401569, 40.73346340248695], [-74.01083284629274, 40.734007093508524], [-74.01201792010474, 40.7340637444565], [-74.01081359413031, 40.734283443145245], [-74.0104765981442, 40.73806394059523], [-74.01113915602562, 40.73838986281323], [-74.01045432864593, 40.73836450522317], [-74.01039303134554, 40.73917429605936], [-74.01158045502306, 40.73926453560961], [-74.0114607395534, 40.74058421475269], [-74.01215741913089, 40.740605998131436], [-74.0126592820849, 40.7407476384976], [-74.00963145571748, 40.74064536687183], [-74.00909156846187, 40.74288614856998], [-74.0121194002866, 40.74351661218273], [-74.0120900828903, 40.743897637649034], [-74.0095120176736, 40.74367609325786], [-74.00890032962842, 40.7439179270962], [-74.00872780058869, 40.7448582324076], [-74.00991660747383, 40.745327255509864], [-74.00987211085473, 40.74491650162336], [-74.01016790535392, 40.744942329709765], [-74.0099739502192, 40.745323135109416], [-74.01046920077948, 40.745386766029085], [-74.01041937209379, 40.74497682366864], [-74.01076419714612, 40.74500503202102], [-74.01053106537704, 40.745382050389644], [-74.01110359804885, 40.745447670244126], [-74.01104459150831, 40.74504621240219], [-74.01138770040264, 40.74507311268271], [-74.0111541917691, 40.74544637808411], [-74.01173958618897, 40.7455199181903], [-74.01183642872417, 40.74512596367891], [-74.01167885505596, 40.74597946181612], [-74.00946389855972, 40.74575014365962], [-74.00936362734237, 40.74633560247998], [-74.01153382764755, 40.74656775420988], [-74.01151182952182, 40.74698460410329], [-74.00924314592585, 40.746762790251374], [-74.00913736259926, 40.74735976280317], [-74.01135675337719, 40.7475924178444], [-74.01133174441702, 40.748000575844735], [-74.00905847901343, 40.74778564533301], [-74.00894606568407, 40.74841189316882], [-74.01116687495461, 40.74864504676639], [-74.01114914281891, 40.74902574726506], [-74.00994818004122, 40.748931988508396], [-74.00910453215725, 40.750371069730505], [-74.01067737532622, 40.75102267497965], [-74.01056463476439, 40.75132146210147], [-74.00900098259454, 40.75064818378276], [-74.00853256925016, 40.75188360880192], [-74.00934089245285, 40.752355610048305], [-74.00842636447226, 40.75215785023945], [-74.0099905581975, 40.75281618714928], [-74.00997058797022, 40.75293356415334], [-74.00835352838843, 40.75235073934249], [-74.0077440483022, 40.75433680243448], [-74.00480392560185, 40.75780984316488], [-74.00527894863986, 40.7580285549284], [-74.00503105136636, 40.75835701597072], [-74.0070035883792, 40.759231870341296], [-74.00650687640183, 40.75989203231737], [-74.00450483093915, 40.75908499705544], [-74.00380657835007, 40.759510731466186], [-74.00431889425076, 40.75991068576361], [-74.00366891453541, 40.75970596957674], [-74.00392854867468, 40.76000301972062], [-74.00233528130057, 40.7615437270018], [-74.00455641560926, 40.762524265527816], [-74.0022008207327, 40.76172843222664], [-74.00153309066981, 40.76264459812778], [-74.00361214794175, 40.7637770439099], [-74.001386036986, 40.762850095002065], [-74.00097308022016, 40.76342027172584], [-74.00314976988992, 40.76433288818481], [-74.00315587058185, 40.76473050988013], [-73.99992712367728, 40.763406528479514], [-73.99915098087908, 40.76420525958287], [-74.00227436642373, 40.76552518109975], [-74.00205713831564, 40.76587739041879], [-73.99888473174988, 40.76456937755124], [-73.9982709030835, 40.76555223341343], [-74.00154217937305, 40.76694470253283], [-74.00139437159498, 40.76723004823578], [-73.99806675905354, 40.76587188113588], [-73.99737808447968, 40.76682338537458], [-74.00064950530418, 40.76824523610574], [-74.00038586422971, 40.768504195429465], [-73.99715588949212, 40.76712869617297], [-73.9964571540504, 40.76809881579582], [-73.99973590247853, 40.76950617783428], [-73.99947253734024, 40.76976421496932], [-73.99707176105416, 40.768732643577046], [-73.99657126505682, 40.76942456827402], [-73.99902682832902, 40.77046327298224], [-73.99876206914315, 40.77082505670939], [-73.99631327088191, 40.76979883633662], [-73.99542474436302, 40.771031615168134], [-73.99589990100937, 40.77145029858229], [-73.99492582120637, 40.77151604240567], [-73.99707328169316, 40.77254286839952], [-73.9968729144914, 40.77281748122877], [-73.99477407930823, 40.77192954753038], [-73.99444501293384, 40.77237712658849], [-73.99612087994667, 40.773275391093186], [-73.9941632845631, 40.77248719051889], [-73.99383108203097, 40.77293178734827], [-73.9962406518988, 40.77378979139785], [-73.99609524522621, 40.774086186437806], [-73.97301487176121, 40.76427887944539], [-73.95481723816654, 40.78920474437029], [-73.9517317999925, 40.7879097842546]]]]}, "properties": {"schooldist": "2"}}, {"type": "Feature", "geometry": {"type": "Polygon", "coordinates": [[[-73.92640556921116, 40.87762147653752], [-73.92619292238618, 40.87706441968501], [-73.9245703699553, 40.87742891293563], [-73.92239768169317, 40.87678022314138], [-73.92257636805986, 40.87429518262891], [-73.92111741577914, 40.87303345568897], [-73.91979301672416, 40.873606512158005], [-73.92080255630297, 40.87419405936942], [-73.92118186508976, 40.875137840850826], [-73.92080609644003, 40.87547749297288], [-73.91887525897306, 40.87467899589022], [-73.91927438317983, 40.87365188090477], [-73.91849995662199, 40.87319171560401], [-73.91750587170966, 40.874168811454595], [-73.91568463084471, 40.87452761810526], [-73.91142596184366, 40.87318176715515], [-73.91043363570449, 40.87138081638443], [-73.91184774646815, 40.86767252047266], [-73.9139186313324, 40.86474558440378], [-73.91492387927869, 40.864580378919314], [-73.91441113392746, 40.8641736263706], [-73.91589911645796, 40.864308038085234], [-73.91519574800158, 40.863945224233476], [-73.91538673051079, 40.86308438470344], [-73.91729467741744, 40.861679417728254], [-73.91950213660927, 40.85879113379065], [-73.92159014848228, 40.860072800027055], [-73.9218663378377, 40.859181339144804], [-73.92091459857788, 40.858218966637864], [-73.92237695742354, 40.856583569625016], [-73.92234459374129, 40.85568233581504], [-73.92169841904696, 40.85667230185513], [-73.92151894059089, 40.85660117062337], [-73.9298142904901, 40.845077383642355], [-73.93495775984087, 40.83468276036353], [-73.93572624332148, 40.83515634659992], [-73.93894859789032, 40.832417335825966], [-73.9401413121009, 40.8303719888809], [-73.93864026693869, 40.82973887442072], [-73.9405947265477, 40.826413603526824], [-73.94278135818364, 40.827344488641636], [-73.9480073293346, 40.8171165088998], [-73.95885403985366, 40.82167475074997], [-73.95900018289892, 40.822409728374524], [-73.95990999444398, 40.82257111982217], [-73.95960332460248, 40.82299468728607], [-73.95892614718271, 40.82271175594409], [-73.95852731524258, 40.82184375665232], [-73.95793904909091, 40.82277435405003], [-73.95955575493863, 40.823693797768954], [-73.9563178451031, 40.827944215388754], [-73.95503912978361, 40.82741343241461], [-73.95454188062094, 40.827861476868264], [-73.95119183012206, 40.832639151280034], [-73.95021218560015, 40.83430311995851], [-73.94842860791549, 40.83986085415082], [-73.94612416421772, 40.843892496557295], [-73.94696441759635, 40.85046552531581], [-73.94347978545711, 40.85228188194213], [-73.94186996360527, 40.853867738940075], [-73.93242538215391, 40.867568247921255], [-73.93256795169879, 40.86904439147401], [-73.93235370807277, 40.86975525529677], [-73.93205343847761, 40.869600750241986], [-73.93191377136759, 40.87112949422548], [-73.92997686743148, 40.874338962330555], [-73.92901345809842, 40.875738659587725], [-73.92640556921116, 40.87762147653752]]]}, "properties": {"schooldist": "6"}}, {"type": "Feature", "geometry": {"type": "Polygon", "coordinates": [[[-73.97162697271706, 40.7266284534996], [-73.9739175048053, 40.71759358281103], [-73.9770565940177, 40.71119762596442], [-73.97818190694301, 40.71050686501523], [-73.98128647552558, 40.71021834788182], [-73.98124579569932, 40.709826215104], [-73.98839064023267, 40.70912694916282], [-73.98873681707516, 40.70997074234784], [-73.99190544366458, 40.70952539607984], [-73.99260241865181, 40.71080014033611], [-73.98973389860063, 40.711242881088495], [-73.98986944068768, 40.7120429823954], [-73.98837296778066, 40.71172746941936], [-73.98688737770246, 40.712614410871325], [-73.98711330371913, 40.715064239132566], [-73.98576634138375, 40.71772367648474], [-73.99404155268417, 40.72032097982335], [-73.99123439559044, 40.72772680526254], [-73.9899029603612, 40.734434790137136], [-73.9720501534719, 40.72688094629495], [-73.97162697271706, 40.7266284534996]]]}, "properties": {"schooldist": "1"}}]}