{"type": "FeatureCollection", "features": [{"type": "Feature", "geometry": {"type": "MultiPolygon", "coordinates": [[[[-74.05107159803777, 40.566722493398], [-74.04931640362085, 40.56588774778062], [-74.04923629842045, 40.56536273636829], [-74.05002620158642, 40.56531818062132], [-74.05107159803777, 40.566722493398]]], [[[-74.20500112425202, 40.579311678363595], [-74.20242040433934, 40.57945159871812], [-74.20274299180831, 40.57891103407232], [-74.20045960402295, 40.57873052983836], [-74.20100811068167, 40.57764993710632], [-74.20054110632101, 40.575764635302335], [-74.2009693011314, 40.574560992869586], [-74.20241090344626, 40.57364579384742], [-74.20699697317228, 40.573652793487014], [-74.20709545878647, 40.57627763684799], [-74.20591732509243, 40.57861664705121], [-74.20500112425202, 40.579311678363595]]], [[[-74.05314036821026, 40.577702714540756], [-74.05406044939872, 40.577116445239064], [-74.05489778144887, 40.57778244092033], [-74.05484560052173, 40.57994579142779], [-74.05368629150418, 40.5805487596146], [-74.05293190639816, 40.57990247466604], [-74.05314036821026, 40.577702714540756]]], [[[-74.19866500318824, 40.614116552375556], [-74.19840419797072, 40.61266739505581], [-74.20032470107924, 40.609709866100424], [-74.20074289695101, 40.607794466740856], [-74.20033068180706, 40.60628661719533], [-74.19831206563718, 40.6034244600616], [-74.1981022728169, 40.602694010884385], [-74.19875958205299, 40.60171197517643], [-74.20221849851056, 40.60596967961667], [-74.20281628374592, 40.60827082796749], [-74.20244374383422, 40.6132846934307], [-74.20154540482304, 40.61394664748379], [-74.2005460151044, 40.6135995033468], [-74.19866500318824, 40.614116552375556]]], [[[-74.15945602437947, 40.64144833231906], [-74.16111242588029, 40.64183545323388], [-74.16153403176914, 40.64415628242218], [-74.15809750008751, 40.643757566620316], [-74.15755778855826, 40.643239865478535], [-74.15945602437947, 40.64144833231906]]], [[[-74.08570754378212, 40.64888055337064], [-74.07899546399243, 40.648142554422144], [-74.07650657152858, 40.64696881818354], [-74.07445282563586, 40.645067487718244], [-74.07359107919277, 40.64499892804317], [-74.07385653684669, 40.64542481559722], [-74.07333813922912, 40.64578311565943], [-74.07369011806443, 40.64530572405497], [-74.0725877555387, 40.644790863173824], [-74.07269828799026, 40.64444127346753], [-74.07165829825766, 40.64503374643479], [-74.07229190281822, 40.6442660478206], [-74.07113105720936, 40.64320526367847], [-74.07210952444632, 40.64246321679294], [-74.0703292371539, 40.64252612813249], [-74.07323829249576, 40.64218473608213], [-74.07314400585922, 40.64185297347514], [-74.07019399625197, 40.642007502805086], [-74.07308689819328, 40.64163681446722], [-74.07289005675553, 40.640922672373215], [-74.06998354653898, 40.64106894261439], [-74.07307725837745, 40.640513311796504], [-74.07309035578784, 40.638618999686045], [-74.07237941129381, 40.63816272607427], [-74.07348353801726, 40.637787357935785], [-74.0733734295401, 40.63661072563916], [-74.07209483741536, 40.63664727762517], [-74.07335822045596, 40.636536094165336], [-74.07298474612325, 40.63030897898163], [-74.06802173609917, 40.62878758518525], [-74.0729117793656, 40.62999637940668], [-74.07229520348636, 40.62713842700784], [-74.07352694647261, 40.626863194268694], [-74.07270543377281, 40.62687414856302], [-74.07225500955772, 40.62460875019414], [-74.07002735127536, 40.62145406385048], [-74.06649335296383, 40.61889760159536], [-74.06596065271782, 40.619359015593915], [-74.06619908020825, 40.61872248128858], [-74.0654458613544, 40.619202628289095], [-74.06668207982925, 40.61806749593871], [-74.06641558715178, 40.617872498165745], [-74.06425721751592, 40.61817168758575], [-74.06509908407207, 40.61751095612564], [-74.06443662005026, 40.61706241460274], [-74.06390892240363, 40.61732882514924], [-74.06432745792097, 40.616988503022704], [-74.06143961457276, 40.61437802069976], [-74.0603368079197, 40.61190187971726], [-74.0598544432858, 40.61210295810573], [-74.05999919777541, 40.612783899115904], [-74.05976930738183, 40.612056647139525], [-74.06027224809945, 40.61181963993938], [-74.05892163520888, 40.61105605439532], [-74.05908584374609, 40.61063367675176], [-74.05716383813034, 40.608742783104205], [-74.05649565870824, 40.60724764825673], [-74.05381069871385, 40.60591271885288], [-74.05360729740823, 40.60523880941793], [-74.05402039958975, 40.604934719911284], [-74.05303330746446, 40.601466470296835], [-74.05342199966746, 40.60051607104132], [-74.05222983094262, 40.59982388359384], [-74.05291038294634, 40.599845465331526], [-74.05447422333906, 40.59875553954863], [-74.05964120662084, 40.59370938839283], [-74.06215274366618, 40.592025040542524], [-74.0650333235618, 40.58899099786547], [-74.06436003721248, 40.588267891174986], [-74.06477833032996, 40.58848831072585], [-74.06722276816889, 40.58673444925768], [-74.07096310182045, 40.58318199040278], [-74.07149180587149, 40.58216878265224], [-74.07065781603734, 40.5816256250375], [-74.07177638431078, 40.58187653415902], [-74.07499413073515, 40.5792365574165], [-74.07336118472104, 40.578275488289336], [-74.07508288192622, 40.579160158755755], [-74.07579819606629, 40.57830925065038], [-74.07534622648264, 40.57788796906888], [-74.07601597043818, 40.57824491228999], [-74.07926321256909, 40.575671292205875], [-74.07867933938915, 40.57508182522351], [-74.07933640538258, 40.57562720401707], [-74.08050289147509, 40.57498045871081], [-74.0859529738592, 40.57029822710444], [-74.08691263719129, 40.56898584268327], [-74.0862163215829, 40.5685326976452], [-74.08725078316105, 40.56908167819304], [-74.08924906141041, 40.56701557053441], [-74.08998259932838, 40.567380011533295], [-74.09099905467042, 40.56673712909772], [-74.09407071109428, 40.56273161946135], [-74.09542371862229, 40.56315463556821], [-74.09661362272217, 40.56208714553755], [-74.09819767261925, 40.55983647680481], [-74.09829030823701, 40.559332614157], [-74.09782127089834, 40.559053465714776], [-74.09876415480825, 40.55942355114847], [-74.10079963994006, 40.55832182111543], [-74.10184637674703, 40.556216988780186], [-74.1013542327051, 40.55558329994364], [-74.1026507642614, 40.5561344047848], [-74.10309839177432, 40.55590464145073], [-74.1046594355729, 40.55412046731082], [-74.1048444770223, 40.553025814555845], [-74.10648150878131, 40.55415682786993], [-74.10734831283652, 40.55414815203132], [-74.11028457387542, 40.55149635741772], [-74.11278846957897, 40.54788426222187], [-74.11473781165269, 40.547996610676755], [-74.11546177820856, 40.54751536221784], [-74.11654532176985, 40.54787239314677], [-74.11804133083712, 40.54730661289477], [-74.11977810109424, 40.54547045664534], [-74.12249960095284, 40.544858106708034], [-74.12638185131075, 40.5405207554594], [-74.13071184272671, 40.534535075436374], [-74.1335644343217, 40.53151117480653], [-74.13690799076248, 40.52928191838023], [-74.13728504185896, 40.529740467483215], [-74.13888337294001, 40.5299606760409], [-74.1391507600559, 40.53152011163331], [-74.14061092637249, 40.53413060019113], [-74.14048158865673, 40.53508131687892], [-74.14009728086621, 40.53548491452095], [-74.13410017490894, 40.53549448809975], [-74.13119545755266, 40.53787240877399], [-74.13152564883086, 40.537718542135934], [-74.13129269865559, 40.537956701367634], [-74.13181387201774, 40.53830735868589], [-74.13211244561437, 40.538052296677115], [-74.13169767667848, 40.53785712281251], [-74.132424385791, 40.537774960231765], [-74.13191182124632, 40.53753284097714], [-74.13245302764068, 40.53776028086156], [-74.1327548055599, 40.53750453647934], [-74.13223596269246, 40.53726255073678], [-74.13239801649948, 40.537118863926885], [-74.13277603711705, 40.53748401091606], [-74.13307445571553, 40.537229123304215], [-74.1325578620495, 40.53699140775676], [-74.13339187311468, 40.536957984348504], [-74.13287438346879, 40.53671963230177], [-74.13303508839532, 40.536574875626066], [-74.13341004365368, 40.53693972187112], [-74.13386054206158, 40.53659796199065], [-74.12996934202987, 40.53996776911168], [-74.13020869361587, 40.53970266381743], [-74.12968375508696, 40.539471719592626], [-74.13052164348925, 40.539425558119056], [-74.13000272880831, 40.53917239365794], [-74.13054176521165, 40.53940930625587], [-74.13083906851797, 40.53914759239006], [-74.130322448993, 40.538900471244645], [-74.13048528360618, 40.53875891625542], [-74.13085918919981, 40.53913133980174], [-74.13115328715267, 40.538873574103825], [-74.13065428107708, 40.538617311132434], [-74.13117437050751, 40.538855160392835], [-74.13147424215231, 40.53859831438033], [-74.13097509115991, 40.53834174990228], [-74.13179350815561, 40.53832599148931], [-74.13116466378557, 40.53790013586852], [-74.12798728527221, 40.540710977483286], [-74.12740612938033, 40.542018574908106], [-74.1279283050762, 40.5433732470561], [-74.12756660762842, 40.5434993339346], [-74.130726540925, 40.546255189768075], [-74.13325905588648, 40.54684725133772], [-74.13542312363971, 40.546574297836656], [-74.13713259013673, 40.54593097435975], [-74.1361154072406, 40.54501984568003], [-74.13638379801961, 40.54485467150645], [-74.13719287453833, 40.545784294701015], [-74.13750833508851, 40.54557755723887], [-74.1365890713694, 40.54484548609534], [-74.13687348564983, 40.544682593911], [-74.13794966050548, 40.54600033657565], [-74.13886951340419, 40.54513019760744], [-74.1376243074514, 40.544253566418455], [-74.1387553470346, 40.54493395842702], [-74.13901965079312, 40.5447155610301], [-74.13786798524539, 40.54405254413111], [-74.13903307178522, 40.54470490979763], [-74.13953937981628, 40.54429514087153], [-74.13914541346126, 40.544509580120106], [-74.13942069403764, 40.54420594353657], [-74.13897454226765, 40.54437610181988], [-74.13922032793825, 40.5440666996696], [-74.13858581224993, 40.54410463848969], [-74.13882325461661, 40.54378405489603], [-74.13827964521946, 40.543866694569914], [-74.13834151288614, 40.54355182780902], [-74.13852282835141, 40.54340155074948], [-74.13956971698569, 40.5442722748307], [-74.139836977861, 40.54405246234099], [-74.13870632397281, 40.54329141083457], [-74.13890636539452, 40.543131777602504], [-74.14038573073621, 40.54403318500803], [-74.13921993551766, 40.54316608513726], [-74.14029571947168, 40.54364045715569], [-74.13936132804032, 40.54282586399885], [-74.14030634258137, 40.54336711011456], [-74.14062715566955, 40.54311302969269], [-74.13963169074167, 40.54254109756638], [-74.13985859891679, 40.54235717512933], [-74.14064614869822, 40.543094214902304], [-74.14132426860127, 40.543094133829584], [-74.14016509971582, 40.54236621843449], [-74.14033528229646, 40.54222820875713], [-74.14020723606578, 40.54236522429853], [-74.14141073626288, 40.543022415079726], [-74.14026290400702, 40.54196151152278], [-74.1413490144548, 40.54257752313094], [-74.14179720022932, 40.54220041538174], [-74.14063984238014, 40.541694542036645], [-74.14095816832892, 40.54143207796516], [-74.14187308037809, 40.542166658128764], [-74.14169237164697, 40.54234783819381], [-74.14229898696122, 40.54225211146174], [-74.14247662170077, 40.541333709775806], [-74.14172892651298, 40.53933948409722], [-74.14230351341729, 40.539069975289024], [-74.14176587859644, 40.538542040999126], [-74.14226513073875, 40.53814035366407], [-74.14183789388265, 40.53842162042696], [-74.14216718019145, 40.53793276106833], [-74.1410415791634, 40.53734688446226], [-74.14129825537701, 40.537138177947725], [-74.14218574907545, 40.53791777728566], [-74.14158287690893, 40.537087577952576], [-74.14383385685339, 40.53713691184979], [-74.14474069813582, 40.535801044211354], [-74.1492173326397, 40.53424158776107], [-74.15069553618278, 40.53254583893728], [-74.15245660936574, 40.532067943498475], [-74.15454357374344, 40.530062135801224], [-74.154928948494, 40.53022548357582], [-74.15599000320289, 40.52941960271383], [-74.15644868215885, 40.52893184170061], [-74.156187319182, 40.52861137109096], [-74.15701861946272, 40.52897765580974], [-74.15970134585953, 40.52729599232821], [-74.16227196108646, 40.5271942618059], [-74.16999711227334, 40.52304577245157], [-74.17128682133149, 40.523457767138844], [-74.17269667328875, 40.52296873552278], [-74.17601245544931, 40.52087596282822], [-74.17758295522106, 40.51923086686619], [-74.17831876690663, 40.5199457856312], [-74.18105192812692, 40.52066325403714], [-74.18483116545617, 40.51934135859996], [-74.18849871633212, 40.516312726350655], [-74.18926875557327, 40.515344976872555], [-74.188842978461, 40.51508716652504], [-74.18971218432546, 40.51532037853558], [-74.19409643802221, 40.51064124236131], [-74.19521340064921, 40.509977652954724], [-74.19649936995329, 40.50992353050224], [-74.19967205359374, 40.51142685047983], [-74.20005925560143, 40.51261937206148], [-74.19892572793869, 40.51277730599856], [-74.1990730716134, 40.513083884535995], [-74.20756866998165, 40.51185615162791], [-74.20968789331592, 40.51079736934379], [-74.2091899682504, 40.51049905695538], [-74.20932200464202, 40.5103986288956], [-74.20985338194394, 40.510671925323756], [-74.2135313080367, 40.506397477228056], [-74.21510815880221, 40.50605975529103], [-74.21758240164354, 40.50334139266088], [-74.22500232195432, 40.501770295113545], [-74.22729413502742, 40.50229749905936], [-74.23124443244185, 40.50182686031912], [-74.23678845684891, 40.500000835249395], [-74.23984851294983, 40.49758301317157], [-74.24432798219496, 40.497546740170925], [-74.2467610284003, 40.49613398761059], [-74.24964219545245, 40.496837954327184], [-74.25085489488085, 40.498006163593914], [-74.2511041155145, 40.49893419735029], [-74.25316124471264, 40.500125376178495], [-74.25527947262378, 40.50405553156524], [-74.2555913638106, 40.50771295072779], [-74.25462856709909, 40.508674825727205], [-74.2549813000949, 40.50877117277594], [-74.25497290370772, 40.50880566163084], [-74.25399753069489, 40.50897031482351], [-74.25431454169312, 40.509413694649155], [-74.25368911881061, 40.509425596439314], [-74.25464651262911, 40.50982624592457], [-74.25452621798085, 40.50997301487968], [-74.25364812518256, 40.50947053043646], [-74.25331579805132, 40.509861504541135], [-74.25300847277555, 40.51119398970556], [-74.2535268507671, 40.51167776603203], [-74.25303635447403, 40.51143316045747], [-74.25308950934512, 40.51212196137264], [-74.25195197554136, 40.51299700204339], [-74.2521259139706, 40.51371037980015], [-74.25011171122848, 40.51504481985386], [-74.25055526413557, 40.515716342429045], [-74.24988824874998, 40.51552154519314], [-74.25056007337675, 40.51610674052857], [-74.24921528741955, 40.51508486129803], [-74.2499415880804, 40.51613748819118], [-74.24943096899091, 40.51568788559768], [-74.24828422149744, 40.51648694955243], [-74.24894624665613, 40.517194539786885], [-74.24940770788909, 40.51698083041867], [-74.24851449121893, 40.51747562626378], [-74.24891910653054, 40.51720843369263], [-74.24751811835532, 40.515735864778804], [-74.24644039650953, 40.51596502750351], [-74.24612857613434, 40.51613739257532], [-74.24699556996595, 40.517182085195735], [-74.24647899705329, 40.51668732721099], [-74.24520861528356, 40.5172897436243], [-74.24563473169945, 40.518075580745936], [-74.24429835217606, 40.51851500310793], [-74.24232477833276, 40.51832652502193], [-74.241031229844, 40.51954251268671], [-74.24049069687521, 40.51919162846761], [-74.23982258316776, 40.52009071144395], [-74.24117293552202, 40.52106013143217], [-74.24293235102186, 40.52122716062899], [-74.24258375705126, 40.522198648496776], [-74.24280157009575, 40.52400729628683], [-74.24335792685498, 40.524818912815405], [-74.24396500824538, 40.52490536583402], [-74.24150733322897, 40.53104134279533], [-74.24181061555663, 40.53256267542308], [-74.24217799663235, 40.53257613847677], [-74.24204570286008, 40.534346377050596], [-74.2441249598849, 40.53619629572918], [-74.24414782604573, 40.536881409915786], [-74.24533651176058, 40.53690599443482], [-74.24442748987909, 40.53801643339773], [-74.24539376219913, 40.53955167471587], [-74.24560205698324, 40.54094959457749], [-74.2464861488167, 40.542213392654396], [-74.24803463735694, 40.54309324044159], [-74.24613743768708, 40.54569644693213], [-74.24336346618657, 40.54786513523462], [-74.2435844765117, 40.547623990376145], [-74.24220318463072, 40.546948677295134], [-74.24039182744171, 40.5476633101753], [-74.2376196353322, 40.550123468577404], [-74.23641459726797, 40.55050822345002], [-74.23639962082603, 40.55233533315892], [-74.23489865866699, 40.5530052166701], [-74.23334188482502, 40.55249971061392], [-74.23075511311575, 40.555536657539186], [-74.22931954185714, 40.5554915869629], [-74.22872429974608, 40.55629701663679], [-74.22344265106311, 40.55604656990371], [-74.22378606642899, 40.55588026700601], [-74.2225748686727, 40.55540620977854], [-74.22129864538567, 40.555366224687006], [-74.22062175948965, 40.55589882050273], [-74.21974356996616, 40.55461267207137], [-74.21908060899345, 40.55484700219814], [-74.21928639639636, 40.55579538237207], [-74.21853981822211, 40.554707387635624], [-74.2187503688056, 40.55602774053745], [-74.21775342391737, 40.555005284776335], [-74.2147405319882, 40.55624238913229], [-74.21499257030665, 40.55679493279486], [-74.21327457291223, 40.556624933774195], [-74.21118289180824, 40.56043394965199], [-74.2113799785878, 40.563492205275026], [-74.2081685110219, 40.57071942341444], [-74.20619033921801, 40.5717933505411], [-74.20140045844629, 40.57245879630594], [-74.19968963179929, 40.5733696272121], [-74.19891097597791, 40.574713250559554], [-74.19853736635578, 40.57733903262743], [-74.19819495789719, 40.57730437555501], [-74.19841155633925, 40.57806511892221], [-74.19765648338573, 40.578329046731845], [-74.1916159712841, 40.57588366028535], [-74.1877043302629, 40.57667589511168], [-74.1864060566509, 40.576355896762905], [-74.18390355897188, 40.57339907169125], [-74.18019862462144, 40.57205646390898], [-74.17777534225199, 40.57043288385203], [-74.17607666037699, 40.56713297497097], [-74.17488166015333, 40.56632818017488], [-74.17556315226244, 40.56492989911372], [-74.17408910335124, 40.564395750940065], [-74.17446303796339, 40.56487726042061], [-74.17434062369865, 40.565510740211955], [-74.17386421130675, 40.56513398974799], [-74.17415412585824, 40.56473251653627], [-74.17299329734897, 40.56382698091567], [-74.17308512056866, 40.5644946075223], [-74.1721612039489, 40.56462948614242], [-74.17319452336518, 40.56490477437165], [-74.17267320396967, 40.56584818958216], [-74.17098208999082, 40.56630608242936], [-74.16890172325306, 40.56603580634443], [-74.16595905510245, 40.5668103553689], [-74.16501760879507, 40.566129561401894], [-74.16472235494014, 40.566316854441325], [-74.16532098400283, 40.56759302368539], [-74.16362676603508, 40.56869405093536], [-74.16165268586252, 40.56912762119618], [-74.15697157085515, 40.56892837340698], [-74.15778689717362, 40.569937009262375], [-74.15994228402725, 40.5695680382779], [-74.16234495747015, 40.56986088757987], [-74.16558623271348, 40.5687229564997], [-74.16682887406303, 40.56738009942188], [-74.16990783861814, 40.56690705410246], [-74.17010695723363, 40.56808866153003], [-74.17049746081616, 40.568313957342376], [-74.17031851654373, 40.56724489015722], [-74.17159791013218, 40.567593235384344], [-74.17446414808288, 40.56702224431083], [-74.17552602133551, 40.568504663060494], [-74.17559218042896, 40.569984354866406], [-74.17661306131079, 40.57100452073786], [-74.17825568294806, 40.57208174759984], [-74.17831506716774, 40.572542189486036], [-74.18288644762318, 40.57395307324602], [-74.18491375353456, 40.576537792093475], [-74.18037932858054, 40.577201339911156], [-74.17823790713172, 40.579675397152855], [-74.17798103855866, 40.58066733472032], [-74.17867092935548, 40.58229525145471], [-74.18110699058158, 40.584647759093336], [-74.18114486291165, 40.58583704455311], [-74.17910575723667, 40.58636073894885], [-74.17965584629384, 40.587371754851375], [-74.17854670284677, 40.58822315538881], [-74.17652852241291, 40.58882348644852], [-74.17484895435726, 40.5900537742447], [-74.17504369253017, 40.590286056087606], [-74.1726676463094, 40.59034706918132], [-74.17432390048738, 40.591288269799094], [-74.17592113211167, 40.59090692714879], [-74.17641271818924, 40.59148617342759], [-74.17873603266061, 40.591387380695146], [-74.17624056753972, 40.59084047956831], [-74.17730512511032, 40.589714007840314], [-74.17890030781517, 40.58940622123761], [-74.18002098241051, 40.5906219092641], [-74.17988129042732, 40.592906276501516], [-74.1786019991718, 40.59371099019018], [-74.17713554270738, 40.59362914111349], [-74.1754179050343, 40.59189430851504], [-74.17506113862534, 40.59184797730655], [-74.17646666679948, 40.59318958032254], [-74.17699996682315, 40.59551771130127], [-74.17637238923905, 40.59733441877716], [-74.175315385221, 40.59722374117953], [-74.17565234705637, 40.59841608107449], [-74.17754673957292, 40.59584258498064], [-74.17726189660743, 40.59448926844316], [-74.18036513929034, 40.59385731218961], [-74.18150698437037, 40.591761370680885], [-74.18021313854226, 40.588475909787455], [-74.18279653246564, 40.586241622458424], [-74.18314304941603, 40.585098217496224], [-74.18006326937864, 40.58048514137926], [-74.18008499591443, 40.579444409303186], [-74.18086214024058, 40.578463947351615], [-74.18202523069652, 40.578008125508326], [-74.18577257439236, 40.57800443060909], [-74.18636826435726, 40.57847161327227], [-74.1861552645247, 40.57872384811563], [-74.19115981242547, 40.57745779505476], [-74.19571202008817, 40.579903776326596], [-74.20034075307555, 40.57986826871679], [-74.20350663927084, 40.58043615950749], [-74.20593287076463, 40.579892438335335], [-74.20440076499614, 40.58371294584096], [-74.20463390274026, 40.58432323880029], [-74.20411940324254, 40.58589554107476], [-74.20458065694645, 40.58821760318023], [-74.2041220095295, 40.58888147437325], [-74.20470529848629, 40.588772370830746], [-74.2046460894321, 40.589285745466], [-74.20385886609276, 40.59024952536181], [-74.20388550456217, 40.58978610973645], [-74.2020140553329, 40.59089579862263], [-74.20246776022513, 40.59083882485638], [-74.20305254911503, 40.59114054181002], [-74.20202733920699, 40.59099907929216], [-74.20184092915534, 40.59163648337983], [-74.20200349878957, 40.59178076479406], [-74.20230284591754, 40.59146932177453], [-74.202316458341, 40.59152396459914], [-74.20092540496357, 40.59286637930502], [-74.19974061006282, 40.5935646690679], [-74.19751357718711, 40.59679898603694], [-74.19743893251952, 40.59846083405235], [-74.1969499664701, 40.59868666028192], [-74.19696580449913, 40.60142153359102], [-74.19623329461389, 40.60175784003468], [-74.19702405216853, 40.60165541018794], [-74.19640703764975, 40.602010564092026], [-74.19667807586927, 40.602229853407685], [-74.1960351794631, 40.60224996406994], [-74.1966666140031, 40.60267778212041], [-74.19595931589656, 40.60235411152027], [-74.19662663873402, 40.60272800634331], [-74.1961924722853, 40.60263072043974], [-74.19624490972929, 40.60346376503378], [-74.19590556298024, 40.60353865620798], [-74.19673552742825, 40.60528315120736], [-74.1984873245078, 40.607207989211986], [-74.19810252738417, 40.608968231116826], [-74.19729295905907, 40.609981808106006], [-74.19611017511906, 40.609100626972996], [-74.19345011926114, 40.60919617764348], [-74.19277392700079, 40.608745047860594], [-74.19317548531966, 40.60932700890222], [-74.19580261324285, 40.609219368951614], [-74.19678389595758, 40.609848489058336], [-74.19692423753258, 40.61039204659196], [-74.19581469344111, 40.61191303868108], [-74.19563585952957, 40.61297833579529], [-74.19485618866067, 40.612687085228345], [-74.1956357180939, 40.613071397912265], [-74.19525880308584, 40.61379210547835], [-74.19389743264865, 40.61365580741769], [-74.19326334637469, 40.61184859181789], [-74.19368153077627, 40.61149006467373], [-74.19335362276384, 40.61117432684194], [-74.19327611902226, 40.610468395975], [-74.19311248759752, 40.61042074856112], [-74.19324470017894, 40.611200068965836], [-74.19354316966867, 40.61148390782672], [-74.1931751894473, 40.611807206803086], [-74.19386405143459, 40.613839990837626], [-74.19579122690587, 40.614146079365625], [-74.1960910520669, 40.615438241845624], [-74.19541827735077, 40.6162249132953], [-74.19665416296527, 40.615589711760386], [-74.19819022712949, 40.61661284713412], [-74.20082804452153, 40.6170942880473], [-74.20087478740132, 40.618100410856066], [-74.20035203856098, 40.61834219805231], [-74.20083991516594, 40.61880430260632], [-74.20106997469082, 40.62038153977263], [-74.2004280019192, 40.62049541101701], [-74.2014323999804, 40.62161260896552], [-74.20162847442849, 40.62306434318714], [-74.20107662790335, 40.624078346589954], [-74.20106080099264, 40.62589517900586], [-74.2014167066776, 40.62607051339334], [-74.20044267928374, 40.63138113626888], [-74.1986224779907, 40.63273751485439], [-74.1967853063197, 40.63339223926938], [-74.19602904625332, 40.63499584830571], [-74.1953070442238, 40.6352338955162], [-74.19442256854643, 40.636582105208134], [-74.19462310145191, 40.63739118356387], [-74.19358317694855, 40.63746911688483], [-74.18652496831618, 40.643388662172704], [-74.18623209809662, 40.64318739685546], [-74.18483594580847, 40.64412826633892], [-74.18365067130041, 40.64223964104979], [-74.18402611192013, 40.643100408569886], [-74.1832421227914, 40.64296367709803], [-74.1836674587201, 40.64461048505026], [-74.18087212579204, 40.644851429677495], [-74.18004078015211, 40.64428814067281], [-74.1799650727402, 40.64526698230308], [-74.17972987818015, 40.64438070211106], [-74.17933117183316, 40.64440051127115], [-74.17925123406646, 40.64504187696942], [-74.17907466583894, 40.644646507056706], [-74.17958713787388, 40.641917683463205], [-74.17918728001314, 40.64298753899252], [-74.17825662211872, 40.64212922736474], [-74.17834127011962, 40.642589475995955], [-74.17721118636932, 40.64312277860223], [-74.17670489151175, 40.642416911284165], [-74.17635786617534, 40.64232722056304], [-74.17666795538246, 40.6433868447718], [-74.17560251020276, 40.643311298168996], [-74.17568470808558, 40.64471028489425], [-74.17436573009458, 40.64513625814203], [-74.17294123891654, 40.644204522856036], [-74.17300154651633, 40.6435854050788], [-74.1723616538658, 40.64325626755203], [-74.17272145371169, 40.642948498995786], [-74.17133587281677, 40.642855764549566], [-74.17186042582577, 40.64252292851905], [-74.17158721923735, 40.64102959339466], [-74.17202315918198, 40.6409892146569], [-74.17293896175401, 40.64057955269759], [-74.17297990582071, 40.64048606719583], [-74.17156994685423, 40.641011532092946], [-74.17137382350381, 40.64208501476564], [-74.17105017239892, 40.64259381913015], [-74.17119260951208, 40.64173962651413], [-74.16906431562886, 40.64213001679972], [-74.16653375858814, 40.64142263788289], [-74.16609989896034, 40.64240658700138], [-74.16631887226484, 40.641436675006084], [-74.16580110755902, 40.64122451144967], [-74.16544310148252, 40.64228054620521], [-74.16494139041183, 40.642208999889476], [-74.16519041824088, 40.64064230527601], [-74.16473426602784, 40.64039146702405], [-74.16441459715092, 40.6413967847253], [-74.16459656597456, 40.64031574504257], [-74.16416886813508, 40.63999410972794], [-74.16400179067274, 40.64106585950344], [-74.16384976531295, 40.639891508934696], [-74.16345445681999, 40.63985656039842], [-74.16324577998483, 40.64095741918483], [-74.16167534760211, 40.64061078476604], [-74.16228465251963, 40.63876565226989], [-74.16181856678233, 40.63864627877687], [-74.16144917892747, 40.639428336667564], [-74.16166010772969, 40.638664993312524], [-74.16124015814863, 40.6385950106112], [-74.16090490770392, 40.63938614081619], [-74.1610816182488, 40.63856776831179], [-74.16034819993045, 40.63844372595107], [-74.15986410465041, 40.63992782369295], [-74.160224664531, 40.63833906133788], [-74.1598569776778, 40.63872920171702], [-74.15931954037038, 40.63781040474049], [-74.15900957887429, 40.63882257790998], [-74.15893299226639, 40.638264017818265], [-74.15789262953881, 40.6379650512313], [-74.15773352572349, 40.63887903516548], [-74.1577736593679, 40.63795715924366], [-74.15610276556863, 40.637939590885395], [-74.15569862053152, 40.63751793890434], [-74.15482932461856, 40.63772385541897], [-74.15469263864526, 40.6391939681144], [-74.15459670163327, 40.63734334406921], [-74.15279703577377, 40.63713275485185], [-74.1522180695045, 40.63769258171615], [-74.15229786175502, 40.63827428826375], [-74.15204639233266, 40.63766721531566], [-74.15119545007178, 40.63773078853634], [-74.1513951761365, 40.63939651305763], [-74.1511296509037, 40.638500679571514], [-74.15055638908059, 40.638559330666574], [-74.14944732900051, 40.63740539948566], [-74.14941881774315, 40.638291640546306], [-74.1488817554377, 40.638705207973416], [-74.14855815092206, 40.63743783752742], [-74.14877792005885, 40.63887625112789], [-74.14519279415565, 40.63937849765574], [-74.14386163595745, 40.63888796251427], [-74.14336103076812, 40.63970984518044], [-74.14238795083351, 40.639641210830916], [-74.14229766980858, 40.64030580659126], [-74.14148047469318, 40.64009219379225], [-74.14076253579302, 40.64058939691218], [-74.1343526963951, 40.641886796901986], [-74.13299172459463, 40.64141693666404], [-74.13125581180257, 40.641596830764016], [-74.13146199830796, 40.64131010407447], [-74.13018370079187, 40.64072382608248], [-74.1294905757139, 40.64135483519676], [-74.12997740262725, 40.640729872855786], [-74.12930713186852, 40.640337411211156], [-74.12893301209805, 40.640413928985446], [-74.12890729033452, 40.641194827586325], [-74.12881201913106, 40.64022697750335], [-74.12752677306857, 40.64015530471592], [-74.12702736020904, 40.63931907798447], [-74.12705362205264, 40.640241737639165], [-74.126069828622, 40.64025447268761], [-74.1263680875496, 40.641332380486375], [-74.12564026870602, 40.64141849208245], [-74.12613276551232, 40.64126438802843], [-74.12599542488428, 40.6402312426282], [-74.1241557844501, 40.640134716640205], [-74.12260363667595, 40.64059707390221], [-74.12282565410312, 40.64129387551522], [-74.12199083807539, 40.64155463949961], [-74.11993480088911, 40.641197604384026], [-74.11960716747868, 40.641380309354346], [-74.11995699875766, 40.64220945342925], [-74.1190972055961, 40.64147346602027], [-74.11940029532455, 40.64237937853291], [-74.11900348266286, 40.64146461450958], [-74.11861635236274, 40.64153036502918], [-74.11883624616942, 40.64254186406052], [-74.1184018508355, 40.64152980054306], [-74.1171210056442, 40.641667857046755], [-74.1167218759791, 40.642031756097424], [-74.11722470082543, 40.64302735996277], [-74.11666607712208, 40.64210676633343], [-74.11630000082745, 40.64220266510244], [-74.11667041382688, 40.64318982489303], [-74.1161420863572, 40.642216454150535], [-74.11535082182931, 40.64247054015837], [-74.1137966615199, 40.643609515807405], [-74.11395094134464, 40.64413659167475], [-74.11288806576863, 40.64453244413448], [-74.11385709388138, 40.644076011666726], [-74.11333023258437, 40.64372349658069], [-74.10973932564484, 40.645463728184914], [-74.10412356301745, 40.64574043220029], [-74.09880066885808, 40.64504703431097], [-74.09298828253628, 40.64597278075212], [-74.08570754378212, 40.64888055337064]]]]}, "properties": {"schooldist": "31"}}]}