{"type": "FeatureCollection", "features": [{"type": "Feature", "geometry": {"type": "Polygon", "coordinates": [[[-73.97906084911834, 40.70594602894106], [-73.97924333493576, 40.70555119688028], [-73.97842683362268, 40.70555680850925], [-73.9785931368617, 40.704978584143134], [-73.97802067326656, 40.704290966456334], [-73.97721196405281, 40.70421392662453], [-73.97751215494964, 40.70319675266364], [-73.97713562625398, 40.70300558140269], [-73.97596096344817, 40.70471550694328], [-73.97692749188352, 40.70279782040056], [-73.97615937292022, 40.70217128035703], [-73.97532987393983, 40.70295192433845], [-73.97600587845464, 40.70194613327937], [-73.9745502338837, 40.70159034380239], [-73.9757175186582, 40.699570912691435], [-73.9741151399254, 40.70130527091706], [-73.97239201397458, 40.70016632275242], [-73.973757007132, 40.701534138881996], [-73.97318676670898, 40.701669803673866], [-73.97078200587988, 40.69997866301143], [-73.9733245616998, 40.702412656011035], [-73.97283512854773, 40.70272874074429], [-73.96982556559531, 40.70024507036818], [-73.969727898821, 40.69780401438277], [-73.96772744689757, 40.69771762431769], [-73.96688041964651, 40.69334171173064], [-73.96221329440365, 40.6938743549988], [-73.96189910446182, 40.692300672026086], [-73.96073858361329, 40.69242390530265], [-73.96029281668113, 40.690346249915606], [-73.95882923119369, 40.690296603663036], [-73.95899361250387, 40.69262783032544], [-73.95582662835704, 40.69299238288278], [-73.95658117239427, 40.69678454017006], [-73.95292439169575, 40.69720434481951], [-73.95234079123053, 40.694263047616204], [-73.9490604004928, 40.69463777842138], [-73.94876761636812, 40.69317120791388], [-73.94593170750511, 40.693497615584555], [-73.94462127912811, 40.68690436166435], [-73.94428391577316, 40.68738505531401], [-73.9423520278467, 40.6875915008222], [-73.94178527584324, 40.68722837212134], [-73.9413859614605, 40.68766826880507], [-73.9393856108258, 40.68787113499827], [-73.93895074350998, 40.68755641035293], [-73.93807695931454, 40.683160902989556], [-73.93515472960006, 40.683497184658634], [-73.93486257221258, 40.682030568700455], [-73.93778801579033, 40.68169433234865], [-73.93739763665229, 40.67972990017692], [-73.93843613326652, 40.67978585170418], [-73.93862492563589, 40.67786256958314], [-73.95206345258673, 40.67858633071856], [-73.96134655885788, 40.6804635243011], [-73.96327503465342, 40.67527425628834], [-73.96257123150735, 40.6716222448877], [-73.96774752267817, 40.67302026938798], [-73.97087894505658, 40.672713174847395], [-73.9779599997114, 40.67543801865533], [-73.9783903228425, 40.674804515634946], [-73.98586016373899, 40.67770888229412], [-73.98241638197145, 40.68278056609882], [-73.98003510148293, 40.68185262673862], [-73.97961680085257, 40.68249126971083], [-73.97702316899657, 40.6814869045737], [-73.97595023335977, 40.6835132320497], [-73.97376084923565, 40.683049408639974], [-73.97444249294493, 40.68630823802748], [-73.98947108652781, 40.692291417617064], [-73.99508016977992, 40.69314721511929], [-73.99623278100582, 40.690757774586544], [-74.00179431981029, 40.69218477678905], [-74.00400795971098, 40.69320819963255], [-74.00345348556655, 40.69405163067151], [-74.00127014968672, 40.69329606217649], [-74.0009586848302, 40.69406908358239], [-74.00301393829082, 40.69477784447932], [-74.00239802583795, 40.695711654864674], [-74.00026872377788, 40.6949658025781], [-73.99947406820606, 40.696704134462166], [-73.99876458027707, 40.69712073259158], [-74.00104903123558, 40.69790823619499], [-74.00048768628551, 40.6987577776347], [-73.99837760685773, 40.698063295643685], [-73.99802102725111, 40.69876173657397], [-74.0000184043362, 40.69946604807382], [-73.99947463904962, 40.70032277801851], [-73.99716054243922, 40.69979281264431], [-73.99669768997464, 40.70087697691724], [-73.99813879965494, 40.70151878774599], [-73.99619227294774, 40.70337714086434], [-73.99513826840686, 40.70297411472301], [-73.99544564312069, 40.703275305471955], [-73.9946629034361, 40.70343060855936], [-73.99502925982488, 40.70380820086821], [-73.99456979016932, 40.7043762635141], [-73.99212703601108, 40.704689642033735], [-73.99186159255356, 40.70408664210459], [-73.99094755350794, 40.70403244213939], [-73.99022721262052, 40.704934044487295], [-73.98830332208541, 40.70454046895521], [-73.98795676557543, 40.705134217412734], [-73.98652973012088, 40.70497909917395], [-73.98643429892708, 40.70534860741984], [-73.9810239061828, 40.70589891389373], [-73.98232944216603, 40.7055520336642], [-73.98092510311987, 40.70536925520069], [-73.98090864629846, 40.70590794381209], [-73.97906084911834, 40.70594602894106]]]}, "properties": {"schooldist": "13"}}, {"type": "Feature", "geometry": {"type": "Polygon", "coordinates": [[[-73.91180710069435, 40.703434952026804], [-73.91290404121959, 40.70236189129684], [-73.91067882737421, 40.70104596906428], [-73.91180682191074, 40.699946882523946], [-73.9042601841169, 40.69570037144337], [-73.9057959707531, 40.694127155011714], [-73.9013984066204, 40.69158999203796], [-73.9053391374283, 40.68681723471257], [-73.90449401088728, 40.68629860045694], [-73.9057554806487, 40.684004418026916], [-73.90369345113476, 40.682628050645704], [-73.90487526967125, 40.68194711751679], [-73.90571479775616, 40.680621077475365], [-73.90628287126724, 40.68050675607502], [-73.90927462948628, 40.68223432308062], [-73.90775477842021, 40.6830549844863], [-73.90787839996028, 40.68365741373341], [-73.90938110495675, 40.684512934562335], [-73.91076954423528, 40.68309270127248], [-73.93522264436727, 40.69698654462934], [-73.93400832731106, 40.69711833858136], [-73.93409798856256, 40.6975969216001], [-73.93324669522019, 40.697855589765865], [-73.93414044724354, 40.69875216812115], [-73.93476154513415, 40.69870008529671], [-73.93555255008658, 40.70011068092663], [-73.93608563168512, 40.70004213284718], [-73.93581931527827, 40.7004756797794], [-73.93646091931822, 40.70064387664526], [-73.93607888693884, 40.70148024701381], [-73.93774265167002, 40.70197808565687], [-73.9366768400257, 40.70246531891978], [-73.9373179547826, 40.70271370228215], [-73.9328149496271, 40.70357711201952], [-73.93391870754871, 40.7074870261317], [-73.92189184698753, 40.70939609620843], [-73.91180710069435, 40.703434952026804]]]}, "properties": {"schooldist": "32"}}, {"type": "Feature", "geometry": {"type": "MultiPolygon", "coordinates": [[[[-73.9218765665676, 40.66556641698877], [-73.92142898248956, 40.66536115938199], [-73.9223201448434, 40.66534832902], [-73.9218765665676, 40.66556641698877]]], [[[-73.92044366203014, 40.66562628716768], [-73.92117907462104, 40.66539972609416], [-73.92136576677704, 40.665492005998836], [-73.92095415427151, 40.6657496962781], [-73.92044366203014, 40.66562628716768]]], [[[-73.92044366203014, 40.66562628716768], [-73.92101988847203, 40.66785269806971], [-73.9200475399336, 40.66827642954178], [-73.91996590457566, 40.669476373347194], [-73.92038850733151, 40.669785597806], [-73.91987744177591, 40.66997723304109], [-73.9202519820285, 40.67043555769019], [-73.91970906002462, 40.671757849282216], [-73.92022560789849, 40.672385296339215], [-73.92221444387097, 40.67279163305027], [-73.92172106090692, 40.67352153513222], [-73.92213153379237, 40.67368388900725], [-73.92000255732219, 40.673981283341554], [-73.91954092546348, 40.673541878456696], [-73.9190782760815, 40.67397531376418], [-73.91721449620965, 40.67385599372014], [-73.91677231309254, 40.673390693565494], [-73.91630119861554, 40.67857711193164], [-73.91748255753868, 40.682897355398275], [-73.9178493747622, 40.68623316741207], [-73.91672692981572, 40.68613155557819], [-73.91679832884948, 40.68649719936943], [-73.91076954423528, 40.68309270127248], [-73.90938110495675, 40.684512934562335], [-73.90787839996028, 40.68365741373341], [-73.90775477842021, 40.6830549844863], [-73.90927462948558, 40.6822343235832], [-73.90628287126724, 40.68050675607502], [-73.90369345113476, 40.682628050645704], [-73.90390258811497, 40.682946321740104], [-73.90280971049472, 40.68234057905629], [-73.90261168837102, 40.680535090032116], [-73.90308860946934, 40.68005778395247], [-73.90270053898318, 40.679752895656954], [-73.90404639808888, 40.67922059801935], [-73.9029427954265, 40.67764713068478], [-73.90335417591422, 40.67711153437412], [-73.90298273527223, 40.67630374650492], [-73.90347422342569, 40.67550668277531], [-73.9052401294001, 40.674724946776955], [-73.90451556375875, 40.67192553589422], [-73.90359587543405, 40.67206003499024], [-73.90289736061814, 40.67058988626698], [-73.90294641050434, 40.66953004858261], [-73.90235250840561, 40.66864807524386], [-73.90262640362398, 40.66827343100302], [-73.90196897873984, 40.66715435161286], [-73.9022318407703, 40.6667362226412], [-73.90126570398694, 40.66688065066762], [-73.89878859292388, 40.65741288738967], [-73.90048767226398, 40.6571486793524], [-73.90317858413407, 40.655311633837584], [-73.91232824406798, 40.65413478210973], [-73.91974399531439, 40.66077097344798], [-73.91977851078302, 40.663290498223695], [-73.92165571659851, 40.66384357466523], [-73.92004899996218, 40.6640889223874], [-73.92044366203014, 40.66562628716768]]]]}, "properties": {"schooldist": "23"}}, {"type": "Feature", "geometry": {"type": "MultiPolygon", "coordinates": [[[[-73.84786248378626, 40.60470270632692], [-73.84608059103826, 40.604544593838106], [-73.84641368109902, 40.60418741660592], [-73.84578322472349, 40.6048216143822], [-73.84445490048623, 40.60468732892391], [-73.84496295348544, 40.60437570554377], [-73.84492199161201, 40.60368207867612], [-73.84562303858401, 40.60351943125449], [-73.8466663219904, 40.604177895846284], [-73.8466458841174, 40.604580761851864], [-73.84786248378626, 40.60470270632692]]], [[[-73.84824868418937, 40.60514234823645], [-73.84795277252694, 40.60535499863287], [-73.84783682321918, 40.60508497038531], [-73.84824868418937, 40.60514234823645]]], [[[-73.8485434084378, 40.60596359352057], [-73.84826110013785, 40.6057793525659], [-73.84871964443143, 40.605890278256396], [-73.8485434084378, 40.60596359352057]]], [[[-73.83446265686187, 40.607192532943515], [-73.83573587587433, 40.60579318845258], [-73.83437386568247, 40.60785151341824], [-73.83446265686187, 40.607192532943515]]], [[[-73.8504762496644, 40.612342219057375], [-73.84967145086425, 40.612109979904425], [-73.84949618368017, 40.61032940806137], [-73.850093297634, 40.610162119378714], [-73.84942148819671, 40.609822060411936], [-73.85134775126467, 40.60926678729025], [-73.85169868439834, 40.60861152569234], [-73.85370893284191, 40.60782622444982], [-73.85523215172817, 40.61012690322557], [-73.85196381284875, 40.61024365868987], [-73.85265329663144, 40.61117386911204], [-73.85172275100344, 40.61094984741748], [-73.85174033600124, 40.61156891273421], [-73.85105698972923, 40.6114699252041], [-73.8504762496644, 40.612342219057375]]], [[[-73.84564426528331, 40.61369219538076], [-73.84357002507866, 40.61367150671605], [-73.84343129679326, 40.612971573746414], [-73.84264184952511, 40.61317296630724], [-73.84183657918479, 40.612688153050115], [-73.84157790018398, 40.61182572754677], [-73.84067468895502, 40.611446322137276], [-73.8398020218308, 40.61236165904059], [-73.83911211112063, 40.61246645077382], [-73.83871375352228, 40.611994798841614], [-73.83879592263347, 40.61279609409057], [-73.83817706043442, 40.61308044415503], [-73.83623621146772, 40.61227010691594], [-73.83851857902539, 40.60923526170363], [-73.83887080515561, 40.60790579804111], [-73.83910109566169, 40.60831311998151], [-73.84004319893347, 40.608234316584564], [-73.8400961206958, 40.60896186196541], [-73.84049656881552, 40.60855541891526], [-73.83935927934148, 40.60761485216365], [-73.84136277689427, 40.60679402251813], [-73.84041971636475, 40.6057709113476], [-73.84059798423645, 40.605403416955916], [-73.84122845055781, 40.60552788857446], [-73.84112952895705, 40.60469025115884], [-73.84148878915232, 40.60449846406982], [-73.84185810591522, 40.60479380720186], [-73.84442729406358, 40.604156369842975], [-73.84270633510347, 40.60463942508026], [-73.84266745807614, 40.60507841865356], [-73.84193617890355, 40.60492999800466], [-73.84243149991156, 40.6052864022012], [-73.84296601844633, 40.60506921296433], [-73.84282386411626, 40.604726113426835], [-73.84338248444425, 40.604986458516265], [-73.84390053212176, 40.606416467895514], [-73.84405417411465, 40.605445646462584], [-73.84360600474574, 40.60470154237291], [-73.84406885474431, 40.60456116367667], [-73.84460595564508, 40.60503618991778], [-73.8446916761841, 40.606145138712165], [-73.84411200151072, 40.605891181152565], [-73.84457707891998, 40.606603258847294], [-73.84529688836992, 40.6062677344879], [-73.84493906036617, 40.60503253366555], [-73.8458150644845, 40.60516079908739], [-73.84627027297424, 40.60471168278568], [-73.84746742835375, 40.605082477085546], [-73.84727265830858, 40.60582270280001], [-73.84590992090763, 40.60629229623312], [-73.84617769070933, 40.60676235543532], [-73.84663402795712, 40.60675612085462], [-73.8463532711398, 40.60705005746419], [-73.84640264726856, 40.60730165693936], [-73.84689095201061, 40.60657422956924], [-73.84622437960691, 40.60671792917007], [-73.8464444171341, 40.60622328370934], [-73.84964678348717, 40.606050203554574], [-73.84962233759806, 40.60666532718726], [-73.84754585891254, 40.606979708799926], [-73.84682444495, 40.60806318970009], [-73.84486233812142, 40.60808770468991], [-73.84550051105212, 40.608511587402916], [-73.84627897022487, 40.60827868695028], [-73.84538823525133, 40.609783709973854], [-73.84573342635744, 40.6114410134762], [-73.84485550137117, 40.61102962769752], [-73.84564426528331, 40.61369219538076]]], [[[-73.8337015227225, 40.62097860134445], [-73.83401888200446, 40.614381166420785], [-73.83776702143244, 40.61552223192152], [-73.83527378366918, 40.617247222459035], [-73.83496079783698, 40.61853293119936], [-73.83570733282718, 40.61972916695308], [-73.83488922611886, 40.61960685655538], [-73.8353120185363, 40.62014537080893], [-73.8349043685793, 40.62046937856299], [-73.8343905870401, 40.619853601888146], [-73.83380075647005, 40.619645620188095], [-73.83447330458675, 40.62012184715449], [-73.8337015227225, 40.62097860134445]]], [[[-73.83478032317485, 40.62262549414095], [-73.83362242002327, 40.622602638829676], [-73.83400742535407, 40.621034836832415], [-73.83498716165188, 40.621011300392574], [-73.83478032317485, 40.62262549414095]]], [[[-73.85023090762984, 40.62332082311965], [-73.84939485640871, 40.62247988728897], [-73.8484637152501, 40.62236570273235], [-73.85085107926835, 40.62024715775812], [-73.85455196807588, 40.619893668262826], [-73.85618379998469, 40.62157463407921], [-73.85504080535148, 40.62195057885153], [-73.85451155864534, 40.620795739307994], [-73.85185329658486, 40.620565194285156], [-73.85140319498437, 40.62080281400765], [-73.85129292955062, 40.62183651392837], [-73.8523603831798, 40.622974870517574], [-73.85189830428743, 40.62279378345704], [-73.85133280538092, 40.62346713842758], [-73.85023090762984, 40.62332082311965]]], [[[-73.83355923946546, 40.6239360339985], [-73.83370757562014, 40.62369368504473], [-73.83363582579774, 40.623955292414095], [-73.83355923946546, 40.6239360339985]]], [[[-73.86206472231387, 40.62432151288493], [-73.86303876836764, 40.62330299177034], [-73.86377739100132, 40.62395140705576], [-73.86206472231387, 40.62432151288493]]], [[[-73.84589458513057, 40.624971815314865], [-73.84476545463916, 40.62485457007696], [-73.8447785733916, 40.62423737902384], [-73.8438359874354, 40.62429248222494], [-73.84389163345844, 40.62381184708964], [-73.84293864765408, 40.62332390397683], [-73.84536704091764, 40.62304856573204], [-73.84520557917331, 40.62435403207069], [-73.84589458513057, 40.624971815314865]]], [[[-73.85742272059882, 40.62497529304131], [-73.85784133903826, 40.62519091321788], [-73.85733486430799, 40.625145639546396], [-73.85742272059882, 40.62497529304131]]], [[[-73.84048472674716, 40.62749528852797], [-73.83946700887878, 40.62729384076303], [-73.84072122115312, 40.62586474512187], [-73.84238178647995, 40.627440786271855], [-73.84044645651544, 40.62658622533958], [-73.84014537082233, 40.626986387435714], [-73.84048472674716, 40.62749528852797]]], [[[-73.84812593674316, 40.628840444805526], [-73.84840686666027, 40.628568977809394], [-73.84846848249634, 40.62879314116168], [-73.84812593674316, 40.628840444805526]]], [[[-73.84869374332706, 40.63061270593768], [-73.84843274167234, 40.6304594135117], [-73.84868437801534, 40.63045904016141], [-73.84869374332706, 40.63061270593768]]], [[[-73.8530001464461, 40.63202284175095], [-73.85256652793501, 40.631244050431064], [-73.85166739955933, 40.63087050705638], [-73.85187979314793, 40.63050831920715], [-73.85366230517194, 40.63087608326507], [-73.85679676437877, 40.62984147302602], [-73.8585583634798, 40.63045828819579], [-73.85758486808967, 40.63271617553731], [-73.85535471774624, 40.6328122591022], [-73.8543461727372, 40.633722630935814], [-73.85241247472695, 40.63364349819227], [-73.8530001464461, 40.63202284175095]]], [[[-73.8463845897595, 40.63528576768991], [-73.84782653493372, 40.63277973640379], [-73.84913692498479, 40.632109389268024], [-73.85005000280401, 40.63217364309566], [-73.84988187677077, 40.63409658425604], [-73.84885530795631, 40.635435435458554], [-73.84827983563149, 40.6374715608555], [-73.84667914840229, 40.63873171175726], [-73.84427265333407, 40.63669234592974], [-73.84501804200943, 40.63568082143247], [-73.8463845897595, 40.63528576768991]]], [[[-73.88828531355972, 40.646722413778825], [-73.88864137707353, 40.64707955331683], [-73.88851637568523, 40.64736069152213], [-73.88820050726657, 40.647140869529274], [-73.88828531355972, 40.646722413778825]]], [[[-73.86868454370578, 40.6940346919058], [-73.86601993220731, 40.681919587028176], [-73.86410096679236, 40.68237284979022], [-73.86328297030434, 40.679079370673605], [-73.8623458053523, 40.67916478514189], [-73.86038519920734, 40.67125171099068], [-73.85763323174372, 40.67165619403902], [-73.85568461221143, 40.663867492373114], [-73.8584295085741, 40.66345336042945], [-73.85761537251577, 40.6601189331548], [-73.8603049463005, 40.659634655304906], [-73.86317083340404, 40.65827651294904], [-73.86269778299636, 40.657618308509974], [-73.86327623068608, 40.65694121532833], [-73.86264117409158, 40.65566753700865], [-73.86086853825005, 40.65507780573743], [-73.85722330984474, 40.65027867003899], [-73.85837605317673, 40.64727441531365], [-73.85716978298213, 40.643678558886165], [-73.86201301027852, 40.64288704051768], [-73.86670411973779, 40.64002176349559], [-73.8662847677717, 40.63947288319071], [-73.86732291072713, 40.63987198395302], [-73.86867282961066, 40.640925079204344], [-73.87061492461159, 40.64485674138435], [-73.87257043102987, 40.645575611857225], [-73.87921658230898, 40.65459108377317], [-73.8796386550232, 40.65449909180442], [-73.87318593330954, 40.645445013361794], [-73.8732703125524, 40.643903214345094], [-73.87008544224524, 40.639844180863854], [-73.86989583386247, 40.63893452891972], [-73.86799709668229, 40.63811526470723], [-73.86960972136565, 40.637085534608914], [-73.8692084611064, 40.63746580926118], [-73.86955902490303, 40.63794748432769], [-73.87347939154502, 40.636285545798984], [-73.87711428484626, 40.63864148659316], [-73.87841589414062, 40.63891218870172], [-73.88048386922625, 40.640978034547665], [-73.8807362354651, 40.64156595747078], [-73.88029248068572, 40.64140491573332], [-73.88006714132516, 40.64200344612432], [-73.88152855846468, 40.64245168659442], [-73.88214832562572, 40.64374372784077], [-73.88341999269008, 40.644523815650324], [-73.8855776214908, 40.64404094928739], [-73.88743444708336, 40.64593668227653], [-73.88771211156183, 40.647874434134145], [-73.88863638434101, 40.64802449261584], [-73.89006780139052, 40.64932363564129], [-73.89034734759761, 40.64903360577889], [-73.8918907337854, 40.65059443754719], [-73.89302051824757, 40.65037254069564], [-73.89353112559581, 40.650843321247145], [-73.8956622878095, 40.64946695917185], [-73.89757174797231, 40.65075888692995], [-73.9008429919487, 40.6542738474368], [-73.8994086638314, 40.65568462502123], [-73.89859703793135, 40.65582816707434], [-73.89878859292388, 40.65741288738967], [-73.90126570398769, 40.66688065016504], [-73.9022318407703, 40.6667362226412], [-73.90196897873984, 40.66715435161286], [-73.90262640362398, 40.66827343100302], [-73.90235250840561, 40.66864807524386], [-73.90294641050507, 40.66953004808004], [-73.90289736061814, 40.67058988626698], [-73.90359587543405, 40.67206003499024], [-73.90451556375875, 40.67192553589422], [-73.9052401294001, 40.674724946776955], [-73.90347422342569, 40.67550668277531], [-73.90298273527223, 40.67630374650492], [-73.90335417591422, 40.67711153437412], [-73.9029427954265, 40.67764713068478], [-73.90404639808888, 40.67922059801935], [-73.90270053898318, 40.679752895656954], [-73.90308860946934, 40.68005778395247], [-73.90261168837102, 40.680535090032116], [-73.90280971049472, 40.68234057905629], [-73.9057554806487, 40.684004418026916], [-73.9044940115475, 40.686298600457484], [-73.90533913808852, 40.686817234713104], [-73.90502238067108, 40.68752404733713], [-73.90188776254891, 40.691077720073444], [-73.90042465113166, 40.68818389837445], [-73.90116155060393, 40.68787793535575], [-73.89646625129005, 40.6823364219735], [-73.894174632671, 40.68528324867335], [-73.89258303168421, 40.683491910385385], [-73.89015418738836, 40.685003990307884], [-73.88962787578853, 40.68423645375051], [-73.88452250957424, 40.686684749095754], [-73.88377698649366, 40.68786341068253], [-73.879506412209, 40.691146768843346], [-73.87402053306798, 40.694191294715765], [-73.8689176275688, 40.69514656101239], [-73.86840519015212, 40.69473118624479], [-73.86868454370578, 40.6940346919058]]]]}, "properties": {"schooldist": "19"}}, {"type": "Feature", "geometry": {"type": "Polygon", "coordinates": [[[-74.02552971543656, 40.65147855069301], [-74.01432463001531, 40.64478995279843], [-74.01490732490392, 40.64422985589858], [-74.01264921196787, 40.64286578775078], [-74.01323203355358, 40.64230518489328], [-74.00662259524054, 40.638314801631246], [-74.00195978397322, 40.64279873818328], [-73.99315282746097, 40.63747619033384], [-73.99431829238392, 40.636353558591374], [-73.99211970589843, 40.63502546035124], [-73.9862915679815, 40.64062495143923], [-73.98408782270893, 40.6392977084902], [-73.9829216741068, 40.64041620184949], [-73.9796770495655, 40.63846479981821], [-73.98000693068462, 40.64020883775489], [-73.97906660948192, 40.64031766978707], [-73.97944230387601, 40.64279621509573], [-73.97037121943728, 40.64343118185682], [-73.96960221032974, 40.6392594821653], [-73.97074050686717, 40.638794974731915], [-73.97029036228922, 40.63640634141836], [-73.97301022453938, 40.63610352855821], [-73.97241481651272, 40.63299383426854], [-73.97604935657381, 40.631275905646966], [-73.97402750499998, 40.62880580104915], [-73.97483245813974, 40.62841208418744], [-73.9744212248422, 40.62763880643182], [-73.97651462100198, 40.62729448999149], [-73.97595968460637, 40.62618298781325], [-73.97726150032737, 40.625852772813786], [-73.97719665645002, 40.62510197855915], [-73.97923421660117, 40.626335328821305], [-73.97981769507334, 40.62577362524577], [-73.9821325938447, 40.62717144400504], [-73.98496213931966, 40.6243230992724], [-73.98035052376673, 40.62182486554827], [-73.98406791832556, 40.618240738800374], [-73.98186818309082, 40.61691212660411], [-73.98244953512614, 40.6163528949284], [-73.98022027459378, 40.61500494876029], [-73.98143750071507, 40.61383768844189], [-73.98070684560388, 40.61340218511191], [-73.98018152401602, 40.61063401037279], [-73.98210659093506, 40.61042050610957], [-73.98162368906787, 40.6078657855734], [-73.98440295180225, 40.60755951486724], [-73.98496383485828, 40.610447994441486], [-73.9873779529091, 40.60812811803305], [-73.98725487001735, 40.6072441892243], [-73.98842267576015, 40.607119149010074], [-73.99029013669265, 40.60532859856706], [-73.99471921926434, 40.608004688157685], [-73.99825418891973, 40.60460855955176], [-73.99305112014412, 40.60147642907888], [-74.00167830141217, 40.59344100443837], [-74.00334588365145, 40.5957327895007], [-74.00557303776849, 40.59756861231835], [-74.01236981602699, 40.60134925711637], [-74.0191356396883, 40.60261275450503], [-74.02085657504311, 40.603522132905056], [-74.02930882862725, 40.60459906355947], [-74.03101612271284, 40.60525141411537], [-74.03603977777915, 40.60929563900205], [-74.0368612350558, 40.61112799809598], [-74.03902502184346, 40.613158975948416], [-74.04038132338678, 40.61534178232858], [-74.04161740773601, 40.62056271454592], [-74.04188849295898, 40.624409312959415], [-74.04103311915418, 40.63028243968916], [-74.03680662048852, 40.638984221545684], [-74.03876297920756, 40.63958825898071], [-74.03672484374883, 40.63914119020688], [-74.0357127615073, 40.640640154046686], [-74.0367030793512, 40.64168561987398], [-74.03407329294261, 40.644313932964096], [-74.03229711422384, 40.64358131351756], [-74.03254173861602, 40.64382548384934], [-74.0318970856032, 40.64388934936976], [-74.03051830863373, 40.64527442420405], [-74.02908090951756, 40.64440359693036], [-74.0291541899453, 40.64458144541973], [-74.02886241127038, 40.6448660237232], [-74.02908654355221, 40.644583001799646], [-74.02819053049322, 40.64441433020646], [-74.02820569610986, 40.6440159828903], [-74.02604948466303, 40.646261350326206], [-74.02974078277059, 40.64848602621043], [-74.02938990486619, 40.64880405511406], [-74.02571758804812, 40.64661549229113], [-74.02507111430086, 40.64672561637863], [-74.0241456605057, 40.64761510126002], [-74.0251291195524, 40.64832318145743], [-74.02553864578044, 40.64978215934824], [-74.02484436363444, 40.65059963805718], [-74.02605133262786, 40.650994300743136], [-74.02552971543656, 40.65147855069301]]]}, "properties": {"schooldist": "20"}}, {"type": "Feature", "geometry": {"type": "Polygon", "coordinates": [[[-73.96211947416882, 40.62904090690337], [-73.96139319631463, 40.62517906570722], [-73.96046571674552, 40.62528276926394], [-73.96001047619353, 40.62289538702253], [-73.95714256395165, 40.62320788726044], [-73.95623764290943, 40.61842739469461], [-73.95503698247002, 40.61855780404303], [-73.95458660242602, 40.61616939210558], [-73.95672887967977, 40.61593240017062], [-73.95622590930166, 40.61327119640609], [-73.95814971126669, 40.61305820162971], [-73.9574060127202, 40.60913090847684], [-73.96044230689735, 40.60755532438604], [-73.96009108554391, 40.605864608094194], [-73.95909727943702, 40.605353662801406], [-73.95913611366227, 40.60327358810294], [-73.95841001063008, 40.601280040057986], [-73.95868277290346, 40.60088354101993], [-73.95590485025015, 40.601190917494776], [-73.95547624091408, 40.59893730347923], [-73.95640210933102, 40.598833206862736], [-73.95565081074888, 40.594854848174116], [-73.95655540492012, 40.594647725343364], [-73.95479875653874, 40.5850910822719], [-73.95106514411752, 40.58463117692633], [-73.95038530028636, 40.58344972573402], [-73.95414287861509, 40.58310614010602], [-73.95239783076636, 40.57424704874032], [-73.95569484110271, 40.574326996263615], [-73.95634506681625, 40.57420722198968], [-73.95634533454574, 40.57379757879462], [-73.9565675090591, 40.57417077849314], [-73.95843476359072, 40.574088814543884], [-73.95896634218651, 40.57394726876888], [-73.95898719038523, 40.57343065472716], [-73.95909642194562, 40.57386382043346], [-73.95982864911241, 40.57392930963587], [-73.96720294103956, 40.57332631739762], [-73.96945126268284, 40.57285728036352], [-73.96924621215567, 40.57230407565472], [-73.96975580336883, 40.57284692469053], [-73.97132989626341, 40.57264381038423], [-73.97118306421628, 40.571941899084514], [-73.9716070645239, 40.57262822392002], [-73.97293476162739, 40.57247460164286], [-73.9733450222981, 40.57232121400631], [-73.97324990115163, 40.57162668560661], [-73.97344805325683, 40.57227210696953], [-73.975285649671, 40.57204983266871], [-73.97540564094218, 40.5714210406407], [-73.97567918029264, 40.57195598449751], [-73.97713364145218, 40.571897086717776], [-73.97766384588142, 40.57172938779928], [-73.97767087589733, 40.57117102007938], [-73.97807599798224, 40.57122957012887], [-73.9777153307247, 40.571251914345], [-73.97780796518913, 40.571756200724806], [-73.97845486511191, 40.571892204296596], [-73.97984694469407, 40.57153931961033], [-73.97942516224168, 40.571221023724284], [-73.9802088309702, 40.571726205491196], [-73.98204075852516, 40.57148037052266], [-73.98157155423429, 40.571249988425], [-73.9830804449657, 40.57150853143356], [-73.98367270153263, 40.57140705768757], [-73.98340440803584, 40.570165544511035], [-73.98304328883712, 40.57014586098814], [-73.98336058039273, 40.569529994486906], [-73.9838394948926, 40.57011246715812], [-73.98348842146697, 40.570156029544094], [-73.98375790448652, 40.57139622725111], [-73.99026267527438, 40.57070834011741], [-73.99079264766944, 40.57024864875571], [-73.99119337523616, 40.57061187496838], [-73.99518726085735, 40.5700218776333], [-74.00077859539269, 40.5704909982214], [-74.00201167119813, 40.57020875852429], [-74.00208547639734, 40.56958598398511], [-74.0024870773771, 40.571738388872625], [-74.00479941687604, 40.572878854851005], [-74.01115668795175, 40.574166761858926], [-74.01201540257043, 40.57488505247433], [-74.0130238006225, 40.57780436976003], [-74.01235035995137, 40.579221820653956], [-74.0108603557124, 40.580462245264826], [-74.00745366008165, 40.581803522848084], [-74.00055986763827, 40.58129742968316], [-73.99818261219656, 40.58172536423948], [-73.99771779495471, 40.58070677630617], [-73.9884283376943, 40.57881584261966], [-73.98739064388405, 40.57908698306386], [-73.98678109649813, 40.58029393717532], [-73.983931725928, 40.58291045142077], [-73.9833047932913, 40.582940097497435], [-73.97965110260873, 40.579776480153846], [-73.9775058934442, 40.58038330033508], [-73.97481440957036, 40.582536204365105], [-73.97540398440464, 40.5826159814426], [-73.97914743516299, 40.58015794065392], [-73.98384335806952, 40.58333237105939], [-73.98684479062369, 40.58123210200543], [-73.98805399717064, 40.57963273906323], [-73.99174273417003, 40.58120016258765], [-73.9902624471437, 40.584619148205505], [-73.9954718855495, 40.58221005448385], [-74.00017922859408, 40.58307394974263], [-74.00035951856404, 40.58418644588058], [-73.99808523776014, 40.585364721581676], [-73.99970597165436, 40.585689819858736], [-73.99956511570319, 40.586243920095846], [-73.99814530449004, 40.58653169390733], [-73.9940790462178, 40.58869344199073], [-73.99795639739288, 40.58726950636582], [-73.99487677695369, 40.58877174667533], [-73.99534737727144, 40.589331380440186], [-74.00037368890935, 40.58647481463014], [-74.00038207115722, 40.58713305734965], [-73.99788311251038, 40.58834343792298], [-73.99867293375561, 40.58919554943726], [-73.99946446811074, 40.58923326938089], [-73.9983783488211, 40.589770445088746], [-73.99877800655514, 40.590314355844654], [-73.99711670865182, 40.591446789894654], [-73.99806438267684, 40.591209464731676], [-73.99728269769716, 40.59171481486826], [-73.99754851058405, 40.591917578170595], [-73.99998735054942, 40.59117294573015], [-74.00023253344592, 40.59153130855951], [-73.99903131441657, 40.59231280344775], [-73.99948304938306, 40.59296919989778], [-73.99838831083619, 40.59353139160648], [-74.00109596850085, 40.59251870899914], [-74.00167830141217, 40.59344100443837], [-73.99305112014412, 40.60147642907888], [-73.99825418891973, 40.60460855955176], [-73.99471921926434, 40.608004688157685], [-73.99029013669265, 40.60532859856706], [-73.98842267576015, 40.607119149010074], [-73.98725487001735, 40.6072441892243], [-73.9873779529091, 40.60812811803305], [-73.98496383485828, 40.610447994441486], [-73.98440295180225, 40.60755951486724], [-73.98162368906787, 40.6078657855734], [-73.98210659093506, 40.61042050610957], [-73.98018152401602, 40.61063401037279], [-73.98070684560388, 40.61340218511191], [-73.98143750071507, 40.61383768844189], [-73.98022027459378, 40.61500494876029], [-73.98244953512614, 40.6163528949284], [-73.98186818309082, 40.61691212660411], [-73.98406791832556, 40.618240738800374], [-73.98035052376673, 40.62182486554827], [-73.98496213931966, 40.6243230992724], [-73.9821325938447, 40.62717144400504], [-73.97981769507334, 40.62577362524577], [-73.97923421660117, 40.626335328821305], [-73.97719665645002, 40.62510197855915], [-73.97726150032753, 40.625852772311205], [-73.97595968460637, 40.62618298781325], [-73.97651462100198, 40.62729448999149], [-73.9744212248422, 40.62763880643182], [-73.96211947416882, 40.62904090690337]]]}, "properties": {"schooldist": "21"}}, {"type": "Feature", "geometry": {"type": "MultiPolygon", "coordinates": [[[[-73.86327471071958, 40.58387684853199], [-73.86449245335793, 40.583614937676344], [-73.86772796903779, 40.581663408926424], [-73.86925758117214, 40.581909640571816], [-73.87050597918449, 40.5833419525113], [-73.87115922675432, 40.586873887967435], [-73.86981356548026, 40.58946092678915], [-73.86635052164095, 40.591892676564896], [-73.86327273558757, 40.59090807569354], [-73.86125299377375, 40.58798808592135], [-73.86167447933386, 40.586144794994674], [-73.86327471071958, 40.58387684853199]]], [[[-73.86952707548932, 40.59871375035464], [-73.86967070777432, 40.59668856362301], [-73.87020899836229, 40.596954232789535], [-73.86952707548932, 40.59871375035464]]], [[[-73.87019491555886, 40.598996405902824], [-73.87108141877417, 40.598901147471025], [-73.87049411980716, 40.602604446205476], [-73.87026280565112, 40.60168122125358], [-73.87019491555886, 40.598996405902824]]], [[[-73.85243335807017, 40.59733339779542], [-73.85673364394975, 40.5960757643542], [-73.8604442053407, 40.59647190559651], [-73.86335999147612, 40.6003222027713], [-73.86112814290586, 40.60255033057266], [-73.8548259584891, 40.60186719535466], [-73.85276838221775, 40.60094885402691], [-73.85076748067495, 40.59883944383837], [-73.85243335807017, 40.59733339779542]]], [[[-73.86702607287035, 40.604171584008384], [-73.86768194220156, 40.60307076667829], [-73.86830808464813, 40.60313916014116], [-73.86793505372805, 40.60396113495051], [-73.86702607287035, 40.604171584008384]]], [[[-73.86702399541106, 40.60806817877034], [-73.86874317559271, 40.60703517877683], [-73.86868468826752, 40.60824115818402], [-73.86777501627083, 40.60853948877929], [-73.86702399541106, 40.60806817877034]]], [[[-73.86966442958501, 40.60654012341308], [-73.87109330768081, 40.60469417399489], [-73.87105656712181, 40.606285087992596], [-73.8724557981188, 40.60818553034873], [-73.87300122724768, 40.610555458460055], [-73.87103870177656, 40.60972358252749], [-73.86966442958501, 40.60654012341308]]], [[[-73.85608674695169, 40.61092746874407], [-73.85370893284191, 40.60782622444982], [-73.85441656153746, 40.60773485369491], [-73.8536264071942, 40.60726470961551], [-73.85506642706599, 40.607459868934], [-73.85464016761341, 40.60769457687133], [-73.85480344786893, 40.60859621030309], [-73.8555495238704, 40.60898251246575], [-73.85529971275474, 40.60959415983226], [-73.85598227438662, 40.609574685248425], [-73.85660067672639, 40.61082540562005], [-73.85608674695169, 40.61092746874407]]], [[[-73.85618379998469, 40.62157463407921], [-73.85455196807588, 40.619893668262826], [-73.85657837157042, 40.6195680394745], [-73.85676349057306, 40.62040565790134], [-73.85738181787968, 40.62028035102704], [-73.85618379998469, 40.62157463407921]]], [[[-73.8657583138536, 40.618501449958906], [-73.87395306272843, 40.615839415733916], [-73.8779807086464, 40.61579829287851], [-73.87951577382569, 40.61656151979731], [-73.87978055533652, 40.61863064242991], [-73.87937556321155, 40.619857884714634], [-73.87779098889014, 40.62165224155554], [-73.86645484055246, 40.62825538680725], [-73.865187862763, 40.62766280991856], [-73.8647276611139, 40.626525541914475], [-73.86650860322545, 40.623754008018096], [-73.86637583715459, 40.62300361314296], [-73.86522936247891, 40.621888281529586], [-73.86500830120069, 40.62054668315783], [-73.8657583138536, 40.618501449958906]]], [[[-73.88846787989296, 40.64689973405141], [-73.88849720259851, 40.64675678600091], [-73.88853291212872, 40.64686188223087], [-73.88846787989296, 40.64689973405141]]], [[[-73.91962719168711, 40.661708059370056], [-73.91974399531439, 40.66077097344798], [-73.91232824406798, 40.65413478210973], [-73.90317858413407, 40.655311633837584], [-73.90048767226398, 40.6571486793524], [-73.89904180388906, 40.65737165757109], [-73.89859703793212, 40.655828166571766], [-73.8994086638314, 40.65568462502123], [-73.9008429919487, 40.6542738474368], [-73.89757174797231, 40.65075888692995], [-73.8956622878103, 40.64946695866928], [-73.89353112559581, 40.650843321247145], [-73.89302051824757, 40.65037254069564], [-73.8918907337854, 40.65059443754719], [-73.89056792988653, 40.64920863243264], [-73.89102799486622, 40.64933283924764], [-73.89108330671357, 40.64879257569681], [-73.88879690848671, 40.64605025805653], [-73.88937602975045, 40.64697475442333], [-73.88886541778214, 40.6472200357358], [-73.88859932552033, 40.646712468821114], [-73.88808138884075, 40.646620569628915], [-73.88828981420744, 40.64604421554579], [-73.88740960222484, 40.64532928012503], [-73.8880558718287, 40.645119787257485], [-73.8873436173175, 40.645224153369256], [-73.88623646791807, 40.64381678772118], [-73.88373578763786, 40.642450349188586], [-73.87953888017081, 40.63821783932087], [-73.87863863908075, 40.638293606260426], [-73.87858034238158, 40.63751875659366], [-73.87714434868597, 40.63597649800772], [-73.87820590555754, 40.63457294366348], [-73.88364451728319, 40.63094331163619], [-73.88345412989437, 40.62990766993569], [-73.88404726149385, 40.62956011854668], [-73.88263248433402, 40.628274273127076], [-73.88369231571589, 40.6275593734116], [-73.88512954089744, 40.62882725867221], [-73.88752673772166, 40.628331824483325], [-73.89042299743639, 40.62627859829531], [-73.89148720748321, 40.62448172241535], [-73.89300558930357, 40.6233564685942], [-73.89533612470666, 40.62247057022935], [-73.89625797796472, 40.622902845580676], [-73.89662960625228, 40.622283868823814], [-73.9065141792807, 40.627130321926465], [-73.91860224806113, 40.632068327751334], [-73.9191718039419, 40.63746984127264], [-73.92283431631904, 40.63556053294733], [-73.93152735210447, 40.63500796781268], [-73.93201328427844, 40.63961612662247], [-73.9348875040951, 40.6394385965188], [-73.93513872248553, 40.64178465261748], [-73.93898089448939, 40.641537914972794], [-73.93932905818467, 40.64481476160698], [-73.9426082464622, 40.644661861880955], [-73.94312244902682, 40.649309183422766], [-73.9416999498788, 40.64939398695834], [-73.94189204362668, 40.65116934638727], [-73.9437999618441, 40.65110636689058], [-73.94400175944757, 40.652973183838846], [-73.94687330574459, 40.65279541501206], [-73.94715896323092, 40.65559378727119], [-73.94507909388349, 40.65572204654112], [-73.94509415838552, 40.65743234235086], [-73.9359047433601, 40.65799865099521], [-73.93613573431328, 40.6602947461886], [-73.92882287784619, 40.66074523309939], [-73.92905189171047, 40.660950179020894], [-73.92542335552444, 40.66329428809124], [-73.92360799713661, 40.66166327836471], [-73.92105081749146, 40.663313856038634], [-73.91962719168711, 40.661708059370056]]]]}, "properties": {"schooldist": "18"}}, {"type": "Feature", "geometry": {"type": "MultiPolygon", "coordinates": [[[[-73.92084893682674, 40.59954139732863], [-73.91865887664007, 40.59947242837132], [-73.91626393108342, 40.598161137312935], [-73.9133830581719, 40.594721552778694], [-73.91295122631982, 40.59205432996972], [-73.91524478304683, 40.59158750817872], [-73.91787543558097, 40.594722181022455], [-73.92182277731845, 40.597332933375256], [-73.92213049419276, 40.59866259668055], [-73.92084893682674, 40.59954139732863]]], [[[-73.95870789888956, 40.650387273783004], [-73.95763644642231, 40.64268949946364], [-73.93922712398953, 40.64383513120267], [-73.93898089448939, 40.641537914972794], [-73.93513872248553, 40.64178465261748], [-73.93488750409462, 40.63943859702139], [-73.93201328427844, 40.63961612662247], [-73.93152735210447, 40.63500796781268], [-73.92283431631904, 40.63556053294733], [-73.9191718039419, 40.63746984127264], [-73.91860224806113, 40.632068327751334], [-73.90651417928, 40.627130322429046], [-73.89662960625228, 40.622283868823814], [-73.8969245112835, 40.62165511544273], [-73.8956138850201, 40.61980128664824], [-73.89664335291343, 40.61734771214303], [-73.89586112894187, 40.61451813749493], [-73.89249926249767, 40.613792311178784], [-73.89095414564765, 40.61283404681469], [-73.8914143047419, 40.61212544769968], [-73.89396385060904, 40.61121422258095], [-73.89189389152556, 40.611534670245526], [-73.89107794632702, 40.61227686136612], [-73.88970208130915, 40.61156330202902], [-73.8903021138949, 40.610317656862705], [-73.89226735524919, 40.60916527314746], [-73.89272945065196, 40.60722719231729], [-73.89334621420018, 40.60674344623483], [-73.89833878117862, 40.60530365928555], [-73.90017063006057, 40.60562514266389], [-73.9010994890884, 40.607067772331895], [-73.90027950073626, 40.61007400967441], [-73.9014064610216, 40.61108804387845], [-73.9013661982304, 40.61170184114492], [-73.90249393051248, 40.611814999033015], [-73.90119253531397, 40.610563817547316], [-73.9013296265948, 40.61048104260088], [-73.90265077946712, 40.611780621666924], [-73.90236032096212, 40.61198041218273], [-73.90271854260655, 40.61182602529611], [-73.903043928125, 40.61209521498742], [-73.90242274717579, 40.61203356000492], [-73.90717291149848, 40.61600987533857], [-73.9067384873229, 40.616295920493414], [-73.90725685631011, 40.61608758137747], [-73.90710595399025, 40.61660986021443], [-73.907527351321, 40.616344433051665], [-73.90724169448653, 40.61655150188829], [-73.9076165910464, 40.61689646662551], [-73.90879088083601, 40.61743639672209], [-73.9086333391297, 40.61716785490955], [-73.90907145153955, 40.61716043833201], [-73.9083540321461, 40.616530999464295], [-73.90879420885119, 40.61687295732532], [-73.90913853186582, 40.61653162223182], [-73.9079730639045, 40.61573684456395], [-73.90917675105398, 40.616521946980406], [-73.90895706194678, 40.61699148482003], [-73.90959740910344, 40.61639266979952], [-73.9022586003223, 40.61042277260068], [-73.90164211856033, 40.60576336073963], [-73.90524300992104, 40.60491009032456], [-73.90597461177859, 40.60638402870451], [-73.90809821975144, 40.60627863561025], [-73.90863959535432, 40.60665872204802], [-73.9098515484547, 40.605999722177884], [-73.90832536901115, 40.604073373919306], [-73.91092270021181, 40.603505476100864], [-73.91365119825541, 40.60398251383764], [-73.91673556552145, 40.60681456155083], [-73.91632230017527, 40.60867566266918], [-73.91678394432881, 40.608773883387215], [-73.91657073983427, 40.609423539546114], [-73.91683981118769, 40.60876001472071], [-73.91650924535932, 40.60862975409021], [-73.91708838503378, 40.60882085439612], [-73.91616475103677, 40.61051557507678], [-73.91449542205983, 40.611653223665044], [-73.91493418790435, 40.61395815505513], [-73.91386053126766, 40.614642268066376], [-73.91422238698001, 40.61493245677309], [-73.91642099069449, 40.61356935469335], [-73.91591452110684, 40.613845376312526], [-73.91572538303375, 40.61361803080386], [-73.91576807356566, 40.613540333335955], [-73.9162476895966, 40.613626100288776], [-73.91574585296351, 40.61338485969851], [-73.9163958674589, 40.613446834034875], [-73.91587086536303, 40.61291003789328], [-73.91662804371157, 40.61344358926565], [-73.91573181993084, 40.61183084451446], [-73.91811036678952, 40.610208394560914], [-73.91786638626964, 40.60932723380102], [-73.917678707574, 40.60966286394388], [-73.9179627008301, 40.60878593762309], [-73.9178197277143, 40.60930430006607], [-73.91855666120595, 40.608498309043554], [-73.9180050056714, 40.60814977851529], [-73.91900737147267, 40.60826725547386], [-73.9181381488997, 40.60764538690781], [-73.91902310765312, 40.60825686819962], [-73.91935398484114, 40.60804292228789], [-73.91825269092955, 40.60722935064075], [-73.91937100495863, 40.608032641242495], [-73.91952209796015, 40.60773879743498], [-73.91442813462284, 40.602863919563426], [-73.91364075667403, 40.60252418170446], [-73.91347072714883, 40.60291169119321], [-73.91349826479676, 40.60236697506329], [-73.91301723241867, 40.60275424871779], [-73.91347511544238, 40.60234929587355], [-73.91311658799593, 40.60222025643209], [-73.91270696099524, 40.602694709484396], [-73.91305994475385, 40.602206210167346], [-73.91158427689338, 40.60213548840357], [-73.91157836556712, 40.60221787119134], [-73.91230939977284, 40.602275084478094], [-73.91254170248371, 40.60236443995609], [-73.91154411248928, 40.60243932310459], [-73.91261098676532, 40.60253200659405], [-73.91257290407664, 40.60268329902972], [-73.9108653658571, 40.60249048379119], [-73.91155529206678, 40.602155465233054], [-73.91075830846505, 40.60202750098357], [-73.91075123972259, 40.60243729986271], [-73.90903689530533, 40.60267734322033], [-73.91071154522973, 40.60241949317899], [-73.90940934304663, 40.60219076575551], [-73.91073123013267, 40.602021376027814], [-73.90904083221544, 40.60162520588616], [-73.90784279095395, 40.60226974077191], [-73.90372774498887, 40.60241508436924], [-73.89932620778325, 40.60355074627568], [-73.89562281394231, 40.60300891159018], [-73.89241272590114, 40.60329895311039], [-73.88773089770584, 40.6052682705789], [-73.88477565552765, 40.60514138810733], [-73.88396434948018, 40.60554914042727], [-73.88271777210468, 40.604178837179525], [-73.88336368003431, 40.60287745808506], [-73.88180618374516, 40.59936527769381], [-73.87990713259003, 40.592047994322606], [-73.87941617176989, 40.59213200579822], [-73.87989902851933, 40.59202063885226], [-73.87971492293931, 40.59139889182989], [-73.8789689043874, 40.59089677311774], [-73.8792932637739, 40.59066143136822], [-73.87878760405557, 40.58803046034657], [-73.87671672547997, 40.5849144302017], [-73.87970231729919, 40.580135100699025], [-73.8817429002219, 40.57959170026221], [-73.88174676983894, 40.57915880721264], [-73.8861381066547, 40.57813439866349], [-73.89118413839786, 40.577872112132326], [-73.89552381007171, 40.57676981843659], [-73.8965125431068, 40.57900707457313], [-73.89674637026965, 40.583189984667285], [-73.89816156619817, 40.58535049055841], [-73.89826305550277, 40.586785395352535], [-73.89891599908881, 40.58753743555862], [-73.89973341305257, 40.587165211607484], [-73.8990302609673, 40.587670097515065], [-73.89981060525028, 40.58801445705567], [-73.89990604460412, 40.587794089751], [-73.90121791883179, 40.58738334002335], [-73.89995234070636, 40.588041598697046], [-73.90071546111506, 40.58808399589171], [-73.90426874469107, 40.58691226324358], [-73.90651874671022, 40.58802547311532], [-73.90712502472311, 40.587529702963046], [-73.90643924223706, 40.58703385687752], [-73.91152755155188, 40.586105809032105], [-73.91197278431808, 40.58669735696893], [-73.91205464142172, 40.58873759522113], [-73.91143730803446, 40.59108037189377], [-73.91202884704788, 40.594367595280715], [-73.91573791655036, 40.599205841127315], [-73.92170503367977, 40.60174437012568], [-73.92296824945096, 40.6011057184137], [-73.92393997098367, 40.59971434905907], [-73.92465983522266, 40.59972598968827], [-73.92954149217886, 40.60274908136857], [-73.92916612461872, 40.60386602245702], [-73.9310033620911, 40.60393580366196], [-73.9321231971213, 40.60270973874673], [-73.93108919528453, 40.6017222582643], [-73.92964936173398, 40.60120445757898], [-73.9292269832568, 40.60048810851663], [-73.92742100748926, 40.60005657036095], [-73.92290185533977, 40.596447563816525], [-73.92177536390288, 40.59503092620176], [-73.9203414206214, 40.59473049510514], [-73.91818165129337, 40.59310708387106], [-73.91641150597084, 40.59114162795178], [-73.91487761575547, 40.590313620583764], [-73.91454418365907, 40.58889743098024], [-73.91917204255591, 40.58595508837709], [-73.92492960693694, 40.585667583816964], [-73.92720774188903, 40.587722759186924], [-73.92765146726212, 40.58745909654203], [-73.92735680928894, 40.588022176276354], [-73.92791625741164, 40.58754873538702], [-73.92807906817859, 40.58770246052338], [-73.92740452311665, 40.58820644519831], [-73.92790175806915, 40.58795340928054], [-73.92802185276423, 40.58806875635107], [-73.92745467790994, 40.58829956407424], [-73.92776143639114, 40.58866060975899], [-73.92395294915966, 40.59113985102826], [-73.92460129938564, 40.59119932500333], [-73.92863061481509, 40.58857263692383], [-73.92866593908828, 40.58914326406708], [-73.92921964005134, 40.58881334594671], [-73.92875703499419, 40.589152966925184], [-73.92990258163888, 40.589464667286634], [-73.93065213846435, 40.59029097949247], [-73.93035364524506, 40.59255495029461], [-73.92971282036602, 40.59312004824824], [-73.93004238419589, 40.59306087931824], [-73.92996116581374, 40.594005710816866], [-73.93008159453139, 40.593595462871434], [-73.93043246129612, 40.594402674950075], [-73.93176387400014, 40.594284098763005], [-73.93078131379619, 40.59449895527697], [-73.93260420556855, 40.59492954452514], [-73.9326765397575, 40.59423641796777], [-73.93113956123494, 40.59200892874806], [-73.93142565439695, 40.591604184650144], [-73.93104847941613, 40.59172629086657], [-73.9315593944162, 40.59129296407095], [-73.93121294858955, 40.58953130811946], [-73.93068568059813, 40.58882195422698], [-73.93009138279221, 40.58898886237912], [-73.93065021927472, 40.5886698702735], [-73.9303996759751, 40.58846552041546], [-73.9297284644606, 40.58861391633291], [-73.93038545322193, 40.58844161607944], [-73.9297223264668, 40.58756008340658], [-73.93134917824065, 40.58732816722968], [-73.9312519133305, 40.58684982521484], [-73.92857394002446, 40.58706150186942], [-73.92808232971643, 40.58669769343521], [-73.92815700695564, 40.585864523568844], [-73.92736955785888, 40.58600658531652], [-73.927586418299, 40.586254135332524], [-73.92751621995613, 40.58639826671562], [-73.92529084047656, 40.58464073566527], [-73.92019563053438, 40.58463453736744], [-73.91566114963585, 40.586223454005804], [-73.91349961705765, 40.58609582588524], [-73.9125858740071, 40.585566744135654], [-73.91246022036074, 40.58335175392395], [-73.91463166341296, 40.58275763440345], [-73.91498685680668, 40.58315283982614], [-73.91614199473283, 40.58285743763405], [-73.91729861476644, 40.58319080175016], [-73.91541290900749, 40.582364074301445], [-73.91191058860355, 40.58296337725275], [-73.91128635983848, 40.582313586292585], [-73.91148327601967, 40.58183216186766], [-73.91505520236674, 40.58154360772327], [-73.92443604095033, 40.58355820294181], [-73.92963248074955, 40.583398808123064], [-73.93117951233172, 40.582715711854114], [-73.93613233580496, 40.5833144741334], [-73.9360966869136, 40.582948745833065], [-73.93657592440735, 40.583240506092736], [-73.9369742746381, 40.58323032590889], [-73.93663307422507, 40.58297221190426], [-73.93705921677424, 40.58297798282291], [-73.93705290451031, 40.58308469947822], [-73.93763269743296, 40.58309626828426], [-73.93702675588725, 40.58312587259952], [-73.93700558408266, 40.58301601947157], [-73.9370148108711, 40.58323327236452], [-73.9371245979845, 40.5833467301644], [-73.94102517918685, 40.58307036190638], [-73.94157408083619, 40.58360755543698], [-73.94255133565295, 40.58351447617102], [-73.94202033352708, 40.58311042428522], [-73.9427016782886, 40.583508798117066], [-73.94304709711925, 40.583492129464744], [-73.94256316190977, 40.58312734751663], [-73.94628634691954, 40.58356868470295], [-73.94579941258932, 40.58319463972786], [-73.9464342905935, 40.5835631525926], [-73.94678945068819, 40.58355046711174], [-73.94631603648753, 40.583206940210864], [-73.94691796341986, 40.58354603375279], [-73.94726832705307, 40.58353318156947], [-73.94682202947196, 40.583191191871244], [-73.94746867861319, 40.58352819536258], [-73.9534932204868, 40.58298819826116], [-73.95330135995641, 40.58200275013625], [-73.94969672499398, 40.58231940106685], [-73.94274062592515, 40.58099558955944], [-73.93258006633954, 40.581264741204], [-73.93106028108006, 40.57626592009702], [-73.93150256744059, 40.57566050512696], [-73.93489356521152, 40.575221645998184], [-73.93647107586543, 40.57586049685914], [-73.93670752565306, 40.57541842712586], [-73.94250907828383, 40.575373555034545], [-73.94427911474885, 40.57580051140861], [-73.9446005408305, 40.57523546894754], [-73.94572352054482, 40.5755594397068], [-73.94618237634471, 40.575298836106846], [-73.94592390301752, 40.575115432309886], [-73.95239783076636, 40.57424704874032], [-73.95414287861475, 40.58310614060859], [-73.95038530028636, 40.58344972573402], [-73.95106514411752, 40.58463117692633], [-73.95479875653841, 40.58509108277448], [-73.95655540492012, 40.594647725343364], [-73.95565081074888, 40.594854848174116], [-73.95640210933102, 40.598833206862736], [-73.95547624091408, 40.59893730347923], [-73.95590485024982, 40.60119091799736], [-73.95868277290346, 40.60088354101993], [-73.95841001063039, 40.60128003955542], [-73.9591361136626, 40.60327358760036], [-73.95909727943702, 40.605353662801406], [-73.96009108554391, 40.605864608094194], [-73.96044230689735, 40.60755532438604], [-73.9574060127202, 40.60913090847684], [-73.95814971126669, 40.61305820162971], [-73.95622590930166, 40.61327119640609], [-73.95672887967943, 40.615932400673216], [-73.95458660242602, 40.61616939210558], [-73.95503698247002, 40.61855780404303], [-73.95623764290943, 40.61842739469461], [-73.95714256395165, 40.62320788726044], [-73.96001047619383, 40.62289538651994], [-73.96046571674522, 40.62528276976653], [-73.96139319631492, 40.625179065204634], [-73.96211947416882, 40.62904090690337], [-73.9744212248422, 40.62763880643182], [-73.97483245813993, 40.62841208368485], [-73.97402750499998, 40.62880580104915], [-73.97604935657381, 40.631275905646966], [-73.97241481651272, 40.63299383426854], [-73.97301022453938, 40.63610352855821], [-73.97029036228922, 40.63640634141836], [-73.97074050686717, 40.638794974731915], [-73.96960221032974, 40.6392594821653], [-73.97071645920788, 40.643677570348856], [-73.97008897793074, 40.64374583950724], [-73.97076976149259, 40.64611090684083], [-73.96261443603936, 40.647009218887526], [-73.96307464018265, 40.64943954952215], [-73.95870789888956, 40.650387273783004]]]]}, "properties": {"schooldist": "22"}}, {"type": "Feature", "geometry": {"type": "Polygon", "coordinates": [[[-73.98947108586754, 40.69229141761699], [-73.9744424922849, 40.68630823752474], [-73.97376084923565, 40.683049408639974], [-73.97595023335977, 40.6835132320497], [-73.97702316899657, 40.6814869045737], [-73.97961680019253, 40.68249126920813], [-73.98003510148293, 40.68185262673862], [-73.98241638197145, 40.68278056609882], [-73.98586016307887, 40.67770888229404], [-73.9783903228425, 40.674804515634946], [-73.9779599997114, 40.67543801865533], [-73.97040734527718, 40.67264721892592], [-73.98022902594695, 40.660985326490504], [-73.97426735561814, 40.658028787191135], [-73.97008897793074, 40.64374583950724], [-73.97944230387601, 40.64279621509573], [-73.97906660948175, 40.64031767028966], [-73.98000693068478, 40.6402088372523], [-73.9796770495655, 40.63846479981821], [-73.98292167344704, 40.6404162018494], [-73.98408782270893, 40.6392977084902], [-73.9862915679815, 40.64062495143923], [-73.99211970523866, 40.6350254608538], [-73.99431829172418, 40.636353558591345], [-73.99315282746097, 40.63747619033384], [-74.00195978397325, 40.64279873868586], [-74.00662259524054, 40.638314801631246], [-74.01323203355358, 40.64230518489328], [-74.01264921196787, 40.64286578775078], [-74.01490732490392, 40.64422985589858], [-74.01432463001531, 40.64478995279843], [-74.02435686091141, 40.65085160798234], [-74.02541604028593, 40.65193380685525], [-74.02417752973396, 40.651191773212354], [-74.02285141795983, 40.65116919516191], [-74.02536890150519, 40.652721436927436], [-74.0212465237341, 40.650834972564496], [-74.021052303922, 40.65109828242533], [-74.02233734666834, 40.65191060538179], [-74.02089862870834, 40.65124727521847], [-74.02380703903108, 40.65304472800908], [-74.02195900090581, 40.652222781468346], [-74.0211867002789, 40.65283983689552], [-74.02320464727123, 40.65409611631545], [-74.02162946295482, 40.653645164713645], [-74.02114963484493, 40.65421075521175], [-74.02164486415376, 40.65487898288005], [-74.01872686588685, 40.65347431052458], [-74.01811897876486, 40.65388527160802], [-74.02005182454282, 40.65533594837208], [-74.01787407223816, 40.65406150233102], [-74.01715319581027, 40.65477510436229], [-74.01980081651999, 40.65648721058484], [-74.01726715936587, 40.655194187986666], [-74.01639437533764, 40.65562064234835], [-74.01910843803122, 40.657368884303644], [-74.01860569460999, 40.65784587402304], [-74.0158537012281, 40.65621324005291], [-74.01543632335643, 40.65663239675976], [-74.01786573109679, 40.658308447298715], [-74.01504738221857, 40.656950386693595], [-74.01442130484553, 40.65760802195157], [-74.01745803087904, 40.6594501973869], [-74.01554165388995, 40.66075835497372], [-74.01183862056553, 40.658912837274904], [-74.0111075041031, 40.659706274580806], [-74.01402247744022, 40.66152974744018], [-74.01315554938815, 40.661981597726125], [-74.0085995696829, 40.65952092309843], [-74.00745858163896, 40.66055847621009], [-74.01037201297223, 40.66239887973013], [-74.00955074208035, 40.6632676941305], [-74.00868371591301, 40.663372012840405], [-74.00616141136321, 40.66184506899067], [-74.00568594756892, 40.662274740360694], [-74.00428358250124, 40.661444894101464], [-74.00622698247925, 40.662787827861145], [-74.00592360503035, 40.66310825073926], [-74.00380815470885, 40.66190794572834], [-74.0034880110065, 40.66224055612868], [-74.00599748682693, 40.66325861082871], [-74.0056134868175, 40.66345839025494], [-74.00767434594506, 40.66479110926594], [-74.0071253264674, 40.664915218474476], [-74.00652469666117, 40.66454722716051], [-74.00688215307306, 40.66434037294312], [-74.00584157632485, 40.664138020674756], [-74.0060460851898, 40.66384000563571], [-74.00575781045487, 40.6639227568018], [-74.0056414075448, 40.6645314913934], [-74.00565025959585, 40.66390033784394], [-74.00362862508564, 40.66273484703216], [-74.00340348595628, 40.66298572609586], [-74.00528132177341, 40.664657003524155], [-74.00486193792659, 40.665064821938365], [-74.00083401108444, 40.663006442189314], [-73.99953152609916, 40.66439748543451], [-74.00292463516385, 40.666462311660986], [-74.00068774868765, 40.66754595189897], [-73.99998149339123, 40.66745027440626], [-73.9990260099839, 40.66844297212715], [-73.99855824468392, 40.67133550167012], [-73.99892591239072, 40.67141490550805], [-74.00030337808883, 40.66871689249724], [-74.00221506816546, 40.668578637441385], [-74.00289483876949, 40.66734846594956], [-74.00586366180684, 40.66799376258587], [-74.00683635581484, 40.66605609592469], [-74.00696399023184, 40.666051399218624], [-74.00475388692328, 40.670721359447796], [-74.00543926529352, 40.67092146823863], [-74.00754821618388, 40.66705174573373], [-74.00708724221802, 40.66859135803337], [-74.00985411921633, 40.66852362833552], [-74.01154017543331, 40.665085919756834], [-74.01574872882648, 40.66456833578923], [-74.01690267361082, 40.66484660284165], [-74.0178871914939, 40.66585046628554], [-74.01857605010876, 40.67039241387013], [-74.01933946871777, 40.671624948422796], [-74.0175103708668, 40.67103453048172], [-74.01648665554497, 40.664930508953994], [-74.01602551776011, 40.664863048788284], [-74.0159369853455, 40.66547079172164], [-74.01227967872792, 40.66573241415904], [-74.01033845947936, 40.6690781954482], [-74.0115428803156, 40.669784342247915], [-74.01162527521356, 40.670581028276025], [-74.01424926931875, 40.6697286047373], [-74.01175350575697, 40.67065775707587], [-74.01427407191714, 40.6713792986795], [-74.01519980570059, 40.67075402716193], [-74.01387273763245, 40.671880761760626], [-74.01423289452782, 40.672130000513214], [-74.01568625497515, 40.671038834929], [-74.01297587792189, 40.673327918721135], [-74.01336378218144, 40.673591536934566], [-74.01511918663962, 40.6721569959693], [-74.01632099922307, 40.67290826956389], [-74.01457946720956, 40.674414017071776], [-74.01496392184575, 40.67467763029439], [-74.01816839280801, 40.67193924110386], [-74.01880094710896, 40.67225076434641], [-74.01727138470127, 40.673608645805714], [-74.0180107732054, 40.67391318105255], [-74.01783447572687, 40.675258223014445], [-74.01888511718633, 40.67508776528245], [-74.01791968711753, 40.67651476488733], [-74.01976925679249, 40.67661322491733], [-74.01995197864677, 40.67710301045017], [-74.0190825738633, 40.67713956404772], [-74.01917743946885, 40.677826948504574], [-74.01843040661606, 40.677908321362466], [-74.01841103183162, 40.67840712127861], [-74.01966312651504, 40.67838820127078], [-74.01827026139368, 40.67855421845974], [-74.01955261263596, 40.679029252084796], [-74.01899105471408, 40.6799049932014], [-74.01282000398867, 40.68362241649745], [-74.01213481688782, 40.6829059275227], [-74.01410549713992, 40.681712519375566], [-74.01301835422095, 40.680412373511906], [-74.00967108558883, 40.6832687277152], [-74.01092841268031, 40.68449147254313], [-74.007981841317, 40.686275822096015], [-74.00588224183227, 40.6861957683912], [-74.00562986330395, 40.686784205541244], [-74.00783293766683, 40.6873850551629], [-74.00742012154097, 40.6882062904361], [-74.00500373315074, 40.687605985401035], [-74.00459270521768, 40.68821522248419], [-74.00678438505835, 40.68882687995842], [-74.00636461225267, 40.68966966863715], [-74.0038203885371, 40.68892964469951], [-74.00340921558492, 40.68961326065773], [-74.0057590067034, 40.69023639951379], [-74.00534209624915, 40.69109160297804], [-74.0009615685494, 40.69012876784768], [-74.00069905775852, 40.690611857916664], [-74.00479415294552, 40.69176162037459], [-74.00440941326005, 40.69252880038946], [-74.0019693859211, 40.69184320882024], [-74.0017436211104, 40.69240674970565], [-73.99623278034557, 40.69075777408393], [-73.99508016911967, 40.69314721461667], [-73.98947108586754, 40.69229141761699]]]}, "properties": {"schooldist": "15"}}, {"type": "Feature", "geometry": {"type": "Polygon", "coordinates": [[[-73.92044366203014, 40.66562628716768], [-73.92095415427211, 40.66574969577552], [-73.9223201448434, 40.66534832902], [-73.92044366203014, 40.66562628716768], [-73.92004899930217, 40.66408892238694], [-73.92165571659851, 40.66384357466523], [-73.91977851078302, 40.663290498223695], [-73.91959479824105, 40.66199567928816], [-73.92105081749146, 40.663313856038634], [-73.92360799713661, 40.66166327836471], [-73.92542335552444, 40.66329428809124], [-73.92905189171047, 40.660950179020894], [-73.92882287784619, 40.66074523309939], [-73.93613573365332, 40.660294746188235], [-73.9359047433601, 40.65799865099521], [-73.94509415772558, 40.657432342350546], [-73.94507909388349, 40.65572204654112], [-73.94715896257061, 40.65559378777346], [-73.94687330574459, 40.65279541501206], [-73.94400175944757, 40.652973183838846], [-73.94379996118424, 40.651106366890254], [-73.94189204362668, 40.65116934638727], [-73.9416999498788, 40.64939398695834], [-73.94312244902682, 40.649309183422766], [-73.94260824580239, 40.64466186188062], [-73.93932905818512, 40.64481476110438], [-73.93922712398953, 40.64383513120267], [-73.95763644576252, 40.6426894994634], [-73.95870789823, 40.650387273280174], [-73.96307464018265, 40.64943954952215], [-73.96261443603936, 40.647009218887526], [-73.97076976083277, 40.64611090684066], [-73.97436701226498, 40.658187903512236], [-73.98022902594695, 40.660985326490504], [-73.97040734527718, 40.67264721892592], [-73.9677475223481, 40.67302026939685], [-73.96257123084727, 40.67162224488748], [-73.96327503399358, 40.67527425578553], [-73.96134655885788, 40.6804635243011], [-73.95206345258708, 40.678586330215985], [-73.93862492497574, 40.677862569582786], [-73.93843297207545, 40.67556514632788], [-73.93884149817444, 40.67549215171568], [-73.93889518673745, 40.674598733863235], [-73.93751992857378, 40.67422980176787], [-73.93754574417305, 40.67274248522683], [-73.92801317657924, 40.672209208172106], [-73.9282445167355, 40.672939336947806], [-73.92784085188026, 40.67399598368107], [-73.92213153313169, 40.67368388950936], [-73.92172106090692, 40.67352153513222], [-73.92221444387039, 40.67279163355285], [-73.92022560789849, 40.672385296339215], [-73.91970905936454, 40.671757849281754], [-73.92025198136844, 40.67043555768973], [-73.91987744177591, 40.66997723304109], [-73.92038850667144, 40.66978559780554], [-73.91996590457566, 40.669476373347194], [-73.9200475399336, 40.66827642954178], [-73.92101988847263, 40.66785269756713], [-73.92044366203014, 40.66562628716768]]]}, "properties": {"schooldist": "17"}}, {"type": "Feature", "geometry": {"type": "Polygon", "coordinates": [[[-73.95439555417087, 40.73911477252269], [-73.94652352854825, 40.73692685345575], [-73.94719983301087, 40.735355177611424], [-73.94706532981458, 40.734401992819706], [-73.94659806773423, 40.734442224347774], [-73.94673908072966, 40.735282693841185], [-73.94557048523289, 40.7366123039109], [-73.94499908955561, 40.7364366937131], [-73.9451850724739, 40.735479152678295], [-73.94451542183513, 40.736284390390686], [-73.94239443608501, 40.73542574994803], [-73.94114746701952, 40.73415292753774], [-73.93981322625451, 40.73115268891224], [-73.93810334960666, 40.729728519521515], [-73.93492926457985, 40.72854391525096], [-73.9295802069088, 40.72761282070885], [-73.92787172405079, 40.72585405069526], [-73.92561470516623, 40.72006166221263], [-73.92481799009755, 40.72026513747593], [-73.92453432562183, 40.71966615777262], [-73.92470227807114, 40.7186883041008], [-73.92887965180016, 40.71772031862372], [-73.9297053998138, 40.71704927938973], [-73.92947356921461, 40.715721452621324], [-73.93219753146334, 40.714972107490546], [-73.93124067125541, 40.713724810885275], [-73.93263905308514, 40.713052586169894], [-73.9320326298051, 40.71159022307447], [-73.93328349320349, 40.71097870645294], [-73.9319010192086, 40.711338471428384], [-73.9303609463194, 40.70871773753062], [-73.93154613746866, 40.71185535175125], [-73.93077894737053, 40.712160427955666], [-73.93161032800991, 40.712038022178355], [-73.93184868877454, 40.71256477418343], [-73.9304229437912, 40.71317255867164], [-73.93105231901717, 40.71461022392352], [-73.92843881814593, 40.71553094957593], [-73.92890601265071, 40.716618956809675], [-73.92827145107027, 40.717089728832356], [-73.92460339476078, 40.717953306073525], [-73.92305500014393, 40.71634266429097], [-73.92488553573651, 40.715267187653154], [-73.92433589757124, 40.71412259346656], [-73.92223466477681, 40.71285595386052], [-73.92154601695684, 40.71104328353501], [-73.92074853115804, 40.710533648958915], [-73.92189184698753, 40.70939609620843], [-73.93391870754871, 40.7074870261317], [-73.9328149496271, 40.70357711201952], [-73.9373179547826, 40.70271370228215], [-73.9366768400257, 40.70246531891978], [-73.93774265167002, 40.70197808565687], [-73.93607888693884, 40.70148024701381], [-73.93646091931822, 40.70064387664526], [-73.93581931527827, 40.7004756797794], [-73.93608563168463, 40.70004213334974], [-73.93555255008658, 40.70011068092663], [-73.93476154513415, 40.69870008529671], [-73.93414044724354, 40.69875216812115], [-73.93324669588054, 40.69785558976624], [-73.93409798856256, 40.6975969216001], [-73.93400832731106, 40.69711833858136], [-73.93522264436727, 40.69698654462934], [-73.9345601174396, 40.69555483174575], [-73.93748376644189, 40.695218432137885], [-73.93779110792102, 40.69668934223334], [-73.94352527471476, 40.69603085523831], [-73.94324249086142, 40.69455748523096], [-73.94607851790637, 40.69423024310366], [-73.94593170750511, 40.693497615584555], [-73.94876761636851, 40.69317120741131], [-73.94906040049318, 40.69463777791879], [-73.95234079123053, 40.694263047616204], [-73.95292439169575, 40.69720434481951], [-73.95658117239427, 40.69678454017006], [-73.95582662769675, 40.692992382882544], [-73.95899361250387, 40.69262783032544], [-73.95857844775968, 40.69054569435519], [-73.95992219528051, 40.6901844797167], [-73.96073858361359, 40.69242390480006], [-73.96189910446182, 40.692300672026086], [-73.96221329440365, 40.6938743549988], [-73.96688041964651, 40.69334171173064], [-73.96772744689757, 40.69771762431769], [-73.96972789882123, 40.69780401388017], [-73.96982556559531, 40.70024507036818], [-73.96948655218107, 40.700519060755745], [-73.97283890041014, 40.70334642809963], [-73.96924539273371, 40.70136474238644], [-73.96898517362928, 40.70174708878655], [-73.9723124627611, 40.703844539538764], [-73.97110342298832, 40.70345973583993], [-73.97101963184575, 40.70381561318411], [-73.9746556960806, 40.70607426249181], [-73.97439083502341, 40.70632577364232], [-73.97339230539568, 40.70573321113888], [-73.97254880057818, 40.70620449000396], [-73.97462966670466, 40.70768106076856], [-73.97423616968535, 40.70802438612255], [-73.9710965548913, 40.7058500560558], [-73.97105692306182, 40.706946433816846], [-73.97275756998377, 40.708831278547805], [-73.97232032139824, 40.7090828833044], [-73.97026218532285, 40.70688750428424], [-73.970180755728, 40.70492927056703], [-73.96751516691091, 40.70343735687828], [-73.9674767449303, 40.703949870956436], [-73.96929693837713, 40.70508833122986], [-73.9692929641454, 40.707093331095905], [-73.96994196698674, 40.70930205335414], [-73.96960541330377, 40.710270843372314], [-73.97006935142757, 40.71045413575363], [-73.96937430020651, 40.7110206660632], [-73.96990773093648, 40.71126812133642], [-73.96931038510066, 40.71110785237903], [-73.96846973347043, 40.712824709346336], [-73.96884924904191, 40.713212545458084], [-73.96659690332694, 40.71796798088782], [-73.96730741540469, 40.71831306668196], [-73.96656241897496, 40.71801586680643], [-73.96575996533477, 40.71868903477947], [-73.96663600829653, 40.71913014271283], [-73.96651453733277, 40.719430974242265], [-73.96574267076778, 40.718706877274535], [-73.96511950416225, 40.71922689399757], [-73.96511736823715, 40.720316338856485], [-73.96559823377457, 40.720744458402876], [-73.96438190889278, 40.72013942466061], [-73.96503100064521, 40.7207908413711], [-73.96427462497299, 40.720575767091496], [-73.96495059736691, 40.72142418160451], [-73.96420193098605, 40.72065389375459], [-73.9643750430115, 40.72099255076879], [-73.96296566403045, 40.722034476620486], [-73.96207271943885, 40.72388030040311], [-73.96247195112905, 40.72417498927368], [-73.96189426778245, 40.72410670210149], [-73.9619023964316, 40.7253205003087], [-73.95794183489497, 40.72464920270007], [-73.95842611909984, 40.72540053583256], [-73.96012497199304, 40.72531963663731], [-73.9602854494424, 40.72594812191056], [-73.96161518901998, 40.72586556307444], [-73.9610168813666, 40.72870444010192], [-73.96228520236957, 40.734047695374265], [-73.95982931147842, 40.73706090063335], [-73.95837507968858, 40.73809694936911], [-73.9569300293119, 40.73888707307195], [-73.95439555417087, 40.73911477252269]]]}, "properties": {"schooldist": "14"}}, {"type": "Feature", "geometry": {"type": "Polygon", "coordinates": [[[-73.9347969968421, 40.696736591852094], [-73.91679832884948, 40.68649719936943], [-73.91672692981572, 40.68613155557819], [-73.9178493747622, 40.68623316741207], [-73.91800616261635, 40.68582203262546], [-73.91630119861554, 40.67857711193164], [-73.91677231309316, 40.6733906930629], [-73.91721449620965, 40.67385599372014], [-73.9190782760815, 40.67397531376418], [-73.91954092546408, 40.67354187795412], [-73.9200025573228, 40.67398128283896], [-73.92550081512003, 40.673616887992544], [-73.92784085188026, 40.67399598368107], [-73.9282445167355, 40.672939336947806], [-73.92801317657924, 40.672209208172106], [-73.93754574483314, 40.672742485227175], [-73.93751992857378, 40.67422980176787], [-73.93889518673745, 40.674598733863235], [-73.93884149817444, 40.67549215171568], [-73.93843297207545, 40.67556514632788], [-73.93876783935562, 40.676272408885154], [-73.93843613326652, 40.67978585170418], [-73.93739763665229, 40.67972990017692], [-73.9377880157908, 40.681694331846046], [-73.93486257221258, 40.682030568700455], [-73.93515472960006, 40.683497184658634], [-73.93807695931454, 40.683160902989556], [-73.93895074350998, 40.68755641035293], [-73.9393856108258, 40.68787113499827], [-73.9413859614605, 40.68766826880507], [-73.94178527584324, 40.68722837212134], [-73.9423520278467, 40.6875915008222], [-73.94428391577274, 40.687385055816605], [-73.94462127912811, 40.68690436166435], [-73.94607851790637, 40.69423024310366], [-73.94324249086142, 40.69455748523096], [-73.94352527471476, 40.69603085523831], [-73.93779110792102, 40.69668934223334], [-73.93748376644189, 40.695218432137885], [-73.9345601174396, 40.69555483174575], [-73.9347969968421, 40.696736591852094]]]}, "properties": {"schooldist": "16"}}]}