{"type":"FeatureCollection","features":[{"type":"Feature","properties":{"nb":"Annadale","cd":null,"boro":"SI","nodata":true},"geometry":{"type":"Polygon","coordinates":[[[-74.169328,40.541246],[-74.16465,40.533745],[-74.159672,40.527336],[-74.162076,40.527156],[-74.170207,40.523062],[-74.171183,40.523595],[-74.172909,40.522838],[-74.1766,40.52646],[-74.183597,40.535882],[-74.186837,40.534903],[-74.187867,40.537773],[-74.186451,40.540414],[-74.1806522,40.546905],[-74.1760399,40.5547193],[-74.1747276,40.5495009],[-74.1752293,40.5467677],[-74.1708357,40.5450928],[-74.1717369,40.5424349],[-74.169328,40.541246]]]}},{"type":"Feature","properties":{"nb":"Arden Heights","cd":null,"boro":"SI","nodata":true},"geometry":{"type":"Polygon","coordinates":[[[-74.1994144,40.5603631],[-74.194822,40.564551],[-74.19302,40.56279],[-74.187612,40.563931],[-74.182677,40.565659],[-74.178865,40.564464],[-74.171933,40.561693],[-74.176454,40.554671],[-74.181131,40.546541],[-74.186872,40.540172],[-74.189763,40.5462],[-74.192269,40.546684],[-74.19451,40.54813],[-74.1931475,40.5488104],[-74.1901629,40.5516367],[-74.1994144,40.5603631]]]}},{"type":"Feature","properties":{"nb":"Arlington","cd":null,"boro":"SI","nodata":true},"geometry":{"type":"Polygon","coordinates":[[[-74.1605717,40.6268779],[-74.1666924,40.6280991],[-74.168382,40.621261],[-74.1954457,40.635134],[-74.1947166,40.6375114],[-74.1863268,40.6439755],[-74.1820561,40.6447732],[-74.1709839,40.6419076],[-74.1664349,40.6414517],[-74.1624008,40.6387814],[-74.1601003,40.6384075],[-74.1605717,40.6268779]]]}},{"type":"Feature","properties":{"nb":"Arrochar","cd":null,"boro":"SI","nodata":true},"geometry":{"type":"Polygon","coordinates":[[[-74.072888,40.596005],[-74.073532,40.59718],[-74.071947,40.599331],[-74.072286,40.601562],[-74.070124,40.602221],[-74.068081,40.603826],[-74.062805,40.602331],[-74.061358,40.599858],[-74.072888,40.596005]]]}},{"type":"Feature","properties":{"nb":"Bay Terrace","cd":null,"boro":"SI","nodata":true},"geometry":{"type":"Polygon","coordinates":[[[-74.1382156,40.5576381],[-74.1356408,40.5590087],[-74.1347179,40.5609241],[-74.132809,40.563589],[-74.129934,40.562057],[-74.128904,40.558422],[-74.127315,40.557345],[-74.137414,40.549601],[-74.142199,40.553041],[-74.1405792,40.5540023],[-74.140032,40.5550298],[-74.1398389,40.5559104],[-74.1382156,40.5576381]]]}},{"type":"Feature","properties":{"nb":"Bloomfield","cd":null,"boro":"SI","nodata":true},"geometry":{"type":"Polygon","coordinates":[[[-74.197393,40.63525],[-74.168382,40.621245],[-74.16981,40.612002],[-74.17101,40.607278],[-74.170279,40.60539],[-74.17285,40.604228],[-74.175036,40.602181],[-74.178253,40.599743],[-74.182888,40.602545],[-74.186203,40.601991],[-74.189346,40.602415],[-74.197221,40.600981],[-74.195934,40.603164],[-74.197136,40.605494],[-74.19868,40.606716],[-74.198423,40.609452],[-74.195333,40.613362],[-74.197307,40.616229],[-74.201427,40.617532],[-74.200912,40.6303],[-74.197393,40.63525]]]}},{"type":"Feature","properties":{"nb":"Brighton Heights","cd":null,"boro":"SI","nodata":true},"geometry":{"type":"Polygon","coordinates":[[[-74.0818695,40.6440308],[-74.0807585,40.6441393],[-74.0791063,40.6420083],[-74.0783231,40.6420989],[-74.0778833,40.6415544],[-74.0770656,40.6379058],[-74.0783719,40.6383483],[-74.0836505,40.6357918],[-74.0874,40.637846],[-74.0865095,40.6426206],[-74.0820889,40.6442005],[-74.0818695,40.6440308]]]}},{"type":"Feature","properties":{"nb":"Bull's Head","cd":null,"boro":"SI","nodata":true},"geometry":{"type":"Polygon","coordinates":[[[-74.150741,40.609691],[-74.157651,40.608258],[-74.15984,40.604316],[-74.161384,40.604609],[-74.162715,40.601025],[-74.1622,40.596169],[-74.163015,40.593302],[-74.168036,40.594019],[-74.167693,40.595909],[-74.168208,40.596169],[-74.16692,40.602035],[-74.171233,40.602442],[-74.172658,40.603068],[-74.174779,40.602375],[-74.172725,40.604116],[-74.170279,40.60539],[-74.170866,40.607208],[-74.169552,40.612278],[-74.167865,40.620572],[-74.164088,40.619008],[-74.156921,40.614513],[-74.150741,40.609691]]]}},{"type":"Feature","properties":{"nb":"Castleton Corners","cd":null,"boro":"SI","nodata":true},"geometry":{"type":"Polygon","coordinates":[[[-74.12307,40.627293],[-74.121697,40.623417],[-74.119895,40.621625],[-74.118092,40.618302],[-74.114702,40.618889],[-74.113972,40.614035],[-74.11692,40.613541],[-74.116878,40.611375],[-74.1249929,40.6092319],[-74.1248837,40.6129517],[-74.130752,40.612536],[-74.132254,40.623449],[-74.131353,40.62625],[-74.129679,40.626316],[-74.12307,40.627293]]]}},{"type":"Feature","properties":{"nb":"Charleston","cd":null,"boro":"SI","nodata":true},"geometry":{"type":"Polygon","coordinates":[[[-74.218511,40.554785],[-74.217395,40.552372],[-74.222888,40.544938],[-74.224348,40.5391],[-74.224605,40.533262],[-74.224573,40.526194],[-74.233445,40.525433],[-74.243659,40.525303],[-74.241428,40.532218],[-74.243058,40.535806],[-74.245977,40.536588],[-74.246492,40.537697],[-74.244775,40.538872],[-74.247608,40.543437],[-74.244174,40.547612],[-74.243144,40.54709],[-74.236106,40.550481],[-74.236192,40.552242],[-74.23499,40.553155],[-74.233789,40.552568],[-74.230871,40.554981],[-74.226064,40.556416],[-74.218511,40.554785]]]}},{"type":"Feature","properties":{"nb":"Clifton","cd":null,"boro":"SI","nodata":true},"geometry":{"type":"Polygon","coordinates":[[[-74.074554,40.617118],[-74.0767216,40.6142513],[-74.0807552,40.6174835],[-74.080972,40.617912],[-74.074264,40.621635],[-74.072686,40.622378],[-74.071098,40.622867],[-74.069833,40.621304],[-74.071957,40.619113],[-74.074554,40.617118]]]}},{"type":"Feature","properties":{"nb":"Clove Lakes Park","cd":null,"boro":"SI","nodata":true},"geometry":{"type":"Polygon","coordinates":[[[-74.12307,40.627293],[-74.121013,40.627677],[-74.1169792,40.6242884],[-74.1129023,40.6216499],[-74.107282,40.619706],[-74.105566,40.61868],[-74.1038901,40.6163402],[-74.1061217,40.6155909],[-74.1107994,40.6144833],[-74.113972,40.614035],[-74.114702,40.618889],[-74.118092,40.618302],[-74.119895,40.621625],[-74.121697,40.623417],[-74.12307,40.627293]]]}},{"type":"Feature","properties":{"nb":"Concord","cd":null,"boro":"SI","nodata":true},"geometry":{"type":"Polygon","coordinates":[[[-74.0831372,40.6062392],[-74.0855834,40.603763],[-74.0867898,40.6035574],[-74.0879101,40.6025209],[-74.0893785,40.6015559],[-74.0895716,40.6008879],[-74.0915486,40.599576],[-74.092906,40.601214],[-74.092413,40.604293],[-74.092606,40.606786],[-74.0909907,40.6087968],[-74.0831372,40.6062392]]]}},{"type":"Feature","properties":{"nb":"Dongan Hills","cd":null,"boro":"SI","nodata":true},"geometry":{"type":"Polygon","coordinates":[[[-74.093434,40.59701],[-74.089872,40.596049],[-74.087576,40.596049],[-74.0841089,40.5954525],[-74.0818345,40.5922285],[-74.0844764,40.5896075],[-74.088489,40.584833],[-74.0904296,40.5856209],[-74.0961805,40.579656],[-74.105249,40.5860008],[-74.101103,40.590209],[-74.101008,40.592236],[-74.1003,40.593524],[-74.097296,40.59543],[-74.095,40.596326],[-74.094249,40.59644],[-74.093434,40.59701]]]}},{"type":"Feature","properties":{"nb":"Dongan Hills Colony","cd":null,"boro":"SI","nodata":true},"geometry":{"type":"Polygon","coordinates":[[[-74.10194,40.601605],[-74.0994081,40.6024034],[-74.0983448,40.6017572],[-74.0969827,40.6021263],[-74.0929167,40.6018331],[-74.092906,40.601214],[-74.0917358,40.5994274],[-74.0930721,40.5970669],[-74.097296,40.59543],[-74.1001472,40.5937086],[-74.1008124,40.5927473],[-74.1031942,40.5942952],[-74.1049224,40.5964005],[-74.1028035,40.5982528],[-74.1034849,40.5990069],[-74.1028356,40.5995237],[-74.1034415,40.6004156],[-74.102369,40.601051],[-74.10194,40.601605]]]}},{"type":"Feature","properties":{"nb":"Egbertville","cd":null,"boro":"SI","nodata":true},"geometry":{"type":"Polygon","coordinates":[[[-74.1233411,40.5787026],[-74.1206375,40.5806909],[-74.1196075,40.5809028],[-74.1190067,40.5807072],[-74.1182986,40.5781811],[-74.1176978,40.5777085],[-74.1185184,40.5766621],[-74.1218871,40.5751134],[-74.1229384,40.5757491],[-74.1269889,40.5765514],[-74.1266885,40.5786375],[-74.1274181,40.5800064],[-74.1284051,40.5813102],[-74.1296871,40.5821959],[-74.1274395,40.5835591],[-74.1268602,40.5833309],[-74.1254225,40.5845695],[-74.1242883,40.5838584],[-74.1251865,40.5824021],[-74.1256187,40.5796539],[-74.1233411,40.5787026]]]}},{"type":"Feature","properties":{"nb":"Eltingville","cd":null,"boro":"SI","nodata":true},"geometry":{"type":"Polygon","coordinates":[[[-74.171269,40.561562],[-74.164745,40.5599],[-74.163029,40.560878],[-74.159767,40.553118],[-74.160454,40.550053],[-74.15848,40.545487],[-74.151356,40.53841],[-74.14612,40.535557],[-74.148266,40.534774],[-74.149704,40.533975],[-74.149704,40.533502],[-74.150819,40.532588],[-74.15127,40.532768],[-74.159295,40.527761],[-74.16465,40.533745],[-74.169328,40.541246],[-74.1716077,40.5424225],[-74.170626,40.5451318],[-74.1750414,40.5468211],[-74.1747276,40.5495009],[-74.1754934,40.5526505],[-74.175873,40.5551807],[-74.171269,40.561562]]]}},{"type":"Feature","properties":{"nb":"Emerson Hill","cd":null,"boro":"SI","nodata":true},"geometry":{"type":"Polygon","coordinates":[[[-74.091211,40.609001],[-74.091404,40.608398],[-74.092606,40.606786],[-74.092413,40.604293],[-74.0929167,40.6018331],[-74.0969827,40.6021263],[-74.0982386,40.6018575],[-74.0994081,40.6024034],[-74.100481,40.602159],[-74.1006739,40.6025743],[-74.100266,40.60312],[-74.100738,40.603153],[-74.101039,40.604146],[-74.10091,40.604342],[-74.101661,40.604374],[-74.102262,40.604179],[-74.101532,40.606166],[-74.101403,40.607502],[-74.101854,40.608317],[-74.103871,40.610011],[-74.095331,40.610353],[-74.093099,40.609848],[-74.091211,40.609001]]]}},{"type":"Feature","properties":{"nb":"Fort Wadsworth","cd":null,"boro":"SI","nodata":true},"geometry":{"type":"Polygon","coordinates":[[[-74.0568102,40.6078981],[-74.056713,40.607482],[-74.055705,40.606586],[-74.053838,40.605918],[-74.05358,40.605365],[-74.054052,40.604908],[-74.053065,40.601585],[-74.053516,40.600624],[-74.052765,40.600005],[-74.054975,40.59849],[-74.059631,40.594074],[-74.060018,40.594253],[-74.063665,40.599011],[-74.061155,40.599809],[-74.062078,40.601096],[-74.0625599,40.602359],[-74.0654354,40.6030595],[-74.0655565,40.6040123],[-74.0604469,40.6064638],[-74.0568102,40.6078981]]]}},{"type":"Feature","properties":{"nb":"Freshkills Park","cd":null,"boro":"SI","nodata":true},"geometry":{"type":"Polygon","coordinates":[[[-74.189465,40.585749],[-74.186204,40.588535],[-74.186461,40.589611],[-74.184294,40.591794],[-74.185066,40.592283],[-74.18174,40.595037],[-74.181504,40.594809],[-74.179337,40.59691],[-74.180303,40.597725],[-74.180088,40.598312],[-74.174638,40.602336],[-74.172664,40.60302],[-74.171205,40.602368],[-74.169445,40.602271],[-74.1676,40.601847],[-74.168544,40.595884],[-74.168201,40.595754],[-74.168458,40.594026],[-74.163394,40.593147],[-74.163652,40.592593],[-74.169102,40.587932],[-74.170261,40.571277],[-74.16966,40.567137],[-74.169874,40.561431],[-74.182449,40.56593],[-74.192963,40.563094],[-74.195323,40.565246],[-74.203477,40.557193],[-74.206996,40.55804],[-74.213562,40.556736],[-74.211116,40.560747],[-74.211374,40.563224],[-74.208241,40.570918],[-74.206267,40.571766],[-74.201374,40.57232],[-74.1994,40.573428],[-74.198499,40.575254],[-74.198242,40.577698],[-74.198027,40.57822],[-74.197426,40.578187],[-74.191547,40.575971],[-74.19013,40.576557],[-74.186654,40.57672],[-74.184552,40.573982],[-74.182706,40.573037],[-74.179917,40.571961],[-74.178028,40.57069],[-74.176784,40.568962],[-74.176097,40.567495],[-74.174938,40.566615],[-74.174638,40.566061],[-74.173179,40.565735],[-74.171033,40.566419],[-74.171162,40.567137],[-74.173908,40.566941],[-74.175239,40.567626],[-74.175754,40.568799],[-74.176054,40.570136],[-74.177127,40.57144],[-74.17893,40.572613],[-74.183393,40.574243],[-74.184165,40.575971],[-74.185109,40.576753],[-74.184766,40.577046],[-74.180646,40.576949],[-74.178672,40.579263],[-74.178028,40.580469],[-74.179058,40.582587],[-74.18129,40.584836],[-74.181204,40.585879],[-74.179702,40.586433],[-74.17541,40.587183],[-74.180002,40.587183],[-74.179359,40.587965],[-74.177256,40.58878],[-74.17481,40.590442],[-74.173608,40.59054],[-74.173436,40.591354],[-74.176269,40.590898],[-74.176784,40.58992],[-74.177642,40.589823],[-74.178758,40.589366],[-74.180217,40.590637],[-74.179831,40.592951],[-74.177599,40.593929],[-74.176827,40.593766],[-74.177342,40.594613],[-74.179316,40.59445],[-74.180732,40.593603],[-74.18099,40.592625],[-74.181676,40.591322],[-74.180389,40.589138],[-74.180217,40.588291],[-74.181547,40.587606],[-74.182921,40.586205],[-74.183264,40.584999],[-74.18305,40.584054],[-74.181633,40.582001],[-74.180689,40.581414],[-74.180002,40.580306],[-74.180346,40.578774],[-74.181977,40.577764],[-74.185882,40.57822],[-74.183264,40.579295],[-74.181032,40.579817],[-74.184766,40.585912],[-74.189465,40.585749]]]}},{"type":"Feature","properties":{"nb":"Graniteville","cd":null,"boro":"SI","nodata":true},"geometry":{"type":"Polygon","coordinates":[[[-74.146135,40.624588],[-74.151028,40.61879],[-74.152701,40.616412],[-74.153388,40.614066],[-74.153731,40.612111],[-74.158666,40.616216],[-74.164632,40.619538],[-74.168382,40.621261],[-74.167078,40.62348],[-74.166494,40.627382],[-74.14901,40.624848],[-74.146135,40.624588]]]}},{"type":"Feature","properties":{"nb":"Grant City","cd":null,"boro":"SI","nodata":true},"geometry":{"type":"Polygon","coordinates":[[[-74.098618,40.5813894],[-74.102073,40.578765],[-74.105589,40.574522],[-74.114604,40.579254],[-74.112544,40.58108],[-74.110398,40.582025],[-74.105249,40.5860008],[-74.098618,40.5813894]]]}},{"type":"Feature","properties":{"nb":"Grasmere","cd":null,"boro":"SI","nodata":true},"geometry":{"type":"Polygon","coordinates":[[[-74.0831157,40.6061252],[-74.0749833,40.6057342],[-74.068081,40.603826],[-74.070124,40.602221],[-74.0726229,40.6017266],[-74.0722796,40.5992176],[-74.0732238,40.5980445],[-74.0746829,40.5978816],[-74.0769574,40.5986636],[-74.0815493,40.5988591],[-74.084886,40.5975069],[-74.08589,40.595924],[-74.087576,40.596049],[-74.0867206,40.5983214],[-74.0882857,40.601185],[-74.0894866,40.6008817],[-74.0893785,40.6015559],[-74.087934,40.6024711],[-74.0867898,40.6035574],[-74.0852816,40.6037266],[-74.0831157,40.6061252]]]}},{"type":"Feature","properties":{"nb":"Great Kills","cd":null,"boro":"SI","nodata":true},"geometry":{"type":"Polygon","coordinates":[[[-74.163029,40.560878],[-74.15694,40.562578],[-74.155396,40.564892],[-74.152864,40.566816],[-74.1471346,40.5612166],[-74.1447529,40.5622517],[-74.142843,40.5602304],[-74.1411478,40.5592524],[-74.140547,40.5598392],[-74.1388732,40.5596434],[-74.137661,40.5582084],[-74.1398389,40.5559104],[-74.1405792,40.5540023],[-74.142199,40.553041],[-74.137414,40.549601],[-74.138637,40.54841],[-74.136706,40.54616],[-74.141641,40.542442],[-74.142371,40.541562],[-74.14177,40.538725],[-74.142242,40.537714],[-74.14612,40.535557],[-74.15104,40.538398],[-74.15848,40.545487],[-74.160454,40.550053],[-74.159767,40.553118],[-74.163029,40.560878]]]}},{"type":"Feature","properties":{"nb":"Great Kills Park","cd":null,"boro":"SI","nodata":true},"geometry":{"type":"Polygon","coordinates":[[[-74.120385,40.556873],[-74.118818,40.555275],[-74.119428,40.554457],[-74.118647,40.552471],[-74.119527,40.551721],[-74.116415,40.549015],[-74.114892,40.549862],[-74.114236,40.549224],[-74.112467,40.548248],[-74.112777,40.54774],[-74.11342,40.548066],[-74.114558,40.548115],[-74.115287,40.547707],[-74.116317,40.548034],[-74.118527,40.547104],[-74.119686,40.545539],[-74.121682,40.545441],[-74.12299,40.544642],[-74.126295,40.540745],[-74.131702,40.533358],[-74.13653,40.529574],[-74.137024,40.529443],[-74.137432,40.5299],[-74.13859,40.530014],[-74.139191,40.531776],[-74.14035,40.53357],[-74.140714,40.534776],[-74.140264,40.535494],[-74.137217,40.5352],[-74.134857,40.535282],[-74.133676,40.535706],[-74.127625,40.541152],[-74.127325,40.542555],[-74.127647,40.543386],[-74.129449,40.545571],[-74.130737,40.546322],[-74.132775,40.546843],[-74.134728,40.546729],[-74.13638,40.546191],[-74.138637,40.54841],[-74.137414,40.549601],[-74.134835,40.550985],[-74.13299,40.552354],[-74.12711,40.557376],[-74.123861,40.555634],[-74.124171,40.555354],[-74.123377,40.554832],[-74.120385,40.556873]]]}},{"type":"Feature","properties":{"nb":"Grymes Hill","cd":null,"boro":"SI","nodata":true},"geometry":{"type":"Polygon","coordinates":[[[-74.097673,40.618672],[-74.0950445,40.6194786],[-74.0948478,40.6202436],[-74.094365,40.6206221],[-74.0939681,40.6206586],[-74.0927638,40.6228715],[-74.0934102,40.6232804],[-74.0919619,40.6243318],[-74.0885501,40.6242503],[-74.0884548,40.6258418],[-74.0889141,40.627409],[-74.0883368,40.6288875],[-74.0869614,40.6301781],[-74.0851769,40.6293411],[-74.0845134,40.6295968],[-74.0832277,40.6287939],[-74.083952,40.627384],[-74.084166,40.626097],[-74.0850521,40.6245595],[-74.086291,40.617622],[-74.087857,40.615293],[-74.087094,40.613394],[-74.089991,40.609404],[-74.094411,40.610804],[-74.097995,40.610951],[-74.099154,40.612401],[-74.097973,40.612841],[-74.097823,40.613785],[-74.09733,40.614307],[-74.097372,40.614926],[-74.097158,40.615317],[-74.097673,40.618672]]]}},{"type":"Feature","properties":{"nb":"Heartland Village","cd":null,"boro":"SI","nodata":true},"geometry":{"type":"Polygon","coordinates":[[[-74.167666,40.588966],[-74.163068,40.592755],[-74.162038,40.595883],[-74.159892,40.596535],[-74.155343,40.595427],[-74.145387,40.589692],[-74.142297,40.589431],[-74.142039,40.588779],[-74.145988,40.588649],[-74.146074,40.585716],[-74.152645,40.580623],[-74.167666,40.588966]]]}},{"type":"Feature","properties":{"nb":"Huguenot North","cd":null,"boro":"SI","nodata":true},"geometry":{"type":"Polygon","coordinates":[[[-74.211373,40.557225],[-74.2073605,40.5577662],[-74.204056,40.556788],[-74.2022442,40.5532022],[-74.200527,40.550365],[-74.1990256,40.5468766],[-74.19451,40.54813],[-74.192269,40.546684],[-74.189763,40.5462],[-74.186872,40.540172],[-74.1883061,40.5382003],[-74.1936276,40.5350366],[-74.198134,40.533482],[-74.202158,40.542506],[-74.203799,40.541896],[-74.20439,40.543909],[-74.205978,40.543615],[-74.206795,40.544907],[-74.211373,40.557225]]]}},{"type":"Feature","properties":{"nb":"Huguenot Park","cd":null,"boro":"SI","nodata":true},"geometry":{"type":"Polygon","coordinates":[[[-74.197843,40.533326],[-74.1932851,40.5349552],[-74.1883498,40.5379232],[-74.186762,40.5346616],[-74.183597,40.535882],[-74.1766,40.52646],[-74.172909,40.522838],[-74.1777068,40.5193955],[-74.1804534,40.5207331],[-74.1812688,40.5207657],[-74.1851741,40.5192976],[-74.186449,40.518288],[-74.190161,40.522447],[-74.1881352,40.5233429],[-74.191041,40.52677],[-74.193316,40.526118],[-74.1956454,40.5300626],[-74.196796,40.531095],[-74.197843,40.533326]]]}},{"type":"Feature","properties":{"nb":"Latourette Park","cd":null,"boro":"SI","nodata":true},"geometry":{"type":"Polygon","coordinates":[[[-74.116805,40.601749],[-74.115003,40.602335],[-74.1149113,40.601684],[-74.112711,40.599854],[-74.111896,40.59847],[-74.111316,40.598242],[-74.1114781,40.5968941],[-74.110158,40.594999],[-74.110716,40.592946],[-74.1109202,40.5908328],[-74.111445,40.589329],[-74.111188,40.588449],[-74.110544,40.587504],[-74.110501,40.586037],[-74.1134093,40.5818703],[-74.1143105,40.579768],[-74.115922,40.578422],[-74.117295,40.578031],[-74.118067,40.578161],[-74.1189668,40.5811206],[-74.1205976,40.580811],[-74.1231296,40.5789531],[-74.1256187,40.5796539],[-74.1255758,40.5805665],[-74.1242883,40.5838584],[-74.1254256,40.5846732],[-74.12693,40.583451],[-74.1275928,40.583777],[-74.129848,40.58231],[-74.1303179,40.5827829],[-74.13135,40.582147],[-74.133196,40.582147],[-74.1354892,40.5809577],[-74.13693,40.578269],[-74.1436646,40.5767693],[-74.143109,40.574227],[-74.1448019,40.5740801],[-74.143955,40.570582],[-74.144384,40.569767],[-74.14653,40.570566],[-74.147174,40.570549],[-74.148848,40.571299],[-74.149641,40.571413],[-74.151787,40.57024],[-74.151894,40.569359],[-74.150671,40.56874],[-74.155638,40.564773],[-74.15694,40.562578],[-74.1632125,40.5609422],[-74.164745,40.5599],[-74.1696928,40.5612682],[-74.1694567,40.5708529],[-74.1525695,40.5804851],[-74.1458318,40.5857651],[-74.145746,40.5885679],[-74.1418407,40.5886982],[-74.1422055,40.5895293],[-74.1452954,40.58979],[-74.1456602,40.5900507],[-74.145524,40.591348],[-74.1439435,40.5933258],[-74.142824,40.592649],[-74.1418802,40.5938751],[-74.1402314,40.5932769],[-74.1374419,40.5942057],[-74.1361303,40.5927955],[-74.1312192,40.5988166],[-74.1252754,40.5981242],[-74.1240308,40.5986374],[-74.1226683,40.5995823],[-74.1207478,40.6005599],[-74.1199968,40.6006902],[-74.1196749,40.5982464],[-74.117615,40.5982301],[-74.117615,40.598947],[-74.1165206,40.5988818],[-74.116805,40.601749]]]}},{"type":"Feature","properties":{"nb":"Lighthouse Hill","cd":null,"boro":"SI","nodata":true},"geometry":{"type":"Polygon","coordinates":[[[-74.1281748,40.5808275],[-74.1271872,40.5795728],[-74.126822,40.578585],[-74.127274,40.575433],[-74.13281,40.573379],[-74.144225,40.57201],[-74.144568,40.574031],[-74.143109,40.574227],[-74.143496,40.576737],[-74.13693,40.578269],[-74.135342,40.580974],[-74.133196,40.582147],[-74.13135,40.582147],[-74.130278,40.582669],[-74.1281748,40.5808275]]]}},{"type":"Feature","properties":{"nb":"Livingston","cd":null,"boro":"SI","nodata":true},"geometry":{"type":"Polygon","coordinates":[[[-74.1071785,40.6442528],[-74.1066046,40.644204],[-74.1056072,40.6389944],[-74.1108858,40.6378709],[-74.1126453,40.637708],[-74.1138684,40.6435208],[-74.1113149,40.6451164],[-74.1092336,40.645556],[-74.1080963,40.6455723],[-74.1071785,40.6442528]]]}},{"type":"Feature","properties":{"nb":"Manor Heights","cd":null,"boro":"SI","nodata":true},"geometry":{"type":"Polygon","coordinates":[[[-74.117234,40.610741],[-74.115003,40.602335],[-74.116805,40.601749],[-74.116719,40.599012],[-74.117835,40.599142],[-74.118007,40.598295],[-74.119552,40.59836],[-74.119895,40.600836],[-74.120839,40.600706],[-74.125217,40.598295],[-74.131311,40.598946],[-74.131023,40.600486],[-74.131344,40.60174],[-74.13143,40.603924],[-74.132052,40.607769],[-74.123984,40.608778],[-74.117234,40.610741]]]}},{"type":"Feature","properties":{"nb":"Mariners Harbor","cd":null,"boro":"SI","nodata":true},"geometry":{"type":"Polygon","coordinates":[[[-74.144093,40.63883],[-74.14693,40.631299],[-74.145945,40.627664],[-74.145733,40.62481],[-74.149071,40.625086],[-74.1605717,40.6268779],[-74.1601003,40.6384075],[-74.153792,40.637398],[-74.145638,40.639319],[-74.144093,40.63883]]]}},{"type":"Feature","properties":{"nb":"Meier's Corners","cd":null,"boro":"SI","nodata":true},"geometry":{"type":"Polygon","coordinates":[[[-74.1486618,40.609527],[-74.1370735,40.6118915],[-74.1248837,40.6129517],[-74.1249929,40.6092319],[-74.1303583,40.6081569],[-74.1355302,40.6078467],[-74.1370749,40.6079933],[-74.14229,40.6077656],[-74.1474976,40.6087391],[-74.1486618,40.609527]]]}},{"type":"Feature","properties":{"nb":"Midland Beach","cd":null,"boro":"SI","nodata":true},"geometry":{"type":"Polygon","coordinates":[[[-74.091213,40.567024],[-74.105589,40.574522],[-74.103916,40.576609],[-74.101513,40.578988],[-74.098508,40.581073],[-74.0961268,40.5794923],[-74.0903011,40.5855064],[-74.075741,40.578508],[-74.078939,40.575859],[-74.080913,40.574816],[-74.086278,40.570024],[-74.086878,40.569176],[-74.089196,40.567155],[-74.091213,40.567024]]]}},{"type":"Feature","properties":{"nb":"New Brighton","cd":null,"boro":"SI","nodata":true},"geometry":{"type":"Polygon","coordinates":[[[-74.092603,40.635558],[-74.093633,40.637252],[-74.095607,40.644807],[-74.088998,40.646891],[-74.0864451,40.6435731],[-74.087539,40.637903],[-74.089771,40.635493],[-74.092603,40.635558]]]}},{"type":"Feature","properties":{"nb":"New Dorp","cd":null,"boro":"SI","nodata":true},"geometry":{"type":"Polygon","coordinates":[[[-74.11639,40.564088],[-74.128324,40.571023],[-74.130727,40.573043],[-74.130941,40.573988],[-74.127274,40.575433],[-74.127166,40.576466],[-74.1254272,40.5759282],[-74.1230994,40.5757898],[-74.1218871,40.5751134],[-74.1184858,40.5765887],[-74.117295,40.578031],[-74.115922,40.578422],[-74.114902,40.579216],[-74.106266,40.57438],[-74.11639,40.564088]]]}},{"type":"Feature","properties":{"nb":"New Dorp Beach","cd":null,"boro":"SI","nodata":true},"geometry":{"type":"Polygon","coordinates":[[[-74.105876,40.574324],[-74.091213,40.567024],[-74.093946,40.562914],[-74.095576,40.563305],[-74.101928,40.556262],[-74.109309,40.559914],[-74.11639,40.564088],[-74.105876,40.574324]]]}},{"type":"Feature","properties":{"nb":"New Springville","cd":null,"boro":"SI","nodata":true},"geometry":{"type":"Polygon","coordinates":[[[-74.167666,40.588966],[-74.152645,40.580623],[-74.169897,40.570909],[-74.168696,40.587728],[-74.167666,40.588966]]]}},{"type":"Feature","properties":{"nb":"Oakwood","cd":null,"boro":"SI","nodata":true},"geometry":{"type":"Polygon","coordinates":[[[-74.12296,40.567958],[-74.111952,40.561487],[-74.110493,40.560394],[-74.103348,40.556922],[-74.101502,40.555675],[-74.102725,40.55614],[-74.103498,40.555618],[-74.105214,40.55314],[-74.106609,40.554183],[-74.107532,40.554183],[-74.110235,40.551689],[-74.112467,40.548248],[-74.114892,40.549862],[-74.116415,40.549015],[-74.119527,40.551721],[-74.118647,40.552471],[-74.119333,40.554314],[-74.118818,40.555275],[-74.120385,40.556873],[-74.123346,40.554982],[-74.124011,40.555341],[-74.123861,40.555634],[-74.127208,40.557542],[-74.127573,40.557493],[-74.128904,40.558422],[-74.129934,40.562057],[-74.132809,40.563589],[-74.132027,40.565221],[-74.13176,40.566984],[-74.13175,40.568909],[-74.132127,40.570574],[-74.13091,40.572929],[-74.128158,40.570802],[-74.12296,40.567958]]]}},{"type":"Feature","properties":{"nb":"Ocean Breeze","cd":null,"boro":"SI","nodata":true},"geometry":{"type":"Polygon","coordinates":[[[-74.0817727,40.5919539],[-74.0803565,40.5900637],[-74.0787351,40.5890918],[-74.0692394,40.5849208],[-74.0709581,40.5833174],[-74.0715374,40.5822256],[-74.075741,40.578508],[-74.088489,40.584833],[-74.0844764,40.5896075],[-74.0817727,40.5919539]]]}},{"type":"Feature","properties":{"nb":"Old Town","cd":null,"boro":"SI","nodata":true},"geometry":{"type":"Polygon","coordinates":[[[-74.0883202,40.6010647],[-74.0867967,40.598295],[-74.087576,40.596049],[-74.089872,40.596049],[-74.0930623,40.5969916],[-74.0918392,40.5986453],[-74.0916568,40.5992644],[-74.0896613,40.6007796],[-74.0883202,40.6010647]]]}},{"type":"Feature","properties":{"nb":"Park Hill","cd":null,"boro":"SI","nodata":true},"geometry":{"type":"Polygon","coordinates":[[[-74.089991,40.609404],[-74.087192,40.61272],[-74.0810888,40.6177283],[-74.0770553,40.6142263],[-74.080274,40.609046],[-74.082591,40.606684],[-74.089991,40.609404]]]}},{"type":"Feature","properties":{"nb":"Pleasant Plains","cd":null,"boro":"SI","nodata":true},"geometry":{"type":"Polygon","coordinates":[[[-74.227748,40.525656],[-74.220024,40.526766],[-74.210847,40.529477],[-74.210846,40.528156],[-74.209756,40.525305],[-74.210197,40.524652],[-74.209639,40.523339],[-74.209864,40.522255],[-74.209574,40.5213],[-74.205562,40.512346],[-74.213672,40.506505],[-74.214402,40.50657],[-74.217449,40.503437],[-74.221869,40.502295],[-74.22335,40.502361],[-74.223682,40.503267],[-74.223783,40.508626],[-74.225333,40.512374],[-74.226518,40.516204],[-74.227232,40.519356],[-74.227748,40.525656]]]}},{"type":"Feature","properties":{"nb":"Port Richmond","cd":null,"boro":"SI","nodata":true},"geometry":{"type":"Polygon","coordinates":[[[-74.145733,40.62481],[-74.145552,40.627513],[-74.146496,40.631274],[-74.143329,40.639987],[-74.131656,40.642137],[-74.129682,40.640443],[-74.1273215,40.6402154],[-74.125992,40.6338],[-74.1234166,40.6294683],[-74.121013,40.627677],[-74.130455,40.626439],[-74.134145,40.626504],[-74.13715,40.624289],[-74.145733,40.62481]]]}},{"type":"Feature","properties":{"nb":"Prince's Bay","cd":null,"boro":"SI","nodata":true},"geometry":{"type":"Polygon","coordinates":[[[-74.191041,40.52677],[-74.188509,40.523279],[-74.190161,40.522447],[-74.186449,40.518288],[-74.195247,40.509903],[-74.196406,40.509773],[-74.197993,40.510849],[-74.199667,40.511502],[-74.20001,40.51297],[-74.205203,40.51222],[-74.208622,40.519011],[-74.209731,40.522178],[-74.209639,40.523323],[-74.210197,40.524636],[-74.209639,40.52515],[-74.210846,40.52814],[-74.210847,40.529461],[-74.197843,40.533326],[-74.196796,40.531095],[-74.195247,40.529184],[-74.193316,40.526118],[-74.191041,40.52677]]]}},{"type":"Feature","properties":{"nb":"Randall Manor","cd":null,"boro":"SI","nodata":true},"geometry":{"type":"Polygon","coordinates":[[[-74.1054568,40.6389288],[-74.1066046,40.644204],[-74.1071785,40.6442528],[-74.1077095,40.6452134],[-74.103418,40.645458],[-74.099813,40.644546],[-74.095607,40.644807],[-74.093633,40.637252],[-74.092603,40.635558],[-74.093719,40.635102],[-74.095779,40.635754],[-74.097324,40.634125],[-74.098869,40.633995],[-74.1026401,40.6346995],[-74.110059,40.6347932],[-74.1108421,40.6377404],[-74.1054568,40.6389288]]]}},{"type":"Feature","properties":{"nb":"Richmond Town","cd":null,"boro":"SI","nodata":true},"geometry":{"type":"Polygon","coordinates":[[[-74.1340418,40.5622275],[-74.1357989,40.5591258],[-74.1375021,40.5582893],[-74.1386341,40.5597138],[-74.1405975,40.5599542],[-74.141133,40.5593589],[-74.142847,40.5604227],[-74.1446898,40.5623994],[-74.147002,40.561397],[-74.152864,40.566816],[-74.150671,40.56874],[-74.151894,40.569359],[-74.151787,40.57024],[-74.149641,40.571413],[-74.148848,40.571299],[-74.147174,40.570549],[-74.14653,40.570566],[-74.144384,40.569767],[-74.143955,40.570582],[-74.144225,40.57201],[-74.132647,40.573369],[-74.130941,40.573988],[-74.130855,40.57319],[-74.132036,40.57112],[-74.132127,40.570574],[-74.131832,40.568512],[-74.132245,40.565007],[-74.132809,40.563589],[-74.1340418,40.5622275]]]}},{"type":"Feature","properties":{"nb":"Richmond Valley","cd":null,"boro":"SI","nodata":true},"geometry":{"type":"Polygon","coordinates":[[[-74.243606,40.525015],[-74.2341,40.525292],[-74.227878,40.525716],[-74.22732,40.519599],[-74.226826,40.516989],[-74.225333,40.512374],[-74.223779,40.508457],[-74.223822,40.503041],[-74.223393,40.502225],[-74.224723,40.501703],[-74.227062,40.502356],[-74.228107,40.502222],[-74.232657,40.516251],[-74.234245,40.517613],[-74.234835,40.519571],[-74.239974,40.520125],[-74.239953,40.520346],[-74.240629,40.52055],[-74.241047,40.52108],[-74.242131,40.52099],[-74.243086,40.521178],[-74.242582,40.522344],[-74.242796,40.522792],[-74.24285,40.523755],[-74.243606,40.525015]]]}},{"type":"Feature","properties":{"nb":"Rosebank","cd":null,"boro":"SI","nodata":true},"geometry":{"type":"Polygon","coordinates":[[[-74.0743487,40.6062365],[-74.081282,40.606586],[-74.079566,40.608932],[-74.076154,40.614699],[-74.074523,40.616913],[-74.07192,40.618962],[-74.069833,40.621304],[-74.066154,40.618852],[-74.064974,40.6175],[-74.0619697,40.6149347],[-74.0599957,40.612011],[-74.0633688,40.6103638],[-74.0627185,40.6093436],[-74.0635205,40.6086554],[-74.0670082,40.6070101],[-74.0681507,40.6066762],[-74.0687245,40.6055847],[-74.0690032,40.6044688],[-74.0743487,40.6062365]]]}},{"type":"Feature","properties":{"nb":"Rossville","cd":null,"boro":"SI","nodata":true},"geometry":{"type":"Polygon","coordinates":[[[-74.221859,40.53982],[-74.223833,40.540242],[-74.22276,40.54432],[-74.220013,40.54882],[-74.216966,40.552456],[-74.218383,40.554918],[-74.214428,40.556463],[-74.211373,40.557225],[-74.206795,40.544907],[-74.208941,40.54432],[-74.211924,40.543814],[-74.212082,40.541407],[-74.217811,40.541065],[-74.217782,40.540228],[-74.221859,40.53982]]]}},{"type":"Feature","properties":{"nb":"Sandy Ground","cd":null,"boro":"SI","nodata":true},"geometry":{"type":"Polygon","coordinates":[[[-74.223531,40.540142],[-74.221599,40.53962],[-74.21748,40.540109],[-74.217811,40.541065],[-74.212082,40.541407],[-74.211352,40.535536],[-74.208305,40.536123],[-74.206622,40.531205],[-74.223316,40.526475],[-74.224003,40.537108],[-74.223531,40.540142]]]}},{"type":"Feature","properties":{"nb":"Shore Acres","cd":null,"boro":"SI","nodata":true},"geometry":{"type":"Polygon","coordinates":[[[-74.0625987,40.6093317],[-74.0633389,40.6103373],[-74.0603559,40.6117094],[-74.059498,40.611767],[-74.059004,40.610968],[-74.058983,40.610366],[-74.057416,40.60903],[-74.0568102,40.6078981],[-74.0604469,40.6064638],[-74.0655565,40.6040123],[-74.0654354,40.6030595],[-74.0690032,40.6044688],[-74.0686597,40.6056088],[-74.0680914,40.6066027],[-74.0635049,40.6085782],[-74.0625987,40.6093317]]]}},{"type":"Feature","properties":{"nb":"Silver Lake","cd":null,"boro":"SI","nodata":true},"geometry":{"type":"Polygon","coordinates":[[[-74.0971211,40.634057],[-74.0957814,40.6354943],[-74.0933328,40.6349312],[-74.0924158,40.6354617],[-74.0908951,40.6353157],[-74.0900825,40.6328086],[-74.0876068,40.6316393],[-74.0881841,40.6308896],[-74.0871982,40.630227],[-74.0885436,40.6288661],[-74.0889141,40.627409],[-74.0885863,40.6259667],[-74.0885501,40.6242503],[-74.0919619,40.6243318],[-74.0934102,40.6232804],[-74.0928836,40.622874],[-74.0929274,40.6226372],[-74.0935596,40.6217583],[-74.0939681,40.6206586],[-74.0943543,40.6207159],[-74.0949444,40.620227],[-74.0951268,40.6195263],[-74.097841,40.61881],[-74.099622,40.619738],[-74.1001152,40.6204713],[-74.1011456,40.620716],[-74.10181,40.621107],[-74.104278,40.619315],[-74.105566,40.61868],[-74.107282,40.619706],[-74.106553,40.620292],[-74.106638,40.620716],[-74.103849,40.62166],[-74.104064,40.622426],[-74.102326,40.622947],[-74.102497,40.624217],[-74.099965,40.624478],[-74.100414,40.62709],[-74.098806,40.627686],[-74.099041,40.630022],[-74.097841,40.630162],[-74.0981627,40.6339561],[-74.0971211,40.634057]]]}},{"type":"Feature","properties":{"nb":"South Beach","cd":null,"boro":"SI","nodata":true},"geometry":{"type":"Polygon","coordinates":[[[-74.0830152,40.5941027],[-74.083744,40.595592],[-74.08589,40.595924],[-74.08471,40.597369],[-74.081116,40.598628],[-74.077001,40.598361],[-74.073788,40.59754],[-74.072888,40.596005],[-74.063665,40.599011],[-74.059776,40.59397],[-74.0692394,40.5849208],[-74.0787351,40.5890918],[-74.0804616,40.5903224],[-74.0830152,40.5941027]]]}},{"type":"Feature","properties":{"nb":"St. George","cd":null,"boro":"SI","nodata":true},"geometry":{"type":"Polygon","coordinates":[[[-74.0864719,40.6427752],[-74.0864344,40.6436545],[-74.08917,40.647347],[-74.085823,40.648714],[-74.082218,40.648258],[-74.079557,40.648454],[-74.071232,40.643895],[-74.072776,40.641225],[-74.0733237,40.6379113],[-74.0747561,40.6377972],[-74.076977,40.6378744],[-74.0778833,40.6415544],[-74.0783338,40.6421529],[-74.0791063,40.6420083],[-74.0807585,40.6441393],[-74.0818695,40.6440308],[-74.0820889,40.6442005],[-74.0864719,40.6427752]]]}},{"type":"Feature","properties":{"nb":"Stapleton","cd":null,"boro":"SI","nodata":true},"geometry":{"type":"Polygon","coordinates":[[[-74.073308,40.622222],[-74.080991,40.61815],[-74.0868323,40.6137395],[-74.0877472,40.615289],[-74.0862091,40.61766],[-74.08496,40.624697],[-74.0835872,40.627042],[-74.0826213,40.6274819],[-74.0808317,40.6274082],[-74.0776356,40.6313204],[-74.077066,40.6322934],[-74.073266,40.631471],[-74.072343,40.627221],[-74.072386,40.624713],[-74.071098,40.622867],[-74.073308,40.622222]]]}},{"type":"Feature","properties":{"nb":"Stapleton Heights","cd":null,"boro":"SI","nodata":true},"geometry":{"type":"Polygon","coordinates":[[[-74.0880197,40.6309553],[-74.0857238,40.6338539],[-74.0848225,40.6334956],[-74.0813464,40.6301899],[-74.0794581,40.631916],[-74.079085,40.632904],[-74.077066,40.6322934],[-74.0805525,40.6279914],[-74.0808317,40.6274082],[-74.0823335,40.6275843],[-74.0831489,40.6273888],[-74.0835995,40.6271445],[-74.0840286,40.6264931],[-74.0832277,40.6287939],[-74.0845865,40.6297339],[-74.0851769,40.6293411],[-74.0880197,40.6309553]]]}},{"type":"Feature","properties":{"nb":"Sunnyside","cd":null,"boro":"SI","nodata":true},"geometry":{"type":"Polygon","coordinates":[[[-74.11692,40.613541],[-74.112972,40.613834],[-74.105913,40.615365],[-74.103574,40.61644],[-74.105566,40.61868],[-74.10411,40.619372],[-74.10181,40.621107],[-74.1011402,40.6206671],[-74.1001693,40.6204025],[-74.09969,40.619633],[-74.097841,40.61881],[-74.097136,40.615431],[-74.097372,40.614926],[-74.09733,40.614307],[-74.098016,40.613834],[-74.098102,40.612873],[-74.09939,40.61245],[-74.097952,40.610821],[-74.1022,40.610495],[-74.10956,40.610446],[-74.114346,40.611424],[-74.116878,40.611375],[-74.11692,40.613541]]]}},{"type":"Feature","properties":{"nb":"Sunset Hill","cd":null,"boro":"SI","nodata":true},"geometry":{"type":"Polygon","coordinates":[[[-74.1184809,40.6288494],[-74.1142968,40.6290122],[-74.1060089,40.6306329],[-74.097839,40.631878],[-74.098011,40.630087],[-74.099041,40.630022],[-74.098955,40.627677],[-74.100414,40.62709],[-74.100156,40.624485],[-74.102731,40.624224],[-74.102646,40.622661],[-74.104276,40.622465],[-74.104276,40.621553],[-74.106851,40.620771],[-74.107023,40.619729],[-74.11243,40.621553],[-74.116893,40.624485],[-74.1209709,40.6278887],[-74.1184809,40.6288494]]]}},{"type":"Feature","properties":{"nb":"Todt Hill","cd":null,"boro":"SI","nodata":true},"geometry":{"type":"Polygon","coordinates":[[[-74.104193,40.61002],[-74.102648,40.609026],[-74.101553,40.607626],[-74.101425,40.606704],[-74.101832,40.605866],[-74.102262,40.604179],[-74.101661,40.604374],[-74.10091,40.604342],[-74.101039,40.604146],[-74.100738,40.603153],[-74.100266,40.60312],[-74.100846,40.602534],[-74.100481,40.602159],[-74.10194,40.601605],[-74.102369,40.601051],[-74.1034415,40.6004156],[-74.1028356,40.5995237],[-74.1034849,40.5990069],[-74.1028035,40.5982528],[-74.1049224,40.5964005],[-74.1032695,40.5941841],[-74.10098,40.5926887],[-74.101103,40.590209],[-74.10445,40.586787],[-74.11033,40.582387],[-74.11196,40.581637],[-74.114063,40.580301],[-74.113634,40.581442],[-74.111789,40.583886],[-74.110501,40.586037],[-74.110544,40.587504],[-74.111188,40.588449],[-74.111445,40.589329],[-74.110887,40.590567],[-74.110716,40.592946],[-74.110158,40.594999],[-74.111359,40.597101],[-74.111316,40.598242],[-74.111896,40.59847],[-74.112711,40.599854],[-74.114836,40.601972],[-74.11666,40.609287],[-74.11681,40.610932],[-74.115479,40.611177],[-74.11254,40.6109],[-74.109836,40.61015],[-74.104193,40.61002]]]}},{"type":"Feature","properties":{"nb":"Tompkinsville","cd":null,"boro":"SI","nodata":true},"geometry":{"type":"Polygon","coordinates":[[[-74.0899425,40.6329369],[-74.0905862,40.6352981],[-74.0897323,40.6354136],[-74.0892002,40.6357572],[-74.0875051,40.6377356],[-74.0859172,40.6366935],[-74.0836856,40.6356106],[-74.0783641,40.6382322],[-74.0769479,40.637817],[-74.0735575,40.6378007],[-74.0729353,40.633738],[-74.0733215,40.6320444],[-74.073266,40.631471],[-74.079085,40.632904],[-74.0794434,40.6320508],[-74.0813896,40.6303833],[-74.0848818,40.6336117],[-74.0857562,40.633974],[-74.0876068,40.6316393],[-74.0899425,40.6329369]]]}},{"type":"Feature","properties":{"nb":"Tottenville","cd":null,"boro":"SI","nodata":true},"geometry":{"type":"Polygon","coordinates":[[[-74.232741,40.516253],[-74.228107,40.502222],[-74.232913,40.501472],[-74.233686,40.500689],[-74.236604,40.500101],[-74.239865,40.497621],[-74.244586,40.497621],[-74.24729,40.495989],[-74.249178,40.49625],[-74.251281,40.498828],[-74.253169,40.500036],[-74.255701,40.504604],[-74.255315,40.506954],[-74.255572,40.5079],[-74.253555,40.509597],[-74.253384,40.51237],[-74.252225,40.514002],[-74.245959,40.518047],[-74.24141,40.51958],[-74.24038,40.520135],[-74.234973,40.519515],[-74.234286,40.517558],[-74.232741,40.516253]]]}},{"type":"Feature","properties":{"nb":"Travis - Chelsea","cd":null,"boro":"SI","nodata":true},"geometry":{"type":"Polygon","coordinates":[[[-74.197221,40.600981],[-74.195076,40.600981],[-74.189497,40.60235],[-74.186149,40.601828],[-74.182888,40.602545],[-74.17851,40.599743],[-74.180656,40.597918],[-74.179798,40.596484],[-74.185377,40.592248],[-74.190098,40.585469],[-74.185205,40.5856],[-74.181514,40.579733],[-74.191299,40.577647],[-74.196621,40.580385],[-74.206062,40.580059],[-74.204345,40.587946],[-74.198251,40.595767],[-74.197221,40.600981]]]}},{"type":"Feature","properties":{"nb":"Village Greens","cd":null,"boro":"SI","nodata":true},"geometry":{"type":"Polygon","coordinates":[[[-74.1998971,40.560608],[-74.190327,40.5516577],[-74.1931475,40.5488104],[-74.1944683,40.5482337],[-74.198953,40.5470924],[-74.2035878,40.5567606],[-74.1998971,40.560608]]]}},{"type":"Feature","properties":{"nb":"West New Brighton","cd":null,"boro":"SI","nodata":true},"geometry":{"type":"Polygon","coordinates":[[[-74.0983207,40.6338753],[-74.0981061,40.6319538],[-74.1063459,40.6307487],[-74.1139419,40.6293482],[-74.1187484,40.6290225],[-74.1209709,40.6278887],[-74.1234166,40.6294683],[-74.125992,40.6338],[-74.1269023,40.6402258],[-74.1234691,40.640356],[-74.1224821,40.6413329],[-74.1190488,40.6413655],[-74.1151865,40.6427332],[-74.1139849,40.6434008],[-74.1128153,40.6376205],[-74.1110022,40.6377671],[-74.1101341,40.6347606],[-74.1023977,40.6344941],[-74.0983207,40.6338753]]]}},{"type":"Feature","properties":{"nb":"Westerleigh","cd":null,"boro":"SI","nodata":true},"geometry":{"type":"Polygon","coordinates":[[[-74.131353,40.62625],[-74.132531,40.62379],[-74.131029,40.612714],[-74.1371451,40.6120702],[-74.1489464,40.6095376],[-74.150448,40.610271],[-74.152497,40.612551],[-74.152487,40.615874],[-74.146135,40.624588],[-74.137295,40.623952],[-74.134145,40.626504],[-74.131353,40.62625]]]}},{"type":"Feature","properties":{"nb":"Willowbrook","cd":null,"boro":"SI","nodata":true},"geometry":{"type":"Polygon","coordinates":[[[-74.150741,40.609691],[-74.149043,40.608944],[-74.145696,40.607966],[-74.14355,40.607706],[-74.1323096,40.6074757],[-74.1316815,40.6041557],[-74.131311,40.598946],[-74.1361303,40.5927955],[-74.1374172,40.5943191],[-74.1403783,40.5933476],[-74.1418802,40.5938751],[-74.142824,40.592649],[-74.143962,40.593464],[-74.145524,40.591348],[-74.145782,40.59024],[-74.155343,40.595427],[-74.159257,40.596888],[-74.16166,40.596367],[-74.162715,40.601025],[-74.161145,40.604122],[-74.159772,40.603731],[-74.157651,40.608258],[-74.150741,40.609691]]]}},{"type":"Feature","properties":{"nb":"Woodrow","cd":null,"boro":"SI","nodata":true},"geometry":{"type":"Polygon","coordinates":[[[-74.211924,40.543814],[-74.208941,40.54432],[-74.206795,40.544907],[-74.205978,40.543615],[-74.20439,40.543909],[-74.203799,40.541896],[-74.202158,40.542506],[-74.198134,40.533482],[-74.206159,40.531198],[-74.208305,40.536123],[-74.211352,40.535536],[-74.211924,40.543814]]]}}]}