{"type":"FeatureCollection","ad":32,"features":[{"type":"Feature","properties":{"e":"32001"},"geometry":{"type":"Polygon","coordinates":[[[-73.8030255312794,40.7081479196749],[-73.802788597127,40.7077240655621],[-73.8045012582886,40.7072360539129],[-73.8065901120952,40.7066421721714],[-73.808494715402,40.7060950084937],[-73.8090020954993,40.7059571363441],[-73.8093493895227,40.7066937015805],[-73.8069499477171,40.707375362705],[-73.8036922753085,40.7083004892734],[-73.8032773658024,40.7084197911398],[-73.8030255312794,40.7081479196749]]]}},{"type":"Feature","properties":{"e":"32002"},"geometry":{"type":"Polygon","coordinates":[[[-73.807527953476,40.6936955455332],[-73.8076845640374,40.6935757146926],[-73.8080140948687,40.6933044535089],[-73.8089035531676,40.6925726082743],[-73.8089970862822,40.6925125296088],[-73.8090943813655,40.6924560183709],[-73.8091952037935,40.6924032108304],[-73.8092993104383,40.6923542343258],[-73.8094064501503,40.6923092068771],[-73.8095163646803,40.6922682371379],[-73.8096287889809,40.6922314239005],[-73.8097434519539,40.6921988559346],[-73.8102709646404,40.6920535081699],[-73.8103953471493,40.6922803010887],[-73.8106481730987,40.6927382949745],[-73.8101376602879,40.6928828068936],[-73.810521792943,40.6935800425547],[-73.8108970876691,40.6942511464309],[-73.8100548309845,40.6944903680357],[-73.8091957763219,40.6947348959147],[-73.808341953334,40.694976301536],[-73.8079289828233,40.6943227934617],[-73.807527953476,40.6936955455332]]]}},{"type":"Feature","properties":{"e":"32003"},"geometry":{"type":"Polygon","coordinates":[[[-73.8035738996774,40.7052414932915],[-73.8056491145086,40.7046799897113],[-73.8075848934229,40.7041545588342],[-73.8080667261313,40.705183857782],[-73.808494715402,40.7060950084937],[-73.8065901120952,40.7066421721714],[-73.8063620109582,40.7061663426652],[-73.8061383442503,40.7056997547621],[-73.8040497480468,40.7062629745812],[-73.8035738996774,40.7052414932915]]]}},{"type":"Feature","properties":{"e":"32004"},"geometry":{"type":"Polygon","coordinates":[[[-73.7982596757385,40.7070245504535],[-73.7991451175573,40.7066933138841],[-73.7999712454662,40.7063885418452],[-73.8016586387104,40.7057697380618],[-73.8022292168354,40.7067575749345],[-73.802788597127,40.7077240655621],[-73.8018586646449,40.7079881378166],[-73.8010783804884,40.7082099935343],[-73.8002232349254,40.7084540647543],[-73.7993056355676,40.7087064944667],[-73.7982596757385,40.7070245504535]]]}},{"type":"Feature","properties":{"e":"32005"},"geometry":{"type":"Polygon","coordinates":[[[-73.8016586387104,40.7057697380618],[-73.8011114512464,40.7048558080764],[-73.8022787188313,40.7045464031464],[-73.8031417043464,40.7043124428435],[-73.8035738996774,40.7052414932915],[-73.8040497480468,40.7062629745812],[-73.8061383442503,40.7056997547621],[-73.8063620109582,40.7061663426652],[-73.8065901120952,40.7066421721714],[-73.8045012582886,40.7072360539129],[-73.802788597127,40.7077240655621],[-73.8022292168354,40.7067575749345],[-73.8016586387104,40.7057697380618]]]}},{"type":"Feature","properties":{"e":"32006"},"geometry":{"type":"Polygon","coordinates":[[[-73.8002232349254,40.7084540647543],[-73.8010783804884,40.7082099935343],[-73.8018586646449,40.7079881378166],[-73.802788597127,40.7077240655621],[-73.8030255312794,40.7081479196749],[-73.802783518642,40.7082809341042],[-73.8025520737256,40.7084254662447],[-73.8023325833174,40.7085807340097],[-73.8021263164998,40.7087458673325],[-73.8019343534695,40.7089198586215],[-73.8015972891393,40.7095566886632],[-73.8015129088961,40.7096298713271],[-73.8015128380673,40.7096299249813],[-73.8015127549066,40.7096299797869],[-73.8014156883722,40.7096950363617],[-73.8014155460768,40.7096951359626],[-73.8014153805037,40.7096952159227],[-73.8013076327166,40.7097504122418],[-73.801307538801,40.7097504559719],[-73.8013074440293,40.7097504914917],[-73.8011917545961,40.7097944260311],[-73.8011915414666,40.7097945069139],[-73.8011913284191,40.7097945603223],[-73.8010705858598,40.7098264737891],[-73.8006590640387,40.7091642897874],[-73.8002232349254,40.7084540647543]]]}},{"type":"Feature","properties":{"e":"32007"},"geometry":{"type":"Polygon","coordinates":[[[-73.795943612603,40.7030689936018],[-73.7946682155397,40.7012840049146],[-73.7956244204704,40.7009550646823],[-73.7967978247105,40.7005590610491],[-73.7967716131533,40.700521291718],[-73.7975563580036,40.7002044773657],[-73.7976021131868,40.7001850348237],[-73.7986880015089,40.6997236438111],[-73.7993227801766,40.6993123967289],[-73.799375215603,40.6993413406034],[-73.8003438861932,40.6999272496064],[-73.801223920004,40.7004453238597],[-73.8013149600481,40.7004982745757],[-73.8014082576159,40.7005488981407],[-73.8015037100522,40.7005971388512],[-73.80160121233,40.7006429436252],[-73.801700657166,40.7006862620612],[-73.8018019351389,40.7007270464934],[-73.8019049348094,40.7007652520441],[-73.8020095428434,40.7008008366734],[-73.8028390956882,40.7010011836844],[-73.8034807460297,40.7011562875236],[-73.8039634350931,40.7010605034632],[-73.8040143954455,40.7011848021295],[-73.8041306704059,40.7014684056013],[-73.8044435872103,40.7021400978445],[-73.805214080387,40.7037786672082],[-73.8056491145086,40.7046799897113],[-73.8035738996774,40.7052414932915],[-73.8031417043464,40.7043124428435],[-73.8022787188313,40.7045464031464],[-73.8011114512464,40.7048558080764],[-73.8016586387104,40.7057697380618],[-73.7999712454662,40.7063885418452],[-73.7991451175573,40.7066933138841],[-73.7982596757385,40.7070245504535],[-73.796800402359,40.7047057270382],[-73.7970073776536,40.7046185201787],[-73.7966398797226,40.7040904486146],[-73.7960914702557,40.7033023988474],[-73.795943612603,40.7030689936018]]]}},{"type":"Feature","properties":{"e":"32008"},"geometry":{"type":"Polygon","coordinates":[[[-73.8090020954993,40.7059571363441],[-73.8096912391649,40.7057545173614],[-73.8105901625125,40.7055043336265],[-73.8101730413091,40.7046114629072],[-73.8096948480839,40.7035867169195],[-73.8088754749037,40.7018233323423],[-73.809050655825,40.7018438756768],[-73.808878992116,40.7010629268635],[-73.8086756463025,40.7002692535918],[-73.808866904786,40.7001611764286],[-73.8088669762327,40.7001611319849],[-73.8088670593233,40.7001610954343],[-73.8090703987986,40.7000650693283],[-73.8090705288517,40.7000650058836],[-73.8090706709818,40.7000649528455],[-73.8092843020314,40.69998201746],[-73.8095060100654,40.6999130356939],[-73.8095060807721,40.6999130188906],[-73.8097333670746,40.699858615633],[-73.8106019780158,40.699608966808],[-73.8110592474128,40.6994791275157],[-73.8114753693154,40.6993609672304],[-73.8123268266917,40.6991181760854],[-73.8124728250213,40.6994128869944],[-73.8127834990968,40.7000400025017],[-73.8133625675086,40.7012233076338],[-73.8125068271714,40.7014662532267],[-73.8116389487889,40.7017183763972],[-73.811931408758,40.7023490972095],[-73.8115299547779,40.7022811360131],[-73.8116329562355,40.703060421399],[-73.8117142757179,40.703670463096],[-73.8117743536412,40.7041892123237],[-73.8118034123931,40.7043746131777],[-73.8119057484385,40.7051322023598],[-73.8120138718037,40.7059532066445],[-73.8093493895227,40.7066937015805],[-73.8090020954993,40.7059571363441]]]}},{"type":"Feature","properties":{"e":"32009"},"geometry":{"type":"Polygon","coordinates":[[[-73.8044435872103,40.7021400978445],[-73.805516300566,40.7018894950947],[-73.8063332546124,40.7017918247019],[-73.8068086117941,40.7017844374709],[-73.806989808866,40.701778240714],[-73.807928530657,40.7017737950786],[-73.8084402828206,40.703035358106],[-73.808789565111,40.7038302200482],[-73.8075848934229,40.7041545588342],[-73.8056491145086,40.7046799897113],[-73.805214080387,40.7037786672082],[-73.8044435872103,40.7021400978445]]]}},{"type":"Feature","properties":{"e":"32010"},"geometry":{"type":"Polygon","coordinates":[[[-73.8075848934229,40.7041545588342],[-73.808789565111,40.7038302200482],[-73.8084402828206,40.703035358106],[-73.807928530657,40.7017737950786],[-73.806989808866,40.701778240714],[-73.8068086117941,40.7017844374709],[-73.8063332546124,40.7017918247019],[-73.805516300566,40.7018894950947],[-73.8044435872103,40.7021400978445],[-73.8041306704059,40.7014684056013],[-73.8040143954455,40.7011848021295],[-73.8039634350931,40.7010605034632],[-73.8050415756112,40.7007381862267],[-73.8058180795235,40.7005060366549],[-73.8064992201573,40.7003023929215],[-73.8074665502965,40.7000131751585],[-73.807743393762,40.7005899491936],[-73.8086756463025,40.7002692535918],[-73.808878992116,40.7010629268635],[-73.809050655825,40.7018438756768],[-73.8088754749037,40.7018233323423],[-73.8096948480839,40.7035867169195],[-73.8101730413091,40.7046114629072],[-73.8105901625125,40.7055043336265],[-73.8096912391649,40.7057545173614],[-73.8090020954993,40.7059571363441],[-73.808494715402,40.7060950084937],[-73.8080667261313,40.705183857782],[-73.8075848934229,40.7041545588342]]]}},{"type":"Feature","properties":{"e":"32011"},"geometry":{"type":"Polygon","coordinates":[[[-73.7766204934162,40.6883719831675],[-73.7766893550535,40.6883477486851],[-73.7770875982384,40.688211705647],[-73.7779590918073,40.6879191917628],[-73.7789138703784,40.689578907024],[-73.7779619256783,40.6899030700715],[-73.7778947477829,40.6899259499102],[-73.7772592148617,40.6890801804036],[-73.7766204934162,40.6883719831675]]]}},{"type":"Feature","properties":{"e":"32012"},"geometry":{"type":"Polygon","coordinates":[[[-73.7993227801766,40.6993123967289],[-73.7994769833321,40.6992115913154],[-73.7995425558366,40.6991687246229],[-73.800283200581,40.6987283098943],[-73.8010545853203,40.6984273423596],[-73.8023685964485,40.6978826604116],[-73.8035743075104,40.6969427145565],[-73.8042274863862,40.6963905954981],[-73.8044912206057,40.6961775678603],[-73.8046970340114,40.6960145103687],[-73.8049545022036,40.6959651661085],[-73.8054963355703,40.696874054074],[-73.8057406402261,40.697270162702],[-73.8064671398481,40.6984166969799],[-73.8073211007951,40.6981042637141],[-73.808140101602,40.6978043929079],[-73.8089676927225,40.6975592613385],[-73.8095129572197,40.6974071779142],[-73.809824799868,40.6973179746369],[-73.8106724569523,40.697077295747],[-73.8112380061525,40.6969203550918],[-73.8116021128273,40.696815149374],[-73.8122161440867,40.6966377266076],[-73.8126639154174,40.6965137332581],[-73.8127439599229,40.6964915682578],[-73.8130381730962,40.6968933429873],[-73.8130667312075,40.6968059404055],[-73.8130819798882,40.6967519693102],[-73.8130957169231,40.6966799056113],[-73.8131026900497,40.6966065525223],[-73.813102920976,40.6965241739843],[-73.8130965401842,40.6963988744902],[-73.8133382917857,40.6967842911132],[-73.813564580774,40.6971450445278],[-73.8136059795159,40.6972085972129],[-73.8136444670074,40.6972766848347],[-73.8138718504493,40.6976792950132],[-73.8139979327402,40.6979025375142],[-73.8140750719595,40.6980483020179],[-73.8142334862398,40.6983421355131],[-73.8140712794237,40.6983390629825],[-73.8141828426941,40.6985936924065],[-73.8131884967479,40.6988727288499],[-73.8123268266917,40.6991181760854],[-73.8114753693154,40.6993609672304],[-73.8110592474128,40.6994791275157],[-73.8106019780158,40.699608966808],[-73.8097333670746,40.699858615633],[-73.8095060807721,40.6999130188906],[-73.8095060100654,40.6999130356939],[-73.8092843020314,40.69998201746],[-73.8090706709818,40.7000649528455],[-73.8090705288517,40.7000650058836],[-73.8090703987986,40.7000650693283],[-73.8088670593233,40.7001610954343],[-73.8088669762327,40.7001611319849],[-73.808866904786,40.7001611764286],[-73.8086756463025,40.7002692535918],[-73.807743393762,40.7005899491936],[-73.8074665502965,40.7000131751585],[-73.8064992201573,40.7003023929215],[-73.8058180795235,40.7005060366549],[-73.8050415756112,40.7007381862267],[-73.8039634350931,40.7010605034632],[-73.8034807460297,40.7011562875236],[-73.8028390956882,40.7010011836844],[-73.8020095428434,40.7008008366734],[-73.8019049348094,40.7007652520441],[-73.8018019351389,40.7007270464934],[-73.801700657166,40.7006862620612],[-73.80160121233,40.7006429436252],[-73.8015037100522,40.7005971388512],[-73.8014082576159,40.7005488981407],[-73.8013149600481,40.7004982745757],[-73.801223920004,40.7004453238597],[-73.8003438861932,40.6999272496064],[-73.799375215603,40.6993413406034],[-73.7993227801766,40.6993123967289]]]}},{"type":"Feature","properties":{"e":"32013"},"geometry":{"type":"Polygon","coordinates":[[[-73.7611504805786,40.6747718782911],[-73.7624873724869,40.674203239092],[-73.7633917744237,40.6746893749448],[-73.7616267155075,40.6754260661115],[-73.7611504805786,40.6747718782911]]]}},{"type":"Feature","properties":{"e":"32014"},"geometry":{"type":"Polygon","coordinates":[[[-73.7975823064762,40.6938911392457],[-73.7972400896878,40.6934249075671],[-73.796431781323,40.6923050306936],[-73.7972144837928,40.6919711056076],[-73.7980324111504,40.6916291960176],[-73.7982785142064,40.6919418904347],[-73.8002072948107,40.6904895982917],[-73.8008655826031,40.6909955591305],[-73.8017677742651,40.691679518774],[-73.8012124400967,40.6922546647821],[-73.8009880258805,40.6924873485713],[-73.8001893567415,40.6935974706631],[-73.8005150054779,40.693775933399],[-73.8006826895354,40.6938700666585],[-73.8009376734264,40.6944330602363],[-73.800669711143,40.6945780690662],[-73.8003172296146,40.69476881452],[-73.7999014103118,40.6949938330368],[-73.7991044292336,40.6953236534867],[-73.7987680631935,40.6948649737572],[-73.7983282847214,40.6942540335907],[-73.7979199434106,40.6936996888779],[-73.7975823064762,40.6938911392457]]]}},{"type":"Feature","properties":{"e":"32015"},"geometry":{"type":"Polygon","coordinates":[[[-73.8046970340114,40.6960145103687],[-73.805357003805,40.6954685294142],[-73.8062440950144,40.6947489831337],[-73.8068673005303,40.6942363952526],[-73.8071302189321,40.6940218033329],[-73.807527953476,40.6936955455332],[-73.8079289828233,40.6943227934617],[-73.808341953334,40.694976301536],[-73.8091957763219,40.6947348959147],[-73.8100548309845,40.6944903680357],[-73.8108970876691,40.6942511464309],[-73.810521792943,40.6935800425547],[-73.8101376602879,40.6928828068936],[-73.8106481730987,40.6927382949745],[-73.8103953471493,40.6922803010887],[-73.8102709646404,40.6920535081699],[-73.8105435516274,40.6919807184199],[-73.8106631237931,40.6921978485021],[-73.8107657629196,40.6923842196416],[-73.8109182436662,40.6926610876837],[-73.8113092951956,40.6933573874023],[-73.8115299505438,40.6937568497728],[-73.8116362764621,40.6939493321818],[-73.81167281889,40.6940302348651],[-73.8119326499585,40.6944848257296],[-73.8120039042454,40.6946042596152],[-73.8121542835771,40.6948672042856],[-73.8122602043492,40.6950524112009],[-73.812362094957,40.6952305672356],[-73.812930268167,40.6961343940153],[-73.8130746747756,40.6963640950683],[-73.8130965401842,40.6963988744902],[-73.813102920976,40.6965241739843],[-73.8131026900497,40.6966065525223],[-73.8130957169231,40.6966799056113],[-73.8130819798882,40.6967519693102],[-73.8130667312075,40.6968059404055],[-73.8130381730962,40.6968933429873],[-73.8127439599229,40.6964915682578],[-73.8126639154174,40.6965137332581],[-73.8122161440867,40.6966377266076],[-73.8116021128273,40.696815149374],[-73.8112380061525,40.6969203550918],[-73.8106724569523,40.697077295747],[-73.809824799868,40.6973179746369],[-73.8095129572197,40.6974071779142],[-73.8089676927225,40.6975592613385],[-73.808140101602,40.6978043929079],[-73.8073211007951,40.6981042637141],[-73.8064671398481,40.6984166969799],[-73.8057406402261,40.697270162702],[-73.8054963355703,40.696874054074],[-73.8049545022036,40.6959651661085],[-73.8046970340114,40.6960145103687]]]}},{"type":"Feature","properties":{"e":"32016"},"geometry":{"type":"Polygon","coordinates":[[[-73.780238613471,40.6929805958313],[-73.7791997603091,40.6916588290989],[-73.7778947477829,40.6899259499102],[-73.7779619256783,40.6899030700715],[-73.7789138703784,40.689578907024],[-73.7797743253302,40.6892894296753],[-73.7807829300407,40.6910382029444],[-73.7816888051363,40.6923229260258],[-73.7828375746635,40.6939050823946],[-73.7820226008697,40.694244737953],[-73.7815326960744,40.694450161877],[-73.7814657240389,40.6944778426864],[-73.7809224210783,40.6938479608681],[-73.780238613471,40.6929805958313]]]}},{"type":"Feature","properties":{"e":"32017"},"geometry":{"type":"Polygon","coordinates":[[[-73.8032335432371,40.6900273910571],[-73.8037337802596,40.68940857276],[-73.8039340004805,40.6891781666254],[-73.8044704057163,40.6885930205085],[-73.8046872633064,40.6883805904265],[-73.8048375349687,40.6882332339922],[-73.8051117309374,40.6880803491297],[-73.8052883571671,40.6879901461717],[-73.8057230192626,40.6878350734465],[-73.8066577006927,40.6875164785861],[-73.8074747260768,40.6872378513851],[-73.8078004394218,40.6871313335952],[-73.8078760803552,40.687106596077],[-73.8079645654896,40.6870746584839],[-73.8081813619011,40.687427670745],[-73.8087214138829,40.6883863213256],[-73.8087258317724,40.6883941639496],[-73.8089090037599,40.6887152207234],[-73.809107037898,40.6890623224457],[-73.8092513037662,40.6893151892138],[-73.8092894720481,40.6893824688533],[-73.8094796955833,40.6897156824626],[-73.8096521107548,40.6900176988966],[-73.8098276607762,40.6903253898844],[-73.8100622912573,40.690733494136],[-73.8102370893793,40.6910432314201],[-73.8103472614095,40.6912384513073],[-73.8107272599163,40.691930681433],[-73.8106343677866,40.6919556417145],[-73.8105435516274,40.6919807184199],[-73.8102709646404,40.6920535081699],[-73.8097434519539,40.6921988559346],[-73.8096287889809,40.6922314239005],[-73.8095163646803,40.6922682371379],[-73.8094064501503,40.6923092068771],[-73.8092993104383,40.6923542343258],[-73.8091952037935,40.6924032108304],[-73.8090943813655,40.6924560183709],[-73.8089970862822,40.6925125296088],[-73.8089035531676,40.6925726082743],[-73.8080140948687,40.6933044535089],[-73.8071714459635,40.6927182499783],[-73.8063754565095,40.6921745154972],[-73.8055598813868,40.6916169642004],[-73.8048747158036,40.6911484997767],[-73.8042037408764,40.6906893397698],[-73.8035660896718,40.6902505390863],[-73.8032335432371,40.6900273910571]]]}},{"type":"Feature","properties":{"e":"32018"},"geometry":{"type":"Polygon","coordinates":[[[-73.8009376734264,40.6944330602363],[-73.8014183652355,40.6940749178899],[-73.8021139082618,40.6945527588877],[-73.8029607834475,40.6938257309035],[-73.8037624815473,40.6943847984493],[-73.8046356579821,40.6936466278918],[-73.8054360771125,40.6941900577895],[-73.8062986642262,40.6934607980245],[-73.8071302189321,40.6940218033329],[-73.8068673005303,40.6942363952526],[-73.8062440950144,40.6947489831337],[-73.805357003805,40.6954685294142],[-73.8046970340114,40.6960145103687],[-73.8044912206057,40.6961775678603],[-73.8042274863862,40.6963905954981],[-73.8035743075104,40.6969427145565],[-73.8023685964485,40.6978826604116],[-73.8021323367794,40.6973530761936],[-73.8020087030579,40.6970952812677],[-73.8011975607647,40.6953447491958],[-73.8009376734264,40.6944330602363]]]}},{"type":"Feature","properties":{"e":"32019"},"geometry":{"type":"Polygon","coordinates":[[[-73.8009376734264,40.6944330602363],[-73.8006826895354,40.6938700666585],[-73.8005150054779,40.693775933399],[-73.8001893567415,40.6935974706631],[-73.8009880258805,40.6924873485713],[-73.8012124400967,40.6922546647821],[-73.8017677742651,40.691679518774],[-73.8025205512793,40.6908726271195],[-73.8032335432371,40.6900273910571],[-73.8035660896718,40.6902505390863],[-73.8042037408764,40.6906893397698],[-73.8048747158036,40.6911484997767],[-73.8055598813868,40.6916169642004],[-73.8063754565095,40.6921745154972],[-73.8071714459635,40.6927182499783],[-73.8080140948687,40.6933044535089],[-73.8076845640374,40.6935757146926],[-73.807527953476,40.6936955455332],[-73.8071302189321,40.6940218033329],[-73.8062986642262,40.6934607980245],[-73.8054360771125,40.6941900577895],[-73.8046356579821,40.6936466278918],[-73.8037624815473,40.6943847984493],[-73.8029607834475,40.6938257309035],[-73.8021139082618,40.6945527588877],[-73.8014183652355,40.6940749178899],[-73.8009376734264,40.6944330602363]]]}},{"type":"Feature","properties":{"e":"32020"},"geometry":{"type":"Polygon","coordinates":[[[-73.7991366935996,40.6871902171445],[-73.799951809385,40.6868359779583],[-73.8003509789294,40.6866678068235],[-73.8007823293283,40.6864860820561],[-73.8012931465386,40.6862695623273],[-73.8016310643737,40.6861263238911],[-73.8022277059173,40.685955830162],[-73.8025476925628,40.6858462278256],[-73.803230527701,40.6856532103937],[-73.8034233108622,40.6855986360965],[-73.8043025817433,40.6853497093919],[-73.8051823344213,40.6850995630475],[-73.8052928314638,40.6850680956493],[-73.806063870956,40.684848212984],[-73.805501458934,40.6836969269123],[-73.8051934751261,40.6831043157689],[-73.8056890782637,40.6829638909032],[-73.8057697851519,40.6829406487891],[-73.8058580684161,40.6829155754202],[-73.8059033513248,40.6830081926283],[-73.8059473911202,40.6830982698386],[-73.8061641669459,40.6835357984429],[-73.8063303759027,40.6838712789343],[-73.8065672049821,40.6843656557607],[-73.8067083544064,40.684660298458],[-73.8071762577697,40.6856135315443],[-73.8072335039931,40.6857212343642],[-73.8073659322083,40.6859703810912],[-73.8079565455278,40.6870598649467],[-73.8079645654896,40.6870746584839],[-73.8078760803552,40.687106596077],[-73.8078004394218,40.6871313335952],[-73.8074747260768,40.6872378513851],[-73.8066577006927,40.6875164785861],[-73.8057230192626,40.6878350734465],[-73.8052883571671,40.6879901461717],[-73.8051117309374,40.6880803491297],[-73.8048375349687,40.6882332339922],[-73.8046872633064,40.6883805904265],[-73.8044704057163,40.6885930205085],[-73.8039340004805,40.6891781666254],[-73.8037337802596,40.68940857276],[-73.8032335432371,40.6900273910571],[-73.8026660700924,40.6896405749582],[-73.8019753741087,40.6891679510246],[-73.8012709257675,40.6886845006363],[-73.8005713218469,40.6882065301032],[-73.7998745109845,40.6877314514936],[-73.7991366935996,40.6871902171445]]]}},{"type":"Feature","properties":{"e":"32021"},"geometry":{"type":"Polygon","coordinates":[[[-73.7980324111504,40.6916291960176],[-73.7977954428332,40.6912893842885],[-73.7976026472202,40.6910099031727],[-73.7973339965819,40.6906365996796],[-73.7971548371713,40.6904143247751],[-73.7967683241917,40.68997536113],[-73.7966485787308,40.6898581018477],[-73.7961026510072,40.6892900082045],[-73.7978076164088,40.6885741442387],[-73.7974619517347,40.6878805611216],[-73.7982872638337,40.6875322776386],[-73.7991366935996,40.6871902171445],[-73.7998745109845,40.6877314514936],[-73.8005713218469,40.6882065301032],[-73.8012709257675,40.6886845006363],[-73.8019753741087,40.6891679510246],[-73.8026660700924,40.6896405749582],[-73.8032335432371,40.6900273910571],[-73.8025205512793,40.6908726271195],[-73.8017677742651,40.691679518774],[-73.8008655826031,40.6909955591305],[-73.8002072948107,40.6904895982917],[-73.7982785142064,40.6919418904347],[-73.7980324111504,40.6916291960176]]]}},{"type":"Feature","properties":{"e":"32022"},"geometry":{"type":"Polygon","coordinates":[[[-73.797250437098,40.6833685928833],[-73.7977049494547,40.6832373063199],[-73.7981260363319,40.6831156742795],[-73.7985437085771,40.6829958983032],[-73.7990105727898,40.6828620162796],[-73.7999187162016,40.6826072573641],[-73.8008304509098,40.6823518315774],[-73.8017106031875,40.6821058274128],[-73.802587938196,40.6818539219013],[-73.8034662918129,40.6816035858729],[-73.8043382385521,40.6813576189717],[-73.8046746431276,40.6812613875913],[-73.8048326776556,40.6812109448286],[-73.8049311453987,40.6811852318949],[-73.8050141314243,40.6811587893603],[-73.8052525341841,40.6816471973708],[-73.8052784394335,40.6817002670303],[-73.8053180245528,40.681783271464],[-73.8056094480639,40.6823942958924],[-73.8058580684161,40.6829155754202],[-73.8057697851519,40.6829406487891],[-73.8056890782637,40.6829638909032],[-73.8051934751261,40.6831043157689],[-73.805501458934,40.6836969269123],[-73.806063870956,40.684848212984],[-73.8052928314638,40.6850680956493],[-73.8051823344213,40.6850995630475],[-73.8043025817433,40.6853497093919],[-73.8034233108622,40.6855986360965],[-73.803230527701,40.6856532103937],[-73.8025476925628,40.6858462278256],[-73.8022277059173,40.685955830162],[-73.8016310643737,40.6861263238911],[-73.8012931465386,40.6862695623273],[-73.8007823293283,40.6864860820561],[-73.8003509789294,40.6866678068235],[-73.799951809385,40.6868359779583],[-73.7991366935996,40.6871902171445],[-73.798743792107,40.6864003897112],[-73.7982940377557,40.6854962685731],[-73.7982678763061,40.6854436860917],[-73.7981056857908,40.6851176308253],[-73.797250437098,40.6833685928833]]]}},{"type":"Feature","properties":{"e":"32023"},"geometry":{"type":"Polygon","coordinates":[[[-73.7939097957617,40.6863129495065],[-73.7935657851964,40.6858573825417],[-73.7932548797086,40.6854456480711],[-73.7928442771683,40.6849053639177],[-73.7928023656333,40.684850214447],[-73.7927219254829,40.6846559455958],[-73.793735802438,40.6843667296211],[-73.7946169090259,40.684116017064],[-73.7954920610542,40.6838680059947],[-73.7963691133838,40.6836198666603],[-73.797250437098,40.6833685928833],[-73.7981056857908,40.6851176308253],[-73.7982678763061,40.6854436860917],[-73.7982940377557,40.6854962685731],[-73.798743792107,40.6864003897112],[-73.7991366935996,40.6871902171445],[-73.7982872638337,40.6875322776386],[-73.7974619517347,40.6878805611216],[-73.796630712546,40.6882297109161],[-73.7956162475369,40.6886651502774],[-73.7952123285046,40.6881029246483],[-73.7947797534306,40.6874789427053],[-73.7943722517239,40.6869208407135],[-73.7939097957617,40.6863129495065]]]}},{"type":"Feature","properties":{"e":"32024"},"geometry":{"type":"Polygon","coordinates":[[[-73.7964151237653,40.6796229315013],[-73.7972994265844,40.6793707190718],[-73.7982163497232,40.6791053002226],[-73.7988334295463,40.6789294016459],[-73.7997029926577,40.6786910846668],[-73.8005637054339,40.678444036996],[-73.8014295641778,40.6781984955039],[-73.802291457261,40.6779516713247],[-73.8026221330159,40.6778584773917],[-73.8031461519361,40.6777130409429],[-73.8032316579858,40.6776893136009],[-73.8033578599919,40.6776508707231],[-73.8039386320347,40.6789305966437],[-73.804032421329,40.6791372534389],[-73.8041708672051,40.679413442821],[-73.8044645887843,40.6800283746623],[-73.8045918656064,40.6802898484529],[-73.8047271898133,40.680567851675],[-73.8050141314243,40.6811587893603],[-73.8049311453987,40.6811852318949],[-73.8048326776556,40.6812109448286],[-73.8046746431276,40.6812613875913],[-73.8043382385521,40.6813576189717],[-73.8034662918129,40.6816035858729],[-73.802587938196,40.6818539219013],[-73.8017106031875,40.6821058274128],[-73.8008304509098,40.6823518315774],[-73.7999187162016,40.6826072573641],[-73.7990105727898,40.6828620162796],[-73.7985437085771,40.6829958983032],[-73.7981260363319,40.6831156742795],[-73.7972723254731,40.6813714124362],[-73.7964151237653,40.6796229315013]]]}},{"type":"Feature","properties":{"e":"32025"},"geometry":{"type":"Polygon","coordinates":[[[-73.7920939034196,40.6804845471987],[-73.7927783783895,40.6803534949844],[-73.7936967776777,40.6801949615631],[-73.7946162993353,40.6800351886397],[-73.7955287720149,40.6798658512651],[-73.7964151237653,40.6796229315013],[-73.7972723254731,40.6813714124362],[-73.7981260363319,40.6831156742795],[-73.7977049494547,40.6832373063199],[-73.797250437098,40.6833685928833],[-73.7963691133838,40.6836198666603],[-73.7954920610542,40.6838680059947],[-73.7946169090259,40.684116017064],[-73.793735802438,40.6843667296211],[-73.7927219254829,40.6846559455958],[-73.7926385398746,40.6843809506538],[-73.7925758981911,40.6841743655997],[-73.7925829748197,40.6833976198096],[-73.7925992223628,40.6832264400721],[-73.7926609524249,40.6825760927962],[-73.7924903334778,40.6818562908308],[-73.79228803255,40.6811542424449],[-73.7920939034196,40.6804845471987]]]}},{"type":"Feature","properties":{"e":"32026"},"geometry":{"type":"Polygon","coordinates":[[[-73.7951099379422,40.6748166981568],[-73.7946925505785,40.6738979487873],[-73.7947271167982,40.6737692443752],[-73.7957060596718,40.6738578877389],[-73.7957162651373,40.6731092606655],[-73.7984844374096,40.6733568406888],[-73.7983665802132,40.6740950669645],[-73.7989317310477,40.6741484846512],[-73.7998489346447,40.6742327601011],[-73.8006363364787,40.6743000579357],[-73.8012178629215,40.6743522729864],[-73.8015561500906,40.6743825835034],[-73.8016833283533,40.6743921049615],[-73.8017943358666,40.6744022470919],[-73.8020127963812,40.6748404039844],[-73.8021373083616,40.6750901298569],[-73.8025120918068,40.6758700717889],[-73.8026587323796,40.6761914091167],[-73.8027913490184,40.6764820124466],[-73.80306640216,40.6770735910057],[-73.8033122796337,40.6775605916302],[-73.8033578599919,40.6776508707231],[-73.8032316579858,40.6776893136009],[-73.8031461519361,40.6777130409429],[-73.8026221330159,40.6778584773917],[-73.802291457261,40.6779516713247],[-73.8014295641778,40.6781984955039],[-73.8005637054339,40.678444036996],[-73.7997029926577,40.6786910846668],[-73.7988334295463,40.6789294016459],[-73.7982163497232,40.6791053002226],[-73.7972994265844,40.6793707190718],[-73.7966280912797,40.6780076644322],[-73.7959365102675,40.6766055766652],[-73.7957660108275,40.6762386315944],[-73.7954714255849,40.6756046185528],[-73.7951099379422,40.6748166981568]]]}},{"type":"Feature","properties":{"e":"32027"},"geometry":{"type":"Polygon","coordinates":[[[-73.7912075160402,40.6779912288187],[-73.7911297509482,40.6777815010026],[-73.7909536742425,40.677333002699],[-73.7906639505124,40.6766786187785],[-73.7903449432972,40.6760479099145],[-73.7908405136721,40.6759301159235],[-73.7915709932375,40.6757564792113],[-73.7924542858912,40.6755219867483],[-73.7933404129155,40.6752868184661],[-73.794224746685,40.6750517378254],[-73.7951099379422,40.6748166981568],[-73.7954714255849,40.6756046185528],[-73.7957660108275,40.6762386315944],[-73.7959365102675,40.6766055766652],[-73.7966280912797,40.6780076644322],[-73.7972994265844,40.6793707190718],[-73.7964151237653,40.6796229315013],[-73.7955287720149,40.6798658512651],[-73.7946162993353,40.6800351886397],[-73.7936967776777,40.6801949615631],[-73.7927783783895,40.6803534949844],[-73.7920939034196,40.6804845471987],[-73.7918696126748,40.6797550646724],[-73.7917272307684,40.6793626002906],[-73.7914599534441,40.6786576815938],[-73.7912075160402,40.6779912288187]]]}},{"type":"Feature","properties":{"e":"32028"},"geometry":{"type":"Polygon","coordinates":[[[-73.7865766546449,40.6727749667743],[-73.7880878498868,40.6730178827045],[-73.7890188481798,40.6731664500637],[-73.7898875361164,40.673306161176],[-73.7904749960603,40.6733996806695],[-73.7907995737248,40.6734275204587],[-73.7915280311773,40.6734877304178],[-73.7916852255589,40.6735009007493],[-73.792573978303,40.673580498459],[-73.7937532765245,40.6736835662365],[-73.7947271167982,40.6737692443752],[-73.7946925505785,40.6738979487873],[-73.7951099379422,40.6748166981568],[-73.794224746685,40.6750517378254],[-73.7933404129155,40.6752868184661],[-73.7924542858912,40.6755219867483],[-73.7915709932375,40.6757564792113],[-73.7908405136721,40.6759301159235],[-73.7903449432972,40.6760479099145],[-73.7906639505124,40.6766786187785],[-73.7909536742425,40.677333002699],[-73.7911297509482,40.6777815010026],[-73.7912075160402,40.6779912288187],[-73.7889076780816,40.6783656542778],[-73.7871380729856,40.6786505875615],[-73.7869675552592,40.677976486529],[-73.7868346780477,40.6772951078048],[-73.7868517514838,40.6765937881012],[-73.786894584496,40.6758819641145],[-73.786982407132,40.6751301757192],[-73.7871646564687,40.6750651997495],[-73.7873551673404,40.6750128894918],[-73.7875515966605,40.6749740695086],[-73.7877514701751,40.6749492336019],[-73.7879522214834,40.6749385187526],[-73.7889276915838,40.6750807294352],[-73.7898910480548,40.6752099428607],[-73.7897182675157,40.674950338499],[-73.7895279735829,40.6746968611758],[-73.7893207638666,40.6744505356643],[-73.7890973608834,40.6742123303387],[-73.7888586147312,40.6739831454546],[-73.7886055017196,40.673763828059],[-73.7883390893201,40.6735551223393],[-73.7881249124076,40.673449818225],[-73.7879089068419,40.6733467024955],[-73.7876911111941,40.6732457935599],[-73.7874715643544,40.6731471094331],[-73.7872503057758,40.6730506675944],[-73.7870273747126,40.6729564853969],[-73.7868028109701,40.6728645796544],[-73.7865766546449,40.6727749667743]]]}},{"type":"Feature","properties":{"e":"32029"},"geometry":{"type":"Polygon","coordinates":[[[-73.7871380729856,40.6786505875615],[-73.7889076780816,40.6783656542778],[-73.7912075160402,40.6779912288187],[-73.7914599534441,40.6786576815938],[-73.7917272307684,40.6793626002906],[-73.7918696126748,40.6797550646724],[-73.7920939034196,40.6804845471987],[-73.7884097152755,40.6820006772507],[-73.7881840818068,40.681697526033],[-73.7879622079152,40.681399424386],[-73.7877623982993,40.6811194099675],[-73.787350983885,40.6805428506971],[-73.7874836046466,40.6802986772955],[-73.7874361899531,40.680003499371],[-73.7873677043283,40.6796875702986],[-73.7872891350268,40.6793251280943],[-73.7871380729856,40.6786505875615]]]}},{"type":"Feature","properties":{"e":"32030"},"geometry":{"type":"Polygon","coordinates":[[[-73.7884097152755,40.6820006772507],[-73.7920939034196,40.6804845471987],[-73.79228803255,40.6811542424449],[-73.7924903334778,40.6818562908308],[-73.7926609524249,40.6825760927962],[-73.7925992223628,40.6832264400721],[-73.7925829748197,40.6833976198096],[-73.7925758981911,40.6841743655997],[-73.7926385398746,40.6843809506538],[-73.7927219254829,40.6846559455958],[-73.7928023656333,40.684850214447],[-73.7928442771683,40.6849053639177],[-73.7932548797086,40.6854456480711],[-73.7935657851964,40.6858573825417],[-73.7939097957617,40.6863129495065],[-73.7934632410572,40.6864900633247],[-73.7931735865747,40.6866049446014],[-73.7924818133367,40.6868978889541],[-73.7921083721815,40.6870557950977],[-73.7914833457381,40.6861911594388],[-73.7910457726379,40.685591648614],[-73.7906093164799,40.6849930745808],[-73.7901708840943,40.6843934232178],[-73.7897321330735,40.6837923552711],[-73.7892930005526,40.6831910429832],[-73.7888553453213,40.6825925768014],[-73.7884097152755,40.6820006772507]]]}},{"type":"Feature","properties":{"e":"32031"},"geometry":{"type":"Polygon","coordinates":[[[-73.7846769577663,40.6837284264166],[-73.784881315396,40.6836529763606],[-73.7848814577319,40.6836529228502],[-73.7848815998781,40.6836528599578],[-73.7850795444516,40.6835670508562],[-73.7850796037356,40.6835670241625],[-73.7850796506964,40.6835669972781],[-73.7852700086353,40.683471275447],[-73.7852700679477,40.6834712398742],[-73.7852701272602,40.6834712043014],[-73.7854514528107,40.6833662807524],[-73.7854516067022,40.6833661920819],[-73.7854517491573,40.6833661012122],[-73.7856230701565,40.6832526230128],[-73.7861311028986,40.6829971278674],[-73.7884097152755,40.6820006772507],[-73.7888553453213,40.6825925768014],[-73.7892930005526,40.6831910429832],[-73.7897321330735,40.6837923552711],[-73.7901708840943,40.6843934232178],[-73.7906093164799,40.6849930745808],[-73.7910457726379,40.685591648614],[-73.7914833457381,40.6861911594388],[-73.7921083721815,40.6870557950977],[-73.7903860608994,40.6877618728182],[-73.7900272143074,40.6872791542262],[-73.7895947440172,40.6869875416821],[-73.7888299409623,40.6865245732067],[-73.7882227365915,40.6861531283756],[-73.7880765213017,40.6860636907108],[-73.7873159818375,40.6855984048628],[-73.7865302873972,40.6851192705044],[-73.7859817885764,40.6847852313006],[-73.7854777326971,40.6844782530561],[-73.7849176908459,40.6841371709693],[-73.7846769577663,40.6837284264166]]]}},{"type":"Feature","properties":{"e":"32032"},"geometry":{"type":"Polygon","coordinates":[[[-73.7849400731907,40.6875405715223],[-73.7847884243967,40.6872664041177],[-73.7844865223823,40.6867685744644],[-73.7842455425939,40.6863643767453],[-73.7841253155043,40.68616097389],[-73.7840774689187,40.686080026193],[-73.7839522560098,40.6858681872973],[-73.7838535468453,40.6857011863434],[-73.7838169895195,40.6856393369977],[-73.7837762029853,40.6855703317721],[-73.7837413017889,40.6855112847398],[-73.7836567338612,40.6853682072278],[-73.7835875150284,40.685251098401],[-73.7833905405542,40.684917839736],[-73.7833515815724,40.6848519256703],[-73.7830169221135,40.6842857094785],[-73.7835171670901,40.6841188989002],[-73.7838298240419,40.6840128180046],[-73.7846769577663,40.6837284264166],[-73.7849176908459,40.6841371709693],[-73.7854777326971,40.6844782530561],[-73.7859817885764,40.6847852313006],[-73.7865302873972,40.6851192705044],[-73.7873159818375,40.6855984048628],[-73.7880765213017,40.6860636907108],[-73.7882227365915,40.6861531283756],[-73.7888299409623,40.6865245732067],[-73.7895947440172,40.6869875416821],[-73.7900272143074,40.6872791542262],[-73.7903860608994,40.6877618728182],[-73.7896276906601,40.6879473183631],[-73.7892066766093,40.688061471823],[-73.7886804976555,40.6881884437491],[-73.787643475812,40.6884431101294],[-73.7869848217697,40.6886167362754],[-73.7864408830383,40.6887899689973],[-73.7858051845657,40.6890044788458],[-73.7857074668209,40.6888391292155],[-73.7849400731907,40.6875405715223]]]}},{"type":"Feature","properties":{"e":"32033"},"geometry":{"type":"Polygon","coordinates":[[[-73.780432649737,40.6851281218055],[-73.7809586704142,40.6849495882645],[-73.7812729570441,40.6848415657115],[-73.7820450912334,40.6845801367822],[-73.7821271409831,40.6845523546702],[-73.7828103783419,40.6843476071155],[-73.7828822985408,40.6843260536423],[-73.7830169221135,40.6842857094785],[-73.7833515815724,40.6848519256703],[-73.7833905405542,40.684917839736],[-73.7835875150284,40.685251098401],[-73.7836567338612,40.6853682072278],[-73.7837413017889,40.6855112847398],[-73.7837762029853,40.6855703317721],[-73.7838169895195,40.6856393369977],[-73.7838535468453,40.6857011863434],[-73.7839522560098,40.6858681872973],[-73.7840774689187,40.686080026193],[-73.7841253155043,40.68616097389],[-73.7842455425939,40.6863643767453],[-73.7844865223823,40.6867685744644],[-73.7847884243967,40.6872664041177],[-73.7849400731907,40.6875405715223],[-73.784056199756,40.6878351142703],[-73.7836231911735,40.6870827747629],[-73.7824452008738,40.6864041065703],[-73.7822280456907,40.6864688816682],[-73.7813724393255,40.6867550549568],[-73.7805888716975,40.6854011774945],[-73.780432649737,40.6851281218055]]]}},{"type":"Feature","properties":{"e":"32034"},"geometry":{"type":"Polygon","coordinates":[[[-73.7806367352149,40.6889970302798],[-73.7797743253302,40.6892894296753],[-73.7789138703784,40.689578907024],[-73.7779590918073,40.6879191917628],[-73.7770875982384,40.688211705647],[-73.7766893550535,40.6883477486851],[-73.7766204934162,40.6883719831675],[-73.7757061727675,40.6876206415633],[-73.7749172909658,40.6870626448023],[-73.774863864237,40.6870248533355],[-73.7749386541339,40.6869964808198],[-73.7761430250201,40.6865794237196],[-73.776999049597,40.6862909482031],[-73.7778510844435,40.6859975322891],[-73.7787093198782,40.685708679429],[-73.7795748467848,40.6854232920869],[-73.7796698807181,40.6853853825503],[-73.780432649737,40.6851281218055],[-73.7805888716975,40.6854011774945],[-73.7813724393255,40.6867550549568],[-73.7822280456907,40.6864688816682],[-73.7824452008738,40.6864041065703],[-73.7836231911735,40.6870827747629],[-73.784056199756,40.6878351142703],[-73.7849400731907,40.6875405715223],[-73.7857074668209,40.6888391292155],[-73.7858051845657,40.6890044788458],[-73.7852539913178,40.6892036051876],[-73.7847937829943,40.6893698586976],[-73.7841004162215,40.6896560150799],[-73.7832676262338,40.6900025524427],[-73.7824284990189,40.6903526295914],[-73.7814881319844,40.6887054428292],[-73.7806367352149,40.6889970302798]]]}},{"type":"Feature","properties":{"e":"32035"},"geometry":{"type":"Polygon","coordinates":[[[-73.7797743253302,40.6892894296753],[-73.7806367352149,40.6889970302798],[-73.7816043417189,40.6906951643061],[-73.7822866367378,40.6916651613393],[-73.782505095711,40.6919757294842],[-73.782886341292,40.6918161663103],[-73.7833322222173,40.6916295465239],[-73.7835006374789,40.6915659721623],[-73.7836616150136,40.691490262087],[-73.7838129159433,40.6914032410513],[-73.7839525846959,40.6913060675636],[-73.7840789361877,40.6912001152492],[-73.7844211937735,40.6916986257072],[-73.7850269811992,40.6924893134173],[-73.7852999844437,40.6928655183446],[-73.7844956777581,40.6932076156734],[-73.7836572153064,40.693560872577],[-73.7828375746635,40.6939050823946],[-73.7816888051363,40.6923229260258],[-73.7807829300407,40.6910382029444],[-73.7797743253302,40.6892894296753]]]}},{"type":"Feature","properties":{"e":"32036"},"geometry":{"type":"Polygon","coordinates":[[[-73.7806367352149,40.6889970302798],[-73.7814881319844,40.6887054428292],[-73.7824284990189,40.6903526295914],[-73.7832676262338,40.6900025524427],[-73.7841004162215,40.6896560150799],[-73.7847937829943,40.6893698586976],[-73.7852539913178,40.6892036051876],[-73.7858051845657,40.6890044788458],[-73.7860964559545,40.6895095625207],[-73.7863322581802,40.6898493062396],[-73.7865576826301,40.6901572588626],[-73.7870582659898,40.6908385442744],[-73.7874915406914,40.6914315430867],[-73.7861579786925,40.6925682270305],[-73.7857136315914,40.6927078480703],[-73.7852999844437,40.6928655183446],[-73.7850269811992,40.6924893134173],[-73.7844211937735,40.6916986257072],[-73.7840789361877,40.6912001152492],[-73.7839525846959,40.6913060675636],[-73.7838129159433,40.6914032410513],[-73.7836616150136,40.691490262087],[-73.7835006374789,40.6915659721623],[-73.7833322222173,40.6916295465239],[-73.782886341292,40.6918161663103],[-73.782505095711,40.6919757294842],[-73.7822866367378,40.6916651613393],[-73.7816043417189,40.6906951643061],[-73.7806367352149,40.6889970302798]]]}},{"type":"Feature","properties":{"e":"32037"},"geometry":{"type":"Polygon","coordinates":[[[-73.7821116373614,40.695245406322],[-73.7814657240389,40.6944778426864],[-73.7815326960744,40.694450161877],[-73.7820226008697,40.694244737953],[-73.7828375746635,40.6939050823946],[-73.7836572153064,40.693560872577],[-73.7844956777581,40.6932076156734],[-73.7852999844437,40.6928655183446],[-73.7857136315914,40.6927078480703],[-73.7861579786925,40.6925682270305],[-73.7874915406914,40.6914315430867],[-73.7877842508648,40.6918268152436],[-73.7881738695734,40.6923642682472],[-73.7889324190283,40.6934060988948],[-73.7900887573886,40.6949893204725],[-73.7912488626222,40.6965733657742],[-73.7904298410082,40.696920673625],[-73.7892730444701,40.6953346454893],[-73.7884834398744,40.6956709445951],[-73.7890054707374,40.6963846399776],[-73.787011186283,40.6969180451598],[-73.7873559121521,40.6974155962606],[-73.7878221519805,40.6980184602235],[-73.7870085859112,40.6983506787968],[-73.7869699983712,40.6983664392619],[-73.7864570328059,40.697796213415],[-73.7863558657665,40.6977572299108],[-73.7862452860701,40.6977310348306],[-73.7861296562105,40.6977193073441],[-73.7860139210867,40.6977225583758],[-73.7859028771237,40.6977400315809],[-73.7854393740714,40.6972196530822],[-73.7848924238047,40.6966347029483],[-73.7843936673172,40.6960989259445],[-73.7839239419824,40.6955959802431],[-73.7839346210037,40.6955024198885],[-73.7839381977345,40.6954173814093],[-73.7834296138474,40.6947104391839],[-73.7821873166191,40.6952146889244],[-73.7821116373614,40.695245406322]]]}},{"type":"Feature","properties":{"e":"32038"},"geometry":{"type":"Polygon","coordinates":[[[-73.7883883435153,40.6997288876317],[-73.7876257770651,40.6990070707574],[-73.7869019713181,40.6983942194425],[-73.7869699983712,40.6983664392619],[-73.7870085859112,40.6983506787968],[-73.7878221519805,40.6980184602235],[-73.7873559121521,40.6974155962606],[-73.787011186283,40.6969180451598],[-73.7890054707374,40.6963846399776],[-73.7884834398744,40.6956709445951],[-73.7892730444701,40.6953346454893],[-73.7904298410082,40.696920673625],[-73.7912488626222,40.6965733657742],[-73.7924043406911,40.6981602995695],[-73.7935784670303,40.6997647329592],[-73.7928449441654,40.7002519449221],[-73.7926064472508,40.7004403619074],[-73.7924624957497,40.7005620505644],[-73.7924624480923,40.7005620861619],[-73.7923305497345,40.7006924863839],[-73.7923304311646,40.7006926031043],[-73.7923303239833,40.7006927384409],[-73.7922118191837,40.700830770627],[-73.7922116764781,40.7008309328712],[-73.7922115460445,40.7008311127281],[-73.792107491311,40.7009756188653],[-73.7921073369908,40.7009758348649],[-73.7921072057834,40.7009760509062],[-73.792018291222,40.7011259882476],[-73.7919451001168,40.7012799876732],[-73.791870544798,40.7013743988272],[-73.7904994149009,40.7017992683504],[-73.7904710942887,40.7017709587271],[-73.790264910028,40.701564895858],[-73.7895389055266,40.700829850286],[-73.7890293238906,40.7003357411585],[-73.7887187009799,40.700041504103],[-73.7883883435153,40.6997288876317]]]}},{"type":"Feature","properties":{"e":"32039"},"geometry":{"type":"Polygon","coordinates":[[[-73.7935784670303,40.6997647329592],[-73.7924043406911,40.6981602995695],[-73.7912488626222,40.6965733657742],[-73.7921643984454,40.69618782871],[-73.7932915302596,40.6957102892434],[-73.7940553101024,40.6953881925675],[-73.7941227626127,40.6954062295126],[-73.794636191755,40.6951921693894],[-73.794660993067,40.6951312510988],[-73.7948333874826,40.6950581215478],[-73.7959900918613,40.696642355357],[-73.7961987679433,40.696928296964],[-73.7964285661843,40.6972058820635],[-73.7966785934591,40.6974737672219],[-73.7969477408475,40.6977306917155],[-73.7972347215929,40.6979755161333],[-73.7975381086311,40.6982071854231],[-73.7992666355024,40.6992776289609],[-73.7993227801766,40.6993123967289],[-73.7986880015089,40.6997236438111],[-73.7976021131868,40.7001850348237],[-73.7975563580036,40.7002044773657],[-73.7967716131533,40.700521291718],[-73.7967978247105,40.7005590610491],[-73.7956244204704,40.7009550646823],[-73.7946682155397,40.7012840049146],[-73.7946407993795,40.7012456306891],[-73.7946036041012,40.701193784186],[-73.7935784670303,40.6997647329592]]]}},{"type":"Feature","properties":{"e":"32040"},"geometry":{"type":"Polygon","coordinates":[[[-73.7889324190283,40.6934060988948],[-73.7898466407289,40.6930149855095],[-73.7909553012077,40.6925344899265],[-73.7917241087494,40.6922082309123],[-73.7922802038049,40.6919729502402],[-73.7925465226512,40.6922024767923],[-73.7927999307177,40.6924410745642],[-73.7930396616262,40.6926880944319],[-73.793264996021,40.6929428315707],[-73.7934753199903,40.6932045657659],[-73.7936701049723,40.6934725122887],[-73.7948333874826,40.6950581215478],[-73.794660993067,40.6951312510988],[-73.794636191755,40.6951921693894],[-73.7941227626127,40.6954062295126],[-73.7940553101024,40.6953881925675],[-73.7932915302596,40.6957102892434],[-73.7921643984454,40.69618782871],[-73.7912488626222,40.6965733657742],[-73.7900887573886,40.6949893204725],[-73.7889324190283,40.6934060988948]]]}},{"type":"Feature","properties":{"e":"32041"},"geometry":{"type":"Polygon","coordinates":[[[-73.7874915406914,40.6914315430867],[-73.7870582659898,40.6908385442744],[-73.7865576826301,40.6901572588626],[-73.7863322581802,40.6898493062396],[-73.7860964559545,40.6895095625207],[-73.7858051845657,40.6890044788458],[-73.7864408830383,40.6887899689973],[-73.7869848217697,40.6886167362754],[-73.7879887842259,40.6892214414546],[-73.7889261578807,40.689793101293],[-73.7904233205017,40.6907031256037],[-73.790763157194,40.6908865209914],[-73.7910922514014,40.6910820441565],[-73.791409492421,40.6912891267649],[-73.7917138408372,40.6915071254006],[-73.7920043657251,40.6917353191175],[-73.7922802038049,40.6919729502402],[-73.7917241087494,40.6922082309123],[-73.7909553012077,40.6925344899265],[-73.7898466407289,40.6930149855095],[-73.7889324190283,40.6934060988948],[-73.7881738695734,40.6923642682472],[-73.7877842508648,40.6918268152436],[-73.7874915406914,40.6914315430867]]]}},{"type":"Feature","properties":{"e":"32042"},"geometry":{"type":"Polygon","coordinates":[[[-73.7922802038049,40.6919729502402],[-73.7920043657251,40.6917353191175],[-73.7917138408372,40.6915071254006],[-73.791409492421,40.6912891267649],[-73.7910922514014,40.6910820441565],[-73.790763157194,40.6908865209914],[-73.7904233205017,40.6907031256037],[-73.7889261578807,40.689793101293],[-73.7879887842259,40.6892214414546],[-73.7869848217697,40.6886167362754],[-73.787643475812,40.6884431101294],[-73.7886804976555,40.6881884437491],[-73.7892066766093,40.688061471823],[-73.7896276906601,40.6879473183631],[-73.7903860608994,40.6877618728182],[-73.7906767758803,40.6881587816338],[-73.7910863783096,40.6879862589485],[-73.7910533781446,40.687941259312],[-73.7923483187506,40.687394440082],[-73.7925617618763,40.6876956741771],[-73.7929319045737,40.6882731219384],[-73.7933293148332,40.688883593301],[-73.7936972685358,40.6893851557842],[-73.7942108969818,40.6900855238911],[-73.7946724135467,40.6907158267764],[-73.7947717542754,40.6908516618946],[-73.7950892017216,40.6912864075046],[-73.795524764895,40.6918863407634],[-73.7959849179953,40.6924909529127],[-73.796431781323,40.6923050306936],[-73.7972400896878,40.6934249075671],[-73.7975823064762,40.6938911392457],[-73.7971442808066,40.6940785575736],[-73.7963247399498,40.694426185896],[-73.7955053926632,40.6947733579088],[-73.7949810927981,40.6949955288189],[-73.7948333874826,40.6950581215478],[-73.7936701049723,40.6934725122887],[-73.7934753199903,40.6932045657659],[-73.793264996021,40.6929428315707],[-73.7930396616262,40.6926880944319],[-73.7927999307177,40.6924410745642],[-73.7925465226512,40.6922024767923],[-73.7922802038049,40.6919729502402]]]}},{"type":"Feature","properties":{"e":"32043"},"geometry":{"type":"Polygon","coordinates":[[[-73.7903860608994,40.6877618728182],[-73.7921083721815,40.6870557950977],[-73.7924818133367,40.6868978889541],[-73.7931735865747,40.6866049446014],[-73.7934632410572,40.6864900633247],[-73.7939097957617,40.6863129495065],[-73.7943722517239,40.6869208407135],[-73.7947797534306,40.6874789427053],[-73.7952123285046,40.6881029246483],[-73.7956162475369,40.6886651502774],[-73.796630712546,40.6882297109161],[-73.7974619517347,40.6878805611216],[-73.7978076164088,40.6885741442387],[-73.7961026510072,40.6892900082045],[-73.7966485787308,40.6898581018477],[-73.7967683241917,40.68997536113],[-73.7971548371713,40.6904143247751],[-73.7973339965819,40.6906365996796],[-73.7976026472202,40.6910099031727],[-73.7977954428332,40.6912893842885],[-73.7980324111504,40.6916291960176],[-73.7972144837928,40.6919711056076],[-73.796431781323,40.6923050306936],[-73.7959849179953,40.6924909529127],[-73.795524764895,40.6918863407634],[-73.7950892017216,40.6912864075046],[-73.7947717542754,40.6908516618946],[-73.7946724135467,40.6907158267764],[-73.7942108969818,40.6900855238911],[-73.7936972685358,40.6893851557842],[-73.7933293148332,40.688883593301],[-73.7929319045737,40.6882731219384],[-73.7925617618763,40.6876956741771],[-73.7923483187506,40.687394440082],[-73.7910533781446,40.687941259312],[-73.7910863783096,40.6879862589485],[-73.7906767758803,40.6881587816338],[-73.7903860608994,40.6877618728182]]]}},{"type":"Feature","properties":{"e":"32044"},"geometry":{"type":"Polygon","coordinates":[[[-73.7579009830135,40.6761316675171],[-73.7580140349186,40.6760859340379],[-73.7595105481223,40.6754554677437],[-73.760316007555,40.6751182289603],[-73.7611504805786,40.6747718782911],[-73.7616267155075,40.6754260661115],[-73.7633917744237,40.6746893749448],[-73.7634212641631,40.6747085372679],[-73.7634535502671,40.674724879171],[-73.7634881700097,40.6747381664401],[-73.7635246272177,40.6747482086406],[-73.7635623993999,40.674754861624],[-73.7636009451557,40.674758030209],[-73.7636397120266,40.6747576689817],[-73.7636781443851,40.6747537831194],[-73.7635768246565,40.6754285587998],[-73.7634955958711,40.6760109281159],[-73.7634312174991,40.6763274264199],[-73.7632505767442,40.6767980615629],[-73.762888102499,40.6775106792406],[-73.7627641775799,40.677683872769],[-73.7623415493783,40.6782858694631],[-73.7619190125461,40.678890090212],[-73.7618335791575,40.679061363075],[-73.7616900300656,40.6794481083959],[-73.7616313477762,40.6796833460435],[-73.7616148706557,40.6797362000959],[-73.7610664008804,40.6794260228099],[-73.7608829496626,40.6793208393435],[-73.7606877143454,40.6792266266283],[-73.7604824305058,40.6791444679377],[-73.760269091915,40.6790752333265],[-73.7600498140071,40.6790195473519],[-73.7598387786078,40.6789777645871],[-73.7598426107146,40.6789253620128],[-73.7596836230567,40.6786630519104],[-73.7594609785816,40.6783541415118],[-73.7592417508355,40.678049694238],[-73.7590099509084,40.6777289853598],[-73.7587887099226,40.6774228849977],[-73.7583395869084,40.6767945973327],[-73.7579009830135,40.6761316675171]]]}},{"type":"Feature","properties":{"e":"32045"},"geometry":{"type":"Polygon","coordinates":[[[-73.7948333874826,40.6950581215478],[-73.7949810927981,40.6949955288189],[-73.7955053926632,40.6947733579088],[-73.7963247399498,40.694426185896],[-73.7971442808066,40.6940785575736],[-73.7975823064762,40.6938911392457],[-73.7979199434106,40.6936996888779],[-73.7983282847214,40.6942540335907],[-73.7987680631935,40.6948649737572],[-73.7991044292336,40.6953236534867],[-73.7999014103118,40.6949938330368],[-73.8003172296146,40.69476881452],[-73.800669711143,40.6945780690662],[-73.8009376734264,40.6944330602363],[-73.8011975607647,40.6953447491958],[-73.8020087030579,40.6970952812677],[-73.8021323367794,40.6973530761936],[-73.8023685964485,40.6978826604116],[-73.8010545853203,40.6984273423596],[-73.800283200581,40.6987283098943],[-73.7995425558366,40.6991687246229],[-73.7994769833321,40.6992115913154],[-73.7993227801766,40.6993123967289],[-73.7992666355024,40.6992776289609],[-73.7975381086311,40.6982071854231],[-73.7972347215929,40.6979755161333],[-73.7969477408475,40.6977306917155],[-73.7966785934591,40.6974737672219],[-73.7964285661843,40.6972058820635],[-73.7961987679433,40.696928296964],[-73.7959900918613,40.696642355357],[-73.7948333874826,40.6950581215478]]]}},{"type":"Feature","properties":{"e":"32046"},"geometry":{"type":"Polygon","coordinates":[[[-73.7731499604584,40.685814344973],[-73.7731978749993,40.6857749513621],[-73.7738236594028,40.6852603766303],[-73.7750136875618,40.6842838388285],[-73.7767091683218,40.6828938347157],[-73.7761800725482,40.6825733570088],[-73.7757023958236,40.6822864140404],[-73.7741393605411,40.6813474572659],[-73.7735667673772,40.6809721845791],[-73.7740826743242,40.6807684131515],[-73.7767311170822,40.6823763680012],[-73.7770494868007,40.6825706658104],[-73.7777543626406,40.6830008356785],[-73.7784600476485,40.6834314912583],[-73.7790391488928,40.6837848886233],[-73.779396399732,40.6840028976125],[-73.7802783018099,40.6845345576785],[-73.7809586704142,40.6849495882645],[-73.780432649737,40.6851281218055],[-73.7796698807181,40.6853853825503],[-73.7795748467848,40.6854232920869],[-73.7787093198782,40.685708679429],[-73.7778510844435,40.6859975322891],[-73.776999049597,40.6862909482031],[-73.7761430250201,40.6865794237196],[-73.7749386541339,40.6869964808198],[-73.774863864237,40.6870248533355],[-73.7748182673168,40.6869910944893],[-73.774480163976,40.6867407188433],[-73.7738112087197,40.6862805747038],[-73.7731499604584,40.685814344973]]]}},{"type":"Feature","properties":{"e":"32047"},"geometry":{"type":"Polygon","coordinates":[[[-73.7740826743242,40.6807684131515],[-73.7746986742962,40.6804943050486],[-73.7747547938346,40.6804755395129],[-73.7754972564051,40.6802273042679],[-73.7763638541527,40.6799441673589],[-73.7772306097311,40.6796609793356],[-73.7774916893109,40.6795656608643],[-73.7777434869253,40.6794548338756],[-73.7779836457012,40.679329350957],[-73.7782100211472,40.6791903333344],[-73.7784207283622,40.6790391372855],[-73.7793134620091,40.678445062221],[-73.7794795468593,40.6783728080803],[-73.7800904743139,40.6792721262511],[-73.7804583113557,40.6799062612907],[-73.7808265890493,40.6805346599328],[-73.7810556742959,40.6809174101644],[-73.7811866877075,40.681152596231],[-73.7815553558007,40.6817886116724],[-73.7819180848401,40.6824091432203],[-73.7820161925912,40.6825764649277],[-73.7822866688342,40.6830391854988],[-73.7826533687572,40.6836651074799],[-73.7830169221135,40.6842857094785],[-73.7828822985408,40.6843260536423],[-73.7828103783419,40.6843476071155],[-73.7821271409831,40.6845523546702],[-73.7820450912334,40.6845801367822],[-73.7812729570441,40.6848415657115],[-73.7809586704142,40.6849495882645],[-73.7802783018099,40.6845345576785],[-73.779396399732,40.6840028976125],[-73.7790391488928,40.6837848886233],[-73.7784600476485,40.6834314912583],[-73.7777543626406,40.6830008356785],[-73.7770494868007,40.6825706658104],[-73.7767311170822,40.6823763680012],[-73.7740826743242,40.6807684131515]]]}},{"type":"Feature","properties":{"e":"32048"},"geometry":{"type":"Polygon","coordinates":[[[-73.7663018729888,40.6819821870026],[-73.7654762852837,40.6815869016606],[-73.7648289174909,40.6812695245826],[-73.7640585387173,40.6808884910927],[-73.7638899885038,40.6808139055315],[-73.7632911857734,40.6805330438901],[-73.7628138678634,40.6803045716099],[-73.7629165046246,40.6802782905428],[-73.7635919339137,40.680105331033],[-73.7644532915664,40.6799029135465],[-73.7653189166388,40.6796999675919],[-73.766186235044,40.6794914894676],[-73.7670054268309,40.6792975052814],[-73.7703400866019,40.6784397343112],[-73.771099859321,40.6782519054689],[-73.7717786806093,40.6786760417119],[-73.7734695267652,40.6797277578727],[-73.7746986742962,40.6804943050486],[-73.7740826743242,40.6807684131515],[-73.7735667673772,40.6809721845791],[-73.7729967658466,40.6812170828904],[-73.772323484476,40.6814992266808],[-73.7722041252205,40.6816185977294],[-73.7709232736061,40.6825519642353],[-73.770144618507,40.6831193558649],[-73.7697757218893,40.6837335281405],[-73.7697422850123,40.6837945343113],[-73.76858134639,40.683151704346],[-73.7681751653386,40.6829308716022],[-73.7671567031857,40.682385352143],[-73.7663018729888,40.6819821870026]]]}},{"type":"Feature","properties":{"e":"32049"},"geometry":{"type":"Polygon","coordinates":[[[-73.7616148706557,40.6797362000959],[-73.7616313477762,40.6796833460435],[-73.7616900300656,40.6794481083959],[-73.7618335791575,40.679061363075],[-73.7619190125461,40.678890090212],[-73.7623415493783,40.6782858694631],[-73.7627641775799,40.677683872769],[-73.762888102499,40.6775106792406],[-73.7632505767442,40.6767980615629],[-73.7634312174991,40.6763274264199],[-73.7634955958711,40.6760109281159],[-73.7635768246565,40.6754285587998],[-73.7636781443851,40.6747537831194],[-73.7637196202947,40.674324149543],[-73.7638042427554,40.6737926281184],[-73.7656171005416,40.6747872777881],[-73.7683746775264,40.6765584989205],[-73.7693284168179,40.6771565414411],[-73.7703043239943,40.6777587595242],[-73.771099859321,40.6782519054689],[-73.7703400866019,40.6784397343112],[-73.7670054268309,40.6792975052814],[-73.766186235044,40.6794914894676],[-73.7653189166388,40.6796999675919],[-73.7644532915664,40.6799029135465],[-73.7635919339137,40.680105331033],[-73.7629165046246,40.6802782905428],[-73.7628138678634,40.6803045716099],[-73.7617907166738,40.6798349099319],[-73.7616148706557,40.6797362000959]]]}},{"type":"Feature","properties":{"e":"32050"},"geometry":{"type":"Polygon","coordinates":[[[-73.7656059965162,40.6696744530131],[-73.7658999569755,40.6691543528515],[-73.7662503046468,40.6685186237242],[-73.7665604757534,40.6678681064907],[-73.7667553909926,40.6674412509636],[-73.7715459779024,40.6679715248879],[-73.7719206579082,40.6684545872322],[-73.7709336896396,40.6683484808525],[-73.7708191682591,40.6690242361137],[-73.7698746484311,40.6689189172191],[-73.7699518124267,40.6696266989827],[-73.7701007556064,40.6709763162271],[-73.770284409366,40.6726270454069],[-73.7702896839465,40.6726752784912],[-73.769411897879,40.672803889991],[-73.7685166854932,40.6728950714146],[-73.7679697109629,40.6729746651945],[-73.767627217339,40.6730275187244],[-73.7670551151025,40.6731149990904],[-73.766721767047,40.6731667068014],[-73.7661316184081,40.6732561283503],[-73.7658422611061,40.6732993504979],[-73.765207892424,40.6733975192883],[-73.7639966145817,40.6735748382121],[-73.7638330615021,40.673642150083],[-73.7640485562508,40.6728539268007],[-73.7643546188586,40.6718616254883],[-73.7645478844121,40.6715207147569],[-73.7646613186363,40.6713261372021],[-73.7650862137895,40.6705960190021],[-73.7652586636133,40.6702867644436],[-73.7656059965162,40.6696744530131]]]}},{"type":"Feature","properties":{"e":"32051"},"geometry":{"type":"Polygon","coordinates":[[[-73.7715459779024,40.6679715248879],[-73.7734259994526,40.6680358753271],[-73.7743123647775,40.6679899889026],[-73.775225160225,40.6679233281938],[-73.7761188983101,40.6678539830786],[-73.7770146213141,40.6677846179502],[-73.7779142302822,40.6677233225291],[-73.7797064967239,40.6675984535708],[-73.779809603063,40.6684501445418],[-73.7796161464684,40.6685134235298],[-73.7787477556585,40.6687873244436],[-73.7780576591759,40.6690068561567],[-73.7778672744978,40.669067030982],[-73.7771996108989,40.6692789285633],[-73.7769986881341,40.6693418005301],[-73.7763123580897,40.6695602848775],[-73.7761253053485,40.6696202557328],[-73.7754540146737,40.6699082665887],[-73.7753090045616,40.6699717838295],[-73.7746031384665,40.6702909431259],[-73.7744987241631,40.6703381683283],[-73.7736549863357,40.6707086874387],[-73.7744972792892,40.6718360527683],[-73.7743115728071,40.6719116917428],[-73.7737180665169,40.6721534141765],[-73.7729683648959,40.6722664562833],[-73.7720853812507,40.6723995991663],[-73.7711793309649,40.6725396495389],[-73.7702896839465,40.6726752784912],[-73.770284409366,40.6726270454069],[-73.7701007556064,40.6709763162271],[-73.7699518124267,40.6696266989827],[-73.7698746484311,40.6689189172191],[-73.7708191682591,40.6690242361137],[-73.7709336896396,40.6683484808525],[-73.7719206579082,40.6684545872322],[-73.7715459779024,40.6679715248879]]]}},{"type":"Feature","properties":{"e":"32052"},"geometry":{"type":"Polygon","coordinates":[[[-73.7947271167982,40.6737692443752],[-73.7937532765245,40.6736835662365],[-73.792573978303,40.673580498459],[-73.7916852255589,40.6735009007493],[-73.7920850907315,40.6718228219699],[-73.7924393873812,40.6703364901607],[-73.7927557607239,40.6687446927525],[-73.7936484410794,40.6688427337669],[-73.7938889154596,40.6688687221396],[-73.7941272252615,40.6689063307627],[-73.7943619278706,40.6689553694386],[-73.7945916068238,40.6690155118278],[-73.7954671924356,40.6692251368678],[-73.7962856448333,40.6694012348478],[-73.7961621253229,40.6701211958327],[-73.7980841462392,40.6704460181185],[-73.7982197638925,40.6713349666721],[-73.7982942162354,40.6719450089941],[-73.7983775863376,40.6725396587699],[-73.7984844374096,40.6733568406888],[-73.7957162651373,40.6731092606655],[-73.7957060596718,40.6738578877389],[-73.7947271167982,40.6737692443752]]]}},{"type":"Feature","properties":{"e":"32053"},"geometry":{"type":"Polygon","coordinates":[[[-73.7638042427554,40.6737926281184],[-73.7638330615021,40.673642150083],[-73.7639966145817,40.6735748382121],[-73.765207892424,40.6733975192883],[-73.7658422611061,40.6732993504979],[-73.7661316184081,40.6732561283503],[-73.766721767047,40.6731667068014],[-73.7670551151025,40.6731149990904],[-73.767627217339,40.6730275187244],[-73.7679697109629,40.6729746651945],[-73.7679880438721,40.6730254378142],[-73.7683984362565,40.6741618439422],[-73.7686255176928,40.6750136574869],[-73.7686619007602,40.6750022153411],[-73.7686996732571,40.6749937775058],[-73.7687384085749,40.6749884392792],[-73.768777669231,40.6749862609519],[-73.7688170118099,40.6749872671264],[-73.7688559919708,40.6749914464387],[-73.7688941694658,40.6749987516872],[-73.7689311131123,40.6750091003651],[-73.7689664057307,40.6750223757018],[-73.7689996486364,40.6750384276608],[-73.7690304663768,40.6750570749485],[-73.7690585108888,40.6750781069592],[-73.7690834654296,40.6751012861535],[-73.7691050481546,40.6751263507408],[-73.7691230152997,40.6751530176366],[-73.7691371639358,40.6751809856589],[-73.7703734373646,40.6752189920813],[-73.7697917654475,40.6761884711079],[-73.7693284168179,40.6771565414411],[-73.7683746775264,40.6765584989205],[-73.7656171005416,40.6747872777881],[-73.7638042427554,40.6737926281184]]]}},{"type":"Feature","properties":{"e":"32054"},"geometry":{"type":"Polygon","coordinates":[[[-73.7693284168179,40.6771565414411],[-73.7697917654475,40.6761884711079],[-73.7703734373646,40.6752189920813],[-73.7691371639358,40.6751809856589],[-73.7691230152997,40.6751530176366],[-73.7691050481546,40.6751263507408],[-73.7690834654296,40.6751012861535],[-73.7690585108888,40.6750781069592],[-73.7690304663768,40.6750570749485],[-73.7689996486364,40.6750384276608],[-73.7689664057307,40.6750223757018],[-73.7689311131123,40.6750091003651],[-73.7688941694658,40.6749987516872],[-73.7688559919708,40.6749914464387],[-73.7688170118099,40.6749872671264],[-73.768777669231,40.6749862609519],[-73.7687384085749,40.6749884392792],[-73.7686996732571,40.6749937775058],[-73.7686619007602,40.6750022153411],[-73.7686255176928,40.6750136574869],[-73.7683984362565,40.6741618439422],[-73.7679880438721,40.6730254378142],[-73.7679697109629,40.6729746651945],[-73.7685166854932,40.6728950714146],[-73.769411897879,40.672803889991],[-73.7694143610585,40.6728542524631],[-73.7711463066223,40.6739678219564],[-73.7722352985077,40.674667965787],[-73.7730414020653,40.675228375558],[-73.7714221717233,40.6765145571919],[-73.7714042130454,40.6765074714084],[-73.7713852886879,40.6765020342119],[-73.7713555022823,40.6764971111417],[-73.7713250428519,40.6764962544608],[-73.7712948605322,40.6764994908919],[-73.7712658968148,40.6765067194795],[-73.7712390551795,40.6765177147388],[-73.7712151729121,40.6765321336892],[-73.7711949949865,40.6765495265529],[-73.7711791508267,40.6765693507849],[-73.7711017068773,40.6767779618407],[-73.7711011077688,40.6767973478255],[-73.77110435882,40.6768165805604],[-73.7711113855427,40.6768352193656],[-73.7711220269366,40.6768528371695],[-73.7711360390637,40.6768690301501],[-73.7711531009431,40.6768834274368],[-73.7711728216381,40.6768956991449],[-73.7711947492898,40.6769055640929],[-73.7703043239943,40.6777587595242],[-73.7693284168179,40.6771565414411]]]}},{"type":"Feature","properties":{"e":"32055"},"geometry":{"type":"Polygon","coordinates":[[[-73.769411897879,40.672803889991],[-73.7702896839465,40.6726752784912],[-73.7711793309649,40.6725396495389],[-73.7720853812507,40.6723995991663],[-73.7729683648959,40.6722664562833],[-73.7737180665169,40.6721534141765],[-73.7737273394948,40.6722089764593],[-73.7737381053849,40.672303131176],[-73.7737328437779,40.6724688531638],[-73.7737031043644,40.6726341246014],[-73.7736492082342,40.6727958258854],[-73.7735723899625,40.6729509335141],[-73.7734747115755,40.673096785288],[-73.7737403014788,40.673244642924],[-73.7735663471448,40.674213715402],[-73.7722352985077,40.674667965787],[-73.7711463066223,40.6739678219564],[-73.7694143610585,40.6728542524631],[-73.769411897879,40.672803889991]]]}},{"type":"Feature","properties":{"e":"32056"},"geometry":{"type":"Polygon","coordinates":[[[-73.7737180665169,40.6721534141765],[-73.7743115728071,40.6719116917428],[-73.7744972792892,40.6718360527683],[-73.7745799943778,40.671945780122],[-73.7756729332887,40.6733956709252],[-73.7756037942817,40.6734225249198],[-73.7735663471448,40.674213715402],[-73.7737403014788,40.673244642924],[-73.7734747115755,40.673096785288],[-73.7735723899625,40.6729509335141],[-73.7736492082342,40.6727958258854],[-73.7737031043644,40.6726341246014],[-73.7737328437779,40.6724688531638],[-73.7737381053849,40.672303131176],[-73.7737273394948,40.6722089764593],[-73.7737180665169,40.6721534141765]]]}},{"type":"Feature","properties":{"e":"32057"},"geometry":{"type":"Polygon","coordinates":[[[-73.7740398236025,40.6760189292853],[-73.7730414020653,40.675228375558],[-73.7722352985077,40.674667965787],[-73.7735663471448,40.674213715402],[-73.7756037942817,40.6734225249198],[-73.7756729332887,40.6733956709252],[-73.7771396540505,40.6753231356499],[-73.7780843395959,40.6765649078554],[-73.7779901205697,40.6765565213947],[-73.7773455897142,40.6767555293824],[-73.7761050269776,40.6764361120497],[-73.7760664253167,40.6764402102337],[-73.7760274657269,40.6764393714988],[-73.7759892299235,40.6764336191327],[-73.775952779525,40.6764231128499],[-73.7759191265469,40.6764081442975],[-73.7758892054129,40.676389129127],[-73.7758638468828,40.6763665952963],[-73.7758437550331,40.6763411684588],[-73.7758421883392,40.6763013118046],[-73.7758452133604,40.6762615038724],[-73.7758528068328,40.6762220506998],[-73.7758649103709,40.6761832555965],[-73.7758814310379,40.6761454165463],[-73.7759022417465,40.6761088247279],[-73.7759271824999,40.6760737614544],[-73.7759560615509,40.676040496287],[-73.7757242162577,40.6754231225217],[-73.7747654306593,40.6751384511847],[-73.7740398236025,40.6760189292853]]]}},{"type":"Feature","properties":{"e":"32058"},"geometry":{"type":"Polygon","coordinates":[[[-73.7740398236025,40.6760189292853],[-73.7747654306593,40.6751384511847],[-73.7757242162577,40.6754231225217],[-73.7759560615509,40.676040496287],[-73.7759271824999,40.6760737614544],[-73.7759022417465,40.6761088247279],[-73.7758814310379,40.6761454165463],[-73.7758649103709,40.6761832555965],[-73.7758528068328,40.6762220506998],[-73.7758452133604,40.6762615038724],[-73.7758421883392,40.6763013118046],[-73.7758437550331,40.6763411684588],[-73.7758638468828,40.6763665952963],[-73.7758892054129,40.676389129127],[-73.7759191265469,40.6764081442975],[-73.775952779525,40.6764231128499],[-73.7759892299235,40.6764336191327],[-73.7760274657269,40.6764393714988],[-73.7760664253167,40.6764402102337],[-73.7761050269776,40.6764361120497],[-73.7773455897142,40.6767555293824],[-73.7779901205697,40.6765565213947],[-73.7780843395959,40.6765649078554],[-73.7786197406151,40.6772724794417],[-73.7790838446342,40.6778824372722],[-73.7793866606502,40.6782577052998],[-73.7794795468593,40.6783728080803],[-73.7793134620091,40.678445062221],[-73.7784207283622,40.6790391372855],[-73.7782100211472,40.6791903333344],[-73.7779836457012,40.679329350957],[-73.7777434869253,40.6794548338756],[-73.7774916893109,40.6795656608643],[-73.7772306097311,40.6796609793356],[-73.7772039808977,40.679622871894],[-73.7740398236025,40.6760189292853]]]}},{"type":"Feature","properties":{"e":"32059"},"geometry":{"type":"Polygon","coordinates":[[[-73.771099859321,40.6782519054689],[-73.7703043239943,40.6777587595242],[-73.7711947492898,40.6769055640929],[-73.7711728216381,40.6768956991449],[-73.7711531009431,40.6768834274368],[-73.7711360390637,40.6768690301501],[-73.7711220269366,40.6768528371695],[-73.7711113855427,40.6768352193656],[-73.77110435882,40.6768165805604],[-73.7711011077688,40.6767973478255],[-73.7711017068773,40.6767779618407],[-73.7711791508267,40.6765693507849],[-73.7711949949865,40.6765495265529],[-73.7712151729121,40.6765321336892],[-73.7712390551795,40.6765177147388],[-73.7712658968148,40.6765067194795],[-73.7712948605322,40.6764994908919],[-73.7713250428519,40.6764962544608],[-73.7713555022823,40.6764971111417],[-73.7713852886879,40.6765020342119],[-73.7714042130454,40.6765074714084],[-73.7714221717233,40.6765145571919],[-73.7730414020653,40.675228375558],[-73.7740398236025,40.6760189292853],[-73.7727971448309,40.6774371411963],[-73.7717786806093,40.6786760417119],[-73.771099859321,40.6782519054689]]]}},{"type":"Feature","properties":{"e":"32060"},"geometry":{"type":"Polygon","coordinates":[[[-73.7734695267652,40.6797277578727],[-73.7737664770634,40.6794567771234],[-73.7741104881378,40.6786974708821],[-73.7741134263625,40.6786664196784],[-73.7741103907632,40.6786353739042],[-73.774101446133,40.6786049961319],[-73.7740867833742,40.6785759346769],[-73.7740667154735,40.6785488097929],[-73.7740416706833,40.67852420033],[-73.7740121835055,40.6785026314941],[-73.7739788832473,40.6784845635987],[-73.7739465880948,40.678461306099],[-73.7739173495152,40.6784358124789],[-73.7738914333689,40.6784083145498],[-73.773869075305,40.6783790623481],[-73.7738504785952,40.6783483219295],[-73.7738358123516,40.678316372742],[-73.773825209927,40.6782835052961],[-73.7738187677219,40.6782500184518],[-73.7738702063439,40.6781288243838],[-73.7738748907437,40.6781057006523],[-73.7738738249121,40.6780823175963],[-73.7738670462999,40.6780594967121],[-73.7738547930598,40.6780380397451],[-73.7738374956781,40.6780187005227],[-73.7738157618511,40.678002158471],[-73.7737903551342,40.6779889947451],[-73.7737621681177,40.6779796718128],[-73.7737321911382,40.6779745171919],[-73.7737014772728,40.6779737119696],[-73.7736711055543,40.6779772844348],[-73.7736421429959,40.6779851090804],[-73.773615607105,40.6779969110125],[-73.7735924301373,40.6780122756078],[-73.7735734263447,40.6780306630798],[-73.7735592633696,40.6780514274422],[-73.7727971448309,40.6774371411963],[-73.7740398236025,40.6760189292853],[-73.7772039808977,40.679622871894],[-73.7772306097311,40.6796609793356],[-73.7763638541527,40.6799441673589],[-73.7754972564051,40.6802273042679],[-73.7747547938346,40.6804755395129],[-73.7746986742962,40.6804943050486],[-73.7734695267652,40.6797277578727]]]}},{"type":"Feature","properties":{"e":"32061"},"geometry":{"type":"Polygon","coordinates":[[[-73.7717786806093,40.6786760417119],[-73.7727971448309,40.6774371411963],[-73.7735592633696,40.6780514274422],[-73.7735734263447,40.6780306630798],[-73.7735924301373,40.6780122756078],[-73.773615607105,40.6779969110125],[-73.7736421429959,40.6779851090804],[-73.7736711055543,40.6779772844348],[-73.7737014772728,40.6779737119696],[-73.7737321911382,40.6779745171919],[-73.7737621681177,40.6779796718128],[-73.7737903551342,40.6779889947451],[-73.7738157618511,40.678002158471],[-73.7738374956781,40.6780187005227],[-73.7738547930598,40.6780380397451],[-73.7738670462999,40.6780594967121],[-73.7738738249121,40.6780823175963],[-73.7738748907437,40.6781057006523],[-73.7738702063439,40.6781288243838],[-73.7738187677219,40.6782500184518],[-73.773825209927,40.6782835052961],[-73.7738358123516,40.678316372742],[-73.7738504785952,40.6783483219295],[-73.773869075305,40.6783790623481],[-73.7738914333689,40.6784083145498],[-73.7739173495152,40.6784358124789],[-73.7739465880948,40.678461306099],[-73.7739788832473,40.6784845635987],[-73.7740121835055,40.6785026314941],[-73.7740416706833,40.67852420033],[-73.7740667154735,40.6785488097929],[-73.7740867833742,40.6785759346769],[-73.774101446133,40.6786049961319],[-73.7741103907632,40.6786353739042],[-73.7741134263625,40.6786664196784],[-73.7741104881378,40.6786974708821],[-73.7737664770634,40.6794567771234],[-73.7734695267652,40.6797277578727],[-73.7717786806093,40.6786760417119]]]}},{"type":"Feature","properties":{"e":"32062"},"geometry":{"type":"Polygon","coordinates":[[[-73.7756729332887,40.6733956709252],[-73.7745799943778,40.671945780122],[-73.7744972792892,40.6718360527683],[-73.7736549863357,40.6707086874387],[-73.7744987241631,40.6703381683283],[-73.7746031384665,40.6702909431259],[-73.7753090045616,40.6699717838295],[-73.7754540146737,40.6699082665887],[-73.7761253053485,40.6696202557328],[-73.7763123580897,40.6695602848775],[-73.7769986881341,40.6693418005301],[-73.7771996108989,40.6692789285633],[-73.7778672744978,40.669067030982],[-73.7785873498572,40.6700095424286],[-73.7798005921024,40.6715987000781],[-73.781020336052,40.6731884437473],[-73.7802055284296,40.6735481327624],[-73.779620881267,40.6737884522172],[-73.7793336411384,40.6735620519962],[-73.7788114312996,40.6739832838443],[-73.7779314435559,40.6746982212061],[-73.7771773707234,40.675281280547],[-73.7771396540505,40.6753231356499],[-73.7756729332887,40.6733956709252]]]}},{"type":"Feature","properties":{"e":"32063"},"geometry":{"type":"Polygon","coordinates":[[[-73.781020336052,40.6731884437473],[-73.7798005921024,40.6715987000781],[-73.7785873498572,40.6700095424286],[-73.7778672744978,40.669067030982],[-73.7780576591759,40.6690068561567],[-73.7787477556585,40.6687873244436],[-73.7796161464684,40.6685134235298],[-73.779809603063,40.6684501445418],[-73.780508417194,40.6682227037428],[-73.7810767937365,40.6680376758671],[-73.7816870049257,40.6686354411297],[-73.7819378975474,40.6688764430728],[-73.7825012339249,40.6694289688398],[-73.7831131018442,40.6700299770612],[-73.7835874909501,40.6705035801079],[-73.7846529527934,40.6715753137797],[-73.7847054022593,40.6716369727017],[-73.7847602447892,40.6716974125653],[-73.7848174315491,40.6717565795452],[-73.7848769116166,40.6718144209493],[-73.7849386320266,40.6718708852661],[-73.7850025378186,40.6719259222104],[-73.7850685720852,40.6719794827678],[-73.7851366760232,40.6720315192388],[-73.7852067889803,40.6720819852107],[-73.7852788485226,40.6721308358102],[-73.7853527904796,40.6721780275319],[-73.785428549004,40.6722235183478],[-73.7855060566301,40.6722672677446],[-73.7855852443342,40.6723092367597],[-73.7856660415959,40.6723493880163],[-73.7857483764611,40.6723876857561],[-73.7857105751086,40.6724948584597],[-73.78532509061,40.6731332772058],[-73.7851117553399,40.6734866207196],[-73.7848447148192,40.6739115796031],[-73.7843463387066,40.6747046965846],[-73.7841694473934,40.6749192908103],[-73.7839752163172,40.6751258659635],[-73.783975015221,40.6751260637719],[-73.7839748242769,40.6751262522178],[-73.7837641588309,40.6753236472659],[-73.7837639931193,40.6753237896886],[-73.7837638152699,40.6753239431453],[-73.7835375079689,40.6755113479827],[-73.7832968650909,40.6756877025145],[-73.7830435202874,40.6758519740718],[-73.7826064517891,40.675276249752],[-73.7822103777299,40.6747534702464],[-73.781020336052,40.6731884437473]]]}},{"type":"Feature","properties":{"e":"32064"},"geometry":{"type":"Polygon","coordinates":[[[-73.7780843395959,40.6765649078554],[-73.7771396540505,40.6753231356499],[-73.7771773707234,40.675281280547],[-73.7779314435559,40.6746982212061],[-73.7788114312996,40.6739832838443],[-73.7793336411384,40.6735620519962],[-73.779620881267,40.6737884522172],[-73.7802055284296,40.6735481327624],[-73.781020336052,40.6731884437473],[-73.7822103777299,40.6747534702464],[-73.7826064517891,40.675276249752],[-73.7830435202874,40.6758519740718],[-73.7822194588579,40.6764457948462],[-73.7815732293672,40.6769095883236],[-73.7812841533451,40.6771179868119],[-73.7809526373734,40.6773617648279],[-73.7802599689263,40.6778491818148],[-73.7794795468593,40.6783728080803],[-73.7793866606502,40.6782577052998],[-73.7790838446342,40.6778824372722],[-73.7786197406151,40.6772724794417],[-73.7780843395959,40.6765649078554]]]}},{"type":"Feature","properties":{"e":"32065"},"geometry":{"type":"Polygon","coordinates":[[[-73.7794795468593,40.6783728080803],[-73.7802599689263,40.6778491818148],[-73.7809526373734,40.6773617648279],[-73.7812841533451,40.6771179868119],[-73.7815732293672,40.6769095883236],[-73.7822194588579,40.6764457948462],[-73.7830435202874,40.6758519740718],[-73.7832968650909,40.6756877025145],[-73.7835375079689,40.6755113479827],[-73.7837638152699,40.6753239431453],[-73.7837639931193,40.6753237896886],[-73.7837641588309,40.6753236472659],[-73.7839748242769,40.6751262522178],[-73.783975015221,40.6751260637719],[-73.7839752163172,40.6751258659635],[-73.7841694473934,40.6749192908103],[-73.7843463387066,40.6747046965846],[-73.7848447148192,40.6739115796031],[-73.7851117553399,40.6734866207196],[-73.78532509061,40.6731332772058],[-73.7857105751086,40.6724948584597],[-73.7857483764611,40.6723876857561],[-73.7865766546449,40.6727749667743],[-73.7868028109701,40.6728645796544],[-73.7870273747126,40.6729564853969],[-73.7872503057758,40.6730506675944],[-73.7874715643544,40.6731471094331],[-73.7876911111941,40.6732457935599],[-73.7879089068419,40.6733467024955],[-73.7881249124076,40.673449818225],[-73.7883390893201,40.6735551223393],[-73.7886055017196,40.673763828059],[-73.7888586147312,40.6739831454546],[-73.7890973608834,40.6742123303387],[-73.7893207638666,40.6744505356643],[-73.7895279735829,40.6746968611758],[-73.7897182675157,40.674950338499],[-73.7898910480548,40.6752099428607],[-73.7889276915838,40.6750807294352],[-73.7879522214834,40.6749385187526],[-73.7877514701751,40.6749492336019],[-73.7875515966605,40.6749740695086],[-73.7873551673404,40.6750128894918],[-73.7871646564687,40.6750651997495],[-73.786982407132,40.6751301757192],[-73.786894584496,40.6758819641145],[-73.7868517514838,40.6765937881012],[-73.7868346780477,40.6772951078048],[-73.7869675552592,40.677976486529],[-73.7871380729856,40.6786505875615],[-73.7872891350268,40.6793251280943],[-73.7873677043283,40.6796875702986],[-73.7874361899531,40.680003499371],[-73.7874836046466,40.6802986772955],[-73.787350983885,40.6805428506971],[-73.7877623982993,40.6811194099675],[-73.7879622079152,40.681399424386],[-73.7881840818068,40.681697526033],[-73.7884097152755,40.6820006772507],[-73.7861311028986,40.6829971278674],[-73.7856230701565,40.6832526230128],[-73.7854517491573,40.6833661012122],[-73.7854516067022,40.6833661920819],[-73.7854514528107,40.6833662807524],[-73.7852701272602,40.6834712043014],[-73.7852700679477,40.6834712398742],[-73.7852700086353,40.683471275447],[-73.7850796506964,40.6835669972781],[-73.7850796037356,40.6835670241625],[-73.7850795444516,40.6835670508562],[-73.7848815998781,40.6836528599578],[-73.7848814577319,40.6836529228502],[-73.784881315396,40.6836529763606],[-73.7846769577663,40.6837284264166],[-73.7838298240419,40.6840128180046],[-73.7835171670901,40.6841188989002],[-73.7830169221135,40.6842857094785],[-73.7826533687572,40.6836651074799],[-73.7822866688342,40.6830391854988],[-73.7820161925912,40.6825764649277],[-73.7819180848401,40.6824091432203],[-73.7815553558007,40.6817886116724],[-73.7811866877075,40.681152596231],[-73.7810556742959,40.6809174101644],[-73.7808265890493,40.6805346599328],[-73.7804583113557,40.6799062612907],[-73.7800904743139,40.6792721262511],[-73.7794795468593,40.6783728080803]]]}},{"type":"Feature","properties":{"e":"32066"},"geometry":{"type":"Polygon","coordinates":[[[-73.7865766546449,40.6727749667743],[-73.7857483764611,40.6723876857561],[-73.7856660415959,40.6723493880163],[-73.7855852443342,40.6723092367597],[-73.7855060566301,40.6722672677446],[-73.785428549004,40.6722235183478],[-73.7853527904796,40.6721780275319],[-73.7852788485226,40.6721308358102],[-73.7852067889803,40.6720819852107],[-73.7851366760232,40.6720315192388],[-73.7850685720852,40.6719794827678],[-73.7850025378186,40.6719259222104],[-73.7849386320266,40.6718708852661],[-73.7848769116166,40.6718144209493],[-73.7848174315491,40.6717565795452],[-73.7847602447892,40.6716974125653],[-73.7847054022593,40.6716369727017],[-73.7846529527934,40.6715753137797],[-73.7835874909501,40.6705035801079],[-73.7831131018442,40.6700299770612],[-73.7825012339249,40.6694289688398],[-73.7819378975474,40.6688764430728],[-73.7816870049257,40.6686354411297],[-73.7810767937365,40.6680376758671],[-73.780508417194,40.6682227037428],[-73.779809603063,40.6684501445418],[-73.7797064967239,40.6675984535708],[-73.7806266969379,40.667531565344],[-73.781799288331,40.6674486971182],[-73.7826558032826,40.6673768532362],[-73.7832910444522,40.6673397613157],[-73.7850258976939,40.6672381692397],[-73.785665475306,40.6671957956718],[-73.7869714475061,40.6670934375742],[-73.7894113705922,40.6668494136342],[-73.7891591961617,40.6683463515004],[-73.790114446701,40.6684499199846],[-73.7909979489364,40.6685458667126],[-73.7918832974598,40.668645826148],[-73.7927557607239,40.6687446927525],[-73.7924393873812,40.6703364901607],[-73.7920850907315,40.6718228219699],[-73.7916852255589,40.6735009007493],[-73.7915280311773,40.6734877304178],[-73.7907995737248,40.6734275204587],[-73.7904749960603,40.6733996806695],[-73.7898875361164,40.673306161176],[-73.7890188481798,40.6731664500637],[-73.7880878498868,40.6730178827045],[-73.7865766546449,40.6727749667743]]]}},{"type":"Feature","properties":{"e":"32067"},"geometry":{"type":"Polygon","coordinates":[[[-73.8142334862398,40.6983421355131],[-73.8140750719595,40.6980483020179],[-73.8139979327402,40.6979025375142],[-73.8138718504493,40.6976792950132],[-73.8136444670074,40.6972766848347],[-73.8136059795159,40.6972085972129],[-73.813564580774,40.6971450445278],[-73.8133382917857,40.6967842911132],[-73.8130965401842,40.6963988744902],[-73.8130746747756,40.6963640950683],[-73.812930268167,40.6961343940153],[-73.812362094957,40.6952305672356],[-73.8122602043492,40.6950524112009],[-73.8121542835771,40.6948672042856],[-73.8120039042454,40.6946042596152],[-73.8119326499585,40.6944848257296],[-73.81167281889,40.6940302348651],[-73.8116362764621,40.6939493321818],[-73.8115299505438,40.6937568497728],[-73.8113092951956,40.6933573874023],[-73.8109182436662,40.6926610876837],[-73.8107657629196,40.6923842196416],[-73.8106631237931,40.6921978485021],[-73.8105435516274,40.6919807184199],[-73.8106343677866,40.6919556417145],[-73.8107272599163,40.691930681433],[-73.810842230885,40.6921393405913],[-73.8109728165569,40.6923763513837],[-73.8111011184228,40.6926092136325],[-73.8114802192977,40.6933066075513],[-73.8114828569695,40.6933111198777],[-73.8117687872878,40.6938037969576],[-73.8118194663542,40.6938911197646],[-73.8118637452257,40.6939732197937],[-73.8121255085217,40.6944184480774],[-73.8121960632929,40.6945384583385],[-73.8123428486539,40.6948133910497],[-73.812469608684,40.6950388223308],[-73.8125489485964,40.6951799210006],[-73.81309724626,40.6960921970173],[-73.8132532625161,40.6963517711467],[-73.8132561327878,40.6963565461561],[-73.8134828858915,40.6967338086891],[-73.8137272441524,40.6971403547798],[-73.8137677838723,40.6972065358663],[-73.8138083135097,40.6972722575605],[-73.8140430387822,40.6976742073226],[-73.8141679609949,40.6978881243434],[-73.8142458609502,40.6980455431869],[-73.8144135763819,40.6983432983571],[-73.8143106143697,40.6983435923209],[-73.8142334862398,40.6983421355131]]]}}]}