{"type":"FeatureCollection","ad":36,"features":[{"type":"Feature","properties":{"e":"36001"},"geometry":{"type":"Polygon","coordinates":[[[-73.9131475009499,40.7845716708794],[-73.9153153774246,40.782798785083],[-73.9157356250722,40.7830959528128],[-73.9161221983296,40.7827799336374],[-73.9163467735026,40.7825963318918],[-73.9165948868103,40.7823934841679],[-73.917305127424,40.7818115238718],[-73.9190889221816,40.783069585049],[-73.9197611249831,40.7825224510416],[-73.9199660131125,40.7826433421319],[-73.9190917723538,40.7833759192713],[-73.9184752670279,40.783762431062],[-73.9181900547455,40.7839412395232],[-73.9177394989597,40.7840842253658],[-73.917246588678,40.7841502746814],[-73.9171726108465,40.7842017578671],[-73.9171834312036,40.7845603372474],[-73.9168341944984,40.7851996661901],[-73.9157531529889,40.786115852498],[-73.9154186115076,40.7860722033341],[-73.915344936622,40.7861246220228],[-73.9152377446508,40.7860476456002],[-73.9145386359465,40.7855499749677],[-73.9138082730399,40.7850339209264],[-73.9135091638945,40.7848237761905],[-73.9131475009499,40.7845716708794]]]}},{"type":"Feature","properties":{"e":"36002"},"geometry":{"type":"Polygon","coordinates":[[[-73.9157925971996,40.7642760407741],[-73.9178895027917,40.7617033448761],[-73.9186868796431,40.7620808390438],[-73.9190051658695,40.7622304822877],[-73.919485307069,40.7624573743395],[-73.9192565949249,40.7627380247094],[-73.9187719605786,40.7633327045108],[-73.9176393853214,40.7647223969755],[-73.9173901941286,40.7650281465685],[-73.916591165671,40.7646522491551],[-73.9157925971996,40.7642760407741]]]}},{"type":"Feature","properties":{"e":"36003"},"geometry":{"type":"Polygon","coordinates":[[[-73.917305127424,40.7818115238718],[-73.9161728086069,40.7810101506692],[-73.9156152594543,40.7814605800104],[-73.9154596807488,40.781588715917],[-73.9150669818632,40.7819084382611],[-73.9145962701033,40.7822916678135],[-73.913915045157,40.7818139495615],[-73.9135896992623,40.7815857798527],[-73.9129021870927,40.78109801824],[-73.913224854279,40.7808333699099],[-73.9151322577269,40.7792688885914],[-73.915821141291,40.7797562329627],[-73.9164721947827,40.7792255455458],[-73.9174768973448,40.7799344511872],[-73.9178539947925,40.7802006565609],[-73.918279481522,40.780501006042],[-73.9186196560571,40.7807411417009],[-73.9179672388177,40.7812645648606],[-73.9197611249831,40.7825224510416],[-73.9190889221816,40.783069585049],[-73.917305127424,40.7818115238718]]]}},{"type":"Feature","properties":{"e":"36004"},"geometry":{"type":"Polygon","coordinates":[[[-73.9166081508823,40.7770141976335],[-73.9159216230652,40.7765278684726],[-73.9162560525552,40.7762547014027],[-73.918062671387,40.7747789775535],[-73.9184564290464,40.7744573269407],[-73.9177636618528,40.7739685443631],[-73.9195861005045,40.7724767694081],[-73.9197047919073,40.7723795665124],[-73.9197776583088,40.7723198916888],[-73.9198314275521,40.772276713187],[-73.9200326250803,40.7724201031769],[-73.9205193930208,40.7727670101586],[-73.9212055393238,40.7732417136429],[-73.9218927400979,40.7737448329289],[-73.9225166902212,40.774294291052],[-73.9224550100961,40.774336014531],[-73.9223902593855,40.7743871268913],[-73.9223107193807,40.7744499124801],[-73.9217730926023,40.7748828612451],[-73.9214965993022,40.7751105282803],[-73.9211716092449,40.775378142967],[-73.9208373214819,40.7756519452691],[-73.9205195840251,40.7759122072007],[-73.9198285614765,40.7754246641542],[-73.9195393878998,40.7756598635122],[-73.9193586346917,40.7758068700124],[-73.9181602562387,40.7767815124068],[-73.9176193301844,40.7772214373717],[-73.9173092144731,40.7774880537806],[-73.9166081508823,40.7770141976335]]]}},{"type":"Feature","properties":{"e":"36005"},"geometry":{"type":"Polygon","coordinates":[[[-73.9197611249831,40.7825224510416],[-73.9179672388177,40.7812645648606],[-73.9186196560571,40.7807411417009],[-73.918279481522,40.780501006042],[-73.9178539947925,40.7802006565609],[-73.9174768973448,40.7799344511872],[-73.9164721947827,40.7792255455458],[-73.9170078146106,40.7787861179693],[-73.9172565413131,40.7785820438747],[-73.9176253279256,40.7782812696047],[-73.9176528034268,40.7782588669572],[-73.9179903084422,40.7779793529311],[-73.9173092144731,40.7774880537806],[-73.9176193301844,40.7772214373717],[-73.9181602562387,40.7767815124068],[-73.9193586346917,40.7758068700124],[-73.9195393878998,40.7756598635122],[-73.9198285614765,40.7754246641542],[-73.9205195840251,40.7759122072007],[-73.9215235681671,40.7766212042429],[-73.9226503117403,40.7774309234092],[-73.9233118409544,40.7768915671327],[-73.9237590393331,40.7765552837875],[-73.9230271411972,40.7753925809533],[-73.9231469195173,40.7752952863246],[-73.9232112401336,40.7752430402838],[-73.9232792632047,40.7751858945384],[-73.924183594723,40.7763675080964],[-73.9256225087848,40.7782481808419],[-73.9256638737632,40.778302243719],[-73.9257466432448,40.7784136434036],[-73.9256521891938,40.7784390844069],[-73.9255744693557,40.7784671239079],[-73.9248748719922,40.7786338761431],[-73.9242350564119,40.7791094660172],[-73.9231883700504,40.7802566661408],[-73.9229579529101,40.7804492806809],[-73.92263156422,40.7805730583224],[-73.9221010807534,40.780860147306],[-73.9209770464512,40.7817759643942],[-73.9199660131125,40.7826433421319],[-73.9197611249831,40.7825224510416]]]}},{"type":"Feature","properties":{"e":"36006"},"geometry":{"type":"Polygon","coordinates":[[[-73.9318185338059,40.7742225017841],[-73.9318601057291,40.774148930037],[-73.9318914108903,40.7740935262203],[-73.9323450708038,40.7732906377012],[-73.9323523063813,40.7732783043579],[-73.932364622619,40.7732573099067],[-73.9323960356813,40.7732037598478],[-73.932686623258,40.7727083930334],[-73.9328459283971,40.7723773884958],[-73.9322401299637,40.7720495661189],[-73.9333005123006,40.7720056452609],[-73.9333551185203,40.7720101113637],[-73.9334100217938,40.7720111813278],[-73.9334648572803,40.7720088480434],[-73.933519260589,40.7720031270154],[-73.9335728702015,40.771994056261],[-73.9336253298739,40.7719816960567],[-73.9336762910045,40.7719661285379],[-73.93372541495,40.7719474571532],[-73.9337723752729,40.7719258059619],[-73.9338168599196,40.771901318854],[-73.9338585732866,40.7718741585495],[-73.933897238187,40.7718445055319],[-73.9339325976924,40.7718125568489],[-73.93396441684,40.7717785248028],[-73.933992484194,40.7717426355398],[-73.9340166132508,40.7717051275472],[-73.9341104825487,40.7714337473195],[-73.9342475258673,40.7710375459957],[-73.9345287302492,40.7711850454435],[-73.9344366872355,40.7714706327331],[-73.9348276568914,40.7715852289838],[-73.9348100182473,40.7717078578338],[-73.9348082427198,40.7717424093293],[-73.9351516074696,40.7718419675691],[-73.9355498762252,40.7719619572814],[-73.9355694006922,40.7719270479828],[-73.9356099640448,40.7719395481344],[-73.935590657736,40.7719742441341],[-73.936054779987,40.772114072095],[-73.9374678162106,40.7725397656279],[-73.9378147900475,40.77357116534],[-73.9378595492874,40.7740958397665],[-73.9376562613021,40.7750939563793],[-73.9370484517835,40.7758747582111],[-73.9361531541467,40.7756066536328],[-73.9361897635883,40.7755344687238],[-73.9362181411347,40.775478513645],[-73.9364264043952,40.7750678620963],[-73.9359135157012,40.7749198797522],[-73.9356797116766,40.7744784608262],[-73.9356440832351,40.7744629567119],[-73.9355678446589,40.7743177531929],[-73.9355730454788,40.7742054983799],[-73.9354993307351,40.7740835226384],[-73.9354306160587,40.774056387561],[-73.935387419747,40.7739692672963],[-73.9352544544496,40.7740791381999],[-73.9350454702328,40.7741528896551],[-73.9347539320733,40.7741859670519],[-73.9346666129178,40.774051105883],[-73.9345455203096,40.7741068585318],[-73.9344970739821,40.7740842934992],[-73.9344508137375,40.774059216967],[-73.9344069644648,40.7740317508434],[-73.9343657393314,40.7740020286533],[-73.9343273389709,40.7739701947434],[-73.9342919498432,40.7739364040326],[-73.9342597439843,40.7739008207909],[-73.9342308779542,40.7738636180024],[-73.9342020263374,40.7736463179825],[-73.9341575952241,40.7735808113686],[-73.9338932138572,40.7736687595343],[-73.933388933175,40.7747205206098],[-73.9333070343618,40.7746911643038],[-73.9332761111946,40.7746805045075],[-73.9318185338059,40.7742225017841]]]}},{"type":"Feature","properties":{"e":"36007"},"geometry":{"type":"Polygon","coordinates":[[[-73.9298820136337,40.7762299033926],[-73.929968684125,40.7760597581858],[-73.9302589253152,40.7754899765942],[-73.9310470974716,40.7739890012449],[-73.9318185338059,40.7742225017841],[-73.9332761111946,40.7746805045075],[-73.9333070343618,40.7746911643038],[-73.933388933175,40.7747205206098],[-73.9338932138572,40.7736687595343],[-73.9341575952241,40.7735808113686],[-73.9342020263374,40.7736463179825],[-73.9342308779542,40.7738636180024],[-73.9342597439843,40.7739008207909],[-73.9342919498432,40.7739364040326],[-73.9343273389709,40.7739701947434],[-73.9343657393314,40.7740020286533],[-73.9344069644648,40.7740317508434],[-73.9344508137375,40.774059216967],[-73.9344970739821,40.7740842934992],[-73.9345455203096,40.7741068585318],[-73.9346666129178,40.774051105883],[-73.9347539320733,40.7741859670519],[-73.9350454702328,40.7741528896551],[-73.9352544544496,40.7740791381999],[-73.935387419747,40.7739692672963],[-73.9354306160587,40.774056387561],[-73.9354993307351,40.7740835226384],[-73.9355730454788,40.7742054983799],[-73.9355678446589,40.7743177531929],[-73.9356440832351,40.7744629567119],[-73.9356797116766,40.7744784608262],[-73.9359135157012,40.7749198797522],[-73.9364264043952,40.7750678620963],[-73.9362181411347,40.775478513645],[-73.9361897635883,40.7755344687238],[-73.9361531541467,40.7756066536328],[-73.9370484517835,40.7758747582111],[-73.9370315586421,40.7759014761736],[-73.9363816589334,40.7769297279626],[-73.9360906270106,40.7771925935382],[-73.9358559563611,40.777219956099],[-73.9350837553256,40.7779525053734],[-73.9347449604164,40.7780846070603],[-73.9343746580854,40.7780941938351],[-73.9338127579399,40.7781087254538],[-73.9328938837455,40.7779508777121],[-73.9327762076789,40.7779306604997],[-73.9327426586493,40.7780022220546],[-73.9327235335319,40.7780430388636],[-73.932650740702,40.7780302459786],[-73.9318478894773,40.7778890967768],[-73.9317897717346,40.7778788788511],[-73.9310510714098,40.7774501690003],[-73.9310751998846,40.77726886605],[-73.9308844709699,40.7769819782822],[-73.9306299937755,40.776599174286],[-73.9298820136337,40.7762299033926]]]}},{"type":"Feature","properties":{"e":"36008"},"geometry":{"type":"Polygon","coordinates":[[[-73.9232792632047,40.7751858945384],[-73.9233418406116,40.7751371835609],[-73.9239828553657,40.7746233840715],[-73.9244879336951,40.7740581274589],[-73.9249296505706,40.7734973128266],[-73.9269102269788,40.7740962690771],[-73.9268630827131,40.7741931421696],[-73.9275626634766,40.7744058408404],[-73.9283399606238,40.774645671995],[-73.9281978296141,40.7749184181938],[-73.9290416111433,40.7751813467316],[-73.9287084909781,40.7758228132764],[-73.9292226036671,40.7756781942881],[-73.9302589253152,40.7754899765942],[-73.929968684125,40.7760597581858],[-73.9298820136337,40.7762299033926],[-73.9290371491507,40.776475688627],[-73.928606577819,40.7766009467087],[-73.9283970389437,40.7767988012214],[-73.9282787358262,40.7769072470035],[-73.9263197609917,40.7782500471955],[-73.9258234392621,40.7783941783192],[-73.9257466432448,40.7784136434036],[-73.9256638737632,40.778302243719],[-73.9256225087848,40.7782481808419],[-73.924183594723,40.7763675080964],[-73.9232792632047,40.7751858945384]]]}},{"type":"Feature","properties":{"e":"36009"},"geometry":{"type":"Polygon","coordinates":[[[-73.9205195840251,40.7759122072007],[-73.9208373214819,40.7756519452691],[-73.9211716092449,40.775378142967],[-73.9214965993022,40.7751105282803],[-73.9217730926023,40.7748828612451],[-73.9223107193807,40.7744499124801],[-73.9223902593855,40.7743871268913],[-73.9224550100961,40.774336014531],[-73.9225166902212,40.774294291052],[-73.9218927400979,40.7737448329289],[-73.9212055393238,40.7732417136429],[-73.9212641256447,40.7732014016233],[-73.9214702101366,40.7730595783539],[-73.9216018774146,40.7729818007555],[-73.9228437701261,40.7713554559487],[-73.9230189494378,40.7711148867962],[-73.9232096723621,40.7708808563731],[-73.923415261752,40.7706542282503],[-73.9236349594815,40.7704357949134],[-73.9247845762477,40.7713630433447],[-73.925272792759,40.7717263358501],[-73.9259016970208,40.7722703582218],[-73.9251116196654,40.773284471323],[-73.9249296505706,40.7734973128266],[-73.9244879336951,40.7740581274589],[-73.9239828553657,40.7746233840715],[-73.9233418406116,40.7751371835609],[-73.9232792632047,40.7751858945384],[-73.9232112401336,40.7752430402838],[-73.9231469195173,40.7752952863246],[-73.9230271411972,40.7753925809533],[-73.9237590393331,40.7765552837875],[-73.9233118409544,40.7768915671327],[-73.9226503117403,40.7774309234092],[-73.9215235681671,40.7766212042429],[-73.9205195840251,40.7759122072007]]]}},{"type":"Feature","properties":{"e":"36010"},"geometry":{"type":"Polygon","coordinates":[[[-73.9143116962297,40.7715313378435],[-73.9135913554218,40.7710246449742],[-73.9128939541575,40.7705294730777],[-73.9121691478541,40.7700393823805],[-73.912433559072,40.7697480809825],[-73.912540190724,40.7696233844464],[-73.9126466381431,40.769498902773],[-73.9126796144656,40.769452830883],[-73.9128919783315,40.7694864006148],[-73.9136616719081,40.7696080718931],[-73.9146430844653,40.7697632020249],[-73.9157670736194,40.7699426119543],[-73.9162751639088,40.7700237088952],[-73.9166784157201,40.7701358790691],[-73.9168592210184,40.7702045025626],[-73.9170338915929,40.7702828820724],[-73.9171828499434,40.7703609684313],[-73.9172010764678,40.7703705227896],[-73.917359557298,40.7704667557799],[-73.9175082213753,40.7705708254114],[-73.9184687519358,40.7712903177724],[-73.9190981236847,40.7717617424078],[-73.9196316919313,40.7721336373023],[-73.9198314275521,40.772276713187],[-73.9197776583088,40.7723198916888],[-73.9197047919073,40.7723795665124],[-73.9195861005045,40.7724767694081],[-73.9177636618528,40.7739685443631],[-73.9170782093297,40.7734832041528],[-73.9163908629448,40.7729948178575],[-73.9153942954142,40.7723000356656],[-73.9148015490978,40.7718775220047],[-73.9143116962297,40.7715313378435]]]}},{"type":"Feature","properties":{"e":"36011"},"geometry":{"type":"Polygon","coordinates":[[[-73.9198314275521,40.772276713187],[-73.9196316919313,40.7721336373023],[-73.9190981236847,40.7717617424078],[-73.9184687519358,40.7712903177724],[-73.9175082213753,40.7705708254114],[-73.9175499020687,40.7705335295117],[-73.9176009045094,40.7704896771087],[-73.9177035965387,40.7704013823644],[-73.9180801769234,40.7700702665943],[-73.9182913329133,40.7698868383248],[-73.9199573929047,40.7684483352894],[-73.9203322654142,40.7681218022697],[-73.9207712575156,40.767657346612],[-73.9212434880359,40.7683866376147],[-73.9189998504516,40.7703171227868],[-73.9194920871339,40.7704481838896],[-73.9197751619518,40.7705276796205],[-73.9207879527035,40.7707991358603],[-73.9214231738906,40.7709708009834],[-73.9228437701261,40.7713554559487],[-73.9216018774146,40.7729818007555],[-73.9214702101366,40.7730595783539],[-73.9212641256447,40.7732014016233],[-73.9212055393238,40.7732417136429],[-73.9205193930208,40.7727670101586],[-73.9200326250803,40.7724201031769],[-73.9198314275521,40.772276713187]]]}},{"type":"Feature","properties":{"e":"36012"},"geometry":{"type":"Polygon","coordinates":[[[-73.9212434880359,40.7683866376147],[-73.9222050421606,40.7692315393391],[-73.922433301234,40.7694110017106],[-73.9229497829573,40.769859314196],[-73.9231769785336,40.7700504713434],[-73.9236349594815,40.7704357949134],[-73.923415261752,40.7706542282503],[-73.9232096723621,40.7708808563731],[-73.9230189494378,40.7711148867962],[-73.9228437701261,40.7713554559487],[-73.9214231738906,40.7709708009834],[-73.9207879527035,40.7707991358603],[-73.9197751619518,40.7705276796205],[-73.9194920871339,40.7704481838896],[-73.9189998504516,40.7703171227868],[-73.9212434880359,40.7683866376147]]]}},{"type":"Feature","properties":{"e":"36013"},"geometry":{"type":"Polygon","coordinates":[[[-73.9249296505706,40.7734973128266],[-73.9251116196654,40.773284471323],[-73.9259016970208,40.7722703582218],[-73.9262838215056,40.7722882980468],[-73.9266672186266,40.7722905595265],[-73.9270502182688,40.7722771069135],[-73.9274311618541,40.7722480353269],[-73.9289937805507,40.7721578241379],[-73.9301278341814,40.7721219832314],[-73.9307734032462,40.7721166731613],[-73.9322401299637,40.7720495661189],[-73.9328459283971,40.7723773884958],[-73.932686623258,40.7727083930334],[-73.9323960356813,40.7732037598478],[-73.932364622619,40.7732573099067],[-73.9323523063813,40.7732783043579],[-73.9323450708038,40.7732906377012],[-73.9318914108903,40.7740935262203],[-73.9318601057291,40.774148930037],[-73.9318185338059,40.7742225017841],[-73.9310470974716,40.7739890012449],[-73.9302589253152,40.7754899765942],[-73.9292226036671,40.7756781942881],[-73.9287084909781,40.7758228132764],[-73.9290416111433,40.7751813467316],[-73.9281978296141,40.7749184181938],[-73.9283399606238,40.774645671995],[-73.9275626634766,40.7744058408404],[-73.9268630827131,40.7741931421696],[-73.9269102269788,40.7740962690771],[-73.9249296505706,40.7734973128266]]]}},{"type":"Feature","properties":{"e":"36014"},"geometry":{"type":"Polygon","coordinates":[[[-73.9259016970208,40.7722703582218],[-73.925272792759,40.7717263358501],[-73.9247845762477,40.7713630433447],[-73.9250647390639,40.7710185851937],[-73.925460001923,40.770519286673],[-73.9257112470763,40.7702158625509],[-73.9259639005392,40.7699107363774],[-73.9262080558635,40.7696091783564],[-73.9264748391082,40.7692796659955],[-73.9271515448348,40.7684503356823],[-73.9284727918827,40.7690684410091],[-73.9305668820576,40.7700527477268],[-73.9299062891204,40.7708697628874],[-73.9293963826052,40.7714959940616],[-73.9289412531353,40.7720417611481],[-73.9289937805507,40.7721578241379],[-73.9274311618541,40.7722480353269],[-73.9270502182688,40.7722771069135],[-73.9266672186266,40.7722905595265],[-73.9262838215056,40.7722882980468],[-73.9259016970208,40.7722703582218]]]}},{"type":"Feature","properties":{"e":"36015"},"geometry":{"type":"Polygon","coordinates":[[[-73.9305668820576,40.7700527477268],[-73.9307886324567,40.7701710356712],[-73.931023319819,40.7702764185538],[-73.9312689427015,40.7703677329767],[-73.9315232644738,40.7704440569878],[-73.9317838802586,40.7705047622252],[-73.9320483029007,40.7705494930306],[-73.9327269542593,40.7697076680688],[-73.9331805336816,40.7691516344036],[-73.9334461138673,40.7688260598151],[-73.9352286114311,40.7695339996179],[-73.9350413273349,40.7696905722631],[-73.9348708257171,40.7698590053584],[-73.9348706838912,40.7698591485128],[-73.9348705530732,40.7698593015573],[-73.9347186136467,40.7700381283241],[-73.9345866459518,40.7702256916338],[-73.9344759205483,40.7704198673811],[-73.9342475258673,40.7710375459957],[-73.9341104825487,40.7714337473195],[-73.9340166132508,40.7717051275472],[-73.933992484194,40.7717426355398],[-73.93396441684,40.7717785248028],[-73.9339325976924,40.7718125568489],[-73.933897238187,40.7718445055319],[-73.9338585732866,40.7718741585495],[-73.9338168599196,40.771901318854],[-73.9337723752729,40.7719258059619],[-73.93372541495,40.7719474571532],[-73.9336762910045,40.7719661285379],[-73.9336253298739,40.7719816960567],[-73.9335728702015,40.771994056261],[-73.933519260589,40.7720031270154],[-73.9334648572803,40.7720088480434],[-73.9334100217938,40.7720111813278],[-73.9333551185203,40.7720101113637],[-73.9333005123006,40.7720056452609],[-73.9322401299637,40.7720495661189],[-73.9307734032462,40.7721166731613],[-73.9301278341814,40.7721219832314],[-73.9289937805507,40.7721578241379],[-73.9289412531353,40.7720417611481],[-73.9293963826052,40.7714959940616],[-73.9299062891204,40.7708697628874],[-73.9305668820576,40.7700527477268]]]}},{"type":"Feature","properties":{"e":"36016"},"geometry":{"type":"Polygon","coordinates":[[[-73.9305668820576,40.7700527477268],[-73.9284727918827,40.7690684410091],[-73.9271515448348,40.7684503356823],[-73.9278223078835,40.7676245630309],[-73.928187295465,40.7671769260345],[-73.9282922298104,40.7670482235411],[-73.9285577932763,40.7667225089906],[-73.9298579068422,40.7673348221109],[-73.9300812230533,40.7674306488947],[-73.9320251449743,40.7682647667437],[-73.9321955824459,40.7683320923985],[-73.9334461138673,40.7688260598151],[-73.9331805336816,40.7691516344036],[-73.9327269542593,40.7697076680688],[-73.9320483029007,40.7705494930306],[-73.9317838802586,40.7705047622252],[-73.9315232644738,40.7704440569878],[-73.9312689427015,40.7703677329767],[-73.931023319819,40.7702764185538],[-73.9307886324567,40.7701710356712],[-73.9305668820576,40.7700527477268]]]}},{"type":"Feature","properties":{"e":"36017"},"geometry":{"type":"Polygon","coordinates":[[[-73.9236349594815,40.7704357949134],[-73.9231769785336,40.7700504713434],[-73.9229497829573,40.769859314196],[-73.922433301234,40.7694110017106],[-73.9222050421606,40.7692315393391],[-73.9212434880359,40.7683866376147],[-73.9207712575156,40.767657346612],[-73.9202932532683,40.7668828442662],[-73.9197790723508,40.7661604542188],[-73.9205886984334,40.7665289692686],[-73.9213935267764,40.7668959404584],[-73.9222040254249,40.7672814368397],[-73.9229816436815,40.7676481562002],[-73.9235265295702,40.7679015612808],[-73.9242734458951,40.7682498474536],[-73.9250774501998,40.768627026394],[-73.9264748391082,40.7692796659955],[-73.9262080558635,40.7696091783564],[-73.9259639005392,40.7699107363774],[-73.9257112470763,40.7702158625509],[-73.925460001923,40.770519286673],[-73.9250647390639,40.7710185851937],[-73.9247845762477,40.7713630433447],[-73.9236349594815,40.7704357949134]]]}},{"type":"Feature","properties":{"e":"36018"},"geometry":{"type":"Polygon","coordinates":[[[-73.9250774501998,40.768627026394],[-73.9254188005636,40.7679222070242],[-73.9235036172336,40.767019267903],[-73.9243402329567,40.7659896256327],[-73.9259664036343,40.7667534981701],[-73.9263389190451,40.765956080108],[-73.9264393527725,40.7657410855311],[-73.9285577932763,40.7667225089906],[-73.9282922298104,40.7670482235411],[-73.928187295465,40.7671769260345],[-73.9278223078835,40.7676245630309],[-73.9271515448348,40.7684503356823],[-73.9264748391082,40.7692796659955],[-73.9250774501998,40.768627026394]]]}},{"type":"Feature","properties":{"e":"36019"},"geometry":{"type":"Polygon","coordinates":[[[-73.9129021870927,40.78109801824],[-73.9135896992623,40.7815857798527],[-73.913915045157,40.7818139495615],[-73.9145962701033,40.7822916678135],[-73.9150669818632,40.7819084382611],[-73.9154596807488,40.781588715917],[-73.9156152594543,40.7814605800104],[-73.9161728086069,40.7810101506692],[-73.917305127424,40.7818115238718],[-73.9165948868103,40.7823934841679],[-73.9163467735026,40.7825963318918],[-73.9161221983296,40.7827799336374],[-73.9157356250722,40.7830959528128],[-73.9153153774246,40.782798785083],[-73.9131475009499,40.7845716708794],[-73.912562717011,40.7841551652149],[-73.9124295926758,40.7840607994545],[-73.9119076453048,40.783692851999],[-73.9114094799566,40.7833411844734],[-73.9113423545812,40.7832941868781],[-73.911083263904,40.7831110714836],[-73.9107329020176,40.7828634587568],[-73.910962282531,40.7826767822161],[-73.9129021870927,40.78109801824]]]}},{"type":"Feature","properties":{"e":"36020"},"geometry":{"type":"Polygon","coordinates":[[[-73.9197790723508,40.7661604542188],[-73.9200499421554,40.7658283660992],[-73.9216173078995,40.7639066888446],[-73.9212071553222,40.7637154485167],[-73.9208180054851,40.7635319657117],[-73.9210820629246,40.7632076812595],[-73.921881586272,40.7635826553588],[-73.9226646478558,40.7639745796859],[-73.9234586734116,40.7643563290857],[-73.925381577742,40.7619779616603],[-73.9261890497169,40.762359125784],[-73.925941614823,40.7626627063469],[-73.9242559647235,40.7647308070239],[-73.9239725913969,40.7650795222498],[-73.9235400781561,40.7656117677967],[-73.9222040254249,40.7672814368397],[-73.9213935267764,40.7668959404584],[-73.9205886984334,40.7665289692686],[-73.9197790723508,40.7661604542188]]]}},{"type":"Feature","properties":{"e":"36021"},"geometry":{"type":"Polygon","coordinates":[[[-73.9166784157201,40.7701358790691],[-73.9167050348301,40.7700852271462],[-73.9167316224368,40.7700207905076],[-73.9167706287274,40.7699262567857],[-73.9168284474331,40.7697997604926],[-73.9163386790242,40.7697213076039],[-73.9158501289359,40.7696418461891],[-73.9176959529536,40.767365533778],[-73.918987757001,40.7657795636583],[-73.9197790723508,40.7661604542188],[-73.9202932532683,40.7668828442662],[-73.9207712575156,40.767657346612],[-73.9203322654142,40.7681218022697],[-73.9199573929047,40.7684483352894],[-73.9182913329133,40.7698868383248],[-73.9180801769234,40.7700702665943],[-73.9177035965387,40.7704013823644],[-73.9176009045094,40.7704896771087],[-73.9175499020687,40.7705335295117],[-73.9175082213753,40.7705708254114],[-73.917359557298,40.7704667557799],[-73.9172010764678,40.7703705227896],[-73.9171828499434,40.7703609684313],[-73.9170338915929,40.7702828820724],[-73.9168592210184,40.7702045025626],[-73.9166784157201,40.7701358790691]]]}},{"type":"Feature","properties":{"e":"36022"},"geometry":{"type":"Polygon","coordinates":[[[-73.9126796144656,40.769452830883],[-73.9127197182934,40.769409195181],[-73.9128143232332,40.7692949795695],[-73.9129182019994,40.7691695686087],[-73.9138899248643,40.7693322008239],[-73.9161033056613,40.7666141849717],[-73.9173901941286,40.7650281465685],[-73.9181911524523,40.7654024631978],[-73.918987757001,40.7657795636583],[-73.9176959529536,40.767365533778],[-73.9158501289359,40.7696418461891],[-73.9163386790242,40.7697213076039],[-73.9168284474331,40.7697997604926],[-73.9167706287274,40.7699262567857],[-73.9167316224368,40.7700207905076],[-73.9167050348301,40.7700852271462],[-73.9166784157201,40.7701358790691],[-73.9162751639088,40.7700237088952],[-73.9157670736194,40.7699426119543],[-73.9146430844653,40.7697632020249],[-73.9136616719081,40.7696080718931],[-73.9128919783315,40.7694864006148],[-73.9126796144656,40.769452830883]]]}},{"type":"Feature","properties":{"e":"36023"},"geometry":{"type":"Polygon","coordinates":[[[-73.9129182019994,40.7691695686087],[-73.9119416824892,40.7690184238278],[-73.9145004466368,40.7658646695166],[-73.9141337230201,40.76569187752],[-73.9137021360157,40.7654885093939],[-73.9149935386261,40.7639005741367],[-73.9157925971996,40.7642760407741],[-73.916591165671,40.7646522491551],[-73.9173901941286,40.7650281465685],[-73.9161033056613,40.7666141849717],[-73.9138899248643,40.7693322008239],[-73.9129182019994,40.7691695686087]]]}},{"type":"Feature","properties":{"e":"36024"},"geometry":{"type":"Polygon","coordinates":[[[-73.9102422144154,40.7694355944774],[-73.9103124703504,40.7693773619519],[-73.9104506020701,40.7692628692121],[-73.9106005304755,40.7691386076507],[-73.9106219512283,40.7691223809718],[-73.9107605451086,40.7690173894387],[-73.9108847267283,40.7689108736666],[-73.9109431710724,40.7688607438842],[-73.9099814844609,40.7687055054733],[-73.9108876885646,40.7675887033971],[-73.9129018578646,40.7651111000204],[-73.9141953789644,40.7635242560909],[-73.9147849357686,40.7638009230661],[-73.9149935386261,40.7639005741367],[-73.9137021360157,40.7654885093939],[-73.9141337230201,40.76569187752],[-73.9145004466368,40.7658646695166],[-73.9119416824892,40.7690184238278],[-73.9129182019994,40.7691695686087],[-73.9128143232332,40.7692949795695],[-73.9127197182934,40.769409195181],[-73.9126796144656,40.769452830883],[-73.9126466381431,40.769498902773],[-73.912540190724,40.7696233844464],[-73.912433559072,40.7697480809825],[-73.9121691478541,40.7700393823805],[-73.9120291954871,40.769955951834],[-73.9118990870681,40.7698629835298],[-73.9117804438801,40.7697615321439],[-73.9116746024091,40.7696528772923],[-73.9113840835673,40.769614003858],[-73.9102422144154,40.7694355944774]]]}},{"type":"Feature","properties":{"e":"36025"},"geometry":{"type":"Polygon","coordinates":[[[-73.918987757001,40.7657795636583],[-73.9181911524523,40.7654024631978],[-73.9173901941286,40.7650281465685],[-73.9176393853214,40.7647223969755],[-73.9187719605786,40.7633327045108],[-73.9192565949249,40.7627380247094],[-73.919485307069,40.7624573743395],[-73.9202848610088,40.762830973486],[-73.9210820629246,40.7632076812595],[-73.9208180054851,40.7635319657117],[-73.9212071553222,40.7637154485167],[-73.9216173078995,40.7639066888446],[-73.9200499421554,40.7658283660992],[-73.9197790723508,40.7661604542188],[-73.918987757001,40.7657795636583]]]}},{"type":"Feature","properties":{"e":"36026"},"geometry":{"type":"Polygon","coordinates":[[[-73.9149935386261,40.7639005741367],[-73.9147849357686,40.7638009230661],[-73.9141953789644,40.7635242560909],[-73.9151589583201,40.7623473157242],[-73.9162953762098,40.7609535448856],[-73.9154940485516,40.7605760075641],[-73.917405218447,40.7582322526418],[-73.9175972318087,40.7583224975288],[-73.9182043645508,40.7586078391645],[-73.9189996483781,40.7589820746802],[-73.9198006469692,40.7593577133627],[-73.9178895027917,40.7617033448761],[-73.9157925971996,40.7642760407741],[-73.9149935386261,40.7639005741367]]]}},{"type":"Feature","properties":{"e":"36027"},"geometry":{"type":"Polygon","coordinates":[[[-73.9146973396863,40.7601960834966],[-73.914648697902,40.7600226733357],[-73.9142684290681,40.7593749456162],[-73.9158073567293,40.757481011768],[-73.9166056552145,40.7578567069861],[-73.917405218447,40.7582322526418],[-73.9154940485516,40.7605760075641],[-73.9146973396863,40.7601960834966]]]}},{"type":"Feature","properties":{"e":"36028"},"geometry":{"type":"Polygon","coordinates":[[[-73.913786838664,40.7586112179905],[-73.9150085804608,40.757106445292],[-73.9142135587217,40.7567290664668],[-73.9160748504266,40.7544375425663],[-73.9165067685327,40.7538998583814],[-73.9176333517099,40.7538661163207],[-73.9189249042943,40.7536443918639],[-73.9197231027234,40.7540208489894],[-73.9191715744611,40.754701524776],[-73.9190773855409,40.7548177683298],[-73.9189806455506,40.7549371605064],[-73.9188872030368,40.7550524768342],[-73.9187915064047,40.7551705834852],[-73.9187298234677,40.7552467137599],[-73.9184714907718,40.7555655268395],[-73.9176709243723,40.7551892026761],[-73.9174776937858,40.7554268457441],[-73.9158073567293,40.757481011768],[-73.9142684290681,40.7593749456162],[-73.913786838664,40.7586112179905]]]}},{"type":"Feature","properties":{"e":"36029"},"geometry":{"type":"Polygon","coordinates":[[[-73.9229061824778,40.7555144327508],[-73.9221203235643,40.7551478839708],[-73.9213220306235,40.7547684988658],[-73.9205224481364,40.7543959147349],[-73.9197231027234,40.7540208489894],[-73.9189249042943,40.7536443918639],[-73.9202782700839,40.7533463855603],[-73.9204806837259,40.7532935046198],[-73.9216205194137,40.7530359216639],[-73.9220416288813,40.7529458952591],[-73.9229678580293,40.7527370699959],[-73.9244189100974,40.7524125693017],[-73.9245876811268,40.7518185775809],[-73.9246351201642,40.7516516125241],[-73.9265174815245,40.751521341099],[-73.9315205476435,40.751160722196],[-73.9339408218714,40.7502779120439],[-73.9346484829486,40.7498585827072],[-73.9353882813272,40.749420199202],[-73.936096418789,40.7497397969655],[-73.9347440195381,40.7509873104504],[-73.9338341218126,40.7516129684728],[-73.9322776604051,40.7519621526929],[-73.9319600653007,40.7519825253517],[-73.9312664953295,40.7520007889085],[-73.9301557501932,40.7520203912839],[-73.9297116923729,40.7525636131565],[-73.9289546153194,40.7521659990333],[-73.9287435830851,40.7520498915103],[-73.9279094993883,40.7520590620818],[-73.926470095388,40.7520768352874],[-73.9259621501364,40.7521047347389],[-73.9256288630654,40.7521455116796],[-73.9241584252265,40.7539694096646],[-73.9249554259006,40.7543450195484],[-73.9237058256986,40.7558883051578],[-73.9229061824778,40.7555144327508]]]}},{"type":"Feature","properties":{"e":"36030"},"geometry":{"type":"Polygon","coordinates":[[[-73.9224640656464,40.757431447658],[-73.9237058256986,40.7558883051578],[-73.9249554259006,40.7543450195484],[-73.9241584252265,40.7539694096646],[-73.9256288630654,40.7521455116796],[-73.9259621501364,40.7521047347389],[-73.926470095388,40.7520768352874],[-73.9279094993883,40.7520590620818],[-73.9287435830851,40.7520498915103],[-73.9289546153194,40.7521659990333],[-73.9297116923729,40.7525636131565],[-73.928783188826,40.7537037590123],[-73.927353710721,40.7554683438811],[-73.9261035161328,40.7570125551361],[-73.9253026517873,40.7566370233995],[-73.9240557116546,40.7581846187859],[-73.923259389666,40.7578110922476],[-73.922832142286,40.7576101515598],[-73.9224640656464,40.757431447658]]]}},{"type":"Feature","properties":{"e":"36031"},"geometry":{"type":"Polygon","coordinates":[[[-73.9256550392822,40.7589304421719],[-73.9266690972483,40.7576776095227],[-73.9269042253428,40.7573871090267],[-73.928155152139,40.7558441231242],[-73.9289573010533,40.7562208517649],[-73.9297519482703,40.7565888452963],[-73.9285024951195,40.7581368830926],[-73.9272481938239,40.7596791851283],[-73.9264545612368,40.7593044131356],[-73.9256550392822,40.7589304421719]]]}},{"type":"Feature","properties":{"e":"36032"},"geometry":{"type":"Polygon","coordinates":[[[-73.9248556657827,40.7585589881687],[-73.9261035161328,40.7570125551361],[-73.927353710721,40.7554683438811],[-73.928783188826,40.7537037590123],[-73.9297116923729,40.7525636131565],[-73.9301557501932,40.7520203912839],[-73.9312664953295,40.7520007889085],[-73.9319600653007,40.7519825253517],[-73.9322776604051,40.7519621526929],[-73.9338341218126,40.7516129684728],[-73.9329113311005,40.7527014706916],[-73.9337017513443,40.7531199692994],[-73.9327926208283,40.7542028059391],[-73.9320234146943,40.7537947408421],[-73.9310586477653,40.754982438876],[-73.9297519482703,40.7565888452963],[-73.9289573010533,40.7562208517649],[-73.928155152139,40.7558441231242],[-73.9269042253428,40.7573871090267],[-73.9266690972483,40.7576776095227],[-73.9256550392822,40.7589304421719],[-73.9248556657827,40.7585589881687]]]}},{"type":"Feature","properties":{"e":"36033"},"geometry":{"type":"Polygon","coordinates":[[[-73.9189996483781,40.7589820746802],[-73.9197869353606,40.758012804116],[-73.9208664913934,40.7566864701926],[-73.9216605959275,40.7570596880158],[-73.9198006469692,40.7593577133627],[-73.9189996483781,40.7589820746802]]]}},{"type":"Feature","properties":{"e":"36034"},"geometry":{"type":"Polygon","coordinates":[[[-73.9391461649405,40.7608098875322],[-73.9390442797902,40.7607737001737],[-73.9390123827914,40.7607623711054],[-73.9383439134201,40.7605249456853],[-73.937490736343,40.7602102367737],[-73.9374647634487,40.7601983708889],[-73.9367923458149,40.7598911496918],[-73.9379184856222,40.7587148729577],[-73.9385752284915,40.7580245065197],[-73.9390995308762,40.7574788488387],[-73.9400417774428,40.7564950184108],[-73.9412400463702,40.7552426821747],[-73.9420517856635,40.7556577037294],[-73.9428235601346,40.7560668381374],[-73.9435486848698,40.7564493792254],[-73.9443515190798,40.7568833809228],[-73.9450683605395,40.7573379129036],[-73.9458324345677,40.7578174744032],[-73.9478333285088,40.7589974607927],[-73.9459656744186,40.7613008746148],[-73.9458069802271,40.7614578356644],[-73.9457066885563,40.7614964251085],[-73.9447319216406,40.7628648153631],[-73.9447160406076,40.7628871087857],[-73.9443744532569,40.7627154456367],[-73.944276445113,40.7626661801829],[-73.9440664096476,40.7625752229314],[-73.9426864073408,40.7620510248367],[-73.9424732365604,40.7620021714109],[-73.9416165810546,40.7616941111914],[-73.940797546419,40.7613996685329],[-73.9399811222609,40.7611080133817],[-73.9391461649405,40.7608098875322]]]}},{"type":"Feature","properties":{"e":"36035"},"geometry":{"type":"Polygon","coordinates":[[[-73.9406134421428,40.7477534387037],[-73.9405883277287,40.747721878721],[-73.9398663843277,40.7465368869768],[-73.9397232965934,40.7463231493599],[-73.9395497795828,40.7460377360627],[-73.9393568147979,40.7457019181716],[-73.939318613537,40.7456354355187],[-73.9397961060904,40.745715858636],[-73.9399660639675,40.7457538496628],[-73.940385836446,40.7458476932643],[-73.9404795813189,40.7458686518721],[-73.9407031773045,40.7459183154389],[-73.941711371753,40.7461422427495],[-73.942740964425,40.7463630726281],[-73.9427812821572,40.7463708290261],[-73.942820877077,40.7463805030593],[-73.9428549530539,40.7463910528954],[-73.9428877471737,40.7464037367388],[-73.9429190288789,40.7464184654166],[-73.9429485782447,40.7464351353798],[-73.9429860388345,40.7464610386257],[-73.9430193267027,40.7464900512899],[-73.9430479986619,40.7465217871091],[-73.9430716729775,40.7465558235643],[-73.943202022271,40.7467594177353],[-73.9432267628485,40.7468016036604],[-73.9423831827599,40.7471300046223],[-73.9424717238558,40.7471517044923],[-73.9427300758623,40.7472089541542],[-73.9431962652631,40.7477092724153],[-73.9424806689721,40.7479503882566],[-73.9416801552104,40.748239538215],[-73.9411609226891,40.7484274667362],[-73.9411086285548,40.7484463964403],[-73.940829911813,40.7479954613265],[-73.9406943319468,40.7477758335721],[-73.9406683907544,40.7477329264622],[-73.9406134421428,40.7477534387037]]]}},{"type":"Feature","properties":{"e":"36036"},"geometry":{"type":"Polygon","coordinates":[[[-73.9491143848133,40.754531886893],[-73.9482758779441,40.7541620446115],[-73.9474525626538,40.7538050723186],[-73.9473236788007,40.7537492384967],[-73.9465593786474,40.7534181279987],[-73.9463591475499,40.7533309830201],[-73.9459765481801,40.7531644632173],[-73.945719215268,40.7530524624592],[-73.9455304839577,40.7529656734251],[-73.9450484182387,40.7527439828425],[-73.9448180254402,40.7526399648084],[-73.9445854510794,40.7525431557534],[-73.9440540834697,40.7523215272272],[-73.9436950622828,40.7521657800119],[-73.943455547884,40.7520618738941],[-73.9429155595141,40.7518270952828],[-73.9427080089502,40.7517380579819],[-73.9425648536452,40.7516752389434],[-73.9425911354433,40.7516277426385],[-73.9426156106631,40.7515737777459],[-73.9426292409622,40.7514903612104],[-73.9426641977282,40.751433593118],[-73.9431280407581,40.7509157050697],[-73.9433655666987,40.7506505015462],[-73.9434869888346,40.7505329437458],[-73.9434221032011,40.7504968564119],[-73.943383950464,40.7504272193223],[-73.9433258285016,40.7503649293076],[-73.9432520065883,40.7503145454877],[-73.9431687106055,40.7502787370835],[-73.9431422848919,40.7502644409295],[-73.9424179486002,40.7498689031334],[-73.9422257609501,40.749755127657],[-73.9420460050395,40.749629209282],[-73.9418806112755,40.749492375499],[-73.9417312113293,40.7493460932164],[-73.9414434772802,40.7489818914422],[-73.9412462189383,40.7486606157914],[-73.9411086285548,40.7484463964403],[-73.9411609226891,40.7484274667362],[-73.9416801552104,40.748239538215],[-73.9424806689721,40.7479503882566],[-73.9431962652631,40.7477092724153],[-73.9427300758623,40.7472089541542],[-73.943843502525,40.7474378892094],[-73.945057716203,40.7476721556047],[-73.9473565810814,40.7481156657666],[-73.9496295773238,40.7485482681905],[-73.951640947501,40.748942733805],[-73.9522148465502,40.74906382955],[-73.9543657527315,40.7494131888676],[-73.9557618267198,40.7496049249016],[-73.9561755997108,40.7496733603645],[-73.9562009648677,40.7496789802956],[-73.9562028034683,40.7496938986971],[-73.9561220988884,40.7497681507601],[-73.9560893798738,40.7497769945629],[-73.9560638927616,40.7497725432233],[-73.9555966072608,40.7496922339336],[-73.9554658039234,40.7496824784793],[-73.9553507196876,40.7500221223712],[-73.955216734158,40.7500002331569],[-73.955229528794,40.749951711498],[-73.9551338259931,40.74993468979],[-73.9552041848845,40.7496848028158],[-73.9550679600311,40.7496409957779],[-73.9545172800447,40.7505949645854],[-73.9546514384998,40.7508393066112],[-73.9544772941559,40.7511055312699],[-73.9545000159809,40.751234101475],[-73.9539210208552,40.7518072690155],[-73.9539504012426,40.7518316732368],[-73.9538936004375,40.7518990236562],[-73.9537545633794,40.7520098167686],[-73.9536224738353,40.7520934736143],[-73.9529311439871,40.7527719154947],[-73.9529003960288,40.7528081857283],[-73.9529093410972,40.7528686555829],[-73.9527890353616,40.7529891512464],[-73.9525693587075,40.7531759376964],[-73.9520114535953,40.7538432796233],[-73.951931620963,40.7538930881925],[-73.9516713346635,40.7541916814446],[-73.9515383263814,40.7543388948778],[-73.9513158150622,40.7545878171449],[-73.951019360788,40.7550951863374],[-73.9508784535992,40.7551751813381],[-73.9508406048344,40.7552263502608],[-73.9508090715898,40.7552719467687],[-73.9491143848133,40.754531886893]]]}},{"type":"Feature","properties":{"e":"36037"},"geometry":{"type":"Polygon","coordinates":[[[-73.9408490554488,40.7509321720548],[-73.9406472705171,40.7508426597203],[-73.9404432290064,40.7507460556548],[-73.9402147348535,40.7506454844176],[-73.9396349170329,40.7503902772307],[-73.9388341377996,40.7500483816813],[-73.9381535404179,40.7497677481447],[-73.9379907077619,40.7496967884826],[-73.9379347870062,40.749616814199],[-73.9378284772517,40.7494230830233],[-73.93766212655,40.7491856661273],[-73.9375996182479,40.7491253767936],[-73.9375294254075,40.7490576697209],[-73.9374604953275,40.7489911791956],[-73.9373979665465,40.7489247063472],[-73.937659680386,40.748828467612],[-73.9379057321414,40.748740710235],[-73.9389171879289,40.7483781855563],[-73.9391754253391,40.7482860826088],[-73.9397384247202,40.7480746547021],[-73.9406134421428,40.7477534387037],[-73.9406683907544,40.7477329264622],[-73.9406943319468,40.7477758335721],[-73.940829911813,40.7479954613265],[-73.9411086285548,40.7484463964403],[-73.9412462189383,40.7486606157914],[-73.9414434772802,40.7489818914422],[-73.9417312113293,40.7493460932164],[-73.9418806112755,40.749492375499],[-73.9420460050395,40.749629209282],[-73.9422257609501,40.749755127657],[-73.9424179486002,40.7498689031334],[-73.9431422848919,40.7502644409295],[-73.9431687106055,40.7502787370835],[-73.9432520065883,40.7503145454877],[-73.9433258285016,40.7503649293076],[-73.943383950464,40.7504272193223],[-73.9434221032011,40.7504968564119],[-73.9434869888346,40.7505329437458],[-73.9433655666987,40.7506505015462],[-73.9431280407581,40.7509157050697],[-73.9426641977282,40.751433593118],[-73.9426292409622,40.7514903612104],[-73.9426156106631,40.7515737777459],[-73.9425911354433,40.7516277426385],[-73.9425648536452,40.7516752389434],[-73.9420698152696,40.7514702712679],[-73.9414320738894,40.7511954860134],[-73.9409604308022,40.7509833720785],[-73.9408935611775,40.7509526317503],[-73.9408490554488,40.7509321720548]]]}},{"type":"Feature","properties":{"e":"36038"},"geometry":{"type":"Polygon","coordinates":[[[-73.9412400463702,40.7552426821747],[-73.9424317458595,40.7540051322556],[-73.9435595452683,40.7528279472581],[-73.9437002103726,40.7526810397446],[-73.9437498018693,40.7526292469736],[-73.9438367991318,40.7525383894205],[-73.9439176357181,40.752458955255],[-73.9439266423457,40.7524493716176],[-73.9439642745535,40.7524123430379],[-73.9440196648731,40.7523581875008],[-73.9440540834697,40.7523215272272],[-73.9445854510794,40.7525431557534],[-73.9448180254402,40.7526399648084],[-73.9450484182387,40.7527439828425],[-73.9455304839577,40.7529656734251],[-73.945719215268,40.7530524624592],[-73.9459765481801,40.7531644632173],[-73.9463591475499,40.7533309830201],[-73.9465593786474,40.7534181279987],[-73.9473236788007,40.7537492384967],[-73.9474525626538,40.7538050723186],[-73.9482758779441,40.7541620446115],[-73.9491143848133,40.754531886893],[-73.9490841388732,40.7545647242154],[-73.9490316824579,40.7546216605469],[-73.9489716463549,40.7546868294126],[-73.9487809820074,40.7548986853536],[-73.947898143309,40.7544935672784],[-73.9462344846238,40.7537932462969],[-73.9461467732795,40.7538916907228],[-73.9452840040207,40.7535089869624],[-73.9442304661342,40.7546017359416],[-73.9440208541468,40.7548181442794],[-73.9431474903501,40.7557290081586],[-73.9429047697838,40.7559821437508],[-73.9428235601346,40.7560668381374],[-73.9420517856635,40.7556577037294],[-73.9412400463702,40.7552426821747]]]}},{"type":"Feature","properties":{"e":"36039"},"geometry":{"type":"Polygon","coordinates":[[[-73.9428235601346,40.7560668381374],[-73.9429047697838,40.7559821437508],[-73.9431474903501,40.7557290081586],[-73.9440208541468,40.7548181442794],[-73.9442304661342,40.7546017359416],[-73.9452840040207,40.7535089869624],[-73.9461467732795,40.7538916907228],[-73.9466502481859,40.7541087007117],[-73.946728205736,40.7541439179331],[-73.9470334314901,40.7542817647678],[-73.9458784924031,40.7554598095671],[-73.9456771900895,40.7556654138369],[-73.9445505355439,40.7567005379855],[-73.9443515190798,40.7568833809228],[-73.9435486848698,40.7564493792254],[-73.9428235601346,40.7560668381374]]]}},{"type":"Feature","properties":{"e":"36040"},"geometry":{"type":"Polygon","coordinates":[[[-73.9443515190798,40.7568833809228],[-73.9445505355439,40.7567005379855],[-73.9456771900895,40.7556654138369],[-73.9458784924031,40.7554598095671],[-73.9470334314901,40.7542817647678],[-73.946728205736,40.7541439179331],[-73.9466502481859,40.7541087007117],[-73.9461467732795,40.7538916907228],[-73.9462344846238,40.7537932462969],[-73.947898143309,40.7544935672784],[-73.9487809820074,40.7548986853536],[-73.9489716463549,40.7546868294126],[-73.9490316824579,40.7546216605469],[-73.9490841388732,40.7545647242154],[-73.9491143848133,40.754531886893],[-73.9508090715898,40.7552719467687],[-73.9507726599922,40.7553162358203],[-73.9507266797224,40.7553712022277],[-73.9506648516335,40.7554445895264],[-73.9491516510946,40.7573372130143],[-73.9478333285088,40.7589974607927],[-73.9458324345677,40.7578174744032],[-73.9450683605395,40.7573379129036],[-73.9443515190798,40.7568833809228]]]}},{"type":"Feature","properties":{"e":"36041"},"geometry":{"type":"Polygon","coordinates":[[[-73.9338341218126,40.7516129684728],[-73.9347440195381,40.7509873104504],[-73.936096418789,40.7497397969655],[-73.9353882813272,40.749420199202],[-73.9367491795585,40.7485014777323],[-73.9368649852142,40.7484295294505],[-73.9373979665465,40.7489247063472],[-73.9374604953275,40.7489911791956],[-73.9375294254075,40.7490576697209],[-73.9375996182479,40.7491253767936],[-73.93766212655,40.7491856661273],[-73.9378284772517,40.7494230830233],[-73.9379347870062,40.749616814199],[-73.9379907077619,40.7496967884826],[-73.9379098781623,40.7496647564863],[-73.9377870621007,40.7496160851765],[-73.9379250173438,40.7497877947034],[-73.9378442367234,40.7497520551659],[-73.937723057669,40.7497024793603],[-73.9376339905072,40.7496661280795],[-73.9378130560071,40.7499057442793],[-73.9368026037091,40.7510129881001],[-73.9365920655333,40.7512384408367],[-73.9361312160708,40.751731952127],[-73.9356158849154,40.7522901139468],[-73.9347508630207,40.7519672724304],[-73.9337017513443,40.7531199692994],[-73.9329113311005,40.7527014706916],[-73.9338341218126,40.7516129684728]]]}},{"type":"Feature","properties":{"e":"36042"},"geometry":{"type":"Polygon","coordinates":[[[-73.9375505328408,40.7551685746236],[-73.9387110699212,40.7539067338595],[-73.9379412527183,40.7534972395894],[-73.9391030761694,40.752238736257],[-73.9402642452487,40.7509753669264],[-73.9403023568718,40.7509551228887],[-73.9403424367641,40.7509372116212],[-73.9403842385698,40.7509217432168],[-73.9404275053495,40.7509088127536],[-73.9404719710919,40.7508984993747],[-73.940517362588,40.7508908668055],[-73.9405634008348,40.7508859619603],[-73.9406098028542,40.750883814987],[-73.9408490554488,40.7509321720548],[-73.9408935611775,40.7509526317503],[-73.9409604308022,40.7509833720785],[-73.9414320738894,40.7511954860134],[-73.9420698152696,40.7514702712679],[-73.9425648536452,40.7516752389434],[-73.9427080089502,40.7517380579819],[-73.9429155595141,40.7518270952828],[-73.943455547884,40.7520618738941],[-73.9436950622828,40.7521657800119],[-73.9440540834697,40.7523215272272],[-73.9440196648731,40.7523581875008],[-73.9439642745535,40.7524123430379],[-73.9439266423457,40.7524493716176],[-73.9439176357181,40.752458955255],[-73.9438367991318,40.7525383894205],[-73.9437498018693,40.7526292469736],[-73.9437002103726,40.7526810397446],[-73.9435595452683,40.7528279472581],[-73.9424317458595,40.7540051322556],[-73.9412400463702,40.7552426821747],[-73.9400417774428,40.7564950184108],[-73.9390881265781,40.7559879033348],[-73.9382957939751,40.7555657474274],[-73.9375505328408,40.7551685746236]]]}},{"type":"Feature","properties":{"e":"36043"},"geometry":{"type":"Polygon","coordinates":[[[-73.9297519482703,40.7565888452963],[-73.9310586477653,40.754982438876],[-73.9320234146943,40.7537947408421],[-73.9327926208283,40.7542028059391],[-73.9337017513443,40.7531199692994],[-73.9344716926139,40.7535296545122],[-73.9352411818534,40.7539388555052],[-73.9343365866535,40.7550237323011],[-73.9333467255344,40.7562474197261],[-73.932153430997,40.7577186531145],[-73.9313527147982,40.757342352765],[-73.9305541017898,40.7569672102198],[-73.9297519482703,40.7565888452963]]]}},{"type":"Feature","properties":{"e":"36044"},"geometry":{"type":"Polygon","coordinates":[[[-73.9272481938239,40.7596791851283],[-73.9285024951195,40.7581368830926],[-73.9297519482703,40.7565888452963],[-73.9305541017898,40.7569672102198],[-73.9313527147982,40.757342352765],[-73.932153430997,40.7577186531145],[-73.9309017804876,40.7592611501509],[-73.9296520466389,40.760806030066],[-73.9288509752046,40.7604297216762],[-73.9284735182561,40.7602530693965],[-73.92805283521,40.7600561914564],[-73.9272481938239,40.7596791851283]]]}},{"type":"Feature","properties":{"e":"36045"},"geometry":{"type":"Polygon","coordinates":[[[-73.93055106645,40.761228869833],[-73.9296520466389,40.760806030066],[-73.9309017804876,40.7592611501509],[-73.932153430997,40.7577186531145],[-73.9333544941094,40.758282601878],[-73.9342516357602,40.7587034022005],[-73.9336463802164,40.7593719347651],[-73.9335893265314,40.7594349519592],[-73.9334309699343,40.7596098628669],[-73.9333792582777,40.7596669795947],[-73.9332094317709,40.7598545548867],[-73.9331548358742,40.7599148565183],[-73.93302098629,40.7600626953067],[-73.9329747478949,40.7601137656698],[-73.9328984989522,40.7601979833134],[-73.9322209740765,40.7609782623889],[-73.9321913132649,40.7610124213953],[-73.9320066586054,40.761225077514],[-73.9319764236184,40.761259897685],[-73.9318280597685,40.7614307586227],[-73.9318033244092,40.7614592438262],[-73.9316461616453,40.7616402363089],[-73.9316219828869,40.7616680805137],[-73.931581920863,40.7617142168167],[-73.93055106645,40.761228869833]]]}},{"type":"Feature","properties":{"e":"36046"},"geometry":{"type":"Polygon","coordinates":[[[-73.931581920863,40.7617142168167],[-73.9316219828869,40.7616680805137],[-73.9316461616453,40.7616402363089],[-73.9318033244092,40.7614592438262],[-73.9318280597685,40.7614307586227],[-73.9319764236184,40.761259897685],[-73.9320066586054,40.761225077514],[-73.9321913132649,40.7610124213953],[-73.9322209740765,40.7609782623889],[-73.9328984989522,40.7601979833134],[-73.9329747478949,40.7601137656698],[-73.93302098629,40.7600626953067],[-73.9331548358742,40.7599148565183],[-73.9332094317709,40.7598545548867],[-73.9333792582777,40.7596669795947],[-73.9334309699343,40.7596098628669],[-73.9335893265314,40.7594349519592],[-73.9336463802164,40.7593719347651],[-73.9342516357602,40.7587034022005],[-73.934961961253,40.7590333537731],[-73.9350355309452,40.7590675261849],[-73.9350613030372,40.759079497378],[-73.9358002211588,40.7594263126485],[-73.9358831801227,40.7594652486581],[-73.9367923458149,40.7598911496918],[-73.9360572742542,40.7606615782719],[-73.9360184485476,40.760702270541],[-73.9359341901645,40.7607905804049],[-73.9358939984793,40.7608327035481],[-73.9358455045736,40.7608835290464],[-73.9358132808287,40.7609173027504],[-73.935776320191,40.7609560406131],[-73.935701033172,40.7610349457088],[-73.9356645723809,40.7610731591229],[-73.9356099780455,40.7611303779229],[-73.9355667159458,40.7611757194171],[-73.9355055187168,40.7612398584872],[-73.9354685577211,40.7612785962494],[-73.9354346627297,40.7613141200579],[-73.9353909818986,40.7613636519109],[-73.9348093457492,40.7619686847935],[-73.9347264596351,40.762055438723],[-73.9346402034869,40.7621457182726],[-73.934574664741,40.7622143134135],[-73.9343732210821,40.7624251538005],[-73.9342985545703,40.7625033024413],[-73.9341095983727,40.7627010702323],[-73.9340440766187,40.7627696469833],[-73.9339823505142,40.7628342514877],[-73.9339339373056,40.762811663027],[-73.9339089933962,40.762800025273],[-73.9330418264098,40.762395416457],[-73.9326983373409,40.7622351449966],[-73.9322487880615,40.7620243783583],[-73.9318720538501,40.7618498391358],[-73.9318320318079,40.7618309222264],[-73.931581920863,40.7617142168167]]]}},{"type":"Feature","properties":{"e":"36047"},"geometry":{"type":"Polygon","coordinates":[[[-73.9354151581686,40.7635050576449],[-73.9339823505142,40.7628342514877],[-73.9340440766187,40.7627696469833],[-73.9341095983727,40.7627010702323],[-73.9342985545703,40.7625033024413],[-73.9343732210821,40.7624251538005],[-73.934574664741,40.7622143134135],[-73.9346402034869,40.7621457182726],[-73.9347264596351,40.762055438723],[-73.9348093457492,40.7619686847935],[-73.9353909818986,40.7613636519109],[-73.9354346627297,40.7613141200579],[-73.9354685577211,40.7612785962494],[-73.9355055187168,40.7612398584872],[-73.9355667159458,40.7611757194171],[-73.9356099780455,40.7611303779229],[-73.9356645723809,40.7610731591229],[-73.935701033172,40.7610349457088],[-73.935776320191,40.7609560406131],[-73.9358132808287,40.7609173027504],[-73.9358455045736,40.7608835290464],[-73.9358939984793,40.7608327035481],[-73.9359341901645,40.7607905804049],[-73.9360184485476,40.760702270541],[-73.9360572742542,40.7606615782719],[-73.9367923458149,40.7598911496918],[-73.9374647634487,40.7601983708889],[-73.937490736343,40.7602102367737],[-73.9383439134201,40.7605249456853],[-73.9390123827914,40.7607623711054],[-73.9390442797902,40.7607737001737],[-73.9391461649405,40.7608098875322],[-73.9386914135614,40.7615242017139],[-73.9386410398708,40.7616033266944],[-73.9385156569525,40.7618002726445],[-73.9384659789789,40.7618783049778],[-73.9383061042095,40.7621294250455],[-73.938255096125,40.7622095447822],[-73.9381363372227,40.7623960819522],[-73.9380885998514,40.7624710646798],[-73.9380466550864,40.7625369468109],[-73.937812600394,40.7629219197983],[-73.9377663041252,40.7629980674695],[-73.9376443649479,40.7631986301719],[-73.9375917110229,40.7632852334706],[-73.9373582332048,40.763669247895],[-73.9373007729425,40.7637637559968],[-73.9371184153557,40.7640636845038],[-73.9370672924314,40.7641477687996],[-73.937006215567,40.7642482231124],[-73.93687174092,40.7641861863945],[-73.9368439213377,40.7641733515688],[-73.9362571792143,40.7639026663673],[-73.9362178222013,40.7638840818851],[-73.9361932793296,40.7638724930975],[-73.9361700470667,40.7638615226985],[-73.936147971689,40.7638510985676],[-73.9354151581686,40.7635050576449]]]}},{"type":"Feature","properties":{"e":"36048"},"geometry":{"type":"Polygon","coordinates":[[[-73.9342516357602,40.7587034022005],[-73.9333544941094,40.758282601878],[-73.932153430997,40.7577186531145],[-73.9333467255344,40.7562474197261],[-73.9343365866535,40.7550237323011],[-73.9352411818534,40.7539388555052],[-73.9360103947114,40.7543495378014],[-73.9367800092733,40.7547582708442],[-73.9375505328408,40.7551685746236],[-73.9382957939751,40.7555657474274],[-73.9390881265781,40.7559879033348],[-73.9400417774428,40.7564950184108],[-73.9390995308762,40.7574788488387],[-73.9385752284915,40.7580245065197],[-73.9379184856222,40.7587148729577],[-73.9367923458149,40.7598911496918],[-73.9358831801227,40.7594652486581],[-73.9358002211588,40.7594263126485],[-73.9350613030372,40.759079497378],[-73.9350355309452,40.7590675261849],[-73.934961961253,40.7590333537731],[-73.9342516357602,40.7587034022005]]]}},{"type":"Feature","properties":{"e":"36049"},"geometry":{"type":"Polygon","coordinates":[[[-73.9427300758623,40.7472089541542],[-73.9424717238558,40.7471517044923],[-73.9423831827599,40.7471300046223],[-73.9432267628485,40.7468016036604],[-73.9437171587474,40.7466082553494],[-73.9440207852509,40.7464874180294],[-73.944243436335,40.7463986466429],[-73.9448942691765,40.7461252681808],[-73.9449748085808,40.7461386747773],[-73.9451344478731,40.7462199438719],[-73.9453977492658,40.7462851678512],[-73.9455308981718,40.7462312361747],[-73.9478388421293,40.7466785327385],[-73.9500157274758,40.7470993058209],[-73.9500760814277,40.7471109665248],[-73.9501268701386,40.7471208497907],[-73.9524810230937,40.7475787976076],[-73.9527137461613,40.7468842778766],[-73.9550425353776,40.7473407317588],[-73.9548834668391,40.7478208717374],[-73.9548848699758,40.7478423385853],[-73.954891827064,40.7478631705215],[-73.9549040634839,40.7478825440623],[-73.9549210956573,40.7478996948194],[-73.9548553769452,40.7480490597392],[-73.9547349144185,40.7480269908094],[-73.9547070472935,40.7480218855508],[-73.9543946126335,40.7479646457219],[-73.9543661819373,40.7479594376315],[-73.9531852586395,40.7477430775603],[-73.953055189405,40.7480957523997],[-73.9547853129639,40.7484359529496],[-73.9563230598947,40.7490898191829],[-73.956136427816,40.749272891568],[-73.9560130384041,40.7493822600483],[-73.9560020856597,40.7493919685302],[-73.9557618267198,40.7496049249016],[-73.9543657527315,40.7494131888676],[-73.9522148465502,40.74906382955],[-73.951640947501,40.748942733805],[-73.9496295773238,40.7485482681905],[-73.9473565810814,40.7481156657666],[-73.945057716203,40.7476721556047],[-73.943843502525,40.7474378892094],[-73.9427300758623,40.7472089541542]]]}},{"type":"Feature","properties":{"e":"36050"},"geometry":{"type":"Polygon","coordinates":[[[-73.9308679573,40.7638824940003],[-73.9310959059231,40.7635999263196],[-73.9313376890447,40.7632847096011],[-73.9317151254882,40.7634541571551],[-73.9320211660069,40.7636034172172],[-73.9328710184629,40.7639986459569],[-73.9327614111661,40.764113298546],[-73.9332672791302,40.7643628329102],[-73.9345125630294,40.7649560529634],[-73.9341915129884,40.7654619616592],[-73.9337982282658,40.7653187818907],[-73.9337093091734,40.7654216586213],[-73.9327969779393,40.764932137648],[-73.9322506683305,40.7646475463091],[-73.9308679573,40.7638824940003]]]}},{"type":"Feature","properties":{"e":"36051"},"geometry":{"type":"Polygon","coordinates":[[[-73.937006215567,40.7642482231124],[-73.9370672924314,40.7641477687996],[-73.9371184153557,40.7640636845038],[-73.9373007729425,40.7637637559968],[-73.9373582332048,40.763669247895],[-73.9375917110229,40.7632852334706],[-73.9376443649479,40.7631986301719],[-73.9377663041252,40.7629980674695],[-73.937812600394,40.7629219197983],[-73.9380466550864,40.7625369468109],[-73.9380885998514,40.7624710646798],[-73.9381363372227,40.7623960819522],[-73.938255096125,40.7622095447822],[-73.9383061042095,40.7621294250455],[-73.9384659789789,40.7618783049778],[-73.9385156569525,40.7618002726445],[-73.9386410398708,40.7616033266944],[-73.9386914135614,40.7615242017139],[-73.9391461649405,40.7608098875322],[-73.9399811222609,40.7611080133817],[-73.940797546419,40.7613996685329],[-73.9416165810546,40.7616941111914],[-73.9424732365604,40.7620021714109],[-73.9426864073408,40.7620510248367],[-73.9440664096476,40.7625752229314],[-73.944276445113,40.7626661801829],[-73.9443744532569,40.7627154456367],[-73.9447160406076,40.7628871087857],[-73.9446777133615,40.7629383539701],[-73.9435042519532,40.7645073094623],[-73.9415866638574,40.7666243568577],[-73.941313180485,40.7669262740384],[-73.9404640003522,40.7675387392216],[-73.9403397998003,40.7674330677525],[-73.9403009717937,40.7674200238543],[-73.9385911995865,40.7668256285939],[-73.9397013901466,40.7664195123042],[-73.9402735807458,40.7655380722075],[-73.9394208874462,40.7652235049292],[-73.938604293786,40.7649296689833],[-73.93779721677,40.7646246954221],[-73.937006215567,40.7642482231124]]]}},{"type":"Feature","properties":{"e":"36052"},"geometry":{"type":"Polygon","coordinates":[[[-73.917405218447,40.7582322526418],[-73.9166056552145,40.7578567069861],[-73.9158073567293,40.757481011768],[-73.9174776937858,40.7554268457441],[-73.9176709243723,40.7551892026761],[-73.9184714907718,40.7555655268395],[-73.9187298234677,40.7552467137599],[-73.9187915064047,40.7551705834852],[-73.9188872030368,40.7550524768342],[-73.9189806455506,40.7549371605064],[-73.9190773855409,40.7548177683298],[-73.9191715744611,40.754701524776],[-73.9197231027234,40.7540208489894],[-73.9205224481364,40.7543959147349],[-73.9192703209128,40.7559357020199],[-73.9200635640173,40.7563114862467],[-73.9183474301961,40.7584281065161],[-73.9182043645508,40.7586078391645],[-73.9175972318087,40.7583224975288],[-73.917405218447,40.7582322526418]]]}},{"type":"Feature","properties":{"e":"36053"},"geometry":{"type":"Polygon","coordinates":[[[-73.9345287302492,40.7711850454435],[-73.9342475258673,40.7710375459957],[-73.9344759205483,40.7704198673811],[-73.9345866459518,40.7702256916338],[-73.9347186136467,40.7700381283241],[-73.9348705530732,40.7698593015573],[-73.9348706838912,40.7698591485128],[-73.9348708257171,40.7698590053584],[-73.9350413273349,40.7696905722631],[-73.9352286114311,40.7695339996179],[-73.9334461138673,40.7688260598151],[-73.9342300866047,40.7678629530553],[-73.9349365395694,40.7670212936421],[-73.9336280614945,40.7663001886581],[-73.9341915129884,40.7654619616592],[-73.9345125630294,40.7649560529634],[-73.9346169370601,40.7647915802755],[-73.9354151581686,40.7635050576449],[-73.936147971689,40.7638510985676],[-73.9361700470667,40.7638615226985],[-73.9361932793296,40.7638724930975],[-73.9362178222013,40.7638840818851],[-73.9362571792143,40.7639026663673],[-73.9368439213377,40.7641733515688],[-73.93687174092,40.7641861863945],[-73.937006215567,40.7642482231124],[-73.93779721677,40.7646246954221],[-73.938604293786,40.7649296689833],[-73.9394208874462,40.7652235049292],[-73.9402735807458,40.7655380722075],[-73.9397013901466,40.7664195123042],[-73.9385911995865,40.7668256285939],[-73.9403009717937,40.7674200238543],[-73.9403397998003,40.7674330677525],[-73.9404640003522,40.7675387392216],[-73.9403524686511,40.7676616454338],[-73.9398370241536,40.7679962754693],[-73.939534647207,40.7680670139087],[-73.9393673027607,40.7681679714596],[-73.9389564549115,40.7679664562746],[-73.9381987377282,40.7687080140834],[-73.9380708629777,40.7687236700588],[-73.9378891143368,40.7685658231418],[-73.9377795968258,40.7686273220508],[-73.9379634401567,40.7687305932357],[-73.9379596597216,40.7687932037699],[-73.9374725211319,40.7689598283905],[-73.9368160362972,40.7689122172935],[-73.9366868209166,40.7691413245554],[-73.9367088096282,40.7692608794638],[-73.9364052476757,40.7694831544585],[-73.9361705687754,40.7695243851147],[-73.9357416444206,40.7693755003129],[-73.9352415976044,40.769687595485],[-73.9348967681495,40.7700501329946],[-73.9346964198333,40.7704336082097],[-73.935148583341,40.7705502262526],[-73.9350095680303,40.771170665187],[-73.9349417019525,40.7711722912563],[-73.9349403588529,40.7711723235005],[-73.9349062427691,40.7712789115323],[-73.9345287302492,40.7711850454435]]]}},{"type":"Feature","properties":{"e":"36054"},"geometry":{"type":"Polygon","coordinates":[[[-73.9285577932763,40.7667225089906],[-73.9291517785618,40.7659915858174],[-73.9296485864262,40.7653829959158],[-73.9303668885664,40.76449902006],[-73.9308679573,40.7638824940003],[-73.9322506683305,40.7646475463091],[-73.9327969779393,40.764932137648],[-73.9337093091734,40.7654216586213],[-73.9337982282658,40.7653187818907],[-73.9341915129884,40.7654619616592],[-73.9336280614945,40.7663001886581],[-73.9349365395694,40.7670212936421],[-73.9342300866047,40.7678629530553],[-73.9334461138673,40.7688260598151],[-73.9321955824459,40.7683320923985],[-73.9320251449743,40.7682647667437],[-73.9300812230533,40.7674306488947],[-73.9298579068422,40.7673348221109],[-73.9285577932763,40.7667225089906]]]}},{"type":"Feature","properties":{"e":"36055"},"geometry":{"type":"Polygon","coordinates":[[[-73.9264393527725,40.7657410855311],[-73.926496031967,40.7655744202862],[-73.9264960551625,40.7655743658551],[-73.9264960790182,40.7655743120945],[-73.9265730071156,40.765411019287],[-73.926573066535,40.7654108842991],[-73.9265731495309,40.7654107488236],[-73.9266696841704,40.7652529781982],[-73.9266698029293,40.7652527800907],[-73.9266699452534,40.7652525918823],[-73.9267851139701,40.7651021543964],[-73.9267851733296,40.7651020731841],[-73.9267852441358,40.7651020018631],[-73.9269175633832,40.7649606520235],[-73.9269176112544,40.7649605987806],[-73.9269176588968,40.7649605532438],[-73.9270651493012,40.7648299480773],[-73.927622580822,40.7642556876515],[-73.9284268369602,40.7634239881415],[-73.9289993338126,40.7628366021424],[-73.929435835219,40.7623883621473],[-73.9300512922862,40.7626782151516],[-73.9304395774855,40.7628608467195],[-73.9313376890447,40.7632847096011],[-73.9310959059231,40.7635999263196],[-73.9308679573,40.7638824940003],[-73.9303668885664,40.76449902006],[-73.9296485864262,40.7653829959158],[-73.9291517785618,40.7659915858174],[-73.9285577932763,40.7667225089906],[-73.9264393527725,40.7657410855311]]]}},{"type":"Feature","properties":{"e":"36056"},"geometry":{"type":"Polygon","coordinates":[[[-73.9313376890447,40.7632847096011],[-73.9304395774855,40.7628608467195],[-73.9300512922862,40.7626782151516],[-73.929435835219,40.7623883621473],[-73.9300499468641,40.7617533146046],[-73.93055106645,40.761228869833],[-73.931581920863,40.7617142168167],[-73.9318320318079,40.7618309222264],[-73.9318720538501,40.7618498391358],[-73.9322487880615,40.7620243783583],[-73.9326983373409,40.7622351449966],[-73.9330418264098,40.762395416457],[-73.9339089933962,40.762800025273],[-73.9339339373056,40.762811663027],[-73.9339823505142,40.7628342514877],[-73.9354151581686,40.7635050576449],[-73.9346169370601,40.7647915802755],[-73.9345125630294,40.7649560529634],[-73.9332672791302,40.7643628329102],[-73.9327614111661,40.764113298546],[-73.9328710184629,40.7639986459569],[-73.9320211660069,40.7636034172172],[-73.9317151254882,40.7634541571551],[-73.9313376890447,40.7632847096011]]]}},{"type":"Feature","properties":{"e":"36057"},"geometry":{"type":"Polygon","coordinates":[[[-73.9269896698763,40.7627336956091],[-73.9261890497169,40.762359125784],[-73.925381577742,40.7619779616603],[-73.9272481938239,40.7596791851283],[-73.92805283521,40.7600561914564],[-73.9284735182561,40.7602530693965],[-73.9288509752046,40.7604297216762],[-73.9296520466389,40.760806030066],[-73.93055106645,40.761228869833],[-73.9300499468641,40.7617533146046],[-73.929435835219,40.7623883621473],[-73.9289993338126,40.7628366021424],[-73.9284268369602,40.7634239881415],[-73.9269896698763,40.7627336956091]]]}},{"type":"Feature","properties":{"e":"36058"},"geometry":{"type":"Polygon","coordinates":[[[-73.9222040254249,40.7672814368397],[-73.9235400781561,40.7656117677967],[-73.9239725913969,40.7650795222498],[-73.9242559647235,40.7647308070239],[-73.925941614823,40.7626627063469],[-73.9261890497169,40.762359125784],[-73.9269896698763,40.7627336956091],[-73.9267386303328,40.7630425993861],[-73.9261723606962,40.7637393902832],[-73.9250620467956,40.7651055853424],[-73.9243402329567,40.7659896256327],[-73.9235036172336,40.767019267903],[-73.9254188005636,40.7679222070242],[-73.9250774501998,40.768627026394],[-73.9242734458951,40.7682498474536],[-73.9235265295702,40.7679015612808],[-73.9229816436815,40.7676481562002],[-73.9222040254249,40.7672814368397]]]}},{"type":"Feature","properties":{"e":"36059"},"geometry":{"type":"Polygon","coordinates":[[[-73.9243402329567,40.7659896256327],[-73.9250620467956,40.7651055853424],[-73.9261723606962,40.7637393902832],[-73.9267386303328,40.7630425993861],[-73.9269896698763,40.7627336956091],[-73.9284268369602,40.7634239881415],[-73.927622580822,40.7642556876515],[-73.9270651493012,40.7648299480773],[-73.9269176588968,40.7649605532438],[-73.9269176112544,40.7649605987806],[-73.9269175633832,40.7649606520235],[-73.9267852441358,40.7651020018631],[-73.9267851733296,40.7651020731841],[-73.9267851139701,40.7651021543964],[-73.9266699452534,40.7652525918823],[-73.9266698029293,40.7652527800907],[-73.9266696841704,40.7652529781982],[-73.9265731495309,40.7654107488236],[-73.926573066535,40.7654108842991],[-73.9265730071156,40.765411019287],[-73.9264960790182,40.7655743120945],[-73.9264960551625,40.7655743658551],[-73.926496031967,40.7655744202862],[-73.9264393527725,40.7657410855311],[-73.9263389190451,40.765956080108],[-73.9259664036343,40.7667534981701],[-73.9243402329567,40.7659896256327]]]}},{"type":"Feature","properties":{"e":"36060"},"geometry":{"type":"Polygon","coordinates":[[[-73.9229970751909,40.7608576231532],[-73.9248556657827,40.7585589881687],[-73.9256550392822,40.7589304421719],[-73.9264545612368,40.7593044131356],[-73.9272481938239,40.7596791851283],[-73.925381577742,40.7619779616603],[-73.9245897104785,40.7616086171652],[-73.9237899112326,40.7612343549527],[-73.9229970751909,40.7608576231532]]]}},{"type":"Feature","properties":{"e":"36061"},"geometry":{"type":"Polygon","coordinates":[[[-73.9178895027917,40.7617033448761],[-73.9198006469692,40.7593577133627],[-73.9216605959275,40.7570596880158],[-73.9224640656464,40.757431447658],[-73.922832142286,40.7576101515598],[-73.923259389666,40.7578110922476],[-73.9240557116546,40.7581846187859],[-73.9248556657827,40.7585589881687],[-73.9229970751909,40.7608576231532],[-73.9221968199191,40.760483610193],[-73.9213974506382,40.7601083582556],[-73.9210029889231,40.7599232535363],[-73.9205979135943,40.7597331637863],[-73.9201945927074,40.7602286530623],[-73.9186868796431,40.7620808390438],[-73.9178895027917,40.7617033448761]]]}},{"type":"Feature","properties":{"e":"36062"},"geometry":{"type":"Polygon","coordinates":[[[-73.9210820629246,40.7632076812595],[-73.9229970751909,40.7608576231532],[-73.9237899112326,40.7612343549527],[-73.9245897104785,40.7616086171652],[-73.925381577742,40.7619779616603],[-73.9234586734116,40.7643563290857],[-73.9226646478558,40.7639745796859],[-73.921881586272,40.7635826553588],[-73.9210820629246,40.7632076812595]]]}},{"type":"Feature","properties":{"e":"36063"},"geometry":{"type":"Polygon","coordinates":[[[-73.919485307069,40.7624573743395],[-73.9190051658695,40.7622304822877],[-73.9186868796431,40.7620808390438],[-73.9201945927074,40.7602286530623],[-73.9205979135943,40.7597331637863],[-73.9210029889231,40.7599232535363],[-73.9213974506382,40.7601083582556],[-73.9221968199191,40.760483610193],[-73.9229970751909,40.7608576231532],[-73.9210820629246,40.7632076812595],[-73.9202848610088,40.762830973486],[-73.919485307069,40.7624573743395]]]}},{"type":"Feature","properties":{"e":"36064"},"geometry":{"type":"Polygon","coordinates":[[[-73.9122123706949,40.7806139429875],[-73.9125463749139,40.7803402546097],[-73.9141002583441,40.7790668879761],[-73.9144460341916,40.7787835325712],[-73.9147657064904,40.7785223085452],[-73.9156383543829,40.7778091946507],[-73.9162790780032,40.7772839572596],[-73.9166081508823,40.7770141976335],[-73.9173092144731,40.7774880537806],[-73.9179903084422,40.7779793529311],[-73.9176528034268,40.7782588669572],[-73.9176253279256,40.7782812696047],[-73.9172565413131,40.7785820438747],[-73.9170078146106,40.7787861179693],[-73.9164721947827,40.7792255455458],[-73.915821141291,40.7797562329627],[-73.9151322577269,40.7792688885914],[-73.913224854279,40.7808333699099],[-73.9129021870927,40.78109801824],[-73.9122123706949,40.7806139429875]]]}},{"type":"Feature","properties":{"e":"36065"},"geometry":{"type":"Polygon","coordinates":[[[-73.9182043645508,40.7586078391645],[-73.9183474301961,40.7584281065161],[-73.9200635640173,40.7563114862467],[-73.9192703209128,40.7559357020199],[-73.9205224481364,40.7543959147349],[-73.9213220306235,40.7547684988658],[-73.9221203235643,40.7551478839708],[-73.9229061824778,40.7555144327508],[-73.9216605959275,40.7570596880158],[-73.9208664913934,40.7566864701926],[-73.9197869353606,40.758012804116],[-73.9189996483781,40.7589820746802],[-73.9182043645508,40.7586078391645]]]}},{"type":"Feature","properties":{"e":"36066"},"geometry":{"type":"Polygon","coordinates":[[[-73.9240557116546,40.7581846187859],[-73.9253026517873,40.7566370233995],[-73.9261035161328,40.7570125551361],[-73.9248556657827,40.7585589881687],[-73.9240557116546,40.7581846187859]]]}},{"type":"Feature","properties":{"e":"36067"},"geometry":{"type":"Polygon","coordinates":[[[-73.9216605959275,40.7570596880158],[-73.9229061824778,40.7555144327508],[-73.9237058256986,40.7558883051578],[-73.9224640656464,40.757431447658],[-73.9216605959275,40.7570596880158]]]}},{"type":"Feature","properties":{"e":"36068"},"geometry":{"type":"Polygon","coordinates":[[[-73.9352411818534,40.7539388555052],[-73.9344716926139,40.7535296545122],[-73.9337017513443,40.7531199692994],[-73.9347508630207,40.7519672724304],[-73.9356158849154,40.7522901139468],[-73.9361312160708,40.751731952127],[-73.9365920655333,40.7512384408367],[-73.9368026037091,40.7510129881001],[-73.9378130560071,40.7499057442793],[-73.9376339905072,40.7496661280795],[-73.937723057669,40.7497024793603],[-73.9378442367234,40.7497520551659],[-73.9379250173438,40.7497877947034],[-73.9377870621007,40.7496160851765],[-73.9379098781623,40.7496647564863],[-73.9379907077619,40.7496967884826],[-73.9381535404179,40.7497677481447],[-73.9388341377996,40.7500483816813],[-73.9396349170329,40.7503902772307],[-73.9402147348535,40.7506454844176],[-73.9404432290064,40.7507460556548],[-73.9406472705171,40.7508426597203],[-73.9408490554488,40.7509321720548],[-73.9406098028542,40.750883814987],[-73.9405634008348,40.7508859619603],[-73.940517362588,40.7508908668055],[-73.9404719710919,40.7508984993747],[-73.9404275053495,40.7509088127536],[-73.9403842385698,40.7509217432168],[-73.9403424367641,40.7509372116212],[-73.9403023568718,40.7509551228887],[-73.9402642452487,40.7509753669264],[-73.9391030761694,40.752238736257],[-73.9379412527183,40.7534972395894],[-73.9387110699212,40.7539067338595],[-73.9375505328408,40.7551685746236],[-73.9367800092733,40.7547582708442],[-73.9360103947114,40.7543495378014],[-73.9352411818534,40.7539388555052]]]}}]}