{"type":"FeatureCollection","ad":39,"features":[{"type":"Feature","properties":{"e":"39001"},"geometry":{"type":"Polygon","coordinates":[[[-73.8818953070275,40.7520893325124],[-73.8828248192957,40.7519907045288],[-73.8837541382636,40.7518933286481],[-73.8846850870787,40.7517960829341],[-73.8856141651106,40.7516977997313],[-73.8859582256261,40.7535942467996],[-73.8859668709687,40.7536418745104],[-73.8850385031584,40.7537393142533],[-73.8841019338757,40.7538385926116],[-73.8831780165226,40.7539337892189],[-73.882247813461,40.7540324205186],[-73.8822391709791,40.7539847744387],[-73.8821699789171,40.7536033569346],[-73.8818953070275,40.7520893325124]]]}},{"type":"Feature","properties":{"e":"39002"},"geometry":{"type":"Polygon","coordinates":[[[-73.8856141651106,40.7516977997313],[-73.8865441980362,40.7516002675302],[-73.8874709718156,40.7515027779108],[-73.8884019707731,40.7514047091419],[-73.8887502401462,40.7533095897437],[-73.8887573740075,40.7533486429677],[-73.887824174461,40.7534438666972],[-73.8868975702768,40.7535445915738],[-73.8859668709687,40.7536418745104],[-73.8859582256261,40.7535942467996],[-73.8856141651106,40.7516977997313]]]}},{"type":"Feature","properties":{"e":"39003"},"geometry":{"type":"Polygon","coordinates":[[[-73.8884019707731,40.7514047091419],[-73.8893331589529,40.7513051194317],[-73.8902638542293,40.7512084487437],[-73.8911908092958,40.7511095251679],[-73.8912654995568,40.7515183174911],[-73.8913845786696,40.7521700729939],[-73.8913949544265,40.7522268507091],[-73.8915377916414,40.7530086163111],[-73.8915463717382,40.7530555585274],[-73.8906148221661,40.7531532114207],[-73.8896858031587,40.7532511919122],[-73.8887573740075,40.7533486429677],[-73.8887502401462,40.7533095897437],[-73.8884019707731,40.7514047091419]]]}},{"type":"Feature","properties":{"e":"39004"},"geometry":{"type":"Polygon","coordinates":[[[-73.8911908092958,40.7511095251679],[-73.8921219492195,40.751012551744],[-73.8917529633348,40.7489729098765],[-73.8927096802796,40.7488713351915],[-73.8930489414003,40.7509163052313],[-73.8931258635188,40.7513435420539],[-73.8933167643299,40.7524038763379],[-73.8933911539075,40.7528170338198],[-73.8933989943299,40.7528605985557],[-73.8924747234253,40.7529566616215],[-73.8915463717382,40.7530555585274],[-73.8915377916414,40.7530086163111],[-73.8913949544265,40.7522268507091],[-73.8913845786696,40.7521700729939],[-73.8912654995568,40.7515183174911],[-73.8911908092958,40.7511095251679]]]}},{"type":"Feature","properties":{"e":"39005"},"geometry":{"type":"Polygon","coordinates":[[[-73.8899042964298,40.7491721948089],[-73.8908203368764,40.7490689776191],[-73.8917529633348,40.7489729098765],[-73.8921219492195,40.751012551744],[-73.8911908092958,40.7511095251679],[-73.8902638542293,40.7512084487437],[-73.8899042964298,40.7491721948089]]]}},{"type":"Feature","properties":{"e":"39006"},"geometry":{"type":"Polygon","coordinates":[[[-73.8867179749239,40.7473497298651],[-73.8876480499382,40.7472531066699],[-73.8877846815664,40.7472371940227],[-73.8886790750742,40.7471425450877],[-73.8887574045322,40.7475513247128],[-73.8888141098457,40.7478560205606],[-73.888889510635,40.7482612042888],[-73.8890635398015,40.7491963230846],[-73.888977578638,40.7492651027814],[-73.8899042964298,40.7491721948089],[-73.8902638542293,40.7512084487437],[-73.8893331589529,40.7513051194317],[-73.8884019707731,40.7514047091419],[-73.8874709718156,40.7515027779108],[-73.8870995574068,40.7494621625335],[-73.8867179749239,40.7473497298651]]]}},{"type":"Feature","properties":{"e":"39007"},"geometry":{"type":"Polygon","coordinates":[[[-73.8852423999483,40.7496594210289],[-73.8848567971404,40.7475430790159],[-73.8857888173001,40.7474480218918],[-73.8867179749239,40.7473497298651],[-73.8870995574068,40.7494621625335],[-73.8874709718156,40.7515027779108],[-73.8865441980362,40.7516002675302],[-73.8861691270879,40.7495606270888],[-73.8852423999483,40.7496594210289]]]}},{"type":"Feature","properties":{"e":"39008"},"geometry":{"type":"Polygon","coordinates":[[[-73.8833816144249,40.7498533675909],[-73.8843120196111,40.7497534482764],[-73.8852423999483,40.7496594210289],[-73.8861691270879,40.7495606270888],[-73.8865441980362,40.7516002675302],[-73.8856141651106,40.7516977997313],[-73.8846850870787,40.7517960829341],[-73.8837541382636,40.7518933286481],[-73.8833816144249,40.7498533675909]]]}},{"type":"Feature","properties":{"e":"39009"},"geometry":{"type":"Polygon","coordinates":[[[-73.8815213257719,40.7500480580776],[-73.8824519961431,40.7499485515974],[-73.8833816144249,40.7498533675909],[-73.8837541382636,40.7518933286481],[-73.8828248192957,40.7519907045288],[-73.8818953070275,40.7520893325124],[-73.8815213257719,40.7500480580776]]]}},{"type":"Feature","properties":{"e":"39010"},"geometry":{"type":"Polygon","coordinates":[[[-73.8830005941131,40.7477426699764],[-73.883937206147,40.7476385100174],[-73.8848567971404,40.7475430790159],[-73.8852423999483,40.7496594210289],[-73.8843120196111,40.7497534482764],[-73.8833816144249,40.7498533675909],[-73.8830005941131,40.7477426699764]]]}},{"type":"Feature","properties":{"e":"39011"},"geometry":{"type":"Polygon","coordinates":[[[-73.8796440300043,40.7255685703328],[-73.8792018395526,40.7250167612587],[-73.8796377915702,40.7248149635968],[-73.8796621833071,40.7248036790166],[-73.8800277416157,40.7246344671583],[-73.8804324276899,40.7244464476655],[-73.8808340783535,40.7242598273143],[-73.8812350865334,40.724074133666],[-73.8816354998687,40.7238887164369],[-73.8820343951698,40.7237035222514],[-73.8824362265682,40.7235169601471],[-73.8828368945159,40.7233309538213],[-73.883236873526,40.7231452697322],[-73.8840381264198,40.722773907394],[-73.8845506956812,40.722533742588],[-73.8847260928394,40.7224533234666],[-73.884912955813,40.722367646482],[-73.8850064286576,40.7223243430298],[-73.885642169344,40.72202981722],[-73.8870583699839,40.7238105870863],[-73.8870608157042,40.7240435872173],[-73.8870704636102,40.7243715444499],[-73.8870785323104,40.7246459647298],[-73.8871005190585,40.7253269437785],[-73.8871339469973,40.7261506097123],[-73.8872053680196,40.7262014951091],[-73.8872425498617,40.7274098723166],[-73.8872227724713,40.7275347982915],[-73.8872130565464,40.7276245605246],[-73.8872063781771,40.7277026275025],[-73.8866943431231,40.7278965728181],[-73.8865603067275,40.7279409158624],[-73.8864320619228,40.7279846441112],[-73.8862803726282,40.7280363653904],[-73.8859897576542,40.7281198069015],[-73.8855770302513,40.7282168962657],[-73.885555182487,40.7281387537951],[-73.8855353061743,40.7280572481685],[-73.8854852128918,40.727785211402],[-73.8853629613733,40.7271213043143],[-73.8852312540827,40.7264060260607],[-73.8850637583898,40.7254963679853],[-73.8849345687162,40.7247947326162],[-73.8847803570332,40.7248131511042],[-73.884137043935,40.7248899895922],[-73.8835840382693,40.7249574299535],[-73.8825892792312,40.7250910284137],[-73.8821031060576,40.7251685783894],[-73.8816219992113,40.7252453124825],[-73.8811275568386,40.725325596776],[-73.8806513946896,40.7254029082114],[-73.8796440300043,40.7255685703328]]]}},{"type":"Feature","properties":{"e":"39012"},"geometry":{"type":"Polygon","coordinates":[[[-73.8704089240621,40.7373416952469],[-73.8700955819919,40.7365301459502],[-73.8721025512913,40.7360021185793],[-73.8726570642946,40.735751022949],[-73.8727734856332,40.7360544708494],[-73.8730381972158,40.7367561234614],[-73.8732988121707,40.7374419868611],[-73.8735688739663,40.7381250932691],[-73.8738367224969,40.7388109989323],[-73.8712017491734,40.7393977342333],[-73.8709410546438,40.7387110218369],[-73.8706741461199,40.7380260387162],[-73.8704089240621,40.7373416952469]]]}},{"type":"Feature","properties":{"e":"39013"},"geometry":{"type":"Polygon","coordinates":[[[-73.8867179749239,40.7473497298651],[-73.8864179153884,40.7457077653254],[-73.8874707529003,40.7456176401074],[-73.8883690706982,40.745514261917],[-73.8886077383346,40.7454910258894],[-73.889332118499,40.7457941783013],[-73.8903670114023,40.7462390723256],[-73.8913928691708,40.7466492718776],[-73.8914327000773,40.7468530040384],[-73.8915066421893,40.7472467116816],[-73.8918325647119,40.7488953598414],[-73.8917529633348,40.7489729098765],[-73.8908203368764,40.7490689776191],[-73.8899042964298,40.7491721948089],[-73.888977578638,40.7492651027814],[-73.8890635398015,40.7491963230846],[-73.888889510635,40.7482612042888],[-73.8888141098457,40.7478560205606],[-73.8887574045322,40.7475513247128],[-73.8886790750742,40.7471425450877],[-73.8877846815664,40.7472371940227],[-73.8876480499382,40.7472531066699],[-73.8867179749239,40.7473497298651]]]}},{"type":"Feature","properties":{"e":"39014"},"geometry":{"type":"Polygon","coordinates":[[[-73.8821060300138,40.7458439204965],[-73.882570962922,40.7452399290594],[-73.8838439371171,40.7458049475156],[-73.8842526921643,40.7452101045761],[-73.8846708953627,40.7445973151284],[-73.8834712123511,40.7440673923946],[-73.8838750784571,40.743549071619],[-73.8838769741208,40.743405596014],[-73.8847116741455,40.7438026846635],[-73.8850958316678,40.7439822239951],[-73.8860044796475,40.7443746033122],[-73.8861218265119,40.744425276186],[-73.8862340941917,40.7444737523423],[-73.8873393198444,40.7449489025857],[-73.8883333127353,40.7453730191005],[-73.8883690706982,40.745514261917],[-73.8874707529003,40.7456176401074],[-73.8864179153884,40.7457077653254],[-73.8867179749239,40.7473497298651],[-73.8857888173001,40.7474480218918],[-73.8848567971404,40.7475430790159],[-73.883937206147,40.7476385100174],[-73.8838841783327,40.7473429385941],[-73.8837470012945,40.7465783126251],[-73.8834041079495,40.7464258711855],[-73.8821060300138,40.7458439204965]]]}},{"type":"Feature","properties":{"e":"39015"},"geometry":{"type":"Polygon","coordinates":[[[-73.8798190554074,40.7464501739184],[-73.8802854506623,40.7458436806985],[-73.8783208604395,40.7449730466631],[-73.8787857852631,40.7443691796204],[-73.880748490715,40.7452414518183],[-73.8821060300138,40.7458439204965],[-73.8834041079495,40.7464258711855],[-73.8837470012945,40.7465783126251],[-73.8838841783327,40.7473429385941],[-73.883937206147,40.7476385100174],[-73.8830005941131,40.7477426699764],[-73.8825701806501,40.7477861134859],[-73.8825629115227,40.7476713627603],[-73.8798190554074,40.7464501739184]]]}},{"type":"Feature","properties":{"e":"39016"},"geometry":{"type":"Polygon","coordinates":[[[-73.8625324144631,40.746542069591],[-73.862488510058,40.7464559285352],[-73.8641287388263,40.7459699354378],[-73.8653269399059,40.7456035320054],[-73.8661008726078,40.7453668595534],[-73.8670147010078,40.7450873972664],[-73.8678773575365,40.7448235741399],[-73.8679110448243,40.7449419841194],[-73.868087148821,40.7456088502072],[-73.8664151292286,40.7461077675183],[-73.864903940352,40.7465586630085],[-73.863704828333,40.7469144997354],[-73.8634982973333,40.7475255104343],[-73.8631022546422,40.7476393061421],[-73.8628601550123,40.747164792442],[-73.8625324144631,40.746542069591]]]}},{"type":"Feature","properties":{"e":"39017"},"geometry":{"type":"Polygon","coordinates":[[[-73.8653133749874,40.7402664365429],[-73.8662103243157,40.7400596364797],[-73.8666635257859,40.7399561441461],[-73.867148103833,40.7398454909614],[-73.8673192003198,40.7402696118283],[-73.8675639401548,40.7409501558549],[-73.8675587014598,40.7416859642319],[-73.8674730982462,40.7421039895099],[-73.8672905692529,40.7421144685301],[-73.8663649116292,40.74280935594],[-73.8660348421433,40.7420438107237],[-73.8656721309932,40.7411414294222],[-73.8653133749874,40.7402664365429]]]}},{"type":"Feature","properties":{"e":"39018"},"geometry":{"type":"Polygon","coordinates":[[[-73.8792513659138,40.7437651032779],[-73.8798120873638,40.7431124620836],[-73.8803386225168,40.7425423942563],[-73.8810052900701,40.7418489289604],[-73.881881429688,40.7423852461314],[-73.8826348259276,40.742795242601],[-73.8821144077524,40.7434645358068],[-73.8816590728192,40.7440557558204],[-73.8812129470184,40.7446367906808],[-73.8804181752654,40.7442832306507],[-73.8792513659138,40.7437651032779]]]}},{"type":"Feature","properties":{"e":"39019"},"geometry":{"type":"Polygon","coordinates":[[[-73.880748490715,40.7452414518183],[-73.8812129470184,40.7446367906808],[-73.8816590728192,40.7440557558204],[-73.8821144077524,40.7434645358068],[-73.8826348259276,40.742795242601],[-73.88283285719,40.7428966427734],[-73.8838769741208,40.743405596014],[-73.8838750784571,40.743549071619],[-73.8834712123511,40.7440673923946],[-73.8846708953627,40.7445973151284],[-73.8842526921643,40.7452101045761],[-73.8838439371171,40.7458049475156],[-73.882570962922,40.7452399290594],[-73.8821060300138,40.7458439204965],[-73.880748490715,40.7452414518183]]]}},{"type":"Feature","properties":{"e":"39020"},"geometry":{"type":"Polygon","coordinates":[[[-73.8719657823892,40.7469926518489],[-73.8719456413907,40.7469125826699],[-73.8719203960404,40.7467960562455],[-73.871772320631,40.746112352115],[-73.8716889289945,40.7457434017669],[-73.8715961811832,40.7453330813134],[-73.8698196713321,40.7458608837462],[-73.8696324261021,40.7459167192663],[-73.8692894047287,40.7452501795841],[-73.8701285710659,40.7449996435313],[-73.8706337374597,40.7446859532021],[-73.8708272249844,40.7445658084743],[-73.8713640635344,40.744279517233],[-73.8733059920749,40.7451596372474],[-73.8728416031781,40.7457638796235],[-73.8748971646051,40.7466778940518],[-73.8744431252802,40.7472705821066],[-73.8739791144031,40.7478729568622],[-73.8722962818219,40.747137161638],[-73.8719657823892,40.7469926518489]]]}},{"type":"Feature","properties":{"e":"39021"},"geometry":{"type":"Polygon","coordinates":[[[-73.8762832380666,40.7448774396504],[-73.87674725834,40.7442731554934],[-73.877212027322,40.7436691870149],[-73.877684477199,40.7430690865957],[-73.8792513659138,40.7437651032779],[-73.8804181752654,40.7442832306507],[-73.8812129470184,40.7446367906808],[-73.880748490715,40.7452414518183],[-73.8787857852631,40.7443691796204],[-73.8783208604395,40.7449730466631],[-73.8802854506623,40.7458436806985],[-73.8798190554074,40.7464501739184],[-73.877905237507,40.7455979641637],[-73.8762832380666,40.7448774396504]]]}},{"type":"Feature","properties":{"e":"39022"},"geometry":{"type":"Polygon","coordinates":[[[-73.877684477199,40.7430690865957],[-73.8767610634933,40.7426538420978],[-73.8756721231238,40.7429787270313],[-73.8746591879049,40.7432766069336],[-73.8745065629149,40.7433192512877],[-73.8741966155204,40.7430637569372],[-73.8740833424933,40.7429703828929],[-73.8739572793323,40.7428729550057],[-73.8734866153802,40.7425091993289],[-73.8733599525082,40.7425038560826],[-73.8730463362291,40.7416929536111],[-73.8739157306502,40.7414977602432],[-73.8747969841044,40.7412963591442],[-73.875020636317,40.7415026112536],[-73.8756240577657,40.7419935555798],[-73.876961072699,40.7410374353042],[-73.8775975605533,40.7415450202456],[-73.8778596081558,40.7417536126207],[-73.8779447355342,40.7418246240357],[-73.878030222984,40.7418992521625],[-73.8781207179044,40.7419744142377],[-73.8781208590966,40.7419745313206],[-73.8781210009819,40.7419746308139],[-73.8782305866412,40.7420472736359],[-73.878230727865,40.742047373631],[-73.8782308823384,40.7420474550447],[-73.8783514866624,40.742109158361],[-73.8783516640272,40.7421092485101],[-73.8783518654161,40.7421093299731],[-73.8784807563385,40.742158849663],[-73.8788616395581,40.7417545358895],[-73.8791767101077,40.741633118813],[-73.8803386225168,40.7425423942563],[-73.8798120873638,40.7431124620836],[-73.8792513659138,40.7437651032779],[-73.877684477199,40.7430690865957]]]}},{"type":"Feature","properties":{"e":"39023"},"geometry":{"type":"Polygon","coordinates":[[[-73.8788934205235,40.7476471398653],[-73.8771601341553,40.7468732995075],[-73.8753632102017,40.7460738977348],[-73.8758280879095,40.7454697451109],[-73.8762832380666,40.7448774396504],[-73.877905237507,40.7455979641637],[-73.8798190554074,40.7464501739184],[-73.8825629115227,40.7476713627603],[-73.8825701806501,40.7477861134859],[-73.8820725322051,40.7478381944218],[-73.8811388866512,40.7479355611507],[-73.8811003125175,40.7478145924487],[-73.8793641160235,40.7470420158001],[-73.8788934205235,40.7476471398653]]]}},{"type":"Feature","properties":{"e":"39024"},"geometry":{"type":"Polygon","coordinates":[[[-73.8748971646051,40.7466778940518],[-73.8728416031781,40.7457638796235],[-73.8733059920749,40.7451596372474],[-73.8753632102017,40.7460738977348],[-73.8771601341553,40.7468732995075],[-73.8767902151001,40.7475188927794],[-73.8748971646051,40.7466778940518]]]}},{"type":"Feature","properties":{"e":"39025"},"geometry":{"type":"Polygon","coordinates":[[[-73.8733059920749,40.7451596372474],[-73.8737720296763,40.7445561786193],[-73.8742269209519,40.7439628270025],[-73.8746865042008,40.7433576008592],[-73.8746591879049,40.7432766069336],[-73.8756721231238,40.7429787270313],[-73.8767610634933,40.7426538420978],[-73.877684477199,40.7430690865957],[-73.877212027322,40.7436691870149],[-73.87674725834,40.7442731554934],[-73.8762832380666,40.7448774396504],[-73.8758280879095,40.7454697451109],[-73.8753632102017,40.7460738977348],[-73.8733059920749,40.7451596372474]]]}},{"type":"Feature","properties":{"e":"39026"},"geometry":{"type":"Polygon","coordinates":[[[-73.8678773575365,40.7448235741399],[-73.8678523813347,40.744724813437],[-73.86782831687,40.7446377243364],[-73.8676864555255,40.7440799856446],[-73.8674927565716,40.7433103146834],[-73.8674877069995,40.7430004617593],[-73.8674730982462,40.7421039895099],[-73.8675587014598,40.7416859642319],[-73.8695078156577,40.7412511807528],[-73.8697472263686,40.741854729681],[-73.8710961806543,40.7415568736266],[-73.8712954316633,40.7420767256742],[-73.8721619438753,40.7418896465861],[-73.8723743504299,40.7424622902207],[-73.8733599525082,40.7425038560826],[-73.8734866153802,40.7425091993289],[-73.8739572793323,40.7428729550057],[-73.8740833424933,40.7429703828929],[-73.8741966155204,40.7430637569372],[-73.8745065629149,40.7433192512877],[-73.8746591879049,40.7432766069336],[-73.8746865042008,40.7433576008592],[-73.8742269209519,40.7439628270025],[-73.8737720296763,40.7445561786193],[-73.8733059920749,40.7451596372474],[-73.8713640635344,40.744279517233],[-73.8708272249844,40.7445658084743],[-73.8706337374597,40.7446859532021],[-73.8701285710659,40.7449996435313],[-73.8692894047287,40.7452501795841],[-73.868087148821,40.7456088502072],[-73.8679110448243,40.7449419841194],[-73.8678773575365,40.7448235741399]]]}},{"type":"Feature","properties":{"e":"39027"},"geometry":{"type":"Polygon","coordinates":[[[-73.8684389168052,40.7470394652394],[-73.8682664324938,40.7463224907923],[-73.868087148821,40.7456088502072],[-73.8692894047287,40.7452501795841],[-73.8696324261021,40.7459167192663],[-73.8698196713321,40.7458608837462],[-73.8715961811832,40.7453330813134],[-73.8716889289945,40.7457434017669],[-73.871772320631,40.746112352115],[-73.8719203960404,40.7467960562455],[-73.8703765844563,40.7469972762076],[-73.8693432569761,40.7473255146514],[-73.8689124868614,40.7474692059485],[-73.8688162004608,40.747501323544],[-73.8685306589476,40.7475965702746],[-73.8684389168052,40.7470394652394]]]}},{"type":"Feature","properties":{"e":"39028"},"geometry":{"type":"Polygon","coordinates":[[[-73.8728032368582,40.7253124064328],[-73.8715651676019,40.7237647029237],[-73.8713790057871,40.7235311272524],[-73.8713542196476,40.7235009862599],[-73.8721547257785,40.7231299858329],[-73.8729556488072,40.7227588896595],[-73.8736688292156,40.7224279984851],[-73.8737546220185,40.7223881908482],[-73.8741620215135,40.7222002582932],[-73.8745553775476,40.7220149483819],[-73.8754502025337,40.7217590403538],[-73.8764652326303,40.7216022563085],[-73.8776754689889,40.7231093915344],[-73.8792018395526,40.7250167612587],[-73.8796440300043,40.7255685703328],[-73.8786365379858,40.7257360983012],[-73.8775571858416,40.7257588464338],[-73.8766563900007,40.7261912914267],[-73.8762982195033,40.726363228173],[-73.8758891012334,40.7265543617562],[-73.8755012229166,40.7267355593893],[-73.8750248147086,40.726953992349],[-73.8747097034015,40.7270984606183],[-73.8740215486773,40.7265532976048],[-73.8738645765785,40.7264361946897],[-73.8736838759488,40.7262794512896],[-73.8733677846717,40.7260052681948],[-73.8731024439401,40.7256796132482],[-73.8728032368582,40.7253124064328]]]}},{"type":"Feature","properties":{"e":"39029"},"geometry":{"type":"Polygon","coordinates":[[[-73.8631022546422,40.7476393061421],[-73.8634982973333,40.7475255104343],[-73.863704828333,40.7469144997354],[-73.864903940352,40.7465586630085],[-73.8664151292286,40.7461077675183],[-73.868087148821,40.7456088502072],[-73.8682664324938,40.7463224907923],[-73.8684389168052,40.7470394652394],[-73.8673522994969,40.7473662921111],[-73.8670988455158,40.7474403821662],[-73.8664907621045,40.7476223647867],[-73.8656286992159,40.7478771781436],[-73.864740957634,40.7481441570145],[-73.8635464243156,40.7484989982958],[-73.8631564191839,40.7485993563363],[-73.8633273435615,40.7480789127493],[-73.8631022546422,40.7476393061421]]]}},{"type":"Feature","properties":{"e":"39030"},"geometry":{"type":"Polygon","coordinates":[[[-73.8554803093181,40.750899503244],[-73.8584026450494,40.7500284615322],[-73.8613261614741,40.74915609449],[-73.8614080891351,40.7493156812099],[-73.8629522521325,40.7488506887869],[-73.8630829616247,40.7488113286148],[-73.8628617804021,40.7494696885147],[-73.8627277439806,40.7498762071108],[-73.8630986582911,40.7506803601567],[-73.86224260693,40.7509285629378],[-73.862515146397,40.7514557758997],[-73.85958749031,40.7523297516821],[-73.8570641530977,40.7530803282258],[-73.8566630114419,40.7531996425592],[-73.8562547545174,40.7524059579724],[-73.8558363584127,40.7515855417131],[-73.8554803093181,40.750899503244]]]}},{"type":"Feature","properties":{"e":"39031"},"geometry":{"type":"Polygon","coordinates":[[[-73.8544715203983,40.7489476169243],[-73.8573975266187,40.7480761183658],[-73.8603216805224,40.7472039672606],[-73.8625324144631,40.746542069591],[-73.8628601550123,40.747164792442],[-73.8631022546422,40.7476393061421],[-73.8633273435615,40.7480789127493],[-73.8631564191839,40.7485993563363],[-73.8630829616247,40.7488113286148],[-73.8629522521325,40.7488506887869],[-73.8614080891351,40.7493156812099],[-73.8613261614741,40.74915609449],[-73.8584026450494,40.7500284615322],[-73.8554803093181,40.750899503244],[-73.8551406914059,40.7502346644528],[-73.85479426939,40.7495714996511],[-73.8544715203983,40.7489476169243]]]}},{"type":"Feature","properties":{"e":"39032"},"geometry":{"type":"Polygon","coordinates":[[[-73.8574836037981,40.7439436324213],[-73.8586822351688,40.7440394009661],[-73.8598582380726,40.7441324199263],[-73.8617787901021,40.7442893395617],[-73.8624504506811,40.744347723171],[-73.8629839835732,40.7445856424303],[-73.8634166288085,40.7447894997555],[-73.8641276383113,40.7451274996043],[-73.8643721226205,40.7450888413736],[-73.8644277373181,40.7452511426489],[-73.8642091841883,40.7457769973003],[-73.8641287388263,40.7459699354378],[-73.862488510058,40.7464559285352],[-73.8625324144631,40.746542069591],[-73.8603216805224,40.7472039672606],[-73.8602747648388,40.7471099958853],[-73.8602354105922,40.7470178622159],[-73.859901951148,40.7463957924897],[-73.85698281858,40.7472756833141],[-73.8566382484481,40.7466031521388],[-73.8562928754264,40.7459383366343],[-73.8559519812412,40.7452752444459],[-73.8571933913128,40.744900585],[-73.8574836037981,40.7439436324213]]]}},{"type":"Feature","properties":{"e":"39033"},"geometry":{"type":"Polygon","coordinates":[[[-73.8544271546727,40.7488599956539],[-73.8543706834366,40.7487471989411],[-73.8540559349624,40.7481665855944],[-73.8538259096574,40.7478623086809],[-73.8537842715844,40.7478112599516],[-73.8536070853905,40.7475050971255],[-73.8532563336013,40.7468318183789],[-73.8529249367165,40.7461902158244],[-73.8525787403665,40.7455139154943],[-73.8522423761379,40.7448492342394],[-73.8518967758191,40.7441880066808],[-73.8519933358862,40.7441590611019],[-73.8548027852659,40.7433171237439],[-73.8549517483387,40.7433418237543],[-73.8560572450699,40.7436731027288],[-73.8562995443286,40.7437523246866],[-73.8565496627146,40.7438183464068],[-73.856805590419,40.7438705434819],[-73.8568057551005,40.7438705793698],[-73.8568059094473,40.743870607036],[-73.8570657273852,40.7439085614121],[-73.8570658341735,40.7439085803076],[-73.8573276840735,40.7439321650177],[-73.8574836037981,40.7439436324213],[-73.8571933913128,40.744900585],[-73.8559519812412,40.7452752444459],[-73.8562928754264,40.7459383366343],[-73.8566382484481,40.7466031521388],[-73.85698281858,40.7472756833141],[-73.859901951148,40.7463957924897],[-73.8602354105922,40.7470178622159],[-73.8602747648388,40.7471099958853],[-73.8603216805224,40.7472039672606],[-73.8573975266187,40.7480761183658],[-73.8544715203983,40.7489476169243],[-73.8544271546727,40.7488599956539]]]}},{"type":"Feature","properties":{"e":"39034"},"geometry":{"type":"Polygon","coordinates":[[[-73.8512106922873,40.7428522889262],[-73.8513201287341,40.7428198143402],[-73.8531706791878,40.742270689136],[-73.8536797420677,40.7421181522194],[-73.853933450859,40.7423518223351],[-73.8543179215151,40.7420975746139],[-73.8545787824241,40.741892632315],[-73.8551943063078,40.7413888087971],[-73.8557249606421,40.7409649741584],[-73.8558118229534,40.7408955917408],[-73.856383878197,40.7404301399984],[-73.8564555851665,40.7403717145343],[-73.8570523327597,40.7398984467942],[-73.8573107822715,40.7396892901868],[-73.8579541618856,40.7401501472181],[-73.8581752370411,40.7403004710598],[-73.8583851525473,40.7404602902301],[-73.8585828668176,40.7406288833137],[-73.8587674603053,40.7408054027334],[-73.8593240186003,40.7413443358551],[-73.8598857375395,40.7418881884126],[-73.8588794855303,40.7424931735647],[-73.8586591261075,40.7422801672657],[-73.8569225871732,40.7431840518094],[-73.8560572450699,40.7436731027288],[-73.8549517483387,40.7433418237543],[-73.8548027852659,40.7433171237439],[-73.8519933358862,40.7441590611019],[-73.8518967758191,40.7441880066808],[-73.8515524742416,40.7435154949336],[-73.8513524284549,40.7431273257092],[-73.8512106922873,40.7428522889262]]]}},{"type":"Feature","properties":{"e":"39035"},"geometry":{"type":"Polygon","coordinates":[[[-73.8574836037981,40.7439436324213],[-73.8573276840735,40.7439321650177],[-73.8570658341735,40.7439085803076],[-73.8570657273852,40.7439085614121],[-73.8568059094473,40.743870607036],[-73.8568057551005,40.7438705793698],[-73.856805590419,40.7438705434819],[-73.8565496627146,40.7438183464068],[-73.8562995443286,40.7437523246866],[-73.8560572450699,40.7436731027288],[-73.8569225871732,40.7431840518094],[-73.8586591261075,40.7422801672657],[-73.8588794855303,40.7424931735647],[-73.8598857375395,40.7418881884126],[-73.8593240186003,40.7413443358551],[-73.8587674603053,40.7408054027334],[-73.8594922837913,40.740366706263],[-73.8602505645371,40.7399292255407],[-73.8607305678537,40.7396443008031],[-73.861856264482,40.7415974092689],[-73.8624111989674,40.7428981645116],[-73.8626610785474,40.7434147866444],[-73.8627500119769,40.7435793254429],[-73.8631778422524,40.7434784558184],[-73.8632077276584,40.7434714032707],[-73.863684692289,40.7433589458451],[-73.8641100342321,40.7432572321803],[-73.8645239444657,40.7431582593096],[-73.8651157780306,40.744598929152],[-73.8648805423207,40.7447551263262],[-73.8647505419361,40.7448404579735],[-73.8643721226205,40.7450888413736],[-73.8641276383113,40.7451274996043],[-73.8634166288085,40.7447894997555],[-73.8629839835732,40.7445856424303],[-73.8624504506811,40.744347723171],[-73.8617787901021,40.7442893395617],[-73.8598582380726,40.7441324199263],[-73.8586822351688,40.7440394009661],[-73.8574836037981,40.7439436324213]]]}},{"type":"Feature","properties":{"e":"39036"},"geometry":{"type":"Polygon","coordinates":[[[-73.8643721226205,40.7450888413736],[-73.8647505419361,40.7448404579735],[-73.8648805423207,40.7447551263262],[-73.8651157780306,40.744598929152],[-73.8645239444657,40.7431582593096],[-73.8641100342321,40.7432572321803],[-73.863684692289,40.7433589458451],[-73.8632077276584,40.7434714032707],[-73.8631778422524,40.7434784558184],[-73.8627500119769,40.7435793254429],[-73.8626610785474,40.7434147866444],[-73.8624111989674,40.7428981645116],[-73.861856264482,40.7415974092689],[-73.8635250515773,40.7406959819061],[-73.8644120727243,40.7404805825981],[-73.8653133749874,40.7402664365429],[-73.8656721309932,40.7411414294222],[-73.8660348421433,40.7420438107237],[-73.8663649116292,40.74280935594],[-73.8672905692529,40.7421144685301],[-73.8674730982462,40.7421039895099],[-73.8674877069995,40.7430004617593],[-73.8674927565716,40.7433103146834],[-73.8676864555255,40.7440799856446],[-73.86782831687,40.7446377243364],[-73.8678523813347,40.744724813437],[-73.8678773575365,40.7448235741399],[-73.8670147010078,40.7450873972664],[-73.8661008726078,40.7453668595534],[-73.8653269399059,40.7456035320054],[-73.8641287388263,40.7459699354378],[-73.8642091841883,40.7457769973003],[-73.8644277373181,40.7452511426489],[-73.8643721226205,40.7450888413736]]]}},{"type":"Feature","properties":{"e":"39037"},"geometry":{"type":"Polygon","coordinates":[[[-73.8675472097256,40.736162473835],[-73.867192897454,40.7354947708916],[-73.8668519765878,40.7348290909167],[-73.8665132363409,40.7341658870953],[-73.8663141041672,40.733783048379],[-73.8646233387462,40.7342899556741],[-73.8645738909244,40.7341966630575],[-73.8650037009194,40.7340614054027],[-73.8653299768805,40.7339587273334],[-73.8659172117949,40.7337739239735],[-73.8672057413744,40.7334040913963],[-73.8683451162424,40.7330789024485],[-73.8685024175901,40.7330262675349],[-73.868558808475,40.7330530855967],[-73.8688227983796,40.7331786299273],[-73.8692546171883,40.733358933968],[-73.8699256655098,40.7335864520198],[-73.8701334558347,40.7336558093971],[-73.8702639543289,40.7336975977649],[-73.8703798963678,40.7337321081559],[-73.8717544562235,40.7341412715792],[-73.8720843689723,40.7342372992648],[-73.8722583644761,40.7347455058391],[-73.8726570642946,40.735751022949],[-73.8721025512913,40.7360021185793],[-73.8700955819919,40.7365301459502],[-73.8704089240621,40.7373416952469],[-73.8685734499029,40.7377537143882],[-73.868229836168,40.7368568019943],[-73.8678357622617,40.7369214758992],[-73.8675472097256,40.736162473835]]]}},{"type":"Feature","properties":{"e":"39038"},"geometry":{"type":"Polygon","coordinates":[[[-73.8721619438753,40.7418896465861],[-73.8717246394646,40.7407559784617],[-73.8714673521624,40.7400835159772],[-73.8712017491734,40.7393977342333],[-73.8738367224969,40.7388109989323],[-73.8741042812295,40.7394961812094],[-73.8743626595976,40.7401681531948],[-73.8747969841044,40.7412963591442],[-73.8739157306502,40.7414977602432],[-73.8730463362291,40.7416929536111],[-73.8733599525082,40.7425038560826],[-73.8723743504299,40.7424622902207],[-73.8721619438753,40.7418896465861]]]}},{"type":"Feature","properties":{"e":"39039"},"geometry":{"type":"Polygon","coordinates":[[[-73.8675587014598,40.7416859642319],[-73.8675639401548,40.7409501558549],[-73.8673192003198,40.7402696118283],[-73.8689867200152,40.7398920743311],[-73.8687215785062,40.739207755212],[-73.8684597000411,40.7385221419792],[-73.8681923676004,40.7378377102708],[-73.8685734499029,40.7377537143882],[-73.8704089240621,40.7373416952469],[-73.8706741461199,40.7380260387162],[-73.8709410546438,40.7387110218369],[-73.8712017491734,40.7393977342333],[-73.8714673521624,40.7400835159772],[-73.8717246394646,40.7407559784617],[-73.8721619438753,40.7418896465861],[-73.8712954316633,40.7420767256742],[-73.8710961806543,40.7415568736266],[-73.8697472263686,40.741854729681],[-73.8695078156577,40.7412511807528],[-73.8675587014598,40.7416859642319]]]}},{"type":"Feature","properties":{"e":"39040"},"geometry":{"type":"Polygon","coordinates":[[[-73.8643408157701,40.7337508256268],[-73.8634253475897,40.7319588915228],[-73.8638724598903,40.7318220034175],[-73.8644804803689,40.7310975663538],[-73.8649195283905,40.7312555907243],[-73.8657474163195,40.7315472525227],[-73.866074915931,40.7317026840812],[-73.866504104237,40.7319466881012],[-73.8667380401765,40.7320787216988],[-73.866971977262,40.732210755489],[-73.8674244386417,40.7324641133387],[-73.8676526569795,40.7325918962024],[-73.8678103883353,40.7326802198899],[-73.867866860067,40.732707516004],[-73.8679655960784,40.7327640911238],[-73.8681072283646,40.7328345196671],[-73.8682210368511,40.7328897433026],[-73.8685024175901,40.7330262675349],[-73.8683451162424,40.7330789024485],[-73.8672057413744,40.7334040913963],[-73.8659172117949,40.7337739239735],[-73.8653299768805,40.7339587273334],[-73.8650037009194,40.7340614054027],[-73.8645738909244,40.7341966630575],[-73.8645037067188,40.7340836649835],[-73.8644722675711,40.7340155404405],[-73.864438265903,40.7339378677021],[-73.8643408157701,40.7337508256268]]]}},{"type":"Feature","properties":{"e":"39041"},"geometry":{"type":"Polygon","coordinates":[[[-73.8685024175901,40.7330262675349],[-73.8682210368511,40.7328897433026],[-73.8681072283646,40.7328345196671],[-73.8679655960784,40.7327640911238],[-73.867866860067,40.732707516004],[-73.8678103883353,40.7326802198899],[-73.8676526569795,40.7325918962024],[-73.8674244386417,40.7324641133387],[-73.866971977262,40.732210755489],[-73.8667380401765,40.7320787216988],[-73.866504104237,40.7319466881012],[-73.866074915931,40.7317026840812],[-73.8657474163195,40.7315472525227],[-73.8649195283905,40.7312555907243],[-73.8644804803689,40.7310975663538],[-73.8645492562977,40.7309933683838],[-73.864575987886,40.7309399281223],[-73.8646184232152,40.7308713496667],[-73.8646931510361,40.7307505808243],[-73.8650825571303,40.7301212934435],[-73.8654887187687,40.7294802722676],[-73.8658942350037,40.7288380778477],[-73.8673476440479,40.7293666321885],[-73.8680321000607,40.7296984991903],[-73.8693789010208,40.7303672631908],[-73.8697871299319,40.7305121811979],[-73.8702391221848,40.730681778873],[-73.8714864990629,40.7311498103037],[-73.8715968796439,40.7311912256006],[-73.8715654558791,40.7312865451127],[-73.8714213628646,40.7315707467376],[-73.8713525890561,40.7317099077738],[-73.8712908113697,40.7318245267145],[-73.8712426637921,40.7319119757941],[-73.8711111760117,40.7321409721121],[-73.8708140777479,40.7326918952968],[-73.870574538803,40.7331231049699],[-73.8704811563918,40.7333017968875],[-73.8705824152554,40.7333342834244],[-73.8718594668707,40.7337012462581],[-73.8720154261618,40.733918054665],[-73.8720065579383,40.7339724606621],[-73.8720375058584,40.7340564522299],[-73.8720504419234,40.7341382241519],[-73.8720843689723,40.7342372992648],[-73.8717544562235,40.7341412715792],[-73.8703798963678,40.7337321081559],[-73.8702639543289,40.7336975977649],[-73.8701334558347,40.7336558093971],[-73.8699256655098,40.7335864520198],[-73.8692546171883,40.733358933968],[-73.8688227983796,40.7331786299273],[-73.868558808475,40.7330530855967],[-73.8685024175901,40.7330262675349]]]}},{"type":"Feature","properties":{"e":"39042"},"geometry":{"type":"Polygon","coordinates":[[[-73.8658942350037,40.7288380778477],[-73.866301594672,40.7281938404327],[-73.8665572444184,40.7277612976982],[-73.8666714068748,40.7275928017665],[-73.8675783427203,40.7279100090218],[-73.8684281897072,40.7282072410347],[-73.8688832776437,40.728366402849],[-73.8689986666888,40.7281739327684],[-73.8690578512392,40.7280780422212],[-73.8692441214836,40.7277761957911],[-73.8696330601142,40.7279179535573],[-73.8710559515364,40.7283971586281],[-73.8711342408126,40.7283799844734],[-73.8713259605236,40.7289381596726],[-73.8714328295337,40.7292492877048],[-73.8714621489125,40.7293346384871],[-73.8715489064344,40.7293706476837],[-73.8723537027826,40.7296637492281],[-73.8731708333066,40.7299588836099],[-73.8740905390558,40.7302910568262],[-73.8747561635249,40.7305501562264],[-73.8749549028031,40.7306269602531],[-73.8750929492173,40.7306796277051],[-73.875238583519,40.7307322226319],[-73.8748384442525,40.7308452676869],[-73.8740153344378,40.7310957971036],[-73.8737273130553,40.731180905032],[-73.8731633394144,40.7313475519744],[-73.8720592802874,40.731675920567],[-73.8719574846429,40.7317061957705],[-73.8716523396658,40.7317921963401],[-73.8714432670756,40.7318511181594],[-73.8713011674375,40.7318929684411],[-73.8712426637921,40.7319119757941],[-73.8712908113697,40.7318245267145],[-73.8713525890561,40.7317099077738],[-73.8714213628646,40.7315707467376],[-73.8715654558791,40.7312865451127],[-73.8715968796439,40.7311912256006],[-73.8714864990629,40.7311498103037],[-73.8702391221848,40.730681778873],[-73.8697871299319,40.7305121811979],[-73.8693789010208,40.7303672631908],[-73.8680321000607,40.7296984991903],[-73.8673476440479,40.7293666321885],[-73.8658942350037,40.7288380778477]]]}},{"type":"Feature","properties":{"e":"39043"},"geometry":{"type":"Polygon","coordinates":[[[-73.8666714068748,40.7275928017665],[-73.8668098490245,40.7273877258357],[-73.8668475038879,40.7273279490606],[-73.867065854941,40.7269812971022],[-73.8674704449403,40.7263374490884],[-73.8678782465259,40.7256933777994],[-73.8682835641808,40.7250505716962],[-73.8683989407992,40.7248622532693],[-73.8690651890734,40.7245420898865],[-73.8691966008349,40.7244926112402],[-73.869294110318,40.7244441929406],[-73.8693116646167,40.7244742542963],[-73.8697090591153,40.7251546977319],[-73.8702127648844,40.726195590159],[-73.8706332573453,40.7270671179584],[-73.870747016177,40.7272778033442],[-73.8708468003503,40.7274928574497],[-73.8709322193398,40.7277114707187],[-73.8710029672558,40.7279327881184],[-73.8711342408126,40.7283799844734],[-73.8710559515364,40.7283971586281],[-73.8696330601142,40.7279179535573],[-73.8692441214836,40.7277761957911],[-73.8690578512392,40.7280780422212],[-73.8689986666888,40.7281739327684],[-73.8688832776437,40.728366402849],[-73.8684281897072,40.7282072410347],[-73.8675783427203,40.7279100090218],[-73.8666714068748,40.7275928017665]]]}},{"type":"Feature","properties":{"e":"39044"},"geometry":{"type":"Polygon","coordinates":[[[-73.869294110318,40.7244441929406],[-73.8694077834946,40.7243923093372],[-73.8698541976647,40.7241922616076],[-73.8705519919804,40.7238700085579],[-73.8713542196476,40.7235009862599],[-73.8713790057871,40.7235311272524],[-73.8715651676019,40.7237647029237],[-73.8728032368582,40.7253124064328],[-73.8722461396381,40.7261543339641],[-73.8718168152179,40.7268020889722],[-73.8711011308411,40.7278663320953],[-73.8710029672558,40.7279327881184],[-73.8709322193398,40.7277114707187],[-73.8708468003503,40.7274928574497],[-73.870747016177,40.7272778033442],[-73.8706332573453,40.7270671179584],[-73.8702127648844,40.726195590159],[-73.8697090591153,40.7251546977319],[-73.8693116646167,40.7244742542963],[-73.869294110318,40.7244441929406]]]}},{"type":"Feature","properties":{"e":"39045"},"geometry":{"type":"Polygon","coordinates":[[[-73.8711342408126,40.7283799844734],[-73.8710029672558,40.7279327881184],[-73.8711011308411,40.7278663320953],[-73.8718168152179,40.7268020889722],[-73.8722461396381,40.7261543339641],[-73.8728032368582,40.7253124064328],[-73.8731024439401,40.7256796132482],[-73.8733677846717,40.7260052681948],[-73.8736838759488,40.7262794512896],[-73.8738645765785,40.7264361946897],[-73.8740215486773,40.7265532976048],[-73.8747097034015,40.7270984606183],[-73.875205983407,40.7274891638591],[-73.8758485109282,40.7279909916387],[-73.8764827712452,40.7284944198685],[-73.877484885938,40.7292878759427],[-73.8776911894406,40.7294435441967],[-73.877695016186,40.7295626822517],[-73.8778203899333,40.7296637170599],[-73.877895435764,40.7297241950905],[-73.8779660652269,40.7297784263437],[-73.8775412466216,40.7299627952435],[-73.8773092640901,40.7300555626884],[-73.8770954726287,40.7301410541295],[-73.8770763135146,40.7301480749965],[-73.8766414670085,40.730307432361],[-73.8763440295146,40.7304068184056],[-73.8761800839289,40.7304615911831],[-73.8757121638024,40.7306032600214],[-73.8755908398967,40.7306362978002],[-73.8754753741091,40.7306677420732],[-73.875238583519,40.7307322226319],[-73.8750929492173,40.7306796277051],[-73.8749549028031,40.7306269602531],[-73.8747561635249,40.7305501562264],[-73.8740905390558,40.7302910568262],[-73.8731708333066,40.7299588836099],[-73.8723537027826,40.7296637492281],[-73.8715489064344,40.7293706476837],[-73.8714621489125,40.7293346384871],[-73.8714328295337,40.7292492877048],[-73.8713259605236,40.7289381596726],[-73.8711342408126,40.7283799844734]]]}},{"type":"Feature","properties":{"e":"39046"},"geometry":{"type":"Polygon","coordinates":[[[-73.8747097034015,40.7270984606183],[-73.8750248147086,40.726953992349],[-73.8755012229166,40.7267355593893],[-73.8758891012334,40.7265543617562],[-73.8762982195033,40.726363228173],[-73.8766563900007,40.7261912914267],[-73.8775571858416,40.7257588464338],[-73.8786365379858,40.7257360983012],[-73.8796440300043,40.7255685703328],[-73.8806513946896,40.7254029082114],[-73.8811275568386,40.725325596776],[-73.8816219992113,40.7252453124825],[-73.8821031060576,40.7251685783894],[-73.8825892792312,40.7250910284137],[-73.8835840382693,40.7249574299535],[-73.884137043935,40.7248899895922],[-73.8847803570332,40.7248131511042],[-73.8849345687162,40.7247947326162],[-73.8850637583898,40.7254963679853],[-73.8852312540827,40.7264060260607],[-73.8853629613733,40.7271213043143],[-73.8854852128918,40.727785211402],[-73.8855353061743,40.7280572481685],[-73.885555182487,40.7281387537951],[-73.8855770302513,40.7282168962657],[-73.8851070834006,40.7282955971289],[-73.8847865731685,40.7283355337411],[-73.8847339551526,40.7283400110061],[-73.884141262238,40.7283904379785],[-73.8841623649065,40.7284517748519],[-73.8843530915676,40.7285112110689],[-73.8843367326447,40.7285126345309],[-73.8835436642145,40.7285744568741],[-73.8830033890025,40.7286184736714],[-73.8825832148099,40.7286527035983],[-73.882141090802,40.7286887193199],[-73.8817365315896,40.7287105678371],[-73.8814042915692,40.7287405699264],[-73.8810738636997,40.7287836090259],[-73.8809311168045,40.7288080149056],[-73.8807348808805,40.7288411771294],[-73.8807148958034,40.7288453856422],[-73.8803915169088,40.7289134835496],[-73.8800541531819,40.7289989502371],[-73.8797240933354,40.7290971395186],[-73.8787158273872,40.7294846497803],[-73.8784340837212,40.729596459596],[-73.8779660652269,40.7297784263437],[-73.877895435764,40.7297241950905],[-73.8778203899333,40.7296637170599],[-73.877695016186,40.7295626822517],[-73.8776911894406,40.7294435441967],[-73.877484885938,40.7292878759427],[-73.8764827712452,40.7284944198685],[-73.8758485109282,40.7279909916387],[-73.875205983407,40.7274891638591],[-73.8747097034015,40.7270984606183]]]}},{"type":"Feature","properties":{"e":"39047"},"geometry":{"type":"Polygon","coordinates":[[[-73.8764652326303,40.7216022563085],[-73.8771601819297,40.7215907351972],[-73.8775966486531,40.721583500999],[-73.8786794525262,40.7215648446878],[-73.8797356923699,40.7215156318964],[-73.8808425129567,40.7214492177223],[-73.8813087525054,40.7214246104611],[-73.8809217611411,40.7216113009562],[-73.8824362265682,40.7235169601471],[-73.8820343951698,40.7237035222514],[-73.8816354998687,40.7238887164369],[-73.8812350865334,40.724074133666],[-73.8808340783535,40.7242598273143],[-73.8804324276899,40.7244464476655],[-73.8800277416157,40.7246344671583],[-73.8796621833071,40.7248036790166],[-73.8796377915702,40.7248149635968],[-73.8792018395526,40.7250167612587],[-73.8776754689889,40.7231093915344],[-73.8764652326303,40.7216022563085]]]}},{"type":"Feature","properties":{"e":"39048"},"geometry":{"type":"Polygon","coordinates":[[[-73.8811388866512,40.7479355611507],[-73.8820725322051,40.7478381944218],[-73.8825701806501,40.7477861134859],[-73.8830005941131,40.7477426699764],[-73.8833816144249,40.7498533675909],[-73.8824519961431,40.7499485515974],[-73.8815213257719,40.7500480580776],[-73.8811388866512,40.7479355611507]]]}}]}