{"type":"FeatureCollection","ad":40,"features":[{"type":"Feature","properties":{"e":"40001"},"geometry":{"type":"Polygon","coordinates":[[[-73.8063954429958,40.7565534749279],[-73.8054597865793,40.7564806141414],[-73.8045289195952,40.7564068085265],[-73.8035964112377,40.7563321549547],[-73.8026611138232,40.7562602721685],[-73.8030084395961,40.7537073514129],[-73.803947750264,40.7537071978959],[-73.8044465534508,40.753737753225],[-73.8043663698272,40.7534445372266],[-73.8043269310789,40.753119864743],[-73.8043269077353,40.7531197120868],[-73.8043268729378,40.7531195589085],[-73.8042637959022,40.7527960428726],[-73.8041771823848,40.7524750629989],[-73.8041771588064,40.7524749904199],[-73.8040673725623,40.7521581397809],[-73.8039349545679,40.7518468169047],[-73.8037870027713,40.7515548991369],[-73.8042422606083,40.7515734668857],[-73.805175613689,40.7516484413199],[-73.8061126864483,40.7517197226665],[-73.8070442819653,40.7517941640157],[-73.8079763244693,40.7518659526579],[-73.8089101833467,40.751940870183],[-73.8098364592312,40.752014226706],[-73.8095470124762,40.7541412350089],[-73.8088829956566,40.7540890460549],[-73.8086207533175,40.7540684334502],[-73.8085719487605,40.7544230820421],[-73.8083083841725,40.7563382856037],[-73.8082585749661,40.7567002124735],[-73.8073229674602,40.7566295286706],[-73.8068616321841,40.7565917002953],[-73.8063954429958,40.7565534749279]]]}},{"type":"Feature","properties":{"e":"40002"},"geometry":{"type":"Polygon","coordinates":[[[-73.8082585749661,40.7567002124735],[-73.8083083841725,40.7563382856037],[-73.8085719487605,40.7544230820421],[-73.8086207533175,40.7540684334502],[-73.8088829956566,40.7540890460549],[-73.8095470124762,40.7541412350089],[-73.8098364592312,40.752014226706],[-73.8107690854525,40.7520869933323],[-73.8106763331348,40.7527820233341],[-73.8105808979638,40.7534663250802],[-73.810477163271,40.754220303352],[-73.8122149477362,40.7542174479241],[-73.8130899556608,40.754209965479],[-73.8133707480774,40.7542139872142],[-73.8135336024247,40.7542609869622],[-73.8142407304116,40.7547265300538],[-73.8158530935405,40.7536758578687],[-73.8164408965442,40.7541991537633],[-73.8170356018183,40.7547303817329],[-73.8183251185019,40.7558798854846],[-73.8171727902539,40.7566288870163],[-73.8169916278718,40.756512298715],[-73.8159012191943,40.756807710795],[-73.8137041834824,40.7573989905703],[-73.8108900326412,40.758156621101],[-73.8099066822814,40.7584242643775],[-73.8100151719947,40.757639533378],[-73.81012427273,40.7568472216248],[-73.8091879200681,40.7567748587272],[-73.8084339340123,40.7567142988419],[-73.8082585749661,40.7567002124735]]]}},{"type":"Feature","properties":{"e":"40003"},"geometry":{"type":"Polygon","coordinates":[[[-73.8033231187504,40.7617980556901],[-73.8028762794107,40.7614568023724],[-73.8030746756838,40.7601345208819],[-73.8021543050045,40.7599954912876],[-73.802336562854,40.7586080950419],[-73.80261368761,40.7566033382678],[-73.8026611138232,40.7562602721685],[-73.8035964112377,40.7563321549547],[-73.8045289195952,40.7564068085265],[-73.8054597865793,40.7564806141414],[-73.8063954429958,40.7565534749279],[-73.8060744747869,40.758903277608],[-73.8058414411014,40.760623663424],[-73.8057148449131,40.7615638317904],[-73.8056830810797,40.7618929127126],[-73.8066010867791,40.7619933243977],[-73.8075290162465,40.7620746902359],[-73.8075150477675,40.7621870765067],[-73.8065734131745,40.762099547546],[-73.8056634564288,40.7620149556593],[-73.8047225738422,40.7619274815146],[-73.8037836827212,40.7618401841681],[-73.8033231187504,40.7617980556901]]]}},{"type":"Feature","properties":{"e":"40004"},"geometry":{"type":"Polygon","coordinates":[[[-73.8075150477675,40.7621870765067],[-73.8075290162465,40.7620746902359],[-73.8066010867791,40.7619933243977],[-73.8056830810797,40.7618929127126],[-73.8057148449131,40.7615638317904],[-73.8058414411014,40.760623663424],[-73.8060744747869,40.758903277608],[-73.8063954429958,40.7565534749279],[-73.8068616321841,40.7565917002953],[-73.8073229674602,40.7566295286706],[-73.8082585749661,40.7567002124735],[-73.8084339340123,40.7567142988419],[-73.8091879200681,40.7567748587272],[-73.81012427273,40.7568472216248],[-73.8100151719947,40.757639533378],[-73.8099066822814,40.7584242643775],[-73.80980037101,40.7591999384604],[-73.8097471311246,40.7595919936067],[-73.809515114712,40.7613081837994],[-73.8094175418652,40.7620398194668],[-73.8093921121867,40.7622476509881],[-73.8095431066175,40.7623642463345],[-73.8084425138328,40.7622680954661],[-73.8075150477675,40.7621870765067]]]}},{"type":"Feature","properties":{"e":"40005"},"geometry":{"type":"Polygon","coordinates":[[[-73.8095431066175,40.7623642463345],[-73.8093921121867,40.7622476509881],[-73.8094175418652,40.7620398194668],[-73.809515114712,40.7613081837994],[-73.8097471311246,40.7595919936067],[-73.80980037101,40.7591999384604],[-73.8099066822814,40.7584242643775],[-73.8108900326412,40.758156621101],[-73.8137041834824,40.7573989905703],[-73.8140143530655,40.758071396958],[-73.8143291440822,40.7587494097845],[-73.8146759703067,40.7594846107311],[-73.8150887159773,40.7603798830038],[-73.8154867848911,40.7612289421692],[-73.8158811336009,40.7620737801047],[-73.8160567744706,40.762451525194],[-73.8161190249652,40.7625854036204],[-73.8149453172972,40.7627130907512],[-73.8139969654837,40.7627798123796],[-73.812518893195,40.7626656003521],[-73.8113171780801,40.7625439060056],[-73.8103374288422,40.762444680216],[-73.8095431066175,40.7623642463345]]]}},{"type":"Feature","properties":{"e":"40006"},"geometry":{"type":"Polygon","coordinates":[[[-73.8151681139365,40.7652739734733],[-73.8141338513433,40.7651902926509],[-73.8129212576213,40.7650650601278],[-73.8119566679611,40.7648759938682],[-73.8109948754019,40.7647130134598],[-73.8100559054536,40.7643855857738],[-73.8091362875159,40.7640779116897],[-73.8082328016243,40.7638059267688],[-73.8073361309277,40.7635058937049],[-73.8064327284973,40.7632021880757],[-73.8055281149985,40.7628981760992],[-73.8046327282296,40.7625968011258],[-73.8042137105378,40.762456033501],[-73.8037421841079,40.7621416384774],[-73.8036417651418,40.7620454379632],[-73.8034093177925,40.7618649754351],[-73.8033231187504,40.7617980556901],[-73.8037836827212,40.7618401841681],[-73.8047225738422,40.7619274815146],[-73.8056634564288,40.7620149556593],[-73.8065734131745,40.762099547546],[-73.8075150477675,40.7621870765067],[-73.8084425138328,40.7622680954661],[-73.8095431066175,40.7623642463345],[-73.8103374288422,40.762444680216],[-73.8113171780801,40.7625439060056],[-73.812518893195,40.7626656003521],[-73.8139969654837,40.7627798123796],[-73.8149453172972,40.7627130907512],[-73.8161190249652,40.7625854036204],[-73.8161614255315,40.7626769499726],[-73.8163887969966,40.7631678496882],[-73.8168276003183,40.7642428971874],[-73.8173262733389,40.7653620646341],[-73.8165305098234,40.7653454361875],[-73.8161762372435,40.7653327424253],[-73.8151681139365,40.7652739734733]]]}},{"type":"Feature","properties":{"e":"40007"},"geometry":{"type":"Polygon","coordinates":[[[-73.8176830982032,40.7606349255449],[-73.8172896049998,40.7597838192775],[-73.820637325304,40.7588805397592],[-73.8208082405587,40.7589500552353],[-73.8211654422914,40.7596943476463],[-73.8215594889344,40.7605425967038],[-73.8217477793903,40.7609434509294],[-73.8217687461159,40.7609880860509],[-73.8218121639032,40.7610805090753],[-73.8183399779264,40.7620383588845],[-73.8182957753218,40.7619440054286],[-73.818278756671,40.7619076803473],[-73.8180791117575,40.7614815416078],[-73.8176830982032,40.7606349255449]]]}},{"type":"Feature","properties":{"e":"40008"},"geometry":{"type":"Polygon","coordinates":[[[-73.8137041834824,40.7573989905703],[-73.8159012191943,40.756807710795],[-73.8169916278718,40.756512298715],[-73.8171727902539,40.7566288870163],[-73.8178938475401,40.7570946101413],[-73.8185705360068,40.7575271202891],[-73.8192342555266,40.7579550845366],[-73.8200463975443,40.7584915000175],[-73.820637325304,40.7588805397592],[-73.8172896049998,40.7597838192775],[-73.8176830982032,40.7606349255449],[-73.8154867848911,40.7612289421692],[-73.8150887159773,40.7603798830038],[-73.8146759703067,40.7594846107311],[-73.8143291440822,40.7587494097845],[-73.8140143530655,40.758071396958],[-73.8137041834824,40.7573989905703]]]}},{"type":"Feature","properties":{"e":"40009"},"geometry":{"type":"Polygon","coordinates":[[[-73.820637325304,40.7588805397592],[-73.8200463975443,40.7584915000175],[-73.8192342555266,40.7579550845366],[-73.8185705360068,40.7575271202891],[-73.8178938475401,40.7570946101413],[-73.8171727902539,40.7566288870163],[-73.8183251185019,40.7558798854846],[-73.8189383450296,40.7564178494629],[-73.8192691111076,40.756208119796],[-73.8196189354464,40.7559738507789],[-73.8203020689669,40.7555232514882],[-73.8208713245908,40.756031105143],[-73.8214322895767,40.7565293805124],[-73.8221126536318,40.7571752415917],[-73.8231964603711,40.7581053774878],[-73.8231762782774,40.7581997824158],[-73.8235580680666,40.7590499514655],[-73.8239347813416,40.7599020288762],[-73.8215594889344,40.7605425967038],[-73.8211654422914,40.7596943476463],[-73.8208082405587,40.7589500552353],[-73.820637325304,40.7588805397592]]]}},{"type":"Feature","properties":{"e":"40010"},"geometry":{"type":"Polygon","coordinates":[[[-73.8203020689669,40.7555232514882],[-73.8209830683921,40.7550743815606],[-73.821668063913,40.7546289733656],[-73.822804714614,40.7538877449118],[-73.8233351879916,40.7543334988612],[-73.8233971172436,40.7543855372156],[-73.8239805708311,40.7548764776741],[-73.8233175617348,40.7553065418253],[-73.8214322895767,40.7565293805124],[-73.8208713245908,40.756031105143],[-73.8203020689669,40.7555232514882]]]}},{"type":"Feature","properties":{"e":"40011"},"geometry":{"type":"Polygon","coordinates":[[[-73.8233351879916,40.7543334988612],[-73.824372723676,40.75363899654],[-73.8254453528175,40.752950391896],[-73.8255096058498,40.7530080807983],[-73.8260893757951,40.7535432367436],[-73.8250097023205,40.7542250521463],[-73.8239805708311,40.7548764776741],[-73.8233971172436,40.7543855372156],[-73.8233351879916,40.7543334988612]]]}},{"type":"Feature","properties":{"e":"40012"},"geometry":{"type":"Polygon","coordinates":[[[-73.824718932489,40.7554958017231],[-73.8239805708311,40.7548764776741],[-73.8250097023205,40.7542250521463],[-73.8260893757951,40.7535432367436],[-73.8271452890241,40.7545178521931],[-73.8278266522123,40.7542591668799],[-73.8282814456568,40.7554000040509],[-73.8257751923416,40.7563663302886],[-73.824718932489,40.7554958017231]]]}},{"type":"Feature","properties":{"e":"40013"},"geometry":{"type":"Polygon","coordinates":[[[-73.8214322895767,40.7565293805124],[-73.8233175617348,40.7553065418253],[-73.8239805708311,40.7548764776741],[-73.824718932489,40.7554958017231],[-73.8240261882869,40.7559479446772],[-73.8238349249007,40.7560727767554],[-73.8235161338579,40.7562739665429],[-73.8221126536318,40.7571752415917],[-73.8214322895767,40.7565293805124]]]}},{"type":"Feature","properties":{"e":"40014"},"geometry":{"type":"Polygon","coordinates":[[[-73.8297022918965,40.7586918895625],[-73.8312063538751,40.757972327203],[-73.8338033713415,40.7567297960502],[-73.8339601252343,40.757191711088],[-73.8340003444514,40.757322323606],[-73.8340320199234,40.7574251859737],[-73.8340540570895,40.7574967519347],[-73.8340750959988,40.7575650754899],[-73.8341003506572,40.7576470898287],[-73.8341360109371,40.7577628927701],[-73.8341654659671,40.7578585452528],[-73.8342194908923,40.7580339873053],[-73.8342323361755,40.7580757007258],[-73.8342459282623,40.7581198339629],[-73.8342758917673,40.7582054330565],[-73.8342707212101,40.7582063297573],[-73.8337809588632,40.7583273879015],[-73.8335932789754,40.7583906418954],[-73.833440037051,40.758442289072],[-73.8332055130074,40.7585213290439],[-73.8330567625193,40.7585714622478],[-73.8329053686636,40.7586224855131],[-73.8327425894316,40.7586773458232],[-73.8325390457793,40.7587459432765],[-73.8324030007203,40.7587917935386],[-73.8319117394001,40.7589573531073],[-73.8323506862172,40.7596872770697],[-73.8326102111166,40.7601765942436],[-73.8328021282205,40.7605197134421],[-73.8329940589782,40.760862832488],[-73.8327454968731,40.7609572233595],[-73.8329252000511,40.7615300073024],[-73.8331742755207,40.7623423286295],[-73.8332465536539,40.7625790947613],[-73.8332647498982,40.7626576724255],[-73.8332879565161,40.7627547081617],[-73.8331491583425,40.762776344429],[-73.8319594644759,40.76296176763],[-73.831883022107,40.762837259747],[-73.8311202411511,40.7615564085245],[-73.8307449552403,40.7608019630161],[-73.830484708993,40.7602793315404],[-73.8301409908883,40.7595787176564],[-73.8298429932645,40.7589705528822],[-73.8297022918965,40.7586918895625]]]}},{"type":"Feature","properties":{"e":"40015"},"geometry":{"type":"Polygon","coordinates":[[[-73.8332879565161,40.7627547081617],[-73.8332647498982,40.7626576724255],[-73.8332465536539,40.7625790947613],[-73.8331742755207,40.7623423286295],[-73.8329252000511,40.7615300073024],[-73.8327454968731,40.7609572233595],[-73.8329940589782,40.760862832488],[-73.8328021282205,40.7605197134421],[-73.8326102111166,40.7601765942436],[-73.8323506862172,40.7596872770697],[-73.8319117394001,40.7589573531073],[-73.8324030007203,40.7587917935386],[-73.8325390457793,40.7587459432765],[-73.8327425894316,40.7586773458232],[-73.8329053686636,40.7586224855131],[-73.8330567625193,40.7585714622478],[-73.8332055130074,40.7585213290439],[-73.833440037051,40.758442289072],[-73.8335932789754,40.7583906418954],[-73.8337809588632,40.7583273879015],[-73.8342707212101,40.7582063297573],[-73.8342758917673,40.7582054330565],[-73.8342459282623,40.7581198339629],[-73.8342323361755,40.7580757007258],[-73.8342194908923,40.7580339873053],[-73.8341654659671,40.7578585452528],[-73.8341360109371,40.7577628927701],[-73.8341003506572,40.7576470898287],[-73.8340750959988,40.7575650754899],[-73.8340540570895,40.7574967519347],[-73.8340320199234,40.7574251859737],[-73.8340003444514,40.757322323606],[-73.8339601252343,40.757191711088],[-73.8338033713415,40.7567297960502],[-73.8347906384086,40.7561654505961],[-73.8355877040247,40.755709816117],[-73.8361635023057,40.755380659265],[-73.8365031450779,40.7551870649462],[-73.8368542802236,40.7550048671348],[-73.8372159113152,40.7548346426192],[-73.837586960386,40.7546769029145],[-73.8379187248829,40.7545497052594],[-73.8379885332282,40.7546906431654],[-73.8380552468949,40.7548381762066],[-73.8381352199834,40.7550459992776],[-73.8382123681907,40.7552614372471],[-73.8383067626027,40.7556412061335],[-73.8383102911132,40.7556575879533],[-73.8384074817127,40.7561088092742],[-73.8386199872053,40.7570531173184],[-73.8386196290081,40.7570874799685],[-73.8386195083566,40.7570990873582],[-73.8367924699258,40.7611749430502],[-73.8368959557518,40.7626109562988],[-73.8369010993778,40.7627063903108],[-73.8364099255167,40.7627527273761],[-73.8361563248274,40.7627812461545],[-73.8358671836934,40.7627995470898],[-73.8355774017754,40.7628037983148],[-73.8348686947208,40.762775526679],[-73.8343370964101,40.7627556720541],[-73.8332879565161,40.7627547081617]]]}},{"type":"Feature","properties":{"e":"40016"},"geometry":{"type":"Polygon","coordinates":[[[-73.8296376065365,40.7585580510208],[-73.8294706974258,40.7582018072695],[-73.8291354511395,40.7575309189944],[-73.8287929265746,40.7566809173296],[-73.8307489977484,40.7557527196211],[-73.8314176676051,40.755436830131],[-73.8331043091856,40.7546696946413],[-73.8334006440194,40.7555300892822],[-73.8336795079272,40.7563288371286],[-73.8338033713415,40.7567297960502],[-73.8312063538751,40.757972327203],[-73.8297022918965,40.7586918895625],[-73.8296376065365,40.7585580510208]]]}},{"type":"Feature","properties":{"e":"40017"},"geometry":{"type":"Polygon","coordinates":[[[-73.8307489977484,40.7557527196211],[-73.8299619895081,40.7547761583694],[-73.8305546533175,40.754553183484],[-73.8301394720141,40.7539234958396],[-73.8326022595309,40.7530157154673],[-73.8323923983524,40.7523255772168],[-73.8325139871657,40.7524241880514],[-73.8326681409659,40.752381404546],[-73.8328316329537,40.7523545447024],[-73.8330000785387,40.7523450900937],[-73.8331686082424,40.7523535740857],[-73.8333323708253,40.7523794937807],[-73.8334869395188,40.7524213843148],[-73.8359997973764,40.7520140066156],[-73.8361542794029,40.7522855850525],[-73.8363159756336,40.7525547241288],[-73.8364848195856,40.7528213130409],[-73.8366607418307,40.753085242034],[-73.8368436698924,40.7533464025801],[-73.8370335286744,40.7536046870255],[-73.8372302400886,40.7538599890302],[-73.8374337232232,40.7541122034812],[-73.8374650833567,40.7541299227259],[-73.8375000285837,40.7541432083706],[-73.8375374864456,40.7541516526823],[-73.8375763073704,40.7541549965071],[-73.8376830689607,40.7541436327406],[-73.8377660789172,40.7542866732523],[-73.8379187248829,40.7545497052594],[-73.837586960386,40.7546769029145],[-73.8372159113152,40.7548346426192],[-73.8368542802236,40.7550048671348],[-73.8365031450779,40.7551870649462],[-73.8361635023057,40.755380659265],[-73.8355877040247,40.755709816117],[-73.8347906384086,40.7561654505961],[-73.8338033713415,40.7567297960502],[-73.8336795079272,40.7563288371286],[-73.8334006440194,40.7555300892822],[-73.8331043091856,40.7546696946413],[-73.8314176676051,40.755436830131],[-73.8307489977484,40.7557527196211]]]}},{"type":"Feature","properties":{"e":"40018"},"geometry":{"type":"Polygon","coordinates":[[[-73.8270916534568,40.7571516744698],[-73.8257751923416,40.7563663302886],[-73.8282814456568,40.7554000040509],[-73.8278266522123,40.7542591668799],[-73.8298684925381,40.7535028282512],[-73.8301394720141,40.7539234958396],[-73.8305546533175,40.754553183484],[-73.8299619895081,40.7547761583694],[-73.8307489977484,40.7557527196211],[-73.8287929265746,40.7566809173296],[-73.8291354511395,40.7575309189944],[-73.8294706974258,40.7582018072695],[-73.8296376065365,40.7585580510208],[-73.8279810945484,40.7576383878165],[-73.8270916534568,40.7571516744698]]]}},{"type":"Feature","properties":{"e":"40019"},"geometry":{"type":"Polygon","coordinates":[[[-73.8221126536318,40.7571752415917],[-73.8235161338579,40.7562739665429],[-73.8238349249007,40.7560727767554],[-73.8240261882869,40.7559479446772],[-73.824718932489,40.7554958017231],[-73.8257751923416,40.7563663302886],[-73.8270916534568,40.7571516744698],[-73.8260281895364,40.7574409725286],[-73.8251860191119,40.7576569182324],[-73.8231762782774,40.7581997824158],[-73.8231964603711,40.7581053774878],[-73.8221126536318,40.7571752415917]]]}},{"type":"Feature","properties":{"e":"40020"},"geometry":{"type":"Polygon","coordinates":[[[-73.8215594889344,40.7605425967038],[-73.8239347813416,40.7599020288762],[-73.8235580680666,40.7590499514655],[-73.8231762782774,40.7581997824158],[-73.8251860191119,40.7576569182324],[-73.8260281895364,40.7574409725286],[-73.8270916534568,40.7571516744698],[-73.8279810945484,40.7576383878165],[-73.8296376065365,40.7585580510208],[-73.8297022918965,40.7586918895625],[-73.8291189456601,40.7589791789222],[-73.8288875189902,40.7590931471052],[-73.8287283844443,40.7591548382092],[-73.8284364075138,40.7592680381401],[-73.8280498289791,40.7593814034111],[-73.8275193191234,40.759512860086],[-73.8262127794898,40.759836599023],[-73.8241451450515,40.7603690114105],[-73.8218121639032,40.7610805090753],[-73.8217687461159,40.7609880860509],[-73.8217477793903,40.7609434509294],[-73.8215594889344,40.7605425967038]]]}},{"type":"Feature","properties":{"e":"40021"},"geometry":{"type":"Polygon","coordinates":[[[-73.8183399779264,40.7620383588845],[-73.8218121639032,40.7610805090753],[-73.8218793399279,40.7612217792539],[-73.8220749903282,40.7616332259025],[-73.822603375948,40.7627676290961],[-73.8230265264017,40.7636746139763],[-73.822899949253,40.763645575993],[-73.8193027394657,40.7646129338407],[-73.8191002517126,40.7637044375669],[-73.8185889879846,40.7625731759058],[-73.818401826752,40.7621711969506],[-73.8183399779264,40.7620383588845]]]}},{"type":"Feature","properties":{"e":"40022"},"geometry":{"type":"Polygon","coordinates":[[[-73.8161190249652,40.7625854036204],[-73.8160567744706,40.762451525194],[-73.8158811336009,40.7620737801047],[-73.8154867848911,40.7612289421692],[-73.8176830982032,40.7606349255449],[-73.8180791117575,40.7614815416078],[-73.818278756671,40.7619076803473],[-73.8182957753218,40.7619440054286],[-73.8183399779264,40.7620383588845],[-73.818401826752,40.7621711969506],[-73.8185889879846,40.7625731759058],[-73.8191002517126,40.7637044375669],[-73.8193027394657,40.7646129338407],[-73.822899949253,40.763645575993],[-73.8230265264017,40.7636746139763],[-73.8234838452984,40.7646600653115],[-73.8206680685705,40.7649990881035],[-73.8194363462595,40.7651463424596],[-73.8173262733389,40.7653620646341],[-73.8168276003183,40.7642428971874],[-73.8163887969966,40.7631678496882],[-73.8161614255315,40.7626769499726],[-73.8161190249652,40.7625854036204]]]}},{"type":"Feature","properties":{"e":"40023"},"geometry":{"type":"Polygon","coordinates":[[[-73.8218121639032,40.7610805090753],[-73.8241451450515,40.7603690114105],[-73.8262127794898,40.759836599023],[-73.8262759068724,40.7599583480944],[-73.8265424149982,40.7604723394872],[-73.8268688784098,40.7611007095535],[-73.8271406450664,40.7616603141893],[-73.8275173618183,40.7624293612146],[-73.8253167268754,40.7629845842801],[-73.8240473653211,40.7634056474635],[-73.8230265264017,40.7636746139763],[-73.822603375948,40.7627676290961],[-73.8220749903282,40.7616332259025],[-73.8218793399279,40.7612217792539],[-73.8218121639032,40.7610805090753]]]}},{"type":"Feature","properties":{"e":"40024"},"geometry":{"type":"Polygon","coordinates":[[[-73.8230265264017,40.7636746139763],[-73.8240473653211,40.7634056474635],[-73.8253167268754,40.7629845842801],[-73.8275173618183,40.7624293612146],[-73.8271406450664,40.7616603141893],[-73.8268688784098,40.7611007095535],[-73.8265424149982,40.7604723394872],[-73.8262759068724,40.7599583480944],[-73.8262127794898,40.759836599023],[-73.8275193191234,40.759512860086],[-73.8280498289791,40.7593814034111],[-73.8284364075138,40.7592680381401],[-73.8287283844443,40.7591548382092],[-73.8288875189902,40.7590931471052],[-73.8291189456601,40.7589791789222],[-73.8297022918965,40.7586918895625],[-73.8298429932645,40.7589705528822],[-73.8301409908883,40.7595787176564],[-73.830484708993,40.7602793315404],[-73.8307449552403,40.7608019630161],[-73.8311202411511,40.7615564085245],[-73.831883022107,40.762837259747],[-73.8319594644759,40.76296176763],[-73.8312508311946,40.7631379696428],[-73.8302952516197,40.7633915267159],[-73.8299325907657,40.7634945589375],[-73.8287093347681,40.7638088785742],[-73.8281488325327,40.7639493330593],[-73.8260593268887,40.764337313545],[-73.8259429191202,40.7643589305413],[-73.8234838452984,40.7646600653115],[-73.8230265264017,40.7636746139763]]]}},{"type":"Feature","properties":{"e":"40025"},"geometry":{"type":"Polygon","coordinates":[[[-73.7977237574939,40.7785596439086],[-73.7978158862739,40.7779037326807],[-73.7979052231095,40.7772655935999],[-73.7979954156694,40.7765947764415],[-73.7980890985782,40.7758853883947],[-73.7981705224525,40.7751713757843],[-73.7982058748355,40.7749196661133],[-73.7982343408109,40.774856581287],[-73.7985314800802,40.7751990047613],[-73.7986533059076,40.7752088353632],[-73.8009911272575,40.7753973922895],[-73.8037916164002,40.7756183880718],[-73.8065936729381,40.7758401372504],[-73.8064957531412,40.7765507688257],[-73.8093423096081,40.7767745613781],[-73.8092206692197,40.7774841381533],[-73.8091647127871,40.7781276444512],[-73.8091293539927,40.7784700299691],[-73.8089903073024,40.7794517188149],[-73.8088949061771,40.7801626975973],[-73.8060062506985,40.7799333933036],[-73.8035154460714,40.7797339616861],[-73.8032274215904,40.7797112016966],[-73.8032020336636,40.7798919078138],[-73.8026710435556,40.7801674629557],[-73.8025437352063,40.7802335216182],[-73.8024680823097,40.7802778146175],[-73.8023234105746,40.780362519552],[-73.8015983653066,40.7810242694896],[-73.8002341421271,40.7809113039712],[-73.7974334436368,40.7806897449613],[-73.7975299254789,40.7799794976068],[-73.7976277543648,40.7792696399511],[-73.7977237574939,40.7785596439086]]]}},{"type":"Feature","properties":{"e":"40026"},"geometry":{"type":"Polygon","coordinates":[[[-73.8268497956573,40.7679948461296],[-73.8270591602581,40.7675368125459],[-73.8271095732873,40.767421092367],[-73.8272242446847,40.7671579020572],[-73.8273520093025,40.7668646730512],[-73.8275380901708,40.7664718089683],[-73.8276913707839,40.7661119527641],[-73.8278648568603,40.765370880561],[-73.8290605521599,40.7651016620621],[-73.8289074891387,40.7645647335261],[-73.8287376727352,40.7639160719158],[-73.8287093347681,40.7638088785742],[-73.8299325907657,40.7634945589375],[-73.8302952516197,40.7633915267159],[-73.8312508311946,40.7631379696428],[-73.8319594644759,40.76296176763],[-73.8331491583425,40.762776344429],[-73.8332879565161,40.7627547081617],[-73.8343370964101,40.7627556720541],[-73.8348686947208,40.762775526679],[-73.8355774017754,40.7628037983148],[-73.8358671836934,40.7627995470898],[-73.8361563248274,40.7627812461545],[-73.8364099255167,40.7627527273761],[-73.8369010993778,40.7627063903108],[-73.8369183409451,40.7627749521652],[-73.83695287087,40.7628386423665],[-73.8379056936755,40.764596069234],[-73.8390849422834,40.7652651864889],[-73.8392248423644,40.7653445649944],[-73.8393605212271,40.7654181443926],[-73.8392369897675,40.7656398601601],[-73.8390547485964,40.7659669507569],[-73.8386386061642,40.7666409433736],[-73.8385089080961,40.7665779888204],[-73.8383063862545,40.7664795981917],[-73.8380304526586,40.7663455397586],[-73.8376636291969,40.7664443498388],[-73.8363541135888,40.7667319648509],[-73.8354730104227,40.7669336302568],[-73.8343230917287,40.7672021823124],[-73.8340611173541,40.7672646567097],[-73.8330159604451,40.7675079496127],[-73.831925889519,40.7677627199531],[-73.8308544432207,40.7680071158554],[-73.8297523114392,40.768261372156],[-73.828628986186,40.7685276873022],[-73.827533622214,40.7687780239018],[-73.8271375668649,40.7688653912493],[-73.8266844353624,40.768965351605],[-73.8266963007692,40.768720522159],[-73.8267279333187,40.7684762446102],[-73.8267792100042,40.7682338963243],[-73.8268497956573,40.7679948461296]]]}},{"type":"Feature","properties":{"e":"40027"},"geometry":{"type":"Polygon","coordinates":[[[-73.8286275817167,40.7707166967101],[-73.8286306114326,40.7696130242641],[-73.828628986186,40.7685276873022],[-73.8297523114392,40.768261372156],[-73.8308544432207,40.7680071158554],[-73.831925889519,40.7677627199531],[-73.8330159604451,40.7675079496127],[-73.8340611173541,40.7672646567097],[-73.8343230917287,40.7672021823124],[-73.8354730104227,40.7669336302568],[-73.8363541135888,40.7667319648509],[-73.8376636291969,40.7664443498388],[-73.8380304526586,40.7663455397586],[-73.8383063862545,40.7664795981917],[-73.8385089080961,40.7665779888204],[-73.8386386061642,40.7666409433736],[-73.8386290073442,40.7666520807964],[-73.8385172875658,40.7668228488789],[-73.8384027549632,40.7669737387917],[-73.8379587570022,40.7675586743597],[-73.8374294135982,40.7681659283949],[-73.8373349896454,40.7682742482613],[-73.836990983708,40.7686274070663],[-73.8366896210153,40.7689143672546],[-73.8361778154349,40.7693629736272],[-73.836039552165,40.7694841627464],[-73.8350200127078,40.7702077504949],[-73.8348217218404,40.7703397576126],[-73.8342946992087,40.7706906054833],[-73.83368998746,40.7710549740942],[-73.8333519991932,40.7712586261389],[-73.8333500518788,40.7712597810941],[-73.8330017910654,40.7714662712219],[-73.8320291067135,40.7720429812383],[-73.8318460259739,40.772151603694],[-73.8315003344741,40.7723567003763],[-73.8313152955267,40.7724765934477],[-73.8308374374885,40.7724267789924],[-73.8304395458319,40.772665909141],[-73.8303562317282,40.7725712784522],[-73.8303561251515,40.7725711613623],[-73.8303559947538,40.7725710529485],[-73.8302547880545,40.7724838614645],[-73.8302546101726,40.7724837085864],[-73.8302544097495,40.7724835809714],[-73.8301369250984,40.7724064956923],[-73.8301368307254,40.7724064323959],[-73.8301367360828,40.7724063883646],[-73.8300057286183,40.7723418358978],[-73.8300056579771,40.7723417989379],[-73.8300055749688,40.7723417725138],[-73.8298651254653,40.7722917497171],[-73.8298647820306,40.7722916218903],[-73.8298644032405,40.7722915323747],[-73.8297184903545,40.7722569351581],[-73.8297183128592,40.7722568903339],[-73.8297181353215,40.7722568620947],[-73.8295704883047,40.7722376984671],[-73.829572845889,40.7707193860125],[-73.8286275817167,40.7707166967101]]]}},{"type":"Feature","properties":{"e":"40028"},"geometry":{"type":"Polygon","coordinates":[[[-73.8258322943783,40.7759235466493],[-73.8262548799197,40.7745289343855],[-73.8264786028311,40.773124717288],[-73.8265762132842,40.7723536723059],[-73.8265765121191,40.7716386272165],[-73.8265671834522,40.7706497502406],[-73.8286275817167,40.7707166967101],[-73.829572845889,40.7707193860125],[-73.8295704883047,40.7722376984671],[-73.8297181353215,40.7722568620947],[-73.8297183128592,40.7722568903339],[-73.8297184903545,40.7722569351581],[-73.8298644032405,40.7722915323747],[-73.8298647820306,40.7722916218903],[-73.8298651254653,40.7722917497171],[-73.8300055749688,40.7723417725138],[-73.8300056579771,40.7723417989379],[-73.8300057286183,40.7723418358978],[-73.8301367360828,40.7724063883646],[-73.8301368307254,40.7724064323959],[-73.8301369250984,40.7724064956923],[-73.8302544097495,40.7724835809714],[-73.8302546101726,40.7724837085864],[-73.8302547880545,40.7724838614645],[-73.8303559947538,40.7725710529485],[-73.8303561251515,40.7725711613623],[-73.8303562317282,40.7725712784522],[-73.8304395458319,40.772665909141],[-73.8308374374885,40.7724267789924],[-73.8313152955267,40.7724765934477],[-73.8307345474286,40.7728850303304],[-73.8304465103387,40.7731279190963],[-73.830101852595,40.7734185486168],[-73.8297840051482,40.7737164980502],[-73.8295344233995,40.7739811384285],[-73.8292903086924,40.774265129731],[-73.829287039454,40.7742692106757],[-73.8290875058023,40.7745183391083],[-73.8289284103066,40.7747347280155],[-73.8288026722048,40.7749251769727],[-73.8286292480586,40.7751878501511],[-73.8283911298078,40.7755485107588],[-73.8280915965235,40.7760021864168],[-73.8277798724428,40.7759856905708],[-73.8258322943783,40.7759235466493]]]}},{"type":"Feature","properties":{"e":"40029"},"geometry":{"type":"Polygon","coordinates":[[[-73.8234838452984,40.7646600653115],[-73.8259429191202,40.7643589305413],[-73.8260593268887,40.764337313545],[-73.8281488325327,40.7639493330593],[-73.8287093347681,40.7638088785742],[-73.8287376727352,40.7639160719158],[-73.8289074891387,40.7645647335261],[-73.8290605521599,40.7651016620621],[-73.8278648568603,40.765370880561],[-73.8276913707839,40.7661119527641],[-73.8275380901708,40.7664718089683],[-73.8273520093025,40.7668646730512],[-73.8272242446847,40.7671579020572],[-73.8271095732873,40.767421092367],[-73.8270591602581,40.7675368125459],[-73.8268497956573,40.7679948461296],[-73.8262196302961,40.768032150949],[-73.8258377816907,40.76805982329],[-73.8242134181517,40.7681775016068],[-73.823951719327,40.7668954755232],[-73.8237279756683,40.7658337890645],[-73.8234838452984,40.7646600653115]]]}},{"type":"Feature","properties":{"e":"40030"},"geometry":{"type":"Polygon","coordinates":[[[-73.8203210690507,40.7687224635051],[-73.8200402889735,40.7673667906656],[-73.820689477912,40.767288278704],[-73.8211274153553,40.7672353078702],[-73.8209037295992,40.7661684015856],[-73.8196971675896,40.7663154721878],[-73.8194363462595,40.7651463424596],[-73.8206680685705,40.7649990881035],[-73.8234838452984,40.7646600653115],[-73.8237279756683,40.7658337890645],[-73.823951719327,40.7668954755232],[-73.8242134181517,40.7681775016068],[-73.8244446965951,40.7692937878967],[-73.821638838835,40.7696922124255],[-73.8214061123882,40.7685675072758],[-73.8203210690507,40.7687224635051]]]}},{"type":"Feature","properties":{"e":"40031"},"geometry":{"type":"Polygon","coordinates":[[[-73.8218670533863,40.772360617852],[-73.821916595886,40.7716449906077],[-73.8219117280973,40.770826184874],[-73.821638838835,40.7696922124255],[-73.8244446965951,40.7692937878967],[-73.8242134181517,40.7681775016068],[-73.8258377816907,40.76805982329],[-73.8262196302961,40.768032150949],[-73.8268497956573,40.7679948461296],[-73.8267792100042,40.7682338963243],[-73.8267279333187,40.7684762446102],[-73.8266963007692,40.768720522159],[-73.8266844353624,40.768965351605],[-73.8271375668649,40.7688653912493],[-73.827533622214,40.7687780239018],[-73.828628986186,40.7685276873022],[-73.8286306114326,40.7696130242641],[-73.8286275817167,40.7707166967101],[-73.8265671834522,40.7706497502406],[-73.8265765121191,40.7716386272165],[-73.8265762132842,40.7723536723059],[-73.8264786028311,40.773124717288],[-73.8262548799197,40.7745289343855],[-73.8258322943783,40.7759235466493],[-73.8248694040826,40.7765506300707],[-73.8243324135855,40.7767513460871],[-73.8245497410948,40.7752663395716],[-73.8246727348217,40.7745233589534],[-73.8246787256274,40.7737821174954],[-73.8246770791416,40.7730712838554],[-73.8246753277703,40.7723552717535],[-73.8218670533863,40.772360617852]]]}},{"type":"Feature","properties":{"e":"40032"},"geometry":{"type":"Polygon","coordinates":[[[-73.8256685161176,40.7797379874683],[-73.8260176785526,40.779102219229],[-73.8258187285539,40.7790313915196],[-73.8248902042659,40.7787221833726],[-73.8238224844104,40.7783684137677],[-73.8237638427912,40.7785128276408],[-73.8223932046622,40.7783720819841],[-73.8214793862725,40.778317827616],[-73.8215647605149,40.7776417079795],[-73.8216715190312,40.7768710687312],[-73.8217038497629,40.7764852287202],[-73.8217461145093,40.7759808383025],[-73.8218022759668,40.7752677161906],[-73.8218677070616,40.7745252703373],[-73.8218672211928,40.7737858733094],[-73.8218660378755,40.7730723488283],[-73.8218670533863,40.772360617852],[-73.8246753277703,40.7723552717535],[-73.8246770791416,40.7730712838554],[-73.8246787256274,40.7737821174954],[-73.8246727348217,40.7745233589534],[-73.8245497410948,40.7752663395716],[-73.8243324135855,40.7767513460871],[-73.8248694040826,40.7765506300707],[-73.8258322943783,40.7759235466493],[-73.8277798724428,40.7759856905708],[-73.8280915965235,40.7760021864168],[-73.827689300303,40.7766812047552],[-73.8275852850148,40.7768641768156],[-73.8268296148983,40.7781934208732],[-73.8263450074181,40.7790458287541],[-73.8263248758758,40.7790756002403],[-73.8262640122852,40.7791841278327],[-73.8261349393396,40.7794281975882],[-73.8259763341452,40.7797281066688],[-73.8259301871533,40.7798167272706],[-73.8256685161176,40.7797379874683]]]}},{"type":"Feature","properties":{"e":"40033"},"geometry":{"type":"Polygon","coordinates":[[[-73.8155848743808,40.7689692827811],[-73.8154195942422,40.7675172856892],[-73.8152923872627,40.7664111610021],[-73.8151681139365,40.7652739734733],[-73.8161762372435,40.7653327424253],[-73.8165305098234,40.7653454361875],[-73.8173262733389,40.7653620646341],[-73.8194363462595,40.7651463424596],[-73.8196971675896,40.7663154721878],[-73.8209037295992,40.7661684015856],[-73.8211274153553,40.7672353078702],[-73.820689477912,40.767288278704],[-73.8200402889735,40.7673667906656],[-73.8203210690507,40.7687224635051],[-73.8192068709611,40.7688777403752],[-73.8182094815795,40.7690229809588],[-73.8173403650419,40.7691112251278],[-73.8164013510667,40.7690324961237],[-73.8155848743808,40.7689692827811]]]}},{"type":"Feature","properties":{"e":"40034"},"geometry":{"type":"Polygon","coordinates":[[[-73.8104733323987,40.7685649006496],[-73.8108182368949,40.7660352344601],[-73.8109948754019,40.7647130134598],[-73.8119566679611,40.7648759938682],[-73.8129212576213,40.7650650601278],[-73.8141338513433,40.7651902926509],[-73.8151681139365,40.7652739734733],[-73.8152923872627,40.7664111610021],[-73.8154195942422,40.7675172856892],[-73.8155848743808,40.7689692827811],[-73.8145418319123,40.7688870754853],[-73.8135491367043,40.7688030689605],[-73.8130588071363,40.7687631644861],[-73.8123710031326,40.7687122227195],[-73.8114435852763,40.768641450599],[-73.8104733323987,40.7685649006496]]]}},{"type":"Feature","properties":{"e":"40035"},"geometry":{"type":"Polygon","coordinates":[[[-73.8070792663798,40.7722899454218],[-73.8061540967832,40.7722169914409],[-73.8060144270057,40.7722059063966],[-73.8052213387744,40.772142954415],[-73.8042800430626,40.7720692022397],[-73.8044191235584,40.7710943260396],[-73.8046303448995,40.7694939359001],[-73.8048156411085,40.7681157735639],[-73.8057512366533,40.7681881790531],[-73.8066878603777,40.7682616426241],[-73.8071437750945,40.768298525281],[-73.8076177700531,40.7683368339934],[-73.8085472732711,40.7684114929886],[-73.8094876074126,40.7684864972747],[-73.8104733323987,40.7685649006496],[-73.8114435852763,40.768641450599],[-73.8123710031326,40.7687122227195],[-73.8130588071363,40.7687631644861],[-73.8135491367043,40.7688030689605],[-73.8145418319123,40.7688870754853],[-73.8155848743808,40.7689692827811],[-73.815731847423,40.7702551697754],[-73.8158597667864,40.7715202508133],[-73.8156634709479,40.7722526692302],[-73.8154898048806,40.7729560451626],[-73.8153152094155,40.7736599692627],[-73.8138385117044,40.7735431030648],[-73.8139163810773,40.772831209075],[-73.8131723738566,40.7727733178749],[-73.8099409487945,40.7725169361352],[-73.8080110452892,40.7723635771071],[-73.8070792663798,40.7722899454218]]]}},{"type":"Feature","properties":{"e":"40036"},"geometry":{"type":"Polygon","coordinates":[[[-73.8073361309277,40.7635058937049],[-73.8082328016243,40.7638059267688],[-73.8091362875159,40.7640779116897],[-73.8100559054536,40.7643855857738],[-73.8109948754019,40.7647130134598],[-73.8108182368949,40.7660352344601],[-73.8098326768074,40.7659575818869],[-73.8088920241825,40.7658823278428],[-73.8079597501171,40.7658099533212],[-73.807035196869,40.7657366921064],[-73.8073361309277,40.7635058937049]]]}},{"type":"Feature","properties":{"e":"40037"},"geometry":{"type":"Polygon","coordinates":[[[-73.8089903073024,40.7794517188149],[-73.8091293539927,40.7784700299691],[-73.8091647127871,40.7781276444512],[-73.8092206692197,40.7774841381533],[-73.8093423096081,40.7767745613781],[-73.8125904938332,40.7770327515488],[-73.8133707162552,40.7770951103111],[-73.8140608205551,40.7771502540122],[-73.8147602215559,40.7772117768503],[-73.8147896087413,40.7770040146477],[-73.8148598976767,40.7764941986819],[-73.8149448597627,40.7758703946272],[-73.815854597327,40.7760455410013],[-73.8172979516324,40.7763171230871],[-73.8176427759818,40.7763810691179],[-73.8186890302586,40.7765489328619],[-73.8187335535149,40.7765550001654],[-73.818735672473,40.7752716948042],[-73.8196541825821,40.7752699845217],[-73.8218022759668,40.7752677161906],[-73.8217461145093,40.7759808383025],[-73.8217038497629,40.7764852287202],[-73.8216715190312,40.7768710687312],[-73.8215647605149,40.7776417079795],[-73.8214793862725,40.778317827616],[-73.8223932046622,40.7783720819841],[-73.8237638427912,40.7785128276408],[-73.8235482101537,40.7790438133259],[-73.8233142632313,40.7795869357082],[-73.8222413870235,40.7794985129399],[-73.821324177985,40.7794175348011],[-73.8203228094048,40.7793429566976],[-73.8198118144327,40.7793052651281],[-73.8193112438392,40.7792683358073],[-73.8172828617845,40.77911378919],[-73.8145313691823,40.7788964509245],[-73.8123398804334,40.7787232395314],[-73.812205663321,40.7797062634606],[-73.8089903073024,40.7794517188149]]]}},{"type":"Feature","properties":{"e":"40038"},"geometry":{"type":"Polygon","coordinates":[[[-73.8121063447963,40.7804150766818],[-73.8088949061771,40.7801626975973],[-73.8089903073024,40.7794517188149],[-73.812205663321,40.7797062634606],[-73.8123398804334,40.7787232395314],[-73.8145313691823,40.7788964509245],[-73.8172828617845,40.77911378919],[-73.8193112438392,40.7792683358073],[-73.8198118144327,40.7793052651281],[-73.8203228094048,40.7793429566976],[-73.821324177985,40.7794175348011],[-73.8222413870235,40.7794985129399],[-73.8233142632313,40.7795869357082],[-73.8235482101537,40.7790438133259],[-73.8237638427912,40.7785128276408],[-73.8238224844104,40.7783684137677],[-73.8248902042659,40.7787221833726],[-73.8258187285539,40.7790313915196],[-73.8260176785526,40.779102219229],[-73.8256685161176,40.7797379874683],[-73.825321635763,40.7803051043434],[-73.8250827928253,40.780722548843],[-73.8237848199018,40.780622119719],[-73.8229195566763,40.7805439432999],[-73.8212114918036,40.7802483366415],[-73.8211795454419,40.7804234895056],[-73.8211342284059,40.7807691495569],[-73.8210878217188,40.781123182659],[-73.8190783276793,40.7809622314511],[-73.8170471535645,40.7808049661905],[-73.8143003736363,40.7805891079701],[-73.8121063447963,40.7804150766818]]]}},{"type":"Feature","properties":{"e":"40039"},"geometry":{"type":"Polygon","coordinates":[[[-73.8149448597627,40.7758703946272],[-73.8150540383265,40.7750738117947],[-73.8151527627972,40.7743642194265],[-73.8153152094155,40.7736599692627],[-73.8154898048806,40.7729560451626],[-73.8156634709479,40.7722526692302],[-73.8158597667864,40.7715202508133],[-73.815731847423,40.7702551697754],[-73.8173179710458,40.7702973525628],[-73.8172946222203,40.7714858475901],[-73.8173544112268,40.7723639814584],[-73.8185137485444,40.7723629851427],[-73.8185896164517,40.7723629334026],[-73.8187218071475,40.7723628526332],[-73.8196475948338,40.7723621260677],[-73.8218670533863,40.772360617852],[-73.8218660378755,40.7730723488283],[-73.8218672211928,40.7737858733094],[-73.8218677070616,40.7745252703373],[-73.8218022759668,40.7752677161906],[-73.8196541825821,40.7752699845217],[-73.818735672473,40.7752716948042],[-73.8187335535149,40.7765550001654],[-73.8186890302586,40.7765489328619],[-73.8176427759818,40.7763810691179],[-73.8172979516324,40.7763171230871],[-73.815854597327,40.7760455410013],[-73.8149448597627,40.7758703946272]]]}},{"type":"Feature","properties":{"e":"40040"},"geometry":{"type":"Polygon","coordinates":[[[-73.8093423096081,40.7767745613781],[-73.8064957531412,40.7765507688257],[-73.8065936729381,40.7758401372504],[-73.8066907949976,40.7751305317847],[-73.8067867793159,40.7744202841401],[-73.806884644376,40.7737098863763],[-73.8069817204328,40.7730015418411],[-73.8070792663798,40.7722899454218],[-73.8080110452892,40.7723635771071],[-73.8099409487945,40.7725169361352],[-73.8131723738566,40.7727733178749],[-73.8139163810773,40.772831209075],[-73.8138385117044,40.7735431030648],[-73.8153152094155,40.7736599692627],[-73.8151527627972,40.7743642194265],[-73.8150540383265,40.7750738117947],[-73.8149448597627,40.7758703946272],[-73.8148598976767,40.7764941986819],[-73.8147896087413,40.7770040146477],[-73.8147602215559,40.7772117768503],[-73.8140608205551,40.7771502540122],[-73.8133707162552,40.7770951103111],[-73.8125904938332,40.7770327515488],[-73.8093423096081,40.7767745613781]]]}},{"type":"Feature","properties":{"e":"40041"},"geometry":{"type":"Polygon","coordinates":[[[-73.7982343408109,40.774856581287],[-73.798262622522,40.7747763233786],[-73.7983010532317,40.7744581429034],[-73.7983369407534,40.7741596157841],[-73.7983855792293,40.773755015065],[-73.7984575439221,40.7732053650177],[-73.7987205264476,40.7730621575784],[-73.7994828154738,40.7726790695585],[-73.7999635100661,40.7724438108191],[-73.8004826560663,40.7722105153989],[-73.8006423653813,40.7710620621033],[-73.8008949937168,40.7691993074225],[-73.8013866403931,40.7692372040257],[-73.8018259116888,40.769271053334],[-73.8027622770833,40.7693477348558],[-73.80369580481,40.7694193076179],[-73.8046303448995,40.7694939359001],[-73.8044191235584,40.7710943260396],[-73.8042800430626,40.7720692022397],[-73.8052213387744,40.772142954415],[-73.8060144270057,40.7722059063966],[-73.8061540967832,40.7722169914409],[-73.8070792663798,40.7722899454218],[-73.8069817204328,40.7730015418411],[-73.806884644376,40.7737098863763],[-73.8067867793159,40.7744202841401],[-73.8066907949976,40.7751305317847],[-73.8065936729381,40.7758401372504],[-73.8037916164002,40.7756183880718],[-73.8009911272575,40.7753973922895],[-73.7986533059076,40.7752088353632],[-73.7985314800802,40.7751990047613],[-73.7982343408109,40.774856581287]]]}},{"type":"Feature","properties":{"e":"40042"},"geometry":{"type":"Polygon","coordinates":[[[-73.8020502549612,40.7608438512392],[-73.8011920945632,40.7601905411983],[-73.8008358172121,40.7599793061928],[-73.8012392744641,40.7599096286947],[-73.8012515606087,40.7598365105771],[-73.8021543050045,40.7599954912876],[-73.8030746756838,40.7601345208819],[-73.8028762794107,40.7614568023724],[-73.8020502549612,40.7608438512392]]]}},{"type":"Feature","properties":{"e":"40043"},"geometry":{"type":"Polygon","coordinates":[[[-73.8008949937168,40.7691993074225],[-73.8010837245561,40.7678231116944],[-73.8014290379651,40.7652944559864],[-73.8015844979318,40.7641579594995],[-73.8016041118449,40.7640145791037],[-73.8017823863733,40.7627112131818],[-73.8018904348153,40.7619066343479],[-73.801916581111,40.7616688817857],[-73.8019387916619,40.7615437950944],[-73.8020502549612,40.7608438512392],[-73.8028762794107,40.7614568023724],[-73.8033231187504,40.7617980556901],[-73.8034093177925,40.7618649754351],[-73.8036417651418,40.7620454379632],[-73.8037421841079,40.7621416384774],[-73.8042137105378,40.762456033501],[-73.8046327282296,40.7625968011258],[-73.8055281149985,40.7628981760992],[-73.8064327284973,40.7632021880757],[-73.8073361309277,40.7635058937049],[-73.807035196869,40.7657366921064],[-73.8079597501171,40.7658099533212],[-73.8088920241825,40.7658823278428],[-73.8098326768074,40.7659575818869],[-73.8108182368949,40.7660352344601],[-73.8104733323987,40.7685649006496],[-73.8094876074126,40.7684864972747],[-73.8085472732711,40.7684114929886],[-73.8076177700531,40.7683368339934],[-73.8071437750945,40.768298525281],[-73.8066878603777,40.7682616426241],[-73.8057512366533,40.7681881790531],[-73.8048156411085,40.7681157735639],[-73.8046303448995,40.7694939359001],[-73.80369580481,40.7694193076179],[-73.8027622770833,40.7693477348558],[-73.8018259116888,40.769271053334],[-73.8013866403931,40.7692372040257],[-73.8008949937168,40.7691993074225]]]}},{"type":"Feature","properties":{"e":"40044"},"geometry":{"type":"Polygon","coordinates":[[[-73.815731847423,40.7702551697754],[-73.8155848743808,40.7689692827811],[-73.8164013510667,40.7690324961237],[-73.8173403650419,40.7691112251278],[-73.8182094815795,40.7690229809588],[-73.8192068709611,40.7688777403752],[-73.8203210690507,40.7687224635051],[-73.8214061123882,40.7685675072758],[-73.821638838835,40.7696922124255],[-73.8219117280973,40.770826184874],[-73.821916595886,40.7716449906077],[-73.8218670533863,40.772360617852],[-73.8196475948338,40.7723621260677],[-73.8187218071475,40.7723628526332],[-73.8185896164517,40.7723629334026],[-73.8185137485444,40.7723629851427],[-73.8173544112268,40.7723639814584],[-73.8172946222203,40.7714858475901],[-73.8173179710458,40.7702973525628],[-73.815731847423,40.7702551697754]]]}},{"type":"Feature","properties":{"e":"40045"},"geometry":{"type":"Polygon","coordinates":[[[-73.8369010993778,40.7627063903108],[-73.8368959557518,40.7626109562988],[-73.8367924699258,40.7611749430502],[-73.8386195083566,40.7570990873582],[-73.8386196290081,40.7570874799685],[-73.8386199872053,40.7570531173184],[-73.8386746165081,40.7570282495113],[-73.8387526944428,40.7570032625563],[-73.8387596187013,40.7570487933185],[-73.8389203920007,40.7579686066111],[-73.8389666216362,40.7582003703965],[-73.8389787081906,40.7583257020963],[-73.8389867058005,40.7584830861336],[-73.8389867378463,40.7586405876145],[-73.8389788042243,40.7587979735182],[-73.8389629166157,40.7589550109931],[-73.8388866181729,40.7595978261231],[-73.8388765829725,40.7597533685272],[-73.8388455661819,40.7598790487885],[-73.8388208756627,40.7600055370924],[-73.8388025473773,40.7601326493898],[-73.8387906080314,40.7602602007225],[-73.8387850749932,40.7603880053725],[-73.8387859563862,40.7605158774933],[-73.8387932509648,40.7606436310177],[-73.8388069481513,40.7607710800504],[-73.8388382939629,40.7609190690648],[-73.8388768172226,40.7610660752322],[-73.8389224652562,40.7612118973641],[-73.838975175637,40.7613563358915],[-73.839034876225,40.7614991930771],[-73.8391014854027,40.7616402734684],[-73.8391749120519,40.7617793839818],[-73.8392550557222,40.7619163342285],[-73.8395692262468,40.7624840368722],[-73.8396000537581,40.7625480885084],[-73.8396048577041,40.7625565368374],[-73.8396286914028,40.7625984510418],[-73.8397264341576,40.7627636716419],[-73.8398334548044,40.7629864216218],[-73.8399190735229,40.7632147801841],[-73.8399825911089,40.7634469620848],[-73.8400214328648,40.763680543536],[-73.8400263414743,40.7639667247654],[-73.8400282123418,40.7640757866696],[-73.840025432474,40.7641356604808],[-73.8400236005229,40.7642407378266],[-73.839585075621,40.7649888450971],[-73.8394664133366,40.7652091142785],[-73.8393605212271,40.7654181443926],[-73.8392248423644,40.7653445649944],[-73.8390849422834,40.7652651864889],[-73.8379056936755,40.764596069234],[-73.83695287087,40.7628386423665],[-73.8369183409451,40.7627749521652],[-73.8369010993778,40.7627063903108]]]}}]}