{"type":"FeatureCollection","ad":41,"features":[{"type":"Feature","properties":{"e":"41001"},"geometry":{"type":"Polygon","coordinates":[[[-73.92337,40.6405],[-73.92555,40.64037],[-73.92562,40.64002],[-73.93201,40.63962],[-73.93226,40.64195],[-73.92357,40.6425],[-73.92337,40.6405]]]}},{"type":"Feature","properties":{"e":"41002"},"geometry":{"type":"Polygon","coordinates":[[[-73.92401,40.63742],[-73.92491,40.63701],[-73.92682,40.63606],[-73.92745,40.63526],[-73.92861,40.63519],[-73.92836,40.63285],[-73.93317,40.63255],[-73.93343,40.63488],[-73.9325,40.63495],[-73.93298,40.63955],[-73.92562,40.64002],[-73.92555,40.64037],[-73.92337,40.6405],[-73.92308,40.63791],[-73.92401,40.63742]]]}},{"type":"Feature","properties":{"e":"41003"},"geometry":{"type":"Polygon","coordinates":[[[-73.92283,40.63556],[-73.92571,40.63537],[-73.92546,40.63303],[-73.92836,40.63285],[-73.92861,40.63519],[-73.92745,40.63526],[-73.92682,40.63606],[-73.92491,40.63701],[-73.92401,40.63742],[-73.92308,40.63791],[-73.92283,40.63556]]]}},{"type":"Feature","properties":{"e":"41004"},"geometry":{"type":"Polygon","coordinates":[[[-73.94151,40.62968],[-73.94416,40.62951],[-73.94551,40.63079],[-73.94454,40.63089],[-73.94463,40.63184],[-73.94176,40.63202],[-73.94151,40.62968]]]}},{"type":"Feature","properties":{"e":"41005"},"geometry":{"type":"Polygon","coordinates":[[[-73.93916,40.6256],[-73.93997,40.62555],[-73.9412,40.62672],[-73.94176,40.63202],[-73.938,40.63225],[-73.93801,40.63209],[-73.93883,40.63183],[-73.93867,40.62985],[-73.93842,40.62751],[-73.93936,40.62746],[-73.93916,40.6256]]]}},{"type":"Feature","properties":{"e":"41006"},"geometry":{"type":"Polygon","coordinates":[[[-73.93632,40.62577],[-73.93916,40.6256],[-73.93936,40.62746],[-73.93842,40.62751],[-73.93867,40.62985],[-73.93883,40.63183],[-73.93801,40.63209],[-73.938,40.63225],[-73.93702,40.63231],[-73.93632,40.62577]]]}},{"type":"Feature","properties":{"e":"41007"},"geometry":{"type":"Polygon","coordinates":[[[-73.93102,40.63033],[-73.9358,40.63003],[-73.93555,40.62769],[-73.93652,40.62763],[-73.93702,40.63231],[-73.92984,40.63276],[-73.93114,40.63143],[-73.93102,40.63033]]]}},{"type":"Feature","properties":{"e":"41008"},"geometry":{"type":"Polygon","coordinates":[[[-73.93251,40.62788],[-73.93238,40.62739],[-73.93242,40.62688],[-73.93263,40.62655],[-73.93343,40.62568],[-73.93363,40.62584],[-73.93386,40.62592],[-73.93632,40.62577],[-73.93652,40.62763],[-73.93555,40.62769],[-73.9358,40.63003],[-73.93245,40.63024],[-73.93263,40.63001],[-73.93268,40.62975],[-73.93261,40.62859],[-73.93251,40.62788]]]}},{"type":"Feature","properties":{"e":"41009"},"geometry":{"type":"Polygon","coordinates":[[[-73.92521,40.63069],[-73.92811,40.63051],[-73.92786,40.62817],[-73.92887,40.62811],[-73.92912,40.63045],[-73.93005,40.63039],[-73.9298,40.62805],[-73.93251,40.62788],[-73.93261,40.62859],[-73.93267,40.62921],[-73.93268,40.62975],[-73.93261,40.63005],[-73.93245,40.63024],[-73.93102,40.63033],[-73.93114,40.63143],[-73.92984,40.63276],[-73.92546,40.63303],[-73.92521,40.63069]]]}},{"type":"Feature","properties":{"e":"41010"},"geometry":{"type":"Polygon","coordinates":[[[-73.92786,40.62817],[-73.92766,40.62621],[-73.92832,40.62578],[-73.93149,40.62559],[-73.93174,40.62793],[-73.9298,40.62805],[-73.93005,40.63039],[-73.92912,40.63045],[-73.92887,40.62811],[-73.92786,40.62817]]]}},{"type":"Feature","properties":{"e":"41011"},"geometry":{"type":"Polygon","coordinates":[[[-73.92521,40.63069],[-73.92492,40.62798],[-73.92766,40.62621],[-73.92811,40.63051],[-73.92521,40.63069]]]}},{"type":"Feature","properties":{"e":"41012"},"geometry":{"type":"Polygon","coordinates":[[[-73.94265,40.6248],[-73.9445,40.6246],[-73.9454,40.62938],[-73.94416,40.62951],[-73.94227,40.62772],[-73.94216,40.62729],[-73.94309,40.62719],[-73.94265,40.6248]]]}},{"type":"Feature","properties":{"e":"41013"},"geometry":{"type":"Polygon","coordinates":[[[-73.941,40.62654],[-73.94072,40.62501],[-73.94265,40.6248],[-73.94309,40.62719],[-73.94216,40.62729],[-73.94227,40.62772],[-73.94416,40.62951],[-73.94151,40.62968],[-73.9412,40.62672],[-73.941,40.62654]]]}},{"type":"Feature","properties":{"e":"41014"},"geometry":{"type":"Polygon","coordinates":[[[-73.9408,40.62012],[-73.94359,40.61982],[-73.9445,40.6246],[-73.94168,40.62491],[-73.9409,40.62073],[-73.94075,40.62052],[-73.94084,40.62023],[-73.9408,40.62012]]]}},{"type":"Feature","properties":{"e":"41015"},"geometry":{"type":"Polygon","coordinates":[[[-73.94072,40.62501],[-73.93982,40.62023],[-73.9408,40.62012],[-73.94084,40.62023],[-73.94075,40.62052],[-73.9409,40.62073],[-73.94168,40.62491],[-73.94072,40.62501]]]}},{"type":"Feature","properties":{"e":"41016"},"geometry":{"type":"Polygon","coordinates":[[[-73.941,40.62654],[-73.93858,40.62423],[-73.93664,40.6224],[-73.93912,40.62157],[-73.93956,40.62139],[-73.93999,40.62116],[-73.941,40.62654]]]}},{"type":"Feature","properties":{"e":"41017"},"geometry":{"type":"Polygon","coordinates":[[[-73.93343,40.62568],[-73.93546,40.62387],[-73.93594,40.62284],[-73.93664,40.6224],[-73.93997,40.62555],[-73.93386,40.62592],[-73.93363,40.62584],[-73.93343,40.62568]]]}},{"type":"Feature","properties":{"e":"41018"},"geometry":{"type":"Polygon","coordinates":[[[-73.92832,40.62578],[-73.9331,40.62269],[-73.93312,40.62282],[-73.93486,40.62443],[-73.93343,40.62568],[-73.93263,40.62655],[-73.93242,40.62688],[-73.93239,40.62705],[-73.93238,40.62739],[-73.93251,40.62788],[-73.93174,40.62793],[-73.93149,40.62559],[-73.92832,40.62578]]]}},{"type":"Feature","properties":{"e":"41019"},"geometry":{"type":"Polygon","coordinates":[[[-73.9322,40.62327],[-73.93169,40.61865],[-73.93246,40.6186],[-73.93418,40.62012],[-73.93664,40.6224],[-73.93594,40.62284],[-73.93546,40.62387],[-73.93486,40.62443],[-73.93312,40.62282],[-73.9331,40.62269],[-73.9322,40.62327]]]}},{"type":"Feature","properties":{"e":"41020"},"geometry":{"type":"Polygon","coordinates":[[[-73.94792,40.6169],[-73.95459,40.61617],[-73.95504,40.61856],[-73.94837,40.61929],[-73.94792,40.6169]]]}},{"type":"Feature","properties":{"e":"41021"},"geometry":{"type":"Polygon","coordinates":[[[-73.95504,40.61856],[-73.95718,40.61833],[-73.95763,40.62071],[-73.95549,40.62095],[-73.95504,40.61856]]]}},{"type":"Feature","properties":{"e":"41022"},"geometry":{"type":"Polygon","coordinates":[[[-73.95459,40.61617],[-73.95673,40.61593],[-73.95718,40.61833],[-73.95504,40.61856],[-73.95459,40.61617]]]}},{"type":"Feature","properties":{"e":"41023"},"geometry":{"type":"Polygon","coordinates":[[[-73.94743,40.61422],[-73.94912,40.61305],[-73.95077,40.61159],[-73.9512,40.61382],[-73.95212,40.61372],[-73.95263,40.61638],[-73.94792,40.6169],[-73.94743,40.61422]]]}},{"type":"Feature","properties":{"e":"41024"},"geometry":{"type":"Polygon","coordinates":[[[-73.9536,40.61095],[-73.95574,40.61071],[-73.95673,40.61593],[-73.95459,40.61617],[-73.9536,40.61095]]]}},{"type":"Feature","properties":{"e":"41025"},"geometry":{"type":"Polygon","coordinates":[[[-73.95077,40.61159],[-73.9509,40.61158],[-73.95167,40.61131],[-73.95259,40.61111],[-73.9536,40.61095],[-73.95459,40.61617],[-73.95263,40.61638],[-73.95212,40.61372],[-73.9512,40.61382],[-73.95077,40.61159]]]}},{"type":"Feature","properties":{"e":"41026"},"geometry":{"type":"Polygon","coordinates":[[[-73.9503,40.60912],[-73.94984,40.60667],[-73.95272,40.60635],[-73.95319,40.60881],[-73.95533,40.60857],[-73.95574,40.61071],[-73.9536,40.61095],[-73.95259,40.61111],[-73.95167,40.61131],[-73.95123,40.60902],[-73.9503,40.60912]]]}},{"type":"Feature","properties":{"e":"41027"},"geometry":{"type":"Polygon","coordinates":[[[-73.95319,40.60881],[-73.95229,40.60403],[-73.95443,40.60379],[-73.95533,40.60857],[-73.95319,40.60881]]]}},{"type":"Feature","properties":{"e":"41028"},"geometry":{"type":"Polygon","coordinates":[[[-73.94231,40.60827],[-73.94232,40.60808],[-73.94177,40.60518],[-73.94655,40.60466],[-73.94699,40.60698],[-73.94321,40.60739],[-73.94355,40.60935],[-73.94231,40.60827]]]}},{"type":"Feature","properties":{"e":"41029"},"geometry":{"type":"Polygon","coordinates":[[[-73.94508,40.61189],[-73.94467,40.60974],[-73.95123,40.60902],[-73.95167,40.61131],[-73.9509,40.61158],[-73.95077,40.61159],[-73.94912,40.61305],[-73.94743,40.61422],[-73.94693,40.61168],[-73.94508,40.61189]]]}},{"type":"Feature","properties":{"e":"41030"},"geometry":{"type":"Polygon","coordinates":[[[-73.94355,40.60935],[-73.94321,40.60739],[-73.94984,40.60667],[-73.9503,40.60912],[-73.94467,40.60974],[-73.94508,40.61189],[-73.94406,40.61199],[-73.94355,40.60935]]]}},{"type":"Feature","properties":{"e":"41031"},"geometry":{"type":"Polygon","coordinates":[[[-73.94483,40.61605],[-73.94406,40.61199],[-73.94693,40.61168],[-73.94743,40.61422],[-73.94574,40.61536],[-73.94483,40.61605]]]}},{"type":"Feature","properties":{"e":"41032"},"geometry":{"type":"Polygon","coordinates":[[[-73.93354,40.61957],[-73.93716,40.61722],[-73.939,40.61887],[-73.93949,40.61855],[-73.93999,40.62116],[-73.93956,40.62139],[-73.93912,40.62157],[-73.93664,40.6224],[-73.93418,40.62012],[-73.93354,40.61957]]]}},{"type":"Feature","properties":{"e":"41033"},"geometry":{"type":"Polygon","coordinates":[[[-73.93716,40.61722],[-73.94079,40.61487],[-73.94275,40.61663],[-73.94297,40.61693],[-73.94305,40.61709],[-73.94315,40.61743],[-73.94347,40.61738],[-73.94319,40.61768],[-73.94359,40.61982],[-73.93982,40.62023],[-73.93949,40.61855],[-73.939,40.61887],[-73.93716,40.61722]]]}},{"type":"Feature","properties":{"e":"41034"},"geometry":{"type":"Polygon","coordinates":[[[-73.93169,40.61865],[-73.93163,40.6181],[-73.93173,40.61793],[-73.94116,40.61182],[-73.94298,40.61345],[-73.93354,40.61957],[-73.93246,40.6186],[-73.93169,40.61865]]]}},{"type":"Feature","properties":{"e":"41035"},"geometry":{"type":"Polygon","coordinates":[[[-73.94079,40.61487],[-73.94375,40.61295],[-73.94417,40.61272],[-73.94483,40.61605],[-73.94574,40.61536],[-73.94607,40.6171],[-73.94699,40.617],[-73.94744,40.61939],[-73.94359,40.61982],[-73.94319,40.61768],[-73.94347,40.61738],[-73.94315,40.61743],[-73.94305,40.61709],[-73.94297,40.61693],[-73.94275,40.61663],[-73.94079,40.61487]]]}},{"type":"Feature","properties":{"e":"41036"},"geometry":{"type":"Polygon","coordinates":[[[-73.93935,40.61019],[-73.94231,40.60827],[-73.94355,40.60935],[-73.94417,40.61272],[-73.94375,40.61295],[-73.94298,40.61345],[-73.93935,40.61019]]]}},{"type":"Feature","properties":{"e":"41037"},"geometry":{"type":"Polygon","coordinates":[[[-73.94155,40.60877],[-73.93792,40.6055],[-73.93609,40.60387],[-73.93683,40.60334],[-73.93709,40.60326],[-73.93854,40.6031],[-73.93892,40.60522],[-73.93921,40.60548],[-73.94177,40.60518],[-73.94232,40.60808],[-73.94231,40.60827],[-73.94155,40.60877]]]}},{"type":"Feature","properties":{"e":"41038"},"geometry":{"type":"Polygon","coordinates":[[[-73.9337,40.58793],[-73.93344,40.58654],[-73.93445,40.58665],[-73.93541,40.58659],[-73.93634,40.58648],[-73.93698,40.58987],[-73.93509,40.59008],[-73.93467,40.58783],[-73.9337,40.58793]]]}},{"type":"Feature","properties":{"e":"41039"},"geometry":{"type":"Polygon","coordinates":[[[-73.93698,40.58987],[-73.9398,40.58957],[-73.9402,40.59168],[-73.93737,40.592],[-73.93698,40.58987]]]}},{"type":"Feature","properties":{"e":"41040"},"geometry":{"type":"Polygon","coordinates":[[[-73.9476,40.5998],[-73.95355,40.59915],[-73.95398,40.6014],[-73.94802,40.60206],[-73.9476,40.5998]]]}},{"type":"Feature","properties":{"e":"41041"},"geometry":{"type":"Polygon","coordinates":[[[-73.94517,40.60237],[-73.95398,40.6014],[-73.95443,40.60379],[-73.94562,40.60476],[-73.94517,40.60237]]]}},{"type":"Feature","properties":{"e":"41042"},"geometry":{"type":"Polygon","coordinates":[[[-73.94952,40.59498],[-73.9527,40.59464],[-73.95355,40.59915],[-73.95141,40.59938],[-73.95101,40.59726],[-73.94997,40.59738],[-73.94952,40.59498]]]}},{"type":"Feature","properties":{"e":"41043"},"geometry":{"type":"Polygon","coordinates":[[[-73.94674,40.59529],[-73.94952,40.59498],[-73.94997,40.59738],[-73.95101,40.59726],[-73.95141,40.59938],[-73.9476,40.5998],[-73.94674,40.59529]]]}},{"type":"Feature","properties":{"e":"41044"},"geometry":{"type":"Polygon","coordinates":[[[-73.9461,40.60227],[-73.94481,40.5955],[-73.94674,40.59529],[-73.94802,40.60206],[-73.9461,40.60227]]]}},{"type":"Feature","properties":{"e":"41045"},"geometry":{"type":"Polygon","coordinates":[[[-73.93758,40.6032],[-73.93715,40.60095],[-73.93904,40.60074],[-73.93947,40.603],[-73.94332,40.60257],[-73.94377,40.60496],[-73.93921,40.60548],[-73.93892,40.60522],[-73.93854,40.6031],[-73.93758,40.6032]]]}},{"type":"Feature","properties":{"e":"41046"},"geometry":{"type":"Polygon","coordinates":[[[-73.93904,40.60074],[-73.94567,40.60001],[-73.9461,40.60227],[-73.93947,40.603],[-73.93904,40.60074]]]}},{"type":"Feature","properties":{"e":"41047"},"geometry":{"type":"Polygon","coordinates":[[[-73.93676,40.59882],[-73.94527,40.59789],[-73.94567,40.60001],[-73.93715,40.60095],[-73.93676,40.59882]]]}},{"type":"Feature","properties":{"e":"41048"},"geometry":{"type":"Polygon","coordinates":[[[-73.93609,40.60387],[-73.93245,40.60061],[-73.93486,40.59905],[-73.93676,40.59882],[-73.93758,40.6032],[-73.93709,40.60326],[-73.93683,40.60334],[-73.93609,40.60387]]]}},{"type":"Feature","properties":{"e":"41049"},"geometry":{"type":"Polygon","coordinates":[[[-73.93864,40.59861],[-73.93787,40.59461],[-73.93802,40.59452],[-73.93885,40.59443],[-73.93888,40.59463],[-73.93978,40.59452],[-73.93975,40.59433],[-73.94057,40.59425],[-73.94067,40.59412],[-73.94148,40.5983],[-73.93864,40.59861]]]}},{"type":"Feature","properties":{"e":"41050"},"geometry":{"type":"Polygon","coordinates":[[[-73.93453,40.59231],[-73.93737,40.592],[-73.93778,40.59413],[-73.94061,40.59381],[-73.94067,40.59412],[-73.94057,40.59425],[-73.93975,40.59433],[-73.93978,40.59452],[-73.93888,40.59463],[-73.93885,40.59443],[-73.93802,40.59452],[-73.93787,40.59461],[-73.93819,40.59623],[-73.93537,40.59654],[-73.93453,40.59231]]]}},{"type":"Feature","properties":{"e":"41051"},"geometry":{"type":"Polygon","coordinates":[[[-73.93537,40.59654],[-73.93819,40.59623],[-73.93864,40.59861],[-73.9358,40.59892],[-73.93537,40.59654]]]}},{"type":"Feature","properties":{"e":"41052"},"geometry":{"type":"Polygon","coordinates":[[[-73.92879,40.59732],[-73.92957,40.59682],[-73.92974,40.59698],[-73.93129,40.59598],[-73.93241,40.59522],[-73.93305,40.59487],[-73.93341,40.59676],[-73.93537,40.59654],[-73.9358,40.59892],[-73.93486,40.59905],[-73.93245,40.60061],[-73.92879,40.59732]]]}},{"type":"Feature","properties":{"e":"41053"},"geometry":{"type":"Polygon","coordinates":[[[-73.93341,40.59676],[-73.93261,40.59252],[-73.93453,40.59231],[-73.93537,40.59654],[-73.93341,40.59676]]]}},{"type":"Feature","properties":{"e":"41054"},"geometry":{"type":"Polygon","coordinates":[[[-73.94655,40.60466],[-73.95229,40.60403],[-73.95272,40.60635],[-73.94699,40.60698],[-73.94655,40.60466]]]}},{"type":"Feature","properties":{"e":"41055"},"geometry":{"type":"Polygon","coordinates":[[[-73.94441,40.59339],[-73.95135,40.59262],[-73.95175,40.59474],[-73.94481,40.5955],[-73.94441,40.59339]]]}},{"type":"Feature","properties":{"e":"41056"},"geometry":{"type":"Polygon","coordinates":[[[-73.94441,40.59339],[-73.94401,40.59126],[-73.95095,40.5905],[-73.95054,40.58838],[-73.95149,40.58828],[-73.9527,40.59464],[-73.95175,40.59474],[-73.95135,40.59262],[-73.94441,40.59339]]]}},{"type":"Feature","properties":{"e":"41057"},"geometry":{"type":"Polygon","coordinates":[[[-73.94553,40.58893],[-73.95054,40.58838],[-73.95095,40.5905],[-73.94593,40.59105],[-73.94553,40.58893]]]}},{"type":"Feature","properties":{"e":"41058"},"geometry":{"type":"Polygon","coordinates":[[[-73.94148,40.5983],[-73.9402,40.59168],[-73.94123,40.59157],[-73.94163,40.59369],[-73.94441,40.59339],[-73.94527,40.59789],[-73.94148,40.5983]]]}},{"type":"Feature","properties":{"e":"41059"},"geometry":{"type":"Polygon","coordinates":[[[-73.93737,40.592],[-73.9402,40.59168],[-73.94061,40.59381],[-73.93778,40.59413],[-73.93737,40.592]]]}},{"type":"Feature","properties":{"e":"41060"},"geometry":{"type":"Polygon","coordinates":[[[-73.93178,40.58814],[-73.93467,40.58783],[-73.93509,40.59008],[-73.93698,40.58987],[-73.93737,40.592],[-73.93261,40.59252],[-73.93178,40.58814]]]}},{"type":"Feature","properties":{"e":"41061"},"geometry":{"type":"Polygon","coordinates":[[[-73.9402,40.59168],[-73.9398,40.58957],[-73.94553,40.58893],[-73.94593,40.59105],[-73.94401,40.59126],[-73.94441,40.59339],[-73.94163,40.59369],[-73.94123,40.59157],[-73.9402,40.59168]]]}},{"type":"Feature","properties":{"e":"41062"},"geometry":{"type":"Polygon","coordinates":[[[-73.94574,40.61536],[-73.94743,40.61422],[-73.94837,40.61929],[-73.94744,40.61939],[-73.94699,40.617],[-73.94607,40.6171],[-73.94574,40.61536]]]}},{"type":"Feature","properties":{"e":"41063"},"geometry":{"type":"Polygon","coordinates":[[[-73.94387,40.5853],[-73.94493,40.58517],[-73.94669,40.58507],[-73.94696,40.58648],[-73.94892,40.58626],[-73.94935,40.58851],[-73.94457,40.58904],[-73.94387,40.5853]]]}},{"type":"Feature","properties":{"e":"41064"},"geometry":{"type":"Polygon","coordinates":[[[-73.93911,40.58569],[-73.94194,40.58523],[-73.94381,40.58499],[-73.94457,40.58904],[-73.9398,40.58957],[-73.93911,40.58569]]]}},{"type":"Feature","properties":{"e":"41065"},"geometry":{"type":"Polygon","coordinates":[[[-73.93541,40.58659],[-73.93538,40.58625],[-73.93694,40.58607],[-73.93911,40.58569],[-73.9398,40.58957],[-73.93698,40.58987],[-73.93634,40.58648],[-73.93541,40.58659]]]}},{"type":"Feature","properties":{"e":"41066"},"geometry":{"type":"Polygon","coordinates":[[[-73.93344,40.58654],[-73.93211,40.58629],[-73.9314,40.58608],[-73.93108,40.58438],[-73.93116,40.58431],[-73.93321,40.58409],[-73.93588,40.584],[-73.93623,40.58591],[-73.93531,40.58603],[-73.93538,40.58625],[-73.93541,40.58659],[-73.93445,40.58665],[-73.93344,40.58654]]]}},{"type":"Feature","properties":{"e":"41067"},"geometry":{"type":"MultiPolygon","coordinates":[[[[-73.93193,40.58287],[-73.93238,40.58292],[-73.93237,40.58296],[-73.93201,40.58293],[-73.93199,40.58294],[-73.93202,40.58311],[-73.93198,40.58311],[-73.93193,40.58287]]],[[[-73.93588,40.584],[-73.93299,40.58411],[-73.93278,40.58294],[-73.9331,40.58295],[-73.93349,40.58306],[-73.93349,40.58296],[-73.93421,40.58298],[-73.93421,40.58309],[-73.93456,40.58317],[-73.93456,40.58302],[-73.93528,40.5831],[-73.93528,40.58324],[-73.93569,40.58328],[-73.93572,40.58325],[-73.93572,40.58315],[-73.93568,40.58315],[-73.93567,40.58302],[-73.93582,40.58302],[-73.93583,40.58315],[-73.93576,40.58316],[-73.93577,40.58328],[-73.93613,40.58331],[-73.93621,40.5833],[-73.93625,40.58325],[-73.93629,40.583],[-73.93613,40.58298],[-73.93613,40.58301],[-73.9361,40.58301],[-73.9361,40.58295],[-73.93657,40.58296],[-73.93656,40.58299],[-73.93635,40.58298],[-73.93635,40.583],[-73.9363,40.583],[-73.93632,40.58318],[-73.93654,40.58316],[-73.93658,40.58324],[-73.93697,40.58323],[-73.93699,40.58302],[-73.93663,40.58297],[-73.93706,40.58298],[-73.93705,40.58308],[-73.93763,40.5831],[-73.93705,40.5831],[-73.93703,40.58313],[-73.93703,40.58302],[-73.93701,40.58302],[-73.93701,40.58323],[-73.93705,40.58324],[-73.93708,40.58333],[-73.93712,40.58335],[-73.9373,40.58335],[-73.93732,40.58329],[-73.93783,40.58329],[-73.93789,40.58334],[-73.93812,40.58334],[-73.93809,40.58312],[-73.93824,40.58312],[-73.93826,40.58328],[-73.93833,40.58334],[-73.93855,40.58334],[-73.93848,40.58318],[-73.93867,40.58316],[-73.93863,40.58307],[-73.93879,40.58307],[-73.93878,40.58309],[-73.93867,40.58308],[-73.9387,40.58316],[-73.9393,40.58317],[-73.9393,40.58333],[-73.93983,40.58333],[-73.93983,40.58317],[-73.93986,40.58317],[-73.93986,40.58333],[-73.94058,40.58333],[-73.94057,40.58309],[-73.94011,40.58308],[-73.94068,40.58307],[-73.94059,40.58309],[-73.94059,40.58321],[-73.94063,40.58321],[-73.94064,40.58333],[-73.9407,40.58333],[-73.9407,40.5833],[-73.94092,40.5833],[-73.9409,40.58309],[-73.94074,40.58308],[-73.94103,40.58307],[-73.94091,40.58309],[-73.94093,40.5833],[-73.94116,40.5833],[-73.9411,40.58309],[-73.9412,40.58309],[-73.94115,40.58311],[-73.94121,40.5833],[-73.94126,40.58334],[-73.94144,40.58334],[-73.94149,40.58353],[-73.94154,40.58352],[-73.94157,40.58361],[-73.94255,40.58351],[-73.94258,40.5837],[-73.94355,40.58365],[-73.94381,40.58499],[-73.94101,40.58537],[-73.93694,40.58607],[-73.93538,40.58625],[-73.93531,40.58603],[-73.93623,40.58591],[-73.93588,40.584]]]]}},{"type":"Feature","properties":{"e":"41068"},"geometry":{"type":"Polygon","coordinates":[[[-73.9314,40.58608],[-73.93211,40.58629],[-73.93344,40.58654],[-73.9337,40.58793],[-73.93178,40.58814],[-73.9314,40.58608]]]}},{"type":"Feature","properties":{"e":"41069"},"geometry":{"type":"Polygon","coordinates":[[[-73.94332,40.60257],[-73.94517,40.60237],[-73.94562,40.60476],[-73.94377,40.60496],[-73.94332,40.60257]]]}}]}