{"type":"FeatureCollection","ad":43,"features":[{"type":"Feature","properties":{"e":"43001"},"geometry":{"type":"Polygon","coordinates":[[[-73.94992,40.6761],[-73.95017,40.67342],[-73.95294,40.67357],[-73.95269,40.67625],[-73.94992,40.6761]]]}},{"type":"Feature","properties":{"e":"43002"},"geometry":{"type":"Polygon","coordinates":[[[-73.94715,40.67594],[-73.94731,40.67416],[-73.95008,40.67431],[-73.94992,40.6761],[-73.94715,40.67594]]]}},{"type":"Feature","properties":{"e":"43003"},"geometry":{"type":"Polygon","coordinates":[[[-73.94731,40.67416],[-73.94748,40.67238],[-73.95302,40.67268],[-73.95294,40.67357],[-73.95017,40.67342],[-73.95008,40.67431],[-73.94731,40.67416]]]}},{"type":"Feature","properties":{"e":"43004"},"geometry":{"type":"Polygon","coordinates":[[[-73.94438,40.67579],[-73.94454,40.67401],[-73.94731,40.67416],[-73.94715,40.67594],[-73.94438,40.67579]]]}},{"type":"Feature","properties":{"e":"43005"},"geometry":{"type":"Polygon","coordinates":[[[-73.94161,40.67564],[-73.94186,40.67297],[-73.94463,40.67312],[-73.94471,40.67223],[-73.94748,40.67238],[-73.94731,40.67416],[-73.94454,40.67401],[-73.94438,40.67579],[-73.94161,40.67564]]]}},{"type":"Feature","properties":{"e":"43006"},"geometry":{"type":"Polygon","coordinates":[[[-73.93805,40.67457],[-73.93806,40.67447],[-73.93797,40.67393],[-73.93813,40.67384],[-73.93822,40.67373],[-73.93823,40.6736],[-73.93817,40.67352],[-73.93802,40.67341],[-73.93833,40.67278],[-73.94186,40.67297],[-73.94169,40.67475],[-73.93805,40.67457]]]}},{"type":"Feature","properties":{"e":"43007"},"geometry":{"type":"Polygon","coordinates":[[[-73.93347,40.67341],[-73.93363,40.67163],[-73.93918,40.67193],[-73.93908,40.67283],[-73.93833,40.67278],[-73.93802,40.67341],[-73.93817,40.67352],[-73.93823,40.6736],[-73.93822,40.67373],[-73.93813,40.67384],[-73.93797,40.67393],[-73.93806,40.67447],[-73.93805,40.67457],[-73.93617,40.67446],[-73.93626,40.67356],[-73.93347,40.67341]]]}},{"type":"Feature","properties":{"e":"43008"},"geometry":{"type":"Polygon","coordinates":[[[-73.94463,40.67312],[-73.93908,40.67283],[-73.93918,40.67193],[-73.94471,40.67223],[-73.94463,40.67312]]]}},{"type":"Feature","properties":{"e":"43009"},"geometry":{"type":"Polygon","coordinates":[[[-73.9307,40.67326],[-73.93087,40.67147],[-73.93363,40.67163],[-73.93347,40.67341],[-73.9307,40.67326]]]}},{"type":"Feature","properties":{"e":"43010"},"geometry":{"type":"Polygon","coordinates":[[[-73.95025,40.67253],[-73.9505,40.66987],[-73.95327,40.67001],[-73.95302,40.67268],[-73.95025,40.67253]]]}},{"type":"Feature","properties":{"e":"43011"},"geometry":{"type":"Polygon","coordinates":[[[-73.94748,40.67238],[-73.94773,40.66971],[-73.9505,40.66987],[-73.95025,40.67253],[-73.94748,40.67238]]]}},{"type":"Feature","properties":{"e":"43012"},"geometry":{"type":"Polygon","coordinates":[[[-73.94471,40.67223],[-73.94496,40.66956],[-73.94773,40.66971],[-73.94748,40.67238],[-73.94471,40.67223]]]}},{"type":"Feature","properties":{"e":"43013"},"geometry":{"type":"Polygon","coordinates":[[[-73.94195,40.67208],[-73.9422,40.6694],[-73.94496,40.66956],[-73.94471,40.67223],[-73.94195,40.67208]]]}},{"type":"Feature","properties":{"e":"43014"},"geometry":{"type":"Polygon","coordinates":[[[-73.93918,40.67193],[-73.93943,40.66925],[-73.9422,40.6694],[-73.94195,40.67208],[-73.93918,40.67193]]]}},{"type":"Feature","properties":{"e":"43015"},"geometry":{"type":"Polygon","coordinates":[[[-73.93641,40.67177],[-73.93666,40.6691],[-73.93943,40.66925],[-73.93918,40.67193],[-73.93641,40.67177]]]}},{"type":"Feature","properties":{"e":"43016"},"geometry":{"type":"Polygon","coordinates":[[[-73.93363,40.67163],[-73.93389,40.66895],[-73.93666,40.6691],[-73.93641,40.67177],[-73.93363,40.67163]]]}},{"type":"Feature","properties":{"e":"43017"},"geometry":{"type":"Polygon","coordinates":[[[-73.93087,40.67147],[-73.93112,40.6688],[-73.93389,40.66895],[-73.93363,40.67163],[-73.93087,40.67147]]]}},{"type":"Feature","properties":{"e":"43018"},"geometry":{"type":"Polygon","coordinates":[[[-73.9505,40.66987],[-73.95075,40.66718],[-73.95352,40.66733],[-73.95327,40.67001],[-73.9505,40.66987]]]}},{"type":"Feature","properties":{"e":"43019"},"geometry":{"type":"Polygon","coordinates":[[[-73.94773,40.66971],[-73.94798,40.66703],[-73.95075,40.66718],[-73.9505,40.66987],[-73.94773,40.66971]]]}},{"type":"Feature","properties":{"e":"43020"},"geometry":{"type":"Polygon","coordinates":[[[-73.94496,40.66956],[-73.9453,40.66599],[-73.95361,40.66644],[-73.95352,40.66733],[-73.94798,40.66703],[-73.94773,40.66971],[-73.94496,40.66956]]]}},{"type":"Feature","properties":{"e":"43021"},"geometry":{"type":"Polygon","coordinates":[[[-73.9422,40.6694],[-73.94244,40.66673],[-73.93968,40.66658],[-73.93976,40.66569],[-73.9453,40.66599],[-73.94496,40.66956],[-73.9422,40.6694]]]}},{"type":"Feature","properties":{"e":"43022"},"geometry":{"type":"Polygon","coordinates":[[[-73.9422,40.6694],[-73.93666,40.6691],[-73.93683,40.66732],[-73.93959,40.66747],[-73.93968,40.66658],[-73.94244,40.66673],[-73.9422,40.6694]]]}},{"type":"Feature","properties":{"e":"43023"},"geometry":{"type":"Polygon","coordinates":[[[-73.93666,40.6691],[-73.93112,40.6688],[-73.93121,40.66782],[-73.93398,40.66798],[-73.93406,40.66717],[-73.93683,40.66732],[-73.93666,40.6691]]]}},{"type":"Feature","properties":{"e":"43024"},"geometry":{"type":"Polygon","coordinates":[[[-73.93121,40.66782],[-73.93138,40.66613],[-73.93691,40.66643],[-73.93683,40.66732],[-73.93406,40.66717],[-73.93398,40.66798],[-73.93121,40.66782]]]}},{"type":"Feature","properties":{"e":"43025"},"geometry":{"type":"Polygon","coordinates":[[[-73.93138,40.66613],[-73.93154,40.66434],[-73.93431,40.6645],[-73.93422,40.66538],[-73.93698,40.66554],[-73.93691,40.66643],[-73.93138,40.66613]]]}},{"type":"Feature","properties":{"e":"43026"},"geometry":{"type":"Polygon","coordinates":[[[-73.94261,40.66495],[-73.93707,40.66464],[-73.93716,40.66375],[-73.9427,40.66406],[-73.94261,40.66495]]]}},{"type":"Feature","properties":{"e":"43027"},"geometry":{"type":"Polygon","coordinates":[[[-73.93683,40.66732],[-73.93698,40.66554],[-73.93422,40.66538],[-73.93431,40.6645],[-73.93984,40.66479],[-73.93959,40.66747],[-73.93683,40.66732]]]}},{"type":"Feature","properties":{"e":"43028"},"geometry":{"type":"Polygon","coordinates":[[[-73.93976,40.66569],[-73.93984,40.66479],[-73.94261,40.66495],[-73.9427,40.66406],[-73.94546,40.66423],[-73.9453,40.66599],[-73.93976,40.66569]]]}},{"type":"Feature","properties":{"e":"43029"},"geometry":{"type":"Polygon","coordinates":[[[-73.9453,40.66599],[-73.94538,40.6651],[-73.95369,40.66555],[-73.95361,40.66644],[-73.9453,40.66599]]]}},{"type":"Feature","properties":{"e":"43030"},"geometry":{"type":"Polygon","coordinates":[[[-73.94538,40.6651],[-73.94546,40.66423],[-73.95385,40.66373],[-73.95369,40.66555],[-73.94538,40.6651]]]}},{"type":"Feature","properties":{"e":"43031"},"geometry":{"type":"Polygon","coordinates":[[[-73.95704,40.66197],[-73.96077,40.66173],[-73.96068,40.66095],[-73.96281,40.66051],[-73.96308,40.6622],[-73.96304,40.66239],[-73.96293,40.66257],[-73.96225,40.6632],[-73.95721,40.66352],[-73.95704,40.66197]]]}},{"type":"Feature","properties":{"e":"43032"},"geometry":{"type":"Polygon","coordinates":[[[-73.95354,40.66065],[-73.95688,40.66044],[-73.95721,40.66352],[-73.95385,40.66373],[-73.95354,40.66065]]]}},{"type":"Feature","properties":{"e":"43033"},"geometry":{"type":"Polygon","coordinates":[[[-73.95097,40.6639],[-73.95064,40.66083],[-73.95354,40.66065],[-73.95385,40.66373],[-73.95097,40.6639]]]}},{"type":"Feature","properties":{"e":"43034"},"geometry":{"type":"Polygon","coordinates":[[[-73.94554,40.66345],[-73.948,40.66331],[-73.94791,40.66253],[-73.95081,40.66235],[-73.95097,40.6639],[-73.94546,40.66423],[-73.94554,40.66345]]]}},{"type":"Feature","properties":{"e":"43035"},"geometry":{"type":"Polygon","coordinates":[[[-73.94541,40.66044],[-73.94768,40.6603],[-73.94775,40.66101],[-73.95064,40.66083],[-73.95081,40.66235],[-73.94791,40.66253],[-73.948,40.66331],[-73.94554,40.66345],[-73.94561,40.66268],[-73.94557,40.66188],[-73.94541,40.66044]]]}},{"type":"Feature","properties":{"e":"43036"},"geometry":{"type":"Polygon","coordinates":[[[-73.95688,40.66044],[-73.96062,40.66021],[-73.96063,40.66059],[-73.96077,40.66173],[-73.95704,40.66197],[-73.95688,40.66044]]]}},{"type":"Feature","properties":{"e":"43037"},"geometry":{"type":"Polygon","coordinates":[[[-73.96068,40.66095],[-73.96055,40.65931],[-73.9618,40.6592],[-73.96165,40.65837],[-73.96246,40.65829],[-73.96281,40.66051],[-73.96068,40.66095]]]}},{"type":"Feature","properties":{"e":"43038"},"geometry":{"type":"Polygon","coordinates":[[[-73.95665,40.65831],[-73.96043,40.65807],[-73.96048,40.65841],[-73.96164,40.65827],[-73.9618,40.6592],[-73.96055,40.65931],[-73.96062,40.66021],[-73.95688,40.66044],[-73.95665,40.65831]]]}},{"type":"Feature","properties":{"e":"43039"},"geometry":{"type":"Polygon","coordinates":[[[-73.95354,40.66065],[-73.95322,40.65766],[-73.95656,40.65745],[-73.95688,40.66044],[-73.95354,40.66065]]]}},{"type":"Feature","properties":{"e":"43040"},"geometry":{"type":"Polygon","coordinates":[[[-73.94775,40.66101],[-73.9476,40.65959],[-73.95338,40.65923],[-73.95354,40.66065],[-73.94775,40.66101]]]}},{"type":"Feature","properties":{"e":"43041"},"geometry":{"type":"Polygon","coordinates":[[[-73.94509,40.65743],[-73.95025,40.6571],[-73.95049,40.65941],[-73.9476,40.65959],[-73.94768,40.6603],[-73.94541,40.66044],[-73.94534,40.65972],[-73.94488,40.65904],[-73.94517,40.65819],[-73.94509,40.65743]]]}},{"type":"Feature","properties":{"e":"43042"},"geometry":{"type":"Polygon","coordinates":[[[-73.95025,40.6571],[-73.95314,40.65691],[-73.95338,40.65923],[-73.95049,40.65941],[-73.95025,40.6571]]]}},{"type":"Feature","properties":{"e":"43043"},"geometry":{"type":"Polygon","coordinates":[[[-73.9427,40.66406],[-73.94283,40.66285],[-73.94261,40.66061],[-73.94541,40.66044],[-73.94557,40.66188],[-73.94561,40.66268],[-73.94546,40.66423],[-73.9427,40.66406]]]}},{"type":"Feature","properties":{"e":"43044"},"geometry":{"type":"Polygon","coordinates":[[[-73.93993,40.6639],[-73.94003,40.66302],[-73.93981,40.66078],[-73.94261,40.66061],[-73.94283,40.66285],[-73.9427,40.66406],[-73.93993,40.6639]]]}},{"type":"Feature","properties":{"e":"43045"},"geometry":{"type":"Polygon","coordinates":[[[-73.93711,40.66024],[-73.94255,40.65989],[-73.94261,40.66061],[-73.93981,40.66078],[-73.94003,40.66302],[-73.93993,40.6639],[-73.93716,40.66375],[-73.93726,40.66319],[-73.9374,40.66292],[-73.93711,40.66024]]]}},{"type":"Feature","properties":{"e":"43046"},"geometry":{"type":"Polygon","coordinates":[[[-73.93161,40.66356],[-73.9316,40.66323],[-73.93148,40.66205],[-73.93726,40.66167],[-73.9374,40.66292],[-73.93726,40.66319],[-73.93716,40.66375],[-73.93238,40.6635],[-73.93161,40.66356]]]}},{"type":"Feature","properties":{"e":"43047"},"geometry":{"type":"Polygon","coordinates":[[[-73.93148,40.66205],[-73.93108,40.6583],[-73.93686,40.65794],[-73.93726,40.66167],[-73.93148,40.66205]]]}},{"type":"Feature","properties":{"e":"43048"},"geometry":{"type":"Polygon","coordinates":[[[-73.93465,40.6551],[-73.93655,40.65498],[-73.93668,40.65624],[-73.93478,40.65636],[-73.93465,40.6551]]]}},{"type":"Feature","properties":{"e":"43049"},"geometry":{"type":"Polygon","coordinates":[[[-73.93108,40.6583],[-73.9309,40.65661],[-73.93956,40.65606],[-73.93965,40.65709],[-73.93957,40.65853],[-73.93973,40.66007],[-73.93711,40.66024],[-73.93686,40.65794],[-73.93108,40.6583]]]}},{"type":"Feature","properties":{"e":"43050"},"geometry":{"type":"Polygon","coordinates":[[[-73.94255,40.65989],[-73.93973,40.66007],[-73.93957,40.65853],[-73.93965,40.65709],[-73.93956,40.65606],[-73.9424,40.65588],[-73.94226,40.65462],[-73.94416,40.65453],[-73.94429,40.65577],[-73.94716,40.65559],[-73.94735,40.65728],[-73.94509,40.65743],[-73.94517,40.65819],[-73.94488,40.65904],[-73.94534,40.65972],[-73.94541,40.66044],[-73.94261,40.66061],[-73.94255,40.65989]]]}},{"type":"Feature","properties":{"e":"43051"},"geometry":{"type":"Polygon","coordinates":[[[-73.93161,40.66356],[-73.93238,40.6635],[-73.93716,40.66375],[-73.93707,40.66464],[-73.93154,40.66434],[-73.93161,40.66356]]]}},{"type":"Feature","properties":{"e":"43052"},"geometry":{"type":"Polygon","coordinates":[[[-73.93655,40.65498],[-73.9404,40.65474],[-73.94023,40.65321],[-73.944,40.65297],[-73.94416,40.65453],[-73.94226,40.65462],[-73.9424,40.65588],[-73.93668,40.65624],[-73.93655,40.65498]]]}},{"type":"Feature","properties":{"e":"43053"},"geometry":{"type":"Polygon","coordinates":[[[-73.96048,40.65841],[-73.96014,40.65676],[-73.96061,40.65669],[-73.96091,40.65616],[-73.9607,40.65534],[-73.96188,40.65488],[-73.96246,40.65829],[-73.96165,40.65837],[-73.96164,40.65827],[-73.96048,40.65841]]]}},{"type":"Feature","properties":{"e":"43054"},"geometry":{"type":"Polygon","coordinates":[[[-73.95665,40.65831],[-73.95648,40.65671],[-73.96007,40.65649],[-73.96043,40.65807],[-73.95665,40.65831]]]}},{"type":"Feature","properties":{"e":"43055"},"geometry":{"type":"Polygon","coordinates":[[[-73.95648,40.65671],[-73.95639,40.65587],[-73.95986,40.65563],[-73.9607,40.65534],[-73.96091,40.65616],[-73.96061,40.65669],[-73.96014,40.65676],[-73.96007,40.65649],[-73.95648,40.65671]]]}},{"type":"Feature","properties":{"e":"43056"},"geometry":{"type":"Polygon","coordinates":[[[-73.95616,40.65378],[-73.95945,40.65358],[-73.95986,40.65563],[-73.95639,40.65587],[-73.95616,40.65378]]]}},{"type":"Feature","properties":{"e":"43057"},"geometry":{"type":"Polygon","coordinates":[[[-73.95322,40.65766],[-73.95296,40.65525],[-73.9563,40.65505],[-73.95656,40.65745],[-73.95322,40.65766]]]}},{"type":"Feature","properties":{"e":"43058"},"geometry":{"type":"Polygon","coordinates":[[[-73.94514,40.65447],[-73.94497,40.65291],[-73.94687,40.6528],[-73.94703,40.65434],[-73.94993,40.65415],[-73.95007,40.65542],[-73.95296,40.65525],[-73.95314,40.65691],[-73.94735,40.65728],[-73.94716,40.65559],[-73.94429,40.65577],[-73.94416,40.65453],[-73.94514,40.65447]]]}},{"type":"Feature","properties":{"e":"43059"},"geometry":{"type":"Polygon","coordinates":[[[-73.95986,40.65563],[-73.95933,40.65293],[-73.96042,40.65256],[-73.96141,40.65217],[-73.96176,40.65407],[-73.96188,40.65488],[-73.95986,40.65563]]]}},{"type":"Feature","properties":{"e":"43060"},"geometry":{"type":"Polygon","coordinates":[[[-73.95601,40.65231],[-73.95915,40.65214],[-73.95945,40.65358],[-73.95616,40.65378],[-73.95601,40.65231]]]}},{"type":"Feature","properties":{"e":"43061"},"geometry":{"type":"Polygon","coordinates":[[[-73.95893,40.65121],[-73.95915,40.65214],[-73.95266,40.65249],[-73.95256,40.65155],[-73.95893,40.65121]]]}},{"type":"Feature","properties":{"e":"43062"},"geometry":{"type":"Polygon","coordinates":[[[-73.94993,40.65415],[-73.95283,40.65398],[-73.95296,40.65525],[-73.95007,40.65542],[-73.94993,40.65415]]]}},{"type":"Feature","properties":{"e":"43063"},"geometry":{"type":"Polygon","coordinates":[[[-73.95283,40.65398],[-73.95616,40.65378],[-73.9563,40.65505],[-73.95296,40.65525],[-73.95283,40.65398]]]}},{"type":"Feature","properties":{"e":"43064"},"geometry":{"type":"Polygon","coordinates":[[[-73.95266,40.65249],[-73.95601,40.65231],[-73.95616,40.65378],[-73.95283,40.65398],[-73.95266,40.65249]]]}},{"type":"Feature","properties":{"e":"43065"},"geometry":{"type":"Polygon","coordinates":[[[-73.94977,40.65264],[-73.95266,40.65249],[-73.95283,40.65398],[-73.94993,40.65415],[-73.94977,40.65264]]]}},{"type":"Feature","properties":{"e":"43066"},"geometry":{"type":"Polygon","coordinates":[[[-73.94687,40.6528],[-73.94977,40.65264],[-73.94993,40.65415],[-73.94703,40.65434],[-73.94687,40.6528]]]}},{"type":"Feature","properties":{"e":"43067"},"geometry":{"type":"Polygon","coordinates":[[[-73.94571,40.65101],[-73.94957,40.65081],[-73.94967,40.6517],[-73.95256,40.65155],[-73.95266,40.65249],[-73.9459,40.65285],[-73.94571,40.65101]]]}},{"type":"Feature","properties":{"e":"43068"},"geometry":{"type":"Polygon","coordinates":[[[-73.94416,40.65453],[-73.9438,40.65111],[-73.94571,40.65101],[-73.9459,40.65285],[-73.94497,40.65291],[-73.94514,40.65447],[-73.94416,40.65453]]]}}]}