{"type":"FeatureCollection","ad":45,"features":[{"type":"Feature","properties":{"e":"45001"},"geometry":{"type":"Polygon","coordinates":[[[-73.95673,40.61593],[-73.96236,40.61531],[-73.96266,40.61691],[-73.95999,40.61779],[-73.95951,40.61806],[-73.95718,40.61833],[-73.95673,40.61593]]]}},{"type":"Feature","properties":{"e":"45002"},"geometry":{"type":"Polygon","coordinates":[[[-73.95719,40.61317],[-73.96286,40.61255],[-73.96336,40.6152],[-73.95769,40.61583],[-73.95719,40.61317]]]}},{"type":"Feature","properties":{"e":"45003"},"geometry":{"type":"Polygon","coordinates":[[[-73.95574,40.61071],[-73.96044,40.6102],[-73.96092,40.61276],[-73.95719,40.61317],[-73.95769,40.61583],[-73.95673,40.61593],[-73.95574,40.61071]]]}},{"type":"Feature","properties":{"e":"45004"},"geometry":{"type":"Polygon","coordinates":[[[-73.96092,40.61276],[-73.95958,40.6056],[-73.96173,40.60536],[-73.96189,40.60734],[-73.96286,40.61255],[-73.96092,40.61276]]]}},{"type":"Feature","properties":{"e":"45005"},"geometry":{"type":"Polygon","coordinates":[[[-73.95443,40.60379],[-73.95914,40.60327],[-73.95958,40.6056],[-73.95679,40.6059],[-73.95726,40.60837],[-73.95533,40.60857],[-73.95443,40.60379]]]}},{"type":"Feature","properties":{"e":"45006"},"geometry":{"type":"Polygon","coordinates":[[[-73.95533,40.60857],[-73.95726,40.60837],[-73.95679,40.6059],[-73.95958,40.6056],[-73.96044,40.6102],[-73.95574,40.61071],[-73.95533,40.60857]]]}},{"type":"Feature","properties":{"e":"45007"},"geometry":{"type":"Polygon","coordinates":[[[-73.96816,40.61195],[-73.96952,40.61178],[-73.97138,40.6116],[-73.9709,40.60905],[-73.97299,40.60881],[-73.97399,40.61403],[-73.96866,40.61462],[-73.96816,40.61195]]]}},{"type":"Feature","properties":{"e":"45008"},"geometry":{"type":"Polygon","coordinates":[[[-73.96336,40.6152],[-73.96239,40.60999],[-73.9643,40.60978],[-73.96478,40.61233],[-73.96816,40.61195],[-73.96866,40.61462],[-73.96336,40.6152]]]}},{"type":"Feature","properties":{"e":"45009"},"geometry":{"type":"Polygon","coordinates":[[[-73.96727,40.60726],[-73.97049,40.6069],[-73.97138,40.6116],[-73.96952,40.61178],[-73.96816,40.61195],[-73.96727,40.60726]]]}},{"type":"Feature","properties":{"e":"45010"},"geometry":{"type":"Polygon","coordinates":[[[-73.96389,40.60763],[-73.96727,40.60726],[-73.96816,40.61195],[-73.96478,40.61233],[-73.96389,40.60763]]]}},{"type":"Feature","properties":{"e":"45011"},"geometry":{"type":"Polygon","coordinates":[[[-73.96727,40.60726],[-73.9668,40.6048],[-73.96877,40.60456],[-73.96909,40.60455],[-73.97218,40.60419],[-73.9724,40.60565],[-73.97299,40.60881],[-73.9709,40.60905],[-73.97049,40.6069],[-73.96727,40.60726]]]}},{"type":"Feature","properties":{"e":"45012"},"geometry":{"type":"Polygon","coordinates":[[[-73.97093,40.60424],[-73.97079,40.60352],[-73.97235,40.60335],[-73.97257,40.60179],[-73.97341,40.6017],[-73.97305,40.60428],[-73.9732,40.6043],[-73.97362,40.60656],[-73.97259,40.60667],[-73.9724,40.60565],[-73.97218,40.60419],[-73.97099,40.60432],[-73.97093,40.60424]]]}},{"type":"Feature","properties":{"e":"45013"},"geometry":{"type":"Polygon","coordinates":[[[-73.96506,40.59571],[-73.96464,40.59332],[-73.96496,40.59186],[-73.96665,40.59168],[-73.96778,40.59758],[-73.96549,40.59783],[-73.96506,40.59571]]]}},{"type":"Feature","properties":{"e":"45014"},"geometry":{"type":"Polygon","coordinates":[[[-73.96173,40.60536],[-73.9668,40.6048],[-73.96727,40.60726],[-73.96389,40.60763],[-73.9643,40.60978],[-73.96239,40.60999],[-73.96189,40.60734],[-73.96173,40.60536]]]}},{"type":"Feature","properties":{"e":"45015"},"geometry":{"type":"Polygon","coordinates":[[[-73.9659,40.60008],[-73.96549,40.59783],[-73.97148,40.59717],[-73.97163,40.59794],[-73.97312,40.59779],[-73.97245,40.60262],[-73.97066,40.60281],[-73.97051,40.60202],[-73.97143,40.60192],[-73.97098,40.59953],[-73.9659,40.60008]]]}},{"type":"Feature","properties":{"e":"45016"},"geometry":{"type":"Polygon","coordinates":[[[-73.96391,40.60275],[-73.96637,40.60247],[-73.9659,40.60008],[-73.97098,40.59953],[-73.97143,40.60192],[-73.97051,40.60202],[-73.97066,40.60281],[-73.97245,40.60262],[-73.97235,40.60335],[-73.97079,40.60352],[-73.97093,40.60424],[-73.97099,40.60432],[-73.96434,40.60507],[-73.96391,40.60275]]]}},{"type":"Feature","properties":{"e":"45017"},"geometry":{"type":"Polygon","coordinates":[[[-73.95914,40.60327],[-73.96391,40.60275],[-73.96434,40.60507],[-73.95958,40.6056],[-73.95914,40.60327]]]}},{"type":"Feature","properties":{"e":"45018"},"geometry":{"type":"Polygon","coordinates":[[[-73.97148,40.59717],[-73.97408,40.59688],[-73.97341,40.6017],[-73.97257,40.60179],[-73.97312,40.59779],[-73.97163,40.59794],[-73.97148,40.59717]]]}},{"type":"Feature","properties":{"e":"45019"},"geometry":{"type":"Polygon","coordinates":[[[-73.95189,40.5904],[-73.95149,40.58828],[-73.95619,40.58776],[-73.95639,40.58893],[-73.95666,40.5901],[-73.957,40.592],[-73.95608,40.5921],[-73.95567,40.58998],[-73.95189,40.5904]]]}},{"type":"Feature","properties":{"e":"45020"},"geometry":{"type":"Polygon","coordinates":[[[-73.94678,40.57502],[-73.94807,40.58179],[-73.94911,40.58198],[-73.94913,40.58217],[-73.94933,40.58221],[-73.94937,40.58226],[-73.94274,40.581],[-73.93381,40.58113],[-73.93381,40.58121],[-73.93513,40.58118],[-73.93514,40.5813],[-73.93511,40.5813],[-73.9351,40.58121],[-73.93376,40.58123],[-73.93376,40.58119],[-73.9334,40.58122],[-73.9334,40.58116],[-73.93376,40.58118],[-73.93376,40.58113],[-73.933,40.58114],[-73.933,40.58128],[-73.93297,40.58128],[-73.93296,40.58115],[-73.93291,40.58115],[-73.93291,40.58128],[-73.93287,40.58129],[-73.93287,40.58115],[-73.93281,40.58115],[-73.9327,40.58127],[-73.93258,40.58126],[-73.9325,40.58115],[-73.93202,40.57954],[-73.93182,40.57896],[-73.93183,40.57868],[-73.93169,40.57818],[-73.93164,40.57817],[-73.93106,40.57627],[-73.93106,40.57616],[-73.9315,40.57566],[-73.93334,40.57557],[-73.93486,40.57553],[-73.9349,40.57549],[-73.93489,40.57522],[-73.935,40.57523],[-73.935,40.57544],[-73.93508,40.57551],[-73.93576,40.57573],[-73.93623,40.57584],[-73.93647,40.57586],[-73.9366,40.57577],[-73.93667,40.57543],[-73.93671,40.57542],[-73.93676,40.57543],[-73.9368,40.57554],[-73.93683,40.57556],[-73.94251,40.57537],[-73.94254,40.57544],[-73.94248,40.57549],[-73.94256,40.57556],[-73.94347,40.57575],[-73.94416,40.57581],[-73.94451,40.57577],[-73.94463,40.57569],[-73.94455,40.57529],[-73.94459,40.57524],[-73.94464,40.57526],[-73.94468,40.57545],[-73.94474,40.57551],[-73.94527,40.57557],[-73.94563,40.57557],[-73.94598,40.5755],[-73.94616,40.57535],[-73.94621,40.5752],[-73.94595,40.57521],[-73.94592,40.5752],[-73.94592,40.57512],[-73.94678,40.57502]]]}},{"type":"Feature","properties":{"e":"45021"},"geometry":{"type":"Polygon","coordinates":[[[-73.9759,40.59339],[-73.9769,40.59328],[-73.97664,40.59199],[-73.97722,40.59192],[-73.97818,40.59246],[-73.98071,40.594],[-73.97611,40.5945],[-73.9759,40.59339]]]}},{"type":"Feature","properties":{"e":"45022"},"geometry":{"type":"Polygon","coordinates":[[[-73.97063,40.59266],[-73.97569,40.5921],[-73.9755,40.59343],[-73.9759,40.59339],[-73.97651,40.59662],[-73.97148,40.59717],[-73.97063,40.59266]]]}},{"type":"Feature","properties":{"e":"45023"},"geometry":{"type":"Polygon","coordinates":[[[-73.9838,40.58904],[-73.9842,40.59117],[-73.98132,40.59148],[-73.98179,40.59387],[-73.98111,40.59395],[-73.98069,40.59197],[-73.98029,40.59202],[-73.98018,40.59142],[-73.97916,40.59155],[-73.97876,40.5896],[-73.9838,40.58904]]]}},{"type":"Feature","properties":{"e":"45024"},"geometry":{"type":"Polygon","coordinates":[[[-73.97722,40.59192],[-73.97389,40.5923],[-73.97424,40.58958],[-73.97449,40.58524],[-73.97459,40.58314],[-73.97456,40.58278],[-73.97572,40.58264],[-73.97703,40.58256],[-73.97825,40.58261],[-73.97899,40.58267],[-73.98065,40.5829],[-73.98046,40.58338],[-73.97992,40.58412],[-73.9796,40.58514],[-73.98117,40.58501],[-73.983,40.58481],[-73.9838,40.58904],[-73.97876,40.5896],[-73.97916,40.59155],[-73.98018,40.59142],[-73.98029,40.59202],[-73.98069,40.59197],[-73.98111,40.59395],[-73.98071,40.594],[-73.97818,40.59246],[-73.97722,40.59192]]]}},{"type":"Feature","properties":{"e":"45025"},"geometry":{"type":"Polygon","coordinates":[[[-73.96136,40.60059],[-73.9659,40.60008],[-73.96637,40.60247],[-73.96155,40.60301],[-73.96136,40.60059]]]}},{"type":"Feature","properties":{"e":"45026"},"geometry":{"type":"Polygon","coordinates":[[[-73.95683,40.60109],[-73.96136,40.60059],[-73.96155,40.60301],[-73.95728,40.60347],[-73.95683,40.60109]]]}},{"type":"Feature","properties":{"e":"45027"},"geometry":{"type":"Polygon","coordinates":[[[-73.95443,40.60379],[-73.95355,40.59915],[-73.9564,40.59883],[-73.95728,40.60347],[-73.95443,40.60379]]]}},{"type":"Feature","properties":{"e":"45028"},"geometry":{"type":"Polygon","coordinates":[[[-73.94937,40.58226],[-73.94933,40.58221],[-73.94913,40.58217],[-73.94911,40.58198],[-73.94807,40.58179],[-73.94678,40.57502],[-73.94896,40.57478],[-73.94992,40.57455],[-73.95019,40.57456],[-73.95133,40.57442],[-73.95211,40.57438],[-73.9524,40.57425],[-73.95243,40.57456],[-73.95334,40.57927],[-73.95237,40.57937],[-73.95283,40.58183],[-73.95099,40.58199],[-73.95102,40.5822],[-73.9497,40.58232],[-73.94937,40.58226]]]}},{"type":"Feature","properties":{"e":"45029"},"geometry":{"type":"Polygon","coordinates":[[[-73.96136,40.60059],[-73.96103,40.59616],[-73.96506,40.59571],[-73.9659,40.60008],[-73.96136,40.60059]]]}},{"type":"Feature","properties":{"e":"45030"},"geometry":{"type":"Polygon","coordinates":[[[-73.95656,40.59465],[-73.95837,40.59423],[-73.95883,40.59405],[-73.9594,40.5939],[-73.96085,40.59374],[-73.961,40.59538],[-73.96103,40.59616],[-73.96118,40.59831],[-73.95733,40.59873],[-73.95656,40.59465]]]}},{"type":"Feature","properties":{"e":"45031"},"geometry":{"type":"Polygon","coordinates":[[[-73.9527,40.59464],[-73.95462,40.59442],[-73.95474,40.59503],[-73.95656,40.59465],[-73.95733,40.59873],[-73.95355,40.59915],[-73.9527,40.59464]]]}},{"type":"Feature","properties":{"e":"45032"},"geometry":{"type":"Polygon","coordinates":[[[-73.96692,40.59307],[-73.97063,40.59266],[-73.97148,40.59717],[-73.96778,40.59758],[-73.96692,40.59307]]]}},{"type":"Feature","properties":{"e":"45033"},"geometry":{"type":"Polygon","coordinates":[[[-73.961,40.59538],[-73.96074,40.59233],[-73.96496,40.59186],[-73.96464,40.59332],[-73.96506,40.59571],[-73.96103,40.59616],[-73.961,40.59538]]]}},{"type":"Feature","properties":{"e":"45034"},"geometry":{"type":"Polygon","coordinates":[[[-73.96496,40.59186],[-73.96514,40.5911],[-73.97419,40.59011],[-73.97389,40.5923],[-73.96692,40.59307],[-73.96665,40.59168],[-73.96496,40.59186]]]}},{"type":"Feature","properties":{"e":"45035"},"geometry":{"type":"Polygon","coordinates":[[[-73.95435,40.5792],[-73.95504,40.57918],[-73.95607,40.57774],[-73.95781,40.57827],[-73.95559,40.5814],[-73.95541,40.58153],[-73.95506,40.58161],[-73.95505,40.58183],[-73.95494,40.58197],[-73.95472,40.58184],[-73.95445,40.58175],[-73.95417,40.58171],[-73.95381,40.58175],[-73.95334,40.57927],[-73.95435,40.5792]]]}},{"type":"Feature","properties":{"e":"45036"},"geometry":{"type":"Polygon","coordinates":[[[-73.957,40.592],[-73.959,40.59178],[-73.95886,40.59106],[-73.95782,40.59117],[-73.95753,40.58978],[-73.96052,40.58945],[-73.96057,40.59018],[-73.96258,40.58996],[-73.96284,40.59136],[-73.96514,40.5911],[-73.96496,40.59186],[-73.96074,40.59233],[-73.96085,40.59374],[-73.9594,40.5939],[-73.95883,40.59405],[-73.95837,40.59423],[-73.95746,40.59444],[-73.957,40.592]]]}},{"type":"Feature","properties":{"e":"45037"},"geometry":{"type":"Polygon","coordinates":[[[-73.9527,40.59464],[-73.95189,40.5904],[-73.95567,40.58998],[-73.95608,40.5921],[-73.957,40.592],[-73.95746,40.59444],[-73.95565,40.59485],[-73.95474,40.59503],[-73.95462,40.59442],[-73.9527,40.59464]]]}},{"type":"Feature","properties":{"e":"45038"},"geometry":{"type":"Polygon","coordinates":[[[-73.9564,40.59883],[-73.96118,40.59831],[-73.96136,40.60059],[-73.95683,40.60109],[-73.9564,40.59883]]]}},{"type":"Feature","properties":{"e":"45039"},"geometry":{"type":"Polygon","coordinates":[[[-73.98065,40.5829],[-73.98271,40.58324],[-73.98281,40.58379],[-73.98388,40.58398],[-73.98423,40.58607],[-73.98327,40.58619],[-73.983,40.58481],[-73.98117,40.58501],[-73.9796,40.58514],[-73.97992,40.58412],[-73.98046,40.58338],[-73.98065,40.5829]]]}},{"type":"Feature","properties":{"e":"45040"},"geometry":{"type":"Polygon","coordinates":[[[-73.96942,40.58631],[-73.97446,40.58576],[-73.97419,40.59011],[-73.97022,40.59054],[-73.96942,40.58631]]]}},{"type":"Feature","properties":{"e":"45041"},"geometry":{"type":"Polygon","coordinates":[[[-73.96633,40.5859],[-73.96928,40.58557],[-73.97022,40.59054],[-73.96514,40.5911],[-73.96633,40.5859]]]}},{"type":"Feature","properties":{"e":"45042"},"geometry":{"type":"Polygon","coordinates":[[[-73.96633,40.5859],[-73.96678,40.58391],[-73.96911,40.58373],[-73.97072,40.5835],[-73.97221,40.58322],[-73.97225,40.58329],[-73.97305,40.58313],[-73.97308,40.58305],[-73.97456,40.58278],[-73.97459,40.58314],[-73.97446,40.58576],[-73.96942,40.58631],[-73.96928,40.58557],[-73.96633,40.5859]]]}},{"type":"Feature","properties":{"e":"45043"},"geometry":{"type":"Polygon","coordinates":[[[-73.96244,40.58924],[-73.96162,40.58488],[-73.96026,40.58503],[-73.96022,40.58451],[-73.96243,40.58415],[-73.96504,40.58386],[-73.9652,40.5838],[-73.96528,40.58369],[-73.96539,40.58313],[-73.96692,40.58335],[-73.96662,40.58457],[-73.96514,40.5911],[-73.96284,40.59136],[-73.96258,40.58996],[-73.96057,40.59018],[-73.96052,40.58945],[-73.96244,40.58924]]]}},{"type":"Feature","properties":{"e":"45044"},"geometry":{"type":"Polygon","coordinates":[[[-73.95619,40.58776],[-73.9582,40.58754],[-73.95805,40.58675],[-73.95929,40.58662],[-73.95935,40.58742],[-73.96035,40.58731],[-73.96046,40.58872],[-73.96231,40.58852],[-73.96244,40.58924],[-73.95753,40.58978],[-73.95782,40.59117],[-73.95886,40.59106],[-73.959,40.59178],[-73.957,40.592],[-73.95666,40.5901],[-73.95639,40.58893],[-73.95619,40.58776]]]}},{"type":"Feature","properties":{"e":"45045"},"geometry":{"type":"Polygon","coordinates":[[[-73.95619,40.58776],[-73.95571,40.58511],[-73.95775,40.58502],[-73.95898,40.58488],[-73.96023,40.58468],[-73.96026,40.58503],[-73.96162,40.58488],[-73.96231,40.58852],[-73.96046,40.58872],[-73.96035,40.58731],[-73.95935,40.58742],[-73.95929,40.58662],[-73.95805,40.58675],[-73.9582,40.58754],[-73.95619,40.58776]]]}},{"type":"Feature","properties":{"e":"45046"},"geometry":{"type":"Polygon","coordinates":[[[-73.95517,40.58292],[-73.95722,40.58253],[-73.96103,40.58173],[-73.96143,40.5839],[-73.96207,40.5842],[-73.96022,40.58451],[-73.96023,40.58468],[-73.95898,40.58488],[-73.95775,40.58502],[-73.95571,40.58511],[-73.95557,40.5844],[-73.95517,40.58292]]]}},{"type":"Feature","properties":{"e":"45047"},"geometry":{"type":"Polygon","coordinates":[[[-73.94387,40.5853],[-73.94381,40.58499],[-73.94642,40.58474],[-73.94959,40.58456],[-73.95058,40.58459],[-73.95154,40.58468],[-73.9537,40.585],[-73.95473,40.58509],[-73.95571,40.58511],[-73.95619,40.58776],[-73.94935,40.58851],[-73.94892,40.58626],[-73.94696,40.58648],[-73.94669,40.58507],[-73.94493,40.58517],[-73.94387,40.5853]]]}},{"type":"Feature","properties":{"e":"45048"},"geometry":{"type":"Polygon","coordinates":[[[-73.94381,40.58499],[-73.94355,40.58365],[-73.94258,40.5837],[-73.94255,40.58351],[-73.94202,40.58311],[-73.94215,40.58311],[-73.9427,40.58351],[-73.94305,40.58349],[-73.94256,40.58313],[-73.94269,40.58312],[-73.9432,40.58349],[-73.94354,40.58347],[-73.94309,40.58313],[-73.94323,40.58313],[-73.94369,40.58347],[-73.94407,40.58347],[-73.94364,40.58315],[-73.94377,40.58314],[-73.94423,40.58348],[-73.94462,40.5835],[-73.94417,40.58316],[-73.94432,40.58316],[-73.94478,40.58351],[-73.94517,40.58352],[-73.94471,40.58317],[-73.94485,40.58316],[-73.94535,40.58353],[-73.94573,40.58354],[-73.94527,40.58318],[-73.94538,40.58318],[-73.9459,40.58355],[-73.94629,40.58357],[-73.9458,40.58319],[-73.94592,40.58319],[-73.94643,40.58356],[-73.94679,40.58355],[-73.94632,40.58321],[-73.94646,40.58321],[-73.94692,40.58355],[-73.94727,40.58353],[-73.94682,40.58319],[-73.94701,40.58319],[-73.94747,40.58353],[-73.94837,40.58349],[-73.95349,40.58299],[-73.9533,40.582],[-73.95102,40.5822],[-73.95099,40.58199],[-73.95283,40.58183],[-73.95237,40.57937],[-73.95334,40.57927],[-73.95381,40.58175],[-73.95417,40.58171],[-73.95459,40.58179],[-73.95592,40.58245],[-73.95602,40.58256],[-73.95604,40.58274],[-73.95517,40.58292],[-73.95557,40.5844],[-73.95571,40.58511],[-73.95473,40.58509],[-73.9537,40.585],[-73.95154,40.58468],[-73.95008,40.58457],[-73.9491,40.58457],[-73.94756,40.58466],[-73.94381,40.58499]]]}},{"type":"Feature","properties":{"e":"45049"},"geometry":{"type":"Polygon","coordinates":[[[-73.95781,40.57827],[-73.95676,40.57796],[-73.95663,40.57564],[-73.95672,40.57547],[-73.95943,40.57536],[-73.95942,40.57518],[-73.96103,40.57508],[-73.96114,40.5758],[-73.95947,40.57587],[-73.95963,40.57799],[-73.9582,40.57828],[-73.95781,40.57827]]]}},{"type":"Feature","properties":{"e":"45050"},"geometry":{"type":"Polygon","coordinates":[[[-73.95494,40.58197],[-73.95505,40.58183],[-73.95506,40.58161],[-73.95541,40.58153],[-73.95559,40.5814],[-73.95781,40.57827],[-73.9582,40.57828],[-73.95963,40.57799],[-73.95994,40.58196],[-73.95722,40.58253],[-73.95604,40.58274],[-73.95602,40.58256],[-73.95592,40.58245],[-73.95494,40.58197]]]}},{"type":"Feature","properties":{"e":"45051"},"geometry":{"type":"Polygon","coordinates":[[[-73.95676,40.57796],[-73.95483,40.57737],[-73.95442,40.57735],[-73.95432,40.57741],[-73.95411,40.57743],[-73.95403,40.5774],[-73.95397,40.57732],[-73.95384,40.57678],[-73.95287,40.57688],[-73.95243,40.57456],[-73.9524,40.57425],[-73.95258,40.5742],[-73.95278,40.5742],[-73.95312,40.57428],[-73.95374,40.5743],[-73.95393,40.57424],[-73.95399,40.57427],[-73.95403,40.57409],[-73.95408,40.57407],[-73.95411,40.5741],[-73.9541,40.57429],[-73.95413,40.57433],[-73.9544,40.57437],[-73.95514,40.57437],[-73.95569,40.57433],[-73.95621,40.57427],[-73.95635,40.57421],[-73.95637,40.57417],[-73.9563,40.57384],[-73.95635,40.5738],[-73.95639,40.57382],[-73.95647,40.57414],[-73.95657,40.57417],[-73.9572,40.57419],[-73.95843,40.57409],[-73.95888,40.57399],[-73.95897,40.57395],[-73.95894,40.57347],[-73.95899,40.57343],[-73.95903,40.57345],[-73.95907,40.57385],[-73.95939,40.57391],[-73.95943,40.57536],[-73.95672,40.57547],[-73.95663,40.57564],[-73.95676,40.57796]]]}},{"type":"Feature","properties":{"e":"45052"},"geometry":{"type":"Polygon","coordinates":[[[-73.95287,40.57688],[-73.95384,40.57678],[-73.95397,40.57732],[-73.95403,40.5774],[-73.95411,40.57743],[-73.95432,40.57741],[-73.95442,40.57735],[-73.95483,40.57737],[-73.95607,40.57774],[-73.95504,40.57918],[-73.95435,40.5792],[-73.95334,40.57927],[-73.95287,40.57688]]]}},{"type":"Feature","properties":{"e":"45053"},"geometry":{"type":"Polygon","coordinates":[[[-73.9771,40.59439],[-73.98179,40.59387],[-73.98221,40.59599],[-73.97751,40.59651],[-73.9771,40.59439]]]}},{"type":"Feature","properties":{"e":"45054"},"geometry":{"type":"Polygon","coordinates":[[[-73.97611,40.5945],[-73.9771,40.59439],[-73.97751,40.59651],[-73.97651,40.59662],[-73.97611,40.5945]]]}}]}