{"type":"FeatureCollection","ad":46,"features":[{"type":"Feature","properties":{"e":"46001"},"geometry":{"type":"Polygon","coordinates":[[[-74.02751,40.63215],[-74.02868,40.62929],[-74.03136,40.62993],[-74.03019,40.63279],[-74.02751,40.63215]]]}},{"type":"Feature","properties":{"e":"46002"},"geometry":{"type":"Polygon","coordinates":[[[-74.02479,40.63151],[-74.02626,40.62792],[-74.02898,40.62856],[-74.02751,40.63215],[-74.02479,40.63151]]]}},{"type":"Feature","properties":{"e":"46003"},"geometry":{"type":"Polygon","coordinates":[[[-74.0223,40.63032],[-74.02385,40.62651],[-74.02613,40.62789],[-74.02626,40.62792],[-74.02479,40.63151],[-74.0223,40.63032]]]}},{"type":"Feature","properties":{"e":"46004"},"geometry":{"type":"Polygon","coordinates":[[[-74.01983,40.62917],[-74.02028,40.62806],[-74.01864,40.62707],[-74.01926,40.62558],[-74.01963,40.62488],[-74.02356,40.62724],[-74.0223,40.63032],[-74.01983,40.62917]]]}},{"type":"Feature","properties":{"e":"46005"},"geometry":{"type":"Polygon","coordinates":[[[-74.01963,40.62488],[-74.02007,40.62425],[-74.01994,40.62427],[-74.01958,40.62427],[-74.0198,40.62396],[-74.02022,40.6234],[-74.0212,40.62224],[-74.02161,40.62218],[-74.02144,40.62241],[-74.02165,40.62245],[-74.02475,40.62432],[-74.02356,40.62724],[-74.01963,40.62488]]]}},{"type":"Feature","properties":{"e":"46006"},"geometry":{"type":"Polygon","coordinates":[[[-74.03196,40.62847],[-74.0346,40.622],[-74.03728,40.62264],[-74.03464,40.62911],[-74.03196,40.62847]]]}},{"type":"Feature","properties":{"e":"46007"},"geometry":{"type":"Polygon","coordinates":[[[-74.02868,40.62929],[-74.02898,40.62856],[-74.02626,40.62792],[-74.02656,40.62719],[-74.02927,40.62783],[-74.03106,40.62346],[-74.03374,40.6241],[-74.03136,40.62993],[-74.02868,40.62929]]]}},{"type":"Feature","properties":{"e":"46008"},"geometry":{"type":"Polygon","coordinates":[[[-74.02656,40.62719],[-74.02799,40.62368],[-74.03071,40.62433],[-74.02927,40.62783],[-74.02656,40.62719]]]}},{"type":"Feature","properties":{"e":"46009"},"geometry":{"type":"Polygon","coordinates":[[[-74.02385,40.62651],[-74.02566,40.62214],[-74.02804,40.62357],[-74.02626,40.62792],[-74.02613,40.62789],[-74.02385,40.62651]]]}},{"type":"Feature","properties":{"e":"46010"},"geometry":{"type":"Polygon","coordinates":[[[-74.02799,40.62368],[-74.02864,40.62209],[-74.03136,40.62273],[-74.0322,40.62069],[-74.03489,40.62132],[-74.03374,40.6241],[-74.03106,40.62346],[-74.03071,40.62433],[-74.02799,40.62368]]]}},{"type":"Feature","properties":{"e":"46011"},"geometry":{"type":"Polygon","coordinates":[[[-74.02566,40.62214],[-74.0287,40.61859],[-74.03233,40.62036],[-74.03136,40.62273],[-74.02864,40.62209],[-74.02804,40.62357],[-74.02566,40.62214]]]}},{"type":"Feature","properties":{"e":"46012"},"geometry":{"type":"Polygon","coordinates":[[[-74.0346,40.622],[-74.03544,40.61996],[-74.03809,40.62058],[-74.0377,40.61996],[-74.03997,40.61915],[-74.04028,40.61966],[-74.04045,40.62007],[-74.04051,40.62041],[-74.04048,40.62079],[-74.04018,40.62163],[-74.03985,40.62162],[-74.03953,40.62167],[-74.03784,40.62127],[-74.03728,40.62264],[-74.0346,40.622]]]}},{"type":"Feature","properties":{"e":"46013"},"geometry":{"type":"Polygon","coordinates":[[[-74.03544,40.61996],[-74.03599,40.6186],[-74.03618,40.61811],[-74.03622,40.61791],[-74.03649,40.61799],[-74.03877,40.61718],[-74.03997,40.61915],[-74.0377,40.61996],[-74.03809,40.62058],[-74.03544,40.61996]]]}},{"type":"Feature","properties":{"e":"46014"},"geometry":{"type":"Polygon","coordinates":[[[-74.03275,40.61932],[-74.03387,40.61659],[-74.03592,40.61705],[-74.03568,40.61667],[-74.03798,40.61586],[-74.03877,40.61718],[-74.03649,40.61799],[-74.03622,40.61791],[-74.03618,40.61811],[-74.03599,40.6186],[-74.03544,40.61996],[-74.03275,40.61932]]]}},{"type":"Feature","properties":{"e":"46015"},"geometry":{"type":"Polygon","coordinates":[[[-74.0322,40.62069],[-74.03233,40.62036],[-74.0287,40.61859],[-74.02821,40.61917],[-74.02636,40.61825],[-74.02749,40.61698],[-74.03017,40.61834],[-74.03048,40.61758],[-74.03296,40.61882],[-74.03275,40.61932],[-74.03544,40.61996],[-74.03489,40.62132],[-74.0322,40.62069]]]}},{"type":"Feature","properties":{"e":"46016"},"geometry":{"type":"Polygon","coordinates":[[[-74.02749,40.61698],[-74.02777,40.61672],[-74.0287,40.61563],[-74.03048,40.61652],[-74.03086,40.61604],[-74.03151,40.61533],[-74.0339,40.61651],[-74.03296,40.61882],[-74.03048,40.61758],[-74.03017,40.61834],[-74.02749,40.61698]]]}},{"type":"Feature","properties":{"e":"46017"},"geometry":{"type":"Polygon","coordinates":[[[-74.02161,40.62218],[-74.0211,40.62226],[-74.02327,40.61972],[-74.02621,40.62149],[-74.02566,40.62214],[-74.02475,40.62432],[-74.02165,40.62245],[-74.02144,40.62241],[-74.02161,40.62218]]]}},{"type":"Feature","properties":{"e":"46018"},"geometry":{"type":"Polygon","coordinates":[[[-74.02621,40.62149],[-74.02319,40.61968],[-74.02498,40.61759],[-74.02609,40.61623],[-74.02749,40.61698],[-74.02636,40.61825],[-74.02821,40.61917],[-74.02621,40.62149]]]}},{"type":"Feature","properties":{"e":"46019"},"geometry":{"type":"Polygon","coordinates":[[[-74.03387,40.61659],[-74.03458,40.61486],[-74.03609,40.61256],[-74.03665,40.61316],[-74.03698,40.61366],[-74.03744,40.61461],[-74.03798,40.61586],[-74.03568,40.61667],[-74.03592,40.61705],[-74.03387,40.61659]]]}},{"type":"Feature","properties":{"e":"46020"},"geometry":{"type":"Polygon","coordinates":[[[-74.03151,40.61533],[-74.03433,40.61204],[-74.03487,40.61137],[-74.03609,40.61256],[-74.03458,40.61486],[-74.0339,40.61651],[-74.03151,40.61533]]]}},{"type":"Feature","properties":{"e":"46021"},"geometry":{"type":"Polygon","coordinates":[[[-74.01702,40.60765],[-74.0155,40.60684],[-74.01747,40.60497],[-74.01751,40.60485],[-74.01812,40.60432],[-74.01821,40.60418],[-74.01823,40.60404],[-74.01812,40.60385],[-74.01762,40.60361],[-74.01537,40.603],[-74.01452,40.60281],[-74.01446,40.60238],[-74.01473,40.60207],[-74.01579,40.60229],[-74.01699,40.60245],[-74.01759,40.6025],[-74.01799,40.60249],[-74.01829,40.60245],[-74.01832,40.60242],[-74.01914,40.60261],[-74.01913,40.60265],[-74.01933,40.60281],[-74.01975,40.60308],[-74.02039,40.60338],[-74.02102,40.60356],[-74.02931,40.6046],[-74.03005,40.60476],[-74.03102,40.60525],[-74.0318,40.60578],[-74.03213,40.6059],[-74.03271,40.60633],[-74.03359,40.60708],[-74.03427,40.60772],[-74.03443,40.60793],[-74.03465,40.60833],[-74.03487,40.60858],[-74.0353,40.60889],[-74.03568,40.60903],[-74.03604,40.6093],[-74.03161,40.6107],[-74.03097,40.61094],[-74.03037,40.61123],[-74.02985,40.61155],[-74.02934,40.61198],[-74.0282,40.61333],[-74.02741,40.61414],[-74.02792,40.61314],[-74.02653,40.61243],[-74.02638,40.61245],[-74.02711,40.61024],[-74.02478,40.6097],[-74.0243,40.60946],[-74.021,40.60752],[-74.02045,40.60727],[-74.01986,40.60709],[-74.01937,40.60699],[-74.01844,40.60688],[-74.01822,40.60689],[-74.01793,40.60695],[-74.01767,40.60708],[-74.0173,40.60738],[-74.01702,40.60765]]]}},{"type":"Feature","properties":{"e":"46022"},"geometry":{"type":"Polygon","coordinates":[[[-74.02319,40.61968],[-74.01171,40.61274],[-74.01715,40.60751],[-74.01767,40.60708],[-74.0178,40.60701],[-74.01822,40.60689],[-74.01844,40.60688],[-74.01964,40.60703],[-74.02016,40.60717],[-74.021,40.60752],[-74.0243,40.60946],[-74.02478,40.6097],[-74.02711,40.61024],[-74.02638,40.61245],[-74.02653,40.61243],[-74.02792,40.61314],[-74.02741,40.61414],[-74.0282,40.61333],[-74.02892,40.61248],[-74.02875,40.61287],[-74.02818,40.6136],[-74.02685,40.61517],[-74.02665,40.61546],[-74.02662,40.61564],[-74.02609,40.61623],[-74.02498,40.61759],[-74.02319,40.61968]]]}},{"type":"Feature","properties":{"e":"46023"},"geometry":{"type":"Polygon","coordinates":[[[-74.01757,40.6209],[-74.01316,40.61824],[-74.01375,40.61768],[-74.01595,40.619],[-74.01833,40.61673],[-74.02327,40.61972],[-74.0211,40.62226],[-74.02009,40.62242],[-74.02036,40.62212],[-74.02042,40.62216],[-74.02061,40.62193],[-74.02062,40.62181],[-74.01815,40.62034],[-74.01757,40.6209]]]}},{"type":"Feature","properties":{"e":"46024"},"geometry":{"type":"Polygon","coordinates":[[[-74.01595,40.619],[-74.00934,40.61502],[-74.01171,40.61274],[-74.01833,40.61673],[-74.01595,40.619]]]}},{"type":"Feature","properties":{"e":"46025"},"geometry":{"type":"Polygon","coordinates":[[[-74.01246,40.62236],[-74.01026,40.62103],[-74.01316,40.61824],[-74.01757,40.6209],[-74.01583,40.62257],[-74.01362,40.62124],[-74.01246,40.62236]]]}},{"type":"Feature","properties":{"e":"46026"},"geometry":{"type":"Polygon","coordinates":[[[-74.01246,40.62236],[-74.01362,40.62124],[-74.01583,40.62257],[-74.01815,40.62034],[-74.02062,40.62181],[-74.02061,40.62193],[-74.02042,40.62216],[-74.02036,40.62212],[-74.02009,40.62242],[-74.0212,40.62224],[-74.02022,40.6234],[-74.01958,40.62427],[-74.01886,40.62427],[-74.01861,40.62437],[-74.01726,40.62527],[-74.01246,40.62236]]]}},{"type":"Feature","properties":{"e":"46027"},"geometry":{"type":"Polygon","coordinates":[[[-74.02609,40.61623],[-74.02662,40.61564],[-74.02665,40.61546],[-74.02699,40.61498],[-74.02809,40.61372],[-74.02875,40.61287],[-74.02825,40.61382],[-74.02897,40.61352],[-74.02917,40.61367],[-74.02934,40.61374],[-74.02957,40.61379],[-74.02988,40.61377],[-74.03016,40.61393],[-74.03256,40.61116],[-74.03192,40.61083],[-74.03283,40.61043],[-74.03306,40.61036],[-74.03315,40.61023],[-74.03509,40.6096],[-74.035,40.60998],[-74.03508,40.6103],[-74.03509,40.61062],[-74.03501,40.611],[-74.03487,40.61137],[-74.03433,40.61204],[-74.03151,40.61533],[-74.03086,40.61604],[-74.03048,40.61652],[-74.0287,40.61563],[-74.02777,40.61672],[-74.02749,40.61698],[-74.02609,40.61623]]]}},{"type":"Feature","properties":{"e":"46028"},"geometry":{"type":"Polygon","coordinates":[[[-74.0155,40.60684],[-74.0115,40.60476],[-74.01356,40.60258],[-74.01537,40.603],[-74.01762,40.60361],[-74.01812,40.60385],[-74.01821,40.60397],[-74.01821,40.60418],[-74.01812,40.60432],[-74.01751,40.60485],[-74.01747,40.60497],[-74.0155,40.60684]]]}},{"type":"Feature","properties":{"e":"46029"},"geometry":{"type":"Polygon","coordinates":[[[-74.01806,40.62862],[-74.01864,40.62707],[-74.02028,40.62806],[-74.01966,40.62958],[-74.01806,40.62862]]]}},{"type":"Feature","properties":{"e":"46030"},"geometry":{"type":"Polygon","coordinates":[[[-73.99531,40.59443],[-73.99618,40.59398],[-73.99728,40.59491],[-73.99832,40.59564],[-73.99854,40.59534],[-73.99928,40.59572],[-73.99998,40.596],[-73.99866,40.59727],[-73.99531,40.59443]]]}},{"type":"Feature","properties":{"e":"46031"},"geometry":{"type":"Polygon","coordinates":[[[-73.99484,40.59403],[-73.99402,40.59364],[-73.99427,40.59359],[-73.99364,40.593],[-73.99154,40.59039],[-73.99256,40.58992],[-73.99299,40.59063],[-73.99347,40.59127],[-73.994,40.59192],[-73.99459,40.59255],[-73.99525,40.59317],[-73.99618,40.59398],[-73.99531,40.59443],[-73.99484,40.59403]]]}},{"type":"Feature","properties":{"e":"46032"},"geometry":{"type":"Polygon","coordinates":[[[-73.98409,40.59057],[-73.9839,40.58957],[-73.98522,40.58832],[-73.98816,40.5901],[-73.98653,40.59167],[-73.98433,40.59034],[-73.98409,40.59057]]]}},{"type":"Feature","properties":{"e":"46033"},"geometry":{"type":"Polygon","coordinates":[[[-73.98742,40.58965],[-73.98888,40.58825],[-73.98953,40.5879],[-73.98999,40.58846],[-73.9898,40.58852],[-73.98816,40.5901],[-73.98742,40.58965]]]}},{"type":"Feature","properties":{"e":"46034"},"geometry":{"type":"Polygon","coordinates":[[[-73.9839,40.58957],[-73.98347,40.58726],[-73.9845,40.58789],[-73.98728,40.58523],[-73.98746,40.58512],[-73.98757,40.58533],[-73.98748,40.58534],[-73.98798,40.58598],[-73.98909,40.58546],[-73.98986,40.58594],[-73.98848,40.58659],[-73.98953,40.5879],[-73.98888,40.58825],[-73.98742,40.58965],[-73.98522,40.58832],[-73.9839,40.58957]]]}},{"type":"Feature","properties":{"e":"46035"},"geometry":{"type":"Polygon","coordinates":[[[-73.98999,40.58846],[-73.98848,40.58659],[-73.98986,40.58594],[-73.99051,40.58653],[-73.9911,40.58715],[-73.99148,40.58779],[-73.99018,40.5884],[-73.98999,40.58846]]]}},{"type":"Feature","properties":{"e":"46036"},"geometry":{"type":"Polygon","coordinates":[[[-73.98999,40.58846],[-73.99018,40.5884],[-73.99148,40.58779],[-73.99187,40.58848],[-73.99256,40.58992],[-73.99154,40.59039],[-73.98999,40.58846]]]}},{"type":"Feature","properties":{"e":"46038"},"geometry":{"type":"Polygon","coordinates":[[[-73.98347,40.58726],[-73.98327,40.58619],[-73.98423,40.58607],[-73.98388,40.58398],[-73.98281,40.58379],[-73.98271,40.58324],[-73.98017,40.58282],[-73.97899,40.58267],[-73.97825,40.58261],[-73.97662,40.58257],[-73.97572,40.58264],[-73.97456,40.58278],[-73.97454,40.5826],[-73.97497,40.58203],[-73.97593,40.58127],[-73.97625,40.58151],[-73.97618,40.58163],[-73.9761,40.58169],[-73.97602,40.58182],[-73.97584,40.58196],[-73.97572,40.58201],[-73.97556,40.58213],[-73.97537,40.58214],[-73.97528,40.58218],[-73.97506,40.58247],[-73.97481,40.58254],[-73.9748,40.58268],[-73.9754,40.58262],[-73.97576,40.58226],[-73.97583,40.58224],[-73.97587,40.58217],[-73.97596,40.58215],[-73.97731,40.58114],[-73.97779,40.58072],[-73.97812,40.58067],[-73.97865,40.58032],[-73.97881,40.58031],[-73.97906,40.58017],[-73.97915,40.58016],[-73.97925,40.58029],[-73.97954,40.5804],[-73.97958,40.58039],[-73.97959,40.58043],[-73.97984,40.58054],[-73.97988,40.58051],[-73.98011,40.58064],[-73.98039,40.58096],[-73.98038,40.58102],[-73.9807,40.58137],[-73.98089,40.5815],[-73.98111,40.5815],[-73.98138,40.58169],[-73.98143,40.58178],[-73.98143,40.58188],[-73.98147,40.582],[-73.9816,40.58214],[-73.98245,40.58259],[-73.98264,40.58286],[-73.98316,40.58316],[-73.9834,40.58321],[-73.98365,40.5832],[-73.98384,40.58333],[-73.9844,40.58292],[-73.98508,40.58227],[-73.98529,40.58217],[-73.98564,40.58189],[-73.9858,40.58185],[-73.98595,40.58177],[-73.98684,40.58123],[-73.98704,40.58104],[-73.98728,40.58072],[-73.98741,40.58049],[-73.98764,40.57992],[-73.98773,40.57982],[-73.98781,40.5798],[-73.988,40.57964],[-73.98809,40.57964],[-73.98826,40.57974],[-73.98858,40.57982],[-73.9889,40.58001],[-73.98914,40.58021],[-73.98954,40.58042],[-73.9897,40.58042],[-73.98995,40.58066],[-73.98972,40.58084],[-73.98929,40.58196],[-73.98875,40.58282],[-73.9883,40.58347],[-73.98833,40.58366],[-73.98838,40.58376],[-73.98853,40.58391],[-73.98882,40.58437],[-73.99088,40.58585],[-73.99133,40.58625],[-73.99173,40.5867],[-73.9922,40.58742],[-73.99154,40.58773],[-73.99148,40.58779],[-73.9911,40.58715],[-73.99051,40.58653],[-73.98986,40.58594],[-73.98909,40.58546],[-73.98798,40.58598],[-73.98748,40.58534],[-73.98757,40.58533],[-73.98746,40.58512],[-73.98728,40.58523],[-73.9845,40.58789],[-73.98347,40.58726]]]}},{"type":"Feature","properties":{"e":"46039"},"geometry":{"type":"Polygon","coordinates":[[[-74.0088,40.57628],[-74.00216,40.57701],[-74.00142,40.5731],[-74.00255,40.57333],[-74.00237,40.57232],[-74.00249,40.57174],[-74.0048,40.57288],[-74.00669,40.5734],[-74.0088,40.57376],[-74.01007,40.57383],[-74.01116,40.57417],[-74.01202,40.57489],[-74.01232,40.57565],[-74.01246,40.57661],[-74.0128,40.57749],[-74.01087,40.5776],[-74.01072,40.57705],[-74.01041,40.57654],[-74.00998,40.57609],[-74.00957,40.57618],[-74.0088,40.57628]]]}},{"type":"Feature","properties":{"e":"46040"},"geometry":{"type":"Polygon","coordinates":[[[-74.00398,40.58172],[-74.00401,40.58098],[-74.00322,40.57689],[-74.0088,40.57628],[-74.00957,40.57618],[-74.00998,40.57609],[-74.01041,40.57654],[-74.01072,40.57705],[-74.01087,40.5776],[-74.0128,40.57749],[-74.01301,40.57776],[-74.01303,40.57785],[-74.01282,40.57843],[-74.01235,40.57922],[-74.01214,40.57949],[-74.01176,40.57985],[-74.01148,40.58008],[-74.01101,40.58038],[-74.01054,40.58061],[-74.01006,40.58071],[-74.00959,40.58086],[-74.0092,40.58105],[-74.00843,40.58149],[-74.00796,40.58168],[-74.00745,40.5818],[-74.00605,40.58198],[-74.00484,40.58185],[-74.00398,40.58172]]]}},{"type":"Feature","properties":{"e":"46041"},"geometry":{"type":"Polygon","coordinates":[[[-74.00076,40.58132],[-74.00071,40.58106],[-74.00141,40.58111],[-74.00182,40.58106],[-74.00166,40.58016],[-74.00172,40.58007],[-74.00163,40.57953],[-74.00197,40.57948],[-74.00191,40.57911],[-74.00158,40.57731],[-74.00067,40.57717],[-74.00003,40.57725],[-73.99962,40.57498],[-74.00173,40.57475],[-74.00216,40.57701],[-74.00322,40.57689],[-74.00401,40.58098],[-74.00398,40.58172],[-74.00294,40.58143],[-74.00221,40.58137],[-74.00119,40.58142],[-74.00076,40.58132]]]}},{"type":"Feature","properties":{"e":"46042"},"geometry":{"type":"Polygon","coordinates":[[[-74.00071,40.58106],[-74.0002,40.58096],[-73.99989,40.58083],[-73.99854,40.57998],[-73.99837,40.57983],[-73.99825,40.57964],[-73.99816,40.57924],[-73.99825,40.57923],[-73.99996,40.58013],[-74.00053,40.58009],[-74.00003,40.57725],[-74.00067,40.57717],[-74.00158,40.57731],[-74.00197,40.57948],[-74.00163,40.57953],[-74.00172,40.58007],[-74.00166,40.58016],[-74.00182,40.58106],[-74.00141,40.58111],[-74.00071,40.58106]]]}},{"type":"Feature","properties":{"e":"46043"},"geometry":{"type":"Polygon","coordinates":[[[-73.99816,40.57924],[-73.99786,40.57762],[-73.99791,40.57747],[-73.9975,40.57522],[-73.99962,40.57498],[-74.00053,40.58009],[-73.99996,40.58013],[-73.99825,40.57923],[-73.99816,40.57924]]]}},{"type":"Feature","properties":{"e":"46044"},"geometry":{"type":"Polygon","coordinates":[[[-73.99809,40.57275],[-73.9978,40.57155],[-73.99685,40.57037],[-73.99732,40.57032],[-73.99736,40.57028],[-73.99737,40.57014],[-73.99742,40.57014],[-73.99745,40.57029],[-73.99767,40.57037],[-73.998,40.57045],[-73.99847,40.5705],[-73.99961,40.57047],[-73.99966,40.57038],[-73.99973,40.57041],[-73.99972,40.57047],[-73.99975,40.5705],[-74.00078,40.57049],[-74.00201,40.57021],[-74.00206,40.57015],[-74.00198,40.5696],[-74.00209,40.56959],[-74.00223,40.57061],[-74.00249,40.57174],[-74.00237,40.57232],[-74.00255,40.57333],[-74.00142,40.5731],[-74.00173,40.57475],[-73.99962,40.57498],[-73.99915,40.57281],[-73.99809,40.57275]]]}},{"type":"Feature","properties":{"e":"46045"},"geometry":{"type":"Polygon","coordinates":[[[-73.99704,40.57275],[-73.99809,40.57275],[-73.99915,40.57281],[-73.99962,40.57498],[-73.9975,40.57522],[-73.99704,40.57275]]]}},{"type":"Feature","properties":{"e":"46046"},"geometry":{"type":"Polygon","coordinates":[[[-73.99468,40.57036],[-73.99514,40.57031],[-73.99514,40.57007],[-73.99519,40.57002],[-73.99525,40.5701],[-73.99529,40.57032],[-73.99685,40.57037],[-73.9978,40.57155],[-73.99809,40.57275],[-73.99596,40.57279],[-73.9949,40.57287],[-73.99383,40.57301],[-73.99358,40.57162],[-73.99473,40.57152],[-73.99468,40.57036]]]}},{"type":"Feature","properties":{"e":"46047"},"geometry":{"type":"Polygon","coordinates":[[[-73.9907,40.57937],[-73.9905,40.57836],[-73.99476,40.57788],[-73.99432,40.57557],[-73.99538,40.57545],[-73.9949,40.57287],[-73.99596,40.57279],[-73.99704,40.57275],[-73.99791,40.57747],[-73.99786,40.57762],[-73.99825,40.57964],[-73.99837,40.57983],[-73.99854,40.57998],[-73.99989,40.58083],[-74.0002,40.58096],[-74.00071,40.58106],[-74.00076,40.58132],[-74.00056,40.5813],[-73.99964,40.58132],[-73.99896,40.58163],[-73.99818,40.58173],[-73.99776,40.58145],[-73.99772,40.58071],[-73.99183,40.57925],[-73.9914,40.57924],[-73.99107,40.57933],[-73.9907,40.57937]]]}},{"type":"Feature","properties":{"e":"46048"},"geometry":{"type":"Polygon","coordinates":[[[-73.99277,40.5732],[-73.99383,40.57301],[-73.9949,40.57287],[-73.99538,40.57545],[-73.99432,40.57557],[-73.99476,40.57788],[-73.99371,40.578],[-73.99277,40.5732]]]}},{"type":"Feature","properties":{"e":"46049"},"geometry":{"type":"Polygon","coordinates":[[[-73.97964,40.57554],[-73.97787,40.57543],[-73.97653,40.5753],[-73.97452,40.57499],[-73.9726,40.57463],[-73.97154,40.57454],[-73.97056,40.57459],[-73.96977,40.57476],[-73.96951,40.57484],[-73.96932,40.57494],[-73.96889,40.57526],[-73.96826,40.57505],[-73.96796,40.57501],[-73.96766,40.57504],[-73.96757,40.57488],[-73.96575,40.57479],[-73.96474,40.57481],[-73.96286,40.57498],[-73.95942,40.57518],[-73.95939,40.57391],[-73.95983,40.57393],[-73.96091,40.57386],[-73.96211,40.57371],[-73.96602,40.57339],[-73.9672,40.57333],[-73.96739,40.57326],[-73.96744,40.57321],[-73.96736,40.57304],[-73.96743,40.57299],[-73.96753,40.57319],[-73.96839,40.57315],[-73.96885,40.57306],[-73.96945,40.57286],[-73.96947,40.57282],[-73.96921,40.57234],[-73.96925,40.5723],[-73.96928,40.5723],[-73.96956,40.57281],[-73.96996,40.57286],[-73.97085,40.57277],[-73.97133,40.57264],[-73.97135,40.5726],[-73.97138,40.57251],[-73.97114,40.57205],[-73.97114,40.57196],[-73.97118,40.57194],[-73.97122,40.57196],[-73.97152,40.57258],[-73.97161,40.57263],[-73.9725,40.57258],[-73.97315,40.57241],[-73.97334,40.57232],[-73.97336,40.57226],[-73.97323,40.57191],[-73.97321,40.57167],[-73.97325,40.57163],[-73.97333,40.57168],[-73.97345,40.57227],[-73.97373,40.57229],[-73.97441,40.57224],[-73.97485,40.57216],[-73.97529,40.57205],[-73.97547,40.57197],[-73.97541,40.57142],[-73.97546,40.57142],[-73.97548,40.57146],[-73.97552,40.57169],[-73.97568,40.57196],[-73.97593,40.57202],[-73.97684,40.57195],[-73.97727,40.57186],[-73.97766,40.57173],[-73.97757,40.57125],[-73.9776,40.57119],[-73.97767,40.57117],[-73.97805,40.5712],[-73.97808,40.57123],[-73.97772,40.57125],[-73.9777,40.57133],[-73.97775,40.57168],[-73.97781,40.57176],[-73.978,40.57183],[-73.97845,40.57189],[-73.97885,40.57188],[-73.9791,40.57184],[-73.97946,40.57174],[-73.97985,40.57154],[-73.97986,40.57148],[-73.97981,40.5714],[-73.97972,40.57135],[-73.97943,40.57129],[-73.97939,40.57126],[-73.97943,40.57122],[-73.97977,40.57124],[-73.97998,40.57143],[-73.98001,40.57171],[-73.98021,40.57173],[-73.9805,40.57174],[-73.98094,40.57168],[-73.98182,40.57146],[-73.98204,40.57148],[-73.98199,40.57135],[-73.98192,40.57132],[-73.9816,40.57131],[-73.98154,40.57127],[-73.98157,40.57125],[-73.98195,40.57124],[-73.9821,40.57135],[-73.98218,40.57156],[-73.98226,40.57157],[-73.98283,40.57154],[-73.98367,40.57141],[-73.9834,40.57017],[-73.98306,40.57021],[-73.98304,40.57015],[-73.98339,40.57009],[-73.98327,40.56954],[-73.98336,40.56953],[-73.98349,40.57009],[-73.98382,40.57005],[-73.98384,40.57011],[-73.98349,40.57016],[-73.98376,40.5714],[-73.98645,40.57115],[-73.98647,40.57108],[-73.98651,40.57108],[-73.98655,40.57113],[-73.98804,40.57099],[-73.98862,40.5709],[-73.98858,40.5707],[-73.98863,40.5707],[-73.98866,40.57073],[-73.98872,40.57088],[-73.99026,40.57071],[-73.99077,40.5706],[-73.99072,40.57026],[-73.99079,40.57025],[-73.99086,40.5706],[-73.99119,40.57061],[-73.99273,40.57043],[-73.99297,40.57037],[-73.99295,40.57024],[-73.99298,40.5702],[-73.99301,40.57021],[-73.99305,40.57034],[-73.99316,40.57038],[-73.99402,40.57041],[-73.99468,40.57036],[-73.99473,40.57152],[-73.99358,40.57162],[-73.99383,40.57301],[-73.99277,40.5732],[-73.99174,40.57343],[-73.98661,40.57489],[-73.98572,40.57512],[-73.98452,40.5753],[-73.9824,40.57551],[-73.98122,40.57557],[-73.98064,40.57555],[-73.98056,40.5748],[-73.97964,40.57477],[-73.97964,40.57554]]]}},{"type":"Feature","properties":{"e":"46050"},"geometry":{"type":"Polygon","coordinates":[[[-73.99072,40.57371],[-73.99174,40.57343],[-73.99277,40.5732],[-73.99371,40.578],[-73.99156,40.57823],[-73.99072,40.57371]]]}},{"type":"Feature","properties":{"e":"46051"},"geometry":{"type":"Polygon","coordinates":[[[-73.98869,40.57429],[-73.99072,40.57371],[-73.99156,40.57823],[-73.9905,40.57836],[-73.99007,40.57604],[-73.98902,40.57616],[-73.98867,40.5744],[-73.98869,40.57429]]]}},{"type":"Feature","properties":{"e":"46052"},"geometry":{"type":"Polygon","coordinates":[[[-73.98843,40.57882],[-73.9884,40.57858],[-73.98734,40.5787],[-73.98661,40.57489],[-73.98869,40.57429],[-73.98867,40.5744],[-73.98902,40.57616],[-73.99007,40.57604],[-73.9907,40.57937],[-73.99036,40.57942],[-73.98958,40.57919],[-73.98945,40.57906],[-73.98899,40.57884],[-73.98843,40.57882]]]}},{"type":"Feature","properties":{"e":"46053"},"geometry":{"type":"Polygon","coordinates":[[[-73.98111,40.5815],[-73.9813,40.58106],[-73.98096,40.5807],[-73.98005,40.58013],[-73.97987,40.57997],[-73.97961,40.57944],[-73.97964,40.57477],[-73.98056,40.5748],[-73.98064,40.57555],[-73.98122,40.57557],[-73.9824,40.57551],[-73.98452,40.5753],[-73.98557,40.57515],[-73.98661,40.57489],[-73.98734,40.5787],[-73.9884,40.57858],[-73.98843,40.57882],[-73.98814,40.57887],[-73.98798,40.57895],[-73.98761,40.57903],[-73.98762,40.57906],[-73.98785,40.579],[-73.98787,40.57903],[-73.98745,40.57913],[-73.98744,40.57911],[-73.9876,40.57907],[-73.98759,40.57904],[-73.98739,40.57909],[-73.98738,40.57914],[-73.9867,40.57981],[-73.98702,40.58002],[-73.98617,40.58095],[-73.98589,40.58114],[-73.98605,40.58172],[-73.9858,40.58185],[-73.98564,40.58189],[-73.98529,40.58217],[-73.98502,40.58231],[-73.9844,40.58292],[-73.98384,40.58333],[-73.98365,40.5832],[-73.9834,40.58321],[-73.98316,40.58316],[-73.98264,40.58286],[-73.98245,40.58259],[-73.9816,40.58214],[-73.98145,40.58194],[-73.9814,40.58172],[-73.98111,40.5815]]]}},{"type":"Feature","properties":{"e":"46054"},"geometry":{"type":"Polygon","coordinates":[[[-73.97656,40.57594],[-73.97659,40.5753],[-73.97787,40.57543],[-73.97964,40.57554],[-73.97961,40.57944],[-73.97785,40.57964],[-73.97781,40.57944],[-73.97795,40.57934],[-73.9781,40.57576],[-73.97716,40.57581],[-73.97656,40.57594]]]}},{"type":"Feature","properties":{"e":"46055"},"geometry":{"type":"Polygon","coordinates":[[[-73.97621,40.57983],[-73.97656,40.57594],[-73.97716,40.57581],[-73.9781,40.57576],[-73.97795,40.57934],[-73.97781,40.57944],[-73.97785,40.57964],[-73.97621,40.57983]]]}},{"type":"Feature","properties":{"e":"46056"},"geometry":{"type":"Polygon","coordinates":[[[-73.97282,40.5767],[-73.96872,40.5763],[-73.96825,40.57629],[-73.96736,40.57635],[-73.96766,40.57504],[-73.96796,40.57501],[-73.96826,40.57505],[-73.96889,40.57526],[-73.96914,40.57506],[-73.96951,40.57484],[-73.97003,40.57469],[-73.97056,40.57459],[-73.97154,40.57454],[-73.97225,40.57459],[-73.97294,40.57469],[-73.97502,40.57507],[-73.97659,40.5753],[-73.97656,40.57594],[-73.97464,40.57656],[-73.97413,40.57668],[-73.9736,40.57674],[-73.97282,40.5767]]]}},{"type":"Feature","properties":{"e":"46057"},"geometry":{"type":"Polygon","coordinates":[[[-73.97247,40.57778],[-73.97282,40.5767],[-73.9736,40.57674],[-73.97413,40.57668],[-73.97464,40.57656],[-73.97656,40.57594],[-73.97636,40.5781],[-73.97247,40.57778]]]}},{"type":"Feature","properties":{"e":"46058"},"geometry":{"type":"Polygon","coordinates":[[[-73.97465,40.57997],[-73.97183,40.57981],[-73.97247,40.57778],[-73.97636,40.5781],[-73.97621,40.57983],[-73.97465,40.57997]]]}},{"type":"Feature","properties":{"e":"46059"},"geometry":{"type":"Polygon","coordinates":[[[-73.9703,40.57789],[-73.97116,40.578],[-73.97124,40.57886],[-73.97212,40.57889],[-73.97183,40.57981],[-73.97113,40.57978],[-73.97043,40.57983],[-73.97008,40.57864],[-73.9703,40.57789]]]}},{"type":"Feature","properties":{"e":"46060"},"geometry":{"type":"Polygon","coordinates":[[[-73.9703,40.57789],[-73.97061,40.57651],[-73.97282,40.5767],[-73.97212,40.57889],[-73.97124,40.57886],[-73.97116,40.578],[-73.9703,40.57789]]]}},{"type":"Feature","properties":{"e":"46061"},"geometry":{"type":"Polygon","coordinates":[[[-73.9676,40.58038],[-73.96853,40.5763],[-73.96882,40.57631],[-73.97061,40.57651],[-73.9703,40.57789],[-73.97008,40.57864],[-73.97043,40.57983],[-73.9676,40.58038]]]}},{"type":"Feature","properties":{"e":"46062"},"geometry":{"type":"Polygon","coordinates":[[[-73.97255,40.57985],[-73.97465,40.57997],[-73.97628,40.57982],[-73.97961,40.57944],[-73.97987,40.57997],[-73.98005,40.58013],[-73.98096,40.5807],[-73.9813,40.58106],[-73.98111,40.5815],[-73.98083,40.58148],[-73.9807,40.58137],[-73.98038,40.58102],[-73.98039,40.58096],[-73.98011,40.58064],[-73.97988,40.58051],[-73.97984,40.58054],[-73.97959,40.58043],[-73.97958,40.58039],[-73.97933,40.58032],[-73.97922,40.58027],[-73.97917,40.58017],[-73.9791,40.58016],[-73.97881,40.58031],[-73.97865,40.58032],[-73.97812,40.58067],[-73.97779,40.58072],[-73.97731,40.58114],[-73.97596,40.58215],[-73.97587,40.58217],[-73.97583,40.58224],[-73.97576,40.58226],[-73.9754,40.58262],[-73.9748,40.58268],[-73.97481,40.58254],[-73.97506,40.58247],[-73.97528,40.58218],[-73.97537,40.58214],[-73.97556,40.58213],[-73.97572,40.58201],[-73.97584,40.58196],[-73.97602,40.58182],[-73.9761,40.58169],[-73.97618,40.58163],[-73.97625,40.58151],[-73.97593,40.58127],[-73.97497,40.58203],[-73.97454,40.5826],[-73.97456,40.58278],[-73.97308,40.58305],[-73.9732,40.58272],[-73.97302,40.58218],[-73.97284,40.58209],[-73.97214,40.58205],[-73.97255,40.57985]]]}},{"type":"Feature","properties":{"e":"46063"},"geometry":{"type":"Polygon","coordinates":[[[-73.96678,40.58391],[-73.96733,40.58152],[-73.97113,40.58202],[-73.97183,40.57981],[-73.97255,40.57985],[-73.97214,40.58205],[-73.97284,40.58209],[-73.97302,40.58218],[-73.9732,40.58272],[-73.97305,40.58313],[-73.97225,40.58329],[-73.97221,40.58322],[-73.97072,40.5835],[-73.96911,40.58373],[-73.96678,40.58391]]]}},{"type":"Feature","properties":{"e":"46064"},"geometry":{"type":"Polygon","coordinates":[[[-73.96839,40.58166],[-73.96912,40.58008],[-73.97043,40.57983],[-73.97049,40.58007],[-73.97034,40.58191],[-73.96839,40.58166]]]}},{"type":"Feature","properties":{"e":"46065"},"geometry":{"type":"Polygon","coordinates":[[[-73.96733,40.58152],[-73.9676,40.58038],[-73.96912,40.58008],[-73.96839,40.58166],[-73.96733,40.58152]]]}},{"type":"Feature","properties":{"e":"46066"},"geometry":{"type":"Polygon","coordinates":[[[-73.96286,40.57498],[-73.96474,40.57481],[-73.96575,40.57479],[-73.96757,40.57488],[-73.96766,40.57504],[-73.96736,40.57635],[-73.96328,40.57721],[-73.96286,40.57498]]]}},{"type":"Feature","properties":{"e":"46067"},"geometry":{"type":"Polygon","coordinates":[[[-73.96144,40.57761],[-73.96103,40.57508],[-73.96286,40.57498],[-73.96328,40.57721],[-73.96144,40.57761]]]}},{"type":"Feature","properties":{"e":"46068"},"geometry":{"type":"Polygon","coordinates":[[[-73.9598,40.58008],[-73.95947,40.57587],[-73.96114,40.5758],[-73.96144,40.57761],[-73.9622,40.57957],[-73.9598,40.58008]]]}},{"type":"Feature","properties":{"e":"46069"},"geometry":{"type":"Polygon","coordinates":[[[-73.96144,40.57761],[-73.96736,40.57635],[-73.96825,40.57629],[-73.96853,40.5763],[-73.96804,40.57844],[-73.96776,40.5784],[-73.9622,40.57957],[-73.96144,40.57761]]]}},{"type":"Feature","properties":{"e":"46070"},"geometry":{"type":"Polygon","coordinates":[[[-73.9598,40.58008],[-73.96776,40.5784],[-73.96804,40.57844],[-73.9676,40.58038],[-73.96621,40.58063],[-73.95994,40.58196],[-73.9598,40.58008]]]}},{"type":"Feature","properties":{"e":"46071"},"geometry":{"type":"Polygon","coordinates":[[[-73.96103,40.58173],[-73.96621,40.58063],[-73.9676,40.58038],[-73.96692,40.58335],[-73.96539,40.58313],[-73.96528,40.58369],[-73.9652,40.5838],[-73.96504,40.58386],[-73.96207,40.5842],[-73.96143,40.5839],[-73.96103,40.58173]]]}},{"type":"Feature","properties":{"e":"46073"},"geometry":{"type":"Polygon","coordinates":[[[-73.97183,40.57981],[-73.97113,40.58202],[-73.97034,40.58191],[-73.97049,40.58007],[-73.97043,40.57983],[-73.97113,40.57978],[-73.97183,40.57981]]]}}]}