{"type":"FeatureCollection","ad":47,"features":[{"type":"Feature","properties":{"e":"47001"},"geometry":{"type":"Polygon","coordinates":[[[-74.01522,40.60936],[-74.01228,40.60758],[-74.01391,40.60602],[-74.01702,40.60765],[-74.01522,40.60936]]]}},{"type":"Feature","properties":{"e":"47002"},"geometry":{"type":"Polygon","coordinates":[[[-74.01025,40.61185],[-74.00731,40.61008],[-74.01237,40.60521],[-74.01391,40.60602],[-74.01228,40.60758],[-74.01377,40.60848],[-74.01202,40.61016],[-74.01025,40.61185]]]}},{"type":"Feature","properties":{"e":"47003"},"geometry":{"type":"Polygon","coordinates":[[[-74.00714,40.61368],[-74.00951,40.61141],[-74.01171,40.61274],[-74.00934,40.61502],[-74.00714,40.61368]]]}},{"type":"Feature","properties":{"e":"47004"},"geometry":{"type":"Polygon","coordinates":[[[-74.00436,40.61292],[-73.99945,40.60995],[-74.00002,40.60939],[-74.00094,40.60864],[-74.0071,40.61189],[-74.0083,40.61257],[-74.00714,40.61368],[-74.00494,40.61236],[-74.00436,40.61292]]]}},{"type":"Feature","properties":{"e":"47005"},"geometry":{"type":"Polygon","coordinates":[[[-74.00343,40.60997],[-74.00978,40.60386],[-74.0115,40.60476],[-74.00649,40.60958],[-74.00951,40.61141],[-74.0083,40.61257],[-74.0071,40.61189],[-74.00343,40.60997]]]}},{"type":"Feature","properties":{"e":"47006"},"geometry":{"type":"Polygon","coordinates":[[[-74.00094,40.60864],[-74.00264,40.60726],[-74.00411,40.60815],[-74.00763,40.60477],[-74.00837,40.60522],[-74.00343,40.60997],[-74.00094,40.60864]]]}},{"type":"Feature","properties":{"e":"47007"},"geometry":{"type":"Polygon","coordinates":[[[-74.00837,40.60522],[-74.00617,40.60389],[-74.00746,40.60265],[-74.00824,40.60306],[-74.01013,40.60122],[-74.01161,40.60211],[-74.01356,40.60258],[-74.0115,40.60476],[-74.00978,40.60386],[-74.00837,40.60522]]]}},{"type":"Feature","properties":{"e":"47008"},"geometry":{"type":"Polygon","coordinates":[[[-74.00264,40.60726],[-74.00493,40.60507],[-74.00341,40.60426],[-74.00464,40.60308],[-74.00617,40.60389],[-74.00763,40.60477],[-74.00411,40.60815],[-74.00264,40.60726]]]}},{"type":"Feature","properties":{"e":"47009"},"geometry":{"type":"Polygon","coordinates":[[[-74.00155,40.60144],[-73.99807,40.59906],[-73.99938,40.59781],[-74.00281,40.6002],[-74.00514,40.60143],[-74.00385,40.60267],[-74.00155,40.60144]]]}},{"type":"Feature","properties":{"e":"47010"},"geometry":{"type":"Polygon","coordinates":[[[-73.99866,40.59727],[-73.99935,40.59661],[-73.99963,40.5965],[-74.0001,40.59642],[-74.00133,40.59651],[-74.00284,40.59674],[-74.00333,40.59691],[-74.00257,40.59704],[-74.00285,40.59706],[-74.00373,40.59736],[-74.00499,40.59813],[-74.00388,40.59918],[-74.0031,40.59874],[-74.00211,40.59972],[-74.00004,40.59829],[-73.99866,40.59727]]]}},{"type":"Feature","properties":{"e":"47011"},"geometry":{"type":"Polygon","coordinates":[[[-74.00514,40.60143],[-74.00281,40.6002],[-74.00211,40.59972],[-74.0031,40.59874],[-74.00388,40.59918],[-74.00499,40.59813],[-74.00795,40.5999],[-74.00464,40.60308],[-74.00385,40.60267],[-74.00514,40.60143]]]}},{"type":"Feature","properties":{"e":"47012"},"geometry":{"type":"Polygon","coordinates":[[[-73.99809,40.60822],[-74.00046,40.60593],[-73.999,40.60506],[-74.0011,40.60303],[-74.00493,40.60507],[-74.00264,40.60726],[-74.00002,40.60939],[-73.99809,40.60822]]]}},{"type":"Feature","properties":{"e":"47013"},"geometry":{"type":"Polygon","coordinates":[[[-73.99588,40.60689],[-74.00032,40.60262],[-74.0011,40.60303],[-73.999,40.60506],[-74.00046,40.60593],[-73.99809,40.60822],[-73.99588,40.60689]]]}},{"type":"Feature","properties":{"e":"47014"},"geometry":{"type":"Polygon","coordinates":[[[-73.99194,40.60724],[-73.99782,40.60158],[-74.00002,40.60291],[-73.99414,40.60856],[-73.99194,40.60724]]]}},{"type":"Feature","properties":{"e":"47015"},"geometry":{"type":"Polygon","coordinates":[[[-74.0115,40.60476],[-74.01237,40.60521],[-74.00731,40.61008],[-74.00649,40.60958],[-74.0115,40.60476]]]}},{"type":"Feature","properties":{"e":"47016"},"geometry":{"type":"Polygon","coordinates":[[[-74.00464,40.60308],[-74.00795,40.5999],[-74.01013,40.60122],[-74.00824,40.60306],[-74.00746,40.60265],[-74.00617,40.60389],[-74.00464,40.60308]]]}},{"type":"Feature","properties":{"e":"47017"},"geometry":{"type":"Polygon","coordinates":[[[-73.99194,40.60724],[-73.99414,40.60856],[-73.99356,40.60912],[-73.99136,40.60779],[-73.99194,40.60724]]]}},{"type":"Feature","properties":{"e":"47018"},"geometry":{"type":"Polygon","coordinates":[[[-74.00032,40.60262],[-74.00155,40.60144],[-74.00464,40.60308],[-74.00341,40.60426],[-74.00032,40.60262]]]}},{"type":"Feature","properties":{"e":"47019"},"geometry":{"type":"Polygon","coordinates":[[[-73.97399,40.61403],[-73.97299,40.60881],[-73.97403,40.6087],[-73.97478,40.61264],[-73.97521,40.61289],[-73.97637,40.61177],[-73.97857,40.6131],[-73.97683,40.61478],[-73.97497,40.61367],[-73.97489,40.61319],[-73.97427,40.61385],[-73.97418,40.61398],[-73.97399,40.61403]]]}},{"type":"Feature","properties":{"e":"47020"},"geometry":{"type":"Polygon","coordinates":[[[-73.97964,40.61556],[-73.97741,40.61422],[-73.97921,40.6125],[-73.98144,40.61384],[-73.98216,40.61315],[-73.98249,40.61442],[-73.98367,40.61519],[-73.98129,40.61747],[-73.97906,40.61613],[-73.97964,40.61556]]]}},{"type":"Feature","properties":{"e":"47021"},"geometry":{"type":"Polygon","coordinates":[[[-73.97259,40.60667],[-73.97829,40.60604],[-73.9787,40.60819],[-73.97299,40.60881],[-73.97259,40.60667]]]}},{"type":"Feature","properties":{"e":"47022"},"geometry":{"type":"Polygon","coordinates":[[[-73.97403,40.6087],[-73.97777,40.60829],[-73.97826,40.61084],[-73.97674,40.61101],[-73.97418,40.60946],[-73.97403,40.6087]]]}},{"type":"Feature","properties":{"e":"47023"},"geometry":{"type":"Polygon","coordinates":[[[-73.97954,40.61271],[-73.9787,40.60819],[-73.98162,40.60787],[-73.98253,40.61258],[-73.98266,40.61269],[-73.98144,40.61384],[-73.97954,40.61271]]]}},{"type":"Feature","properties":{"e":"47024"},"geometry":{"type":"Polygon","coordinates":[[[-73.97418,40.60946],[-73.97674,40.61101],[-73.97826,40.61084],[-73.97777,40.60829],[-73.9787,40.60819],[-73.97954,40.61271],[-73.97921,40.6125],[-73.97857,40.6131],[-73.97637,40.61177],[-73.97521,40.61289],[-73.97478,40.61264],[-73.97418,40.60946]]]}},{"type":"Feature","properties":{"e":"47025"},"geometry":{"type":"Polygon","coordinates":[[[-73.98416,40.61122],[-73.98348,40.60766],[-73.98533,40.60746],[-73.98576,40.60968],[-73.98613,40.60933],[-73.98836,40.61067],[-73.98661,40.61235],[-73.98438,40.61101],[-73.98416,40.61122]]]}},{"type":"Feature","properties":{"e":"47026"},"geometry":{"type":"Polygon","coordinates":[[[-73.98533,40.60746],[-73.98725,40.60724],[-73.98702,40.60603],[-73.98913,40.60646],[-73.98971,40.60589],[-73.99194,40.60724],[-73.98836,40.61067],[-73.98613,40.60933],[-73.98576,40.60968],[-73.98533,40.60746]]]}},{"type":"Feature","properties":{"e":"47027"},"geometry":{"type":"Polygon","coordinates":[[[-73.98307,40.6055],[-73.98685,40.6051],[-73.9863,40.60223],[-73.98644,40.60209],[-73.98869,40.60343],[-73.99087,40.60477],[-73.98913,40.60646],[-73.98702,40.60603],[-73.98725,40.60724],[-73.98348,40.60766],[-73.98307,40.6055]]]}},{"type":"Feature","properties":{"e":"47028"},"geometry":{"type":"Polygon","coordinates":[[[-73.98353,40.60296],[-73.98639,40.60264],[-73.98685,40.6051],[-73.984,40.60541],[-73.98353,40.60296]]]}},{"type":"Feature","properties":{"e":"47029"},"geometry":{"type":"Polygon","coordinates":[[[-73.97829,40.60604],[-73.98307,40.6055],[-73.98348,40.60766],[-73.9787,40.60819],[-73.97829,40.60604]]]}},{"type":"Feature","properties":{"e":"47030"},"geometry":{"type":"Polygon","coordinates":[[[-74.01025,40.61185],[-74.01377,40.60848],[-74.01522,40.60936],[-74.01171,40.61274],[-74.01025,40.61185]]]}},{"type":"Feature","properties":{"e":"47031"},"geometry":{"type":"Polygon","coordinates":[[[-73.98702,40.60153],[-73.98922,40.60287],[-73.99145,40.60421],[-73.99087,40.60477],[-73.98869,40.60343],[-73.98644,40.60209],[-73.98702,40.60153]]]}},{"type":"Feature","properties":{"e":"47032"},"geometry":{"type":"Polygon","coordinates":[[[-74.00002,40.60291],[-73.99637,40.6007],[-73.99807,40.59906],[-74.00155,40.60144],[-74.00002,40.60291]]]}},{"type":"Feature","properties":{"e":"47033"},"geometry":{"type":"Polygon","coordinates":[[[-73.98971,40.60589],[-73.99381,40.60195],[-73.99532,40.60283],[-73.99708,40.60113],[-73.99782,40.60158],[-73.99194,40.60724],[-73.98971,40.60589]]]}},{"type":"Feature","properties":{"e":"47034"},"geometry":{"type":"Polygon","coordinates":[[[-73.98922,40.60287],[-73.9916,40.60058],[-73.99305,40.60148],[-73.99482,40.59976],[-73.99708,40.60113],[-73.99532,40.60283],[-73.99381,40.60195],[-73.99145,40.60421],[-73.98922,40.60287]]]}},{"type":"Feature","properties":{"e":"47035"},"geometry":{"type":"Polygon","coordinates":[[[-73.99807,40.59906],[-73.99313,40.59566],[-73.99484,40.59403],[-73.99866,40.59727],[-73.99938,40.59781],[-73.99807,40.59906]]]}},{"type":"Feature","properties":{"e":"47036"},"geometry":{"type":"Polygon","coordinates":[[[-73.99234,40.60104],[-73.99593,40.59758],[-73.99807,40.59906],[-73.99637,40.6007],[-73.99482,40.59976],[-73.99305,40.60148],[-73.99234,40.60104]]]}},{"type":"Feature","properties":{"e":"47037"},"geometry":{"type":"Polygon","coordinates":[[[-73.99086,40.60013],[-73.99262,40.59843],[-73.99191,40.598],[-73.99385,40.59614],[-73.99593,40.59758],[-73.99234,40.60104],[-73.99086,40.60013]]]}},{"type":"Feature","properties":{"e":"47038"},"geometry":{"type":"Polygon","coordinates":[[[-73.98702,40.60153],[-73.99313,40.59566],[-73.99385,40.59614],[-73.99191,40.598],[-73.99262,40.59843],[-73.99086,40.60013],[-73.9916,40.60058],[-73.98922,40.60287],[-73.98702,40.60153]]]}},{"type":"Feature","properties":{"e":"47039"},"geometry":{"type":"Polygon","coordinates":[[[-73.98602,40.59445],[-73.98962,40.59098],[-73.99257,40.59276],[-73.99093,40.59433],[-73.98947,40.59345],[-73.9875,40.59534],[-73.98602,40.59445]]]}},{"type":"Feature","properties":{"e":"47040"},"geometry":{"type":"Polygon","coordinates":[[[-73.99036,40.59143],[-73.98816,40.5901],[-73.9898,40.58852],[-73.98999,40.58846],[-73.99154,40.59039],[-73.99036,40.59143]]]}},{"type":"Feature","properties":{"e":"47041"},"geometry":{"type":"Polygon","coordinates":[[[-73.98468,40.59366],[-73.98409,40.59057],[-73.98433,40.59034],[-73.98653,40.59167],[-73.98816,40.5901],[-73.98962,40.59098],[-73.98602,40.59445],[-73.98468,40.59366]]]}},{"type":"Feature","properties":{"e":"47042"},"geometry":{"type":"Polygon","coordinates":[[[-73.9842,40.59117],[-73.98464,40.59355],[-73.98179,40.59387],[-73.98132,40.59148],[-73.9842,40.59117]]]}},{"type":"Feature","properties":{"e":"47043"},"geometry":{"type":"Polygon","coordinates":[[[-73.98971,40.59667],[-73.9875,40.59534],[-73.98947,40.59345],[-73.99313,40.59566],[-73.98939,40.59925],[-73.98794,40.59837],[-73.98971,40.59667]]]}},{"type":"Feature","properties":{"e":"47044"},"geometry":{"type":"Polygon","coordinates":[[[-73.98036,40.59619],[-73.98506,40.59567],[-73.98502,40.59541],[-73.98602,40.59445],[-73.98971,40.59667],[-73.98794,40.59837],[-73.98527,40.59674],[-73.98549,40.59793],[-73.98078,40.59845],[-73.98036,40.59619]]]}},{"type":"Feature","properties":{"e":"47045"},"geometry":{"type":"Polygon","coordinates":[[[-73.98264,40.59824],[-73.98549,40.59793],[-73.98527,40.59674],[-73.98939,40.59925],[-73.9863,40.60223],[-73.98639,40.60264],[-73.98353,40.60296],[-73.98264,40.59824]]]}},{"type":"Feature","properties":{"e":"47046"},"geometry":{"type":"Polygon","coordinates":[[[-73.9821,40.60538],[-73.98078,40.59845],[-73.98264,40.59824],[-73.984,40.60541],[-73.98307,40.6055],[-73.9821,40.60538]]]}},{"type":"Feature","properties":{"e":"47047"},"geometry":{"type":"Polygon","coordinates":[[[-73.97436,40.6016],[-73.97422,40.60262],[-73.97578,40.60276],[-73.97613,40.60464],[-73.97808,40.60492],[-73.97829,40.60604],[-73.97362,40.60656],[-73.9732,40.6043],[-73.97305,40.60428],[-73.97341,40.6017],[-73.97436,40.6016]]]}},{"type":"Feature","properties":{"e":"47048"},"geometry":{"type":"Polygon","coordinates":[[[-73.97783,40.60359],[-73.97983,40.60337],[-73.98017,40.60518],[-73.98307,40.6055],[-73.97829,40.60604],[-73.97783,40.60359]]]}},{"type":"Feature","properties":{"e":"47049"},"geometry":{"type":"Polygon","coordinates":[[[-73.97651,40.59662],[-73.98036,40.59619],[-73.98124,40.60084],[-73.97739,40.60126],[-73.97651,40.59662]]]}},{"type":"Feature","properties":{"e":"47050"},"geometry":{"type":"Polygon","coordinates":[[[-73.97341,40.6017],[-73.97408,40.59688],[-73.97651,40.59662],[-73.97808,40.60492],[-73.97613,40.60464],[-73.97578,40.60276],[-73.97422,40.60262],[-73.97436,40.6016],[-73.97341,40.6017]]]}},{"type":"Feature","properties":{"e":"47051"},"geometry":{"type":"Polygon","coordinates":[[[-73.99257,40.59276],[-73.99036,40.59143],[-73.99154,40.59039],[-73.99364,40.593],[-73.99427,40.59359],[-73.99402,40.59364],[-73.99484,40.59403],[-73.99313,40.59566],[-73.99093,40.59433],[-73.99257,40.59276]]]}},{"type":"Feature","properties":{"e":"47052"},"geometry":{"type":"Polygon","coordinates":[[[-73.98216,40.61315],[-73.98438,40.61101],[-73.98661,40.61235],[-73.98367,40.61519],[-73.98249,40.61442],[-73.98216,40.61315]]]}},{"type":"Feature","properties":{"e":"47053"},"geometry":{"type":"Polygon","coordinates":[[[-73.98162,40.60787],[-73.98348,40.60766],[-73.98416,40.61122],[-73.98266,40.61269],[-73.98253,40.61258],[-73.98162,40.60787]]]}},{"type":"Feature","properties":{"e":"47054"},"geometry":{"type":"Polygon","coordinates":[[[-73.97783,40.60359],[-73.97739,40.60126],[-73.98124,40.60084],[-73.9821,40.60538],[-73.98017,40.60518],[-73.97983,40.60337],[-73.97783,40.60359]]]}},{"type":"Feature","properties":{"e":"47055"},"geometry":{"type":"Polygon","coordinates":[[[-73.98179,40.59387],[-73.98464,40.59355],[-73.98468,40.59366],[-73.98602,40.59445],[-73.98502,40.59541],[-73.98506,40.59567],[-73.98221,40.59599],[-73.98179,40.59387]]]}},{"type":"Feature","properties":{"e":"47056"},"geometry":{"type":"Polygon","coordinates":[[[-73.97741,40.61422],[-73.97964,40.61556],[-73.97906,40.61613],[-73.97683,40.61478],[-73.97741,40.61422]]]}}]}