{"type":"FeatureCollection","ad":48,"features":[{"type":"Feature","properties":{"e":"48001"},"geometry":{"type":"Polygon","coordinates":[[[-74.00118,40.63321],[-74.00355,40.63092],[-74.00576,40.63225],[-74.00399,40.63399],[-74.00411,40.63406],[-74.00339,40.63454],[-74.00118,40.63321]]]}},{"type":"Feature","properties":{"e":"48002"},"geometry":{"type":"Polygon","coordinates":[[[-73.99665,40.63411],[-73.9984,40.63244],[-74.0006,40.63377],[-74.00118,40.63321],[-74.00339,40.63454],[-74.00053,40.63646],[-73.99665,40.63411]]]}},{"type":"Feature","properties":{"e":"48003"},"geometry":{"type":"Polygon","coordinates":[[[-73.98726,40.62936],[-73.99017,40.62656],[-73.99238,40.62788],[-73.98946,40.63069],[-73.98726,40.62936]]]}},{"type":"Feature","properties":{"e":"48004"},"geometry":{"type":"Polygon","coordinates":[[[-73.99374,40.63691],[-73.99665,40.63411],[-74.00053,40.63646],[-73.99694,40.63885],[-73.99374,40.63691]]]}},{"type":"Feature","properties":{"e":"48005"},"geometry":{"type":"Polygon","coordinates":[[[-73.99024,40.64028],[-73.99199,40.6386],[-73.99433,40.63997],[-73.9948,40.64029],[-73.99264,40.64173],[-73.99024,40.64028]]]}},{"type":"Feature","properties":{"e":"48006"},"geometry":{"type":"Polygon","coordinates":[[[-73.98409,40.6393],[-73.98584,40.63762],[-73.99264,40.64173],[-73.9905,40.64316],[-73.98409,40.6393]]]}},{"type":"Feature","properties":{"e":"48007"},"geometry":{"type":"Polygon","coordinates":[[[-73.98655,40.63349],[-73.98946,40.63069],[-73.99166,40.63202],[-73.98875,40.63482],[-73.98655,40.63349]]]}},{"type":"Feature","properties":{"e":"48008"},"geometry":{"type":"Polygon","coordinates":[[[-73.98584,40.63762],[-73.98758,40.63594],[-73.99199,40.6386],[-73.99024,40.64028],[-73.98584,40.63762]]]}},{"type":"Feature","properties":{"e":"48009"},"geometry":{"type":"Polygon","coordinates":[[[-73.98758,40.63594],[-73.98875,40.63482],[-73.99315,40.63748],[-73.99199,40.6386],[-73.98758,40.63594]]]}},{"type":"Feature","properties":{"e":"48010"},"geometry":{"type":"Polygon","coordinates":[[[-73.97968,40.63664],[-73.98143,40.63496],[-73.98584,40.63762],[-73.98409,40.6393],[-73.97968,40.63664]]]}},{"type":"Feature","properties":{"e":"48011"},"geometry":{"type":"Polygon","coordinates":[[[-73.9848,40.63517],[-73.98655,40.63349],[-73.98875,40.63482],[-73.987,40.6365],[-73.9848,40.63517]]]}},{"type":"Feature","properties":{"e":"48012"},"geometry":{"type":"Polygon","coordinates":[[[-73.98143,40.63496],[-73.98376,40.63272],[-73.98597,40.63405],[-73.98363,40.63628],[-73.98143,40.63496]]]}},{"type":"Feature","properties":{"e":"48013"},"geometry":{"type":"Polygon","coordinates":[[[-73.9767,40.62835],[-73.97658,40.62757],[-73.97679,40.62754],[-73.97752,40.62798],[-73.97778,40.62819],[-73.98189,40.63067],[-73.98014,40.63235],[-73.97831,40.63127],[-73.97865,40.63304],[-73.97762,40.63315],[-73.9767,40.62835]]]}},{"type":"Feature","properties":{"e":"48014"},"geometry":{"type":"Polygon","coordinates":[[[-73.97241,40.63299],[-73.97605,40.63128],[-73.97643,40.63329],[-73.97256,40.63371],[-73.97241,40.63299]]]}},{"type":"Feature","properties":{"e":"48015"},"geometry":{"type":"Polygon","coordinates":[[[-73.97157,40.62999],[-73.97092,40.62657],[-73.97623,40.62598],[-73.97658,40.62757],[-73.9767,40.62835],[-73.97452,40.6294],[-73.97403,40.62881],[-73.97157,40.62999]]]}},{"type":"Feature","properties":{"e":"48016"},"geometry":{"type":"Polygon","coordinates":[[[-73.97241,40.63299],[-73.97183,40.62986],[-73.97403,40.62881],[-73.97452,40.6294],[-73.9767,40.62835],[-73.97762,40.63315],[-73.97643,40.63329],[-73.97605,40.63128],[-73.97241,40.63299]]]}},{"type":"Feature","properties":{"e":"48017"},"geometry":{"type":"Polygon","coordinates":[[[-73.96129,40.62763],[-73.96185,40.62757],[-73.96212,40.62904],[-73.96162,40.6291],[-73.96129,40.62763]]]}},{"type":"Feature","properties":{"e":"48018"},"geometry":{"type":"Polygon","coordinates":[[[-73.98363,40.63628],[-73.9848,40.63517],[-73.987,40.6365],[-73.98584,40.63762],[-73.98363,40.63628]]]}},{"type":"Feature","properties":{"e":"48019"},"geometry":{"type":"Polygon","coordinates":[[[-73.96662,40.62704],[-73.97066,40.6266],[-73.97096,40.62812],[-73.97109,40.62897],[-73.96708,40.62943],[-73.96662,40.62704]]]}},{"type":"Feature","properties":{"e":"48020"},"geometry":{"type":"Polygon","coordinates":[[[-73.96092,40.62767],[-73.96129,40.62763],[-73.96162,40.6291],[-73.96212,40.62904],[-73.96185,40.62757],[-73.96662,40.62704],[-73.96708,40.62943],[-73.96137,40.63006],[-73.96092,40.62767]]]}},{"type":"Feature","properties":{"e":"48021"},"geometry":{"type":"Polygon","coordinates":[[[-73.95639,40.62573],[-73.9576,40.6256],[-73.95805,40.62797],[-73.95685,40.62812],[-73.95639,40.62573]]]}},{"type":"Feature","properties":{"e":"48022"},"geometry":{"type":"Polygon","coordinates":[[[-73.9576,40.6256],[-73.9595,40.62539],[-73.95996,40.62778],[-73.95805,40.62797],[-73.9576,40.6256]]]}},{"type":"Feature","properties":{"e":"48023"},"geometry":{"type":"Polygon","coordinates":[[[-73.9576,40.6256],[-73.95714,40.62321],[-73.96187,40.62269],[-73.96277,40.62747],[-73.95996,40.62778],[-73.9595,40.62539],[-73.9576,40.6256]]]}},{"type":"Feature","properties":{"e":"48024"},"geometry":{"type":"Polygon","coordinates":[[[-73.95549,40.62095],[-73.95669,40.62082],[-73.9576,40.6256],[-73.95639,40.62573],[-73.95549,40.62095]]]}},{"type":"Feature","properties":{"e":"48025"},"geometry":{"type":"Polygon","coordinates":[[[-73.95669,40.62082],[-73.95763,40.62071],[-73.95718,40.61833],[-73.96189,40.6178],[-73.96234,40.6202],[-73.96141,40.6203],[-73.96187,40.62269],[-73.95714,40.62321],[-73.95669,40.62082]]]}},{"type":"Feature","properties":{"e":"48026"},"geometry":{"type":"Polygon","coordinates":[[[-73.96281,40.61767],[-73.96381,40.61759],[-73.96911,40.617],[-73.96956,40.6194],[-73.96234,40.6202],[-73.96189,40.6178],[-73.96281,40.61767]]]}},{"type":"Feature","properties":{"e":"48027"},"geometry":{"type":"Polygon","coordinates":[[[-73.96141,40.6203],[-73.96527,40.61988],[-73.96572,40.62226],[-73.96187,40.62269],[-73.96141,40.6203]]]}},{"type":"Feature","properties":{"e":"48028"},"geometry":{"type":"Polygon","coordinates":[[[-73.96187,40.62269],[-73.96757,40.62206],[-73.96802,40.62445],[-73.96232,40.62508],[-73.96187,40.62269]]]}},{"type":"Feature","properties":{"e":"48029"},"geometry":{"type":"Polygon","coordinates":[[[-73.96232,40.62508],[-73.97047,40.62417],[-73.97092,40.62657],[-73.96277,40.62747],[-73.96232,40.62508]]]}},{"type":"Feature","properties":{"e":"48030"},"geometry":{"type":"Polygon","coordinates":[[[-73.96572,40.62226],[-73.96527,40.61988],[-73.96956,40.6194],[-73.97047,40.62417],[-73.96802,40.62445],[-73.96757,40.62206],[-73.96572,40.62226]]]}},{"type":"Feature","properties":{"e":"48031"},"geometry":{"type":"Polygon","coordinates":[[[-73.96236,40.61531],[-73.96336,40.6152],[-73.96381,40.61759],[-73.96281,40.61767],[-73.96189,40.6178],[-73.95951,40.61806],[-73.95999,40.61779],[-73.96266,40.61691],[-73.96236,40.61531]]]}},{"type":"Feature","properties":{"e":"48032"},"geometry":{"type":"Polygon","coordinates":[[[-73.96336,40.6152],[-73.96866,40.61462],[-73.96911,40.617],[-73.96381,40.61759],[-73.96336,40.6152]]]}},{"type":"Feature","properties":{"e":"48033"},"geometry":{"type":"Polygon","coordinates":[[[-73.96866,40.61462],[-73.97399,40.61403],[-73.97444,40.61642],[-73.96911,40.617],[-73.96866,40.61462]]]}},{"type":"Feature","properties":{"e":"48034"},"geometry":{"type":"Polygon","coordinates":[[[-73.9826,40.63384],[-73.98014,40.63235],[-73.98189,40.63067],[-73.98655,40.63349],[-73.98597,40.63405],[-73.98376,40.63272],[-73.9826,40.63384]]]}},{"type":"Feature","properties":{"e":"48035"},"geometry":{"type":"Polygon","coordinates":[[[-73.97013,40.62238],[-73.96911,40.617],[-73.97548,40.61631],[-73.97544,40.61611],[-73.97563,40.61595],[-73.97785,40.61729],[-73.97752,40.61768],[-73.9753,40.62091],[-73.97369,40.62265],[-73.97013,40.62238]]]}},{"type":"Feature","properties":{"e":"48036"},"geometry":{"type":"Polygon","coordinates":[[[-73.98228,40.61996],[-73.97563,40.61595],[-73.97544,40.61611],[-73.97548,40.61631],[-73.97444,40.61642],[-73.97399,40.61403],[-73.97412,40.61401],[-73.97423,40.61394],[-73.97427,40.61385],[-73.97489,40.61319],[-73.97497,40.61367],[-73.98349,40.6188],[-73.98228,40.61996]]]}},{"type":"Feature","properties":{"e":"48037"},"geometry":{"type":"Polygon","coordinates":[[[-73.97539,40.62077],[-73.97752,40.61768],[-73.97785,40.61729],[-73.98228,40.61996],[-73.97947,40.62267],[-73.97539,40.62077]]]}},{"type":"Feature","properties":{"e":"48038"},"geometry":{"type":"Polygon","coordinates":[[[-73.97092,40.62657],[-73.97013,40.62238],[-73.97369,40.62265],[-73.9753,40.62091],[-73.97539,40.62077],[-73.97947,40.62267],[-73.97711,40.62495],[-73.9772,40.6251],[-73.97726,40.62585],[-73.97092,40.62657]]]}},{"type":"Feature","properties":{"e":"48039"},"geometry":{"type":"Polygon","coordinates":[[[-73.97936,40.62277],[-73.98349,40.6188],[-73.98785,40.62143],[-73.98383,40.62546],[-73.97936,40.62277]]]}},{"type":"Feature","properties":{"e":"48040"},"geometry":{"type":"Polygon","coordinates":[[[-73.9772,40.6251],[-73.97711,40.62495],[-73.97936,40.62277],[-73.98383,40.62546],[-73.98157,40.62774],[-73.9772,40.6251]]]}},{"type":"Feature","properties":{"e":"48041"},"geometry":{"type":"Polygon","coordinates":[[[-73.98434,40.63216],[-73.97778,40.62819],[-73.97752,40.62798],[-73.97679,40.62754],[-73.97658,40.62757],[-73.97623,40.62598],[-73.97726,40.62585],[-73.9772,40.6251],[-73.98157,40.62774],[-73.981,40.62831],[-73.98551,40.63104],[-73.98434,40.63216]]]}},{"type":"Feature","properties":{"e":"48042"},"geometry":{"type":"Polygon","coordinates":[[[-73.981,40.62831],[-73.9844,40.62489],[-73.98655,40.62619],[-73.98538,40.62731],[-73.98784,40.6288],[-73.98551,40.63104],[-73.981,40.62831]]]}},{"type":"Feature","properties":{"e":"48043"},"geometry":{"type":"Polygon","coordinates":[[[-73.98553,40.62376],[-73.98785,40.62143],[-73.99255,40.62427],[-73.99076,40.626],[-73.9883,40.62451],[-73.98772,40.62507],[-73.98553,40.62376]]]}},{"type":"Feature","properties":{"e":"48044"},"geometry":{"type":"Polygon","coordinates":[[[-73.9844,40.62489],[-73.98553,40.62376],[-73.98772,40.62507],[-73.9883,40.62451],[-73.99076,40.626],[-73.98784,40.6288],[-73.98538,40.62731],[-73.98655,40.62619],[-73.9844,40.62489]]]}},{"type":"Feature","properties":{"e":"48045"},"geometry":{"type":"Polygon","coordinates":[[[-74.0006,40.63377],[-73.99619,40.63111],[-73.99915,40.62826],[-74.00355,40.63092],[-74.0006,40.63377]]]}},{"type":"Feature","properties":{"e":"48046"},"geometry":{"type":"Polygon","coordinates":[[[-73.99445,40.63279],[-73.99503,40.63223],[-73.99283,40.6309],[-73.99516,40.62866],[-73.99611,40.62923],[-73.99679,40.62683],[-73.99915,40.62826],[-73.99619,40.63111],[-73.9984,40.63244],[-73.99665,40.63411],[-73.99445,40.63279]]]}},{"type":"Feature","properties":{"e":"48047"},"geometry":{"type":"Polygon","coordinates":[[[-73.98875,40.63482],[-73.98933,40.63426],[-73.99154,40.63558],[-73.99445,40.63279],[-73.99665,40.63411],[-73.99315,40.63748],[-73.98875,40.63482]]]}},{"type":"Feature","properties":{"e":"48048"},"geometry":{"type":"Polygon","coordinates":[[[-73.98933,40.63426],[-73.99166,40.63202],[-73.98946,40.63069],[-73.99005,40.63013],[-73.99225,40.63146],[-73.99283,40.6309],[-73.99503,40.63223],[-73.99154,40.63558],[-73.98933,40.63426]]]}},{"type":"Feature","properties":{"e":"48049"},"geometry":{"type":"Polygon","coordinates":[[[-73.99458,40.62922],[-73.99017,40.62656],[-73.99255,40.62427],[-73.99433,40.62534],[-73.99489,40.62546],[-73.99465,40.6257],[-73.99508,40.62581],[-73.99679,40.62683],[-73.99611,40.62923],[-73.99516,40.62866],[-73.99458,40.62922]]]}},{"type":"Feature","properties":{"e":"48050"},"geometry":{"type":"Polygon","coordinates":[[[-73.99005,40.63013],[-73.99238,40.62788],[-73.99458,40.62922],[-73.99225,40.63146],[-73.99005,40.63013]]]}},{"type":"Feature","properties":{"e":"48051"},"geometry":{"type":"Polygon","coordinates":[[[-73.98434,40.63216],[-73.98726,40.62936],[-73.98946,40.63069],[-73.98655,40.63349],[-73.98434,40.63216]]]}},{"type":"Feature","properties":{"e":"48052"},"geometry":{"type":"Polygon","coordinates":[[[-73.99199,40.6386],[-73.99374,40.63691],[-73.99694,40.63885],[-73.9948,40.64029],[-73.99433,40.63997],[-73.99199,40.6386]]]}},{"type":"Feature","properties":{"e":"48053"},"geometry":{"type":"Polygon","coordinates":[[[-73.9887518577752,40.6348244664614],[-73.9865494966359,40.6334950811626],[-73.9871332474349,40.6329352417468],[-73.9877146950118,40.6323748485895],[-73.9899180008176,40.6337050479505],[-73.9921211452631,40.6350337024852],[-73.9915406336029,40.6355906055953],[-73.9909574515712,40.6361539535379],[-73.9887518577752,40.6348244664614]]]}}]}