{"type":"FeatureCollection","ad":49,"features":[{"type":"Feature","properties":{"e":"49001"},"geometry":{"type":"Polygon","coordinates":[[[-74.01,40.63011],[-74.00875,40.62937],[-74.0105,40.62769],[-74.01214,40.62868],[-74.01235,40.62871],[-74.01254,40.62882],[-74.01268,40.62869],[-74.01279,40.62876],[-74.01288,40.62868],[-74.01477,40.62995],[-74.0149,40.63035],[-74.01432,40.63091],[-74.01143,40.62916],[-74.01,40.63011]]]}},{"type":"Feature","properties":{"e":"49002"},"geometry":{"type":"Polygon","coordinates":[[[-73.99766,40.63837],[-73.99981,40.63694],[-74.00047,40.63734],[-73.99872,40.63902],[-73.99766,40.63837]]]}},{"type":"Feature","properties":{"e":"49003"},"geometry":{"type":"Polygon","coordinates":[[[-73.99976,40.64147],[-73.99623,40.63933],[-73.99766,40.63837],[-73.99872,40.63902],[-73.99814,40.63958],[-74.00034,40.64091],[-73.99976,40.64147]]]}},{"type":"Feature","properties":{"e":"49004"},"geometry":{"type":"Polygon","coordinates":[[[-74.00034,40.64091],[-74.00209,40.63923],[-74.00429,40.64056],[-74.00254,40.64224],[-74.00034,40.64091]]]}},{"type":"Feature","properties":{"e":"49005"},"geometry":{"type":"Polygon","coordinates":[[[-74.00254,40.64224],[-74.00488,40.64],[-74.00708,40.64133],[-74.00475,40.64357],[-74.00254,40.64224]]]}},{"type":"Feature","properties":{"e":"49006"},"geometry":{"type":"Polygon","coordinates":[[[-74.00591,40.64245],[-74.00708,40.64133],[-74.00488,40.64],[-74.00604,40.63888],[-74.00824,40.64021],[-74.00766,40.64077],[-74.00986,40.6421],[-74.00812,40.64378],[-74.00591,40.64245]]]}},{"type":"Feature","properties":{"e":"49007"},"geometry":{"type":"Polygon","coordinates":[[[-74.00209,40.63923],[-74.00267,40.63867],[-73.99981,40.63694],[-74.00196,40.6355],[-74.00442,40.63699],[-74.00384,40.63755],[-74.00604,40.63888],[-74.00429,40.64056],[-74.00209,40.63923]]]}},{"type":"Feature","properties":{"e":"49008"},"geometry":{"type":"Polygon","coordinates":[[[-74.00766,40.64077],[-74.01057,40.63796],[-74.01278,40.6393],[-74.00986,40.6421],[-74.00766,40.64077]]]}},{"type":"Feature","properties":{"e":"49009"},"geometry":{"type":"Polygon","coordinates":[[[-74.00604,40.63888],[-74.00895,40.63608],[-74.01336,40.63874],[-74.01278,40.6393],[-74.01057,40.63796],[-74.00824,40.64021],[-74.00604,40.63888]]]}},{"type":"Feature","properties":{"e":"49010"},"geometry":{"type":"Polygon","coordinates":[[[-74.00895,40.63608],[-74.01016,40.63491],[-74.01236,40.63624],[-74.01294,40.63569],[-74.01515,40.63701],[-74.01336,40.63874],[-74.00895,40.63608]]]}},{"type":"Feature","properties":{"e":"49011"},"geometry":{"type":"Polygon","coordinates":[[[-74.00196,40.6355],[-74.00411,40.63406],[-74.00617,40.6353],[-74.00559,40.63587],[-74.00779,40.6372],[-74.00604,40.63888],[-74.00384,40.63755],[-74.00442,40.63699],[-74.00196,40.6355]]]}},{"type":"Feature","properties":{"e":"49012"},"geometry":{"type":"Polygon","coordinates":[[[-74.00411,40.63406],[-74.00702,40.63211],[-74.01074,40.63436],[-74.00779,40.6372],[-74.00559,40.63587],[-74.00617,40.6353],[-74.00411,40.63406]]]}},{"type":"Feature","properties":{"e":"49013"},"geometry":{"type":"Polygon","coordinates":[[[-74.01016,40.63491],[-74.01074,40.63436],[-74.00854,40.63303],[-74.01097,40.63068],[-74.0156,40.63352],[-74.01613,40.63326],[-74.01611,40.63371],[-74.01618,40.63415],[-74.01626,40.63436],[-74.01647,40.63478],[-74.01675,40.63515],[-74.01698,40.63524],[-74.01515,40.63701],[-74.01294,40.63569],[-74.01236,40.63624],[-74.01016,40.63491]]]}},{"type":"Feature","properties":{"e":"49014"},"geometry":{"type":"Polygon","coordinates":[[[-74.00854,40.63303],[-74.00634,40.63169],[-74.00875,40.62937],[-74.01097,40.63068],[-74.00854,40.63303]]]}},{"type":"Feature","properties":{"e":"49015"},"geometry":{"type":"Polygon","coordinates":[[[-74.00251,40.62847],[-74.00493,40.62615],[-74.00714,40.62748],[-74.00655,40.62804],[-74.00875,40.62937],[-74.0075,40.63058],[-74.0053,40.62925],[-74.00472,40.6298],[-74.00251,40.62847]]]}},{"type":"Feature","properties":{"e":"49016"},"geometry":{"type":"Polygon","coordinates":[[[-73.99812,40.62582],[-74.00053,40.62349],[-74.00493,40.62615],[-74.0031,40.62792],[-74.00089,40.62658],[-74.00031,40.62714],[-73.99812,40.62582]]]}},{"type":"Feature","properties":{"e":"49017"},"geometry":{"type":"Polygon","coordinates":[[[-73.99748,40.62452],[-73.9965,40.62392],[-73.99591,40.6245],[-73.99371,40.62316],[-73.99728,40.61971],[-74.00169,40.62237],[-73.99812,40.62582],[-73.99724,40.62529],[-73.99748,40.62452]]]}},{"type":"Feature","properties":{"e":"49018"},"geometry":{"type":"Polygon","coordinates":[[[-73.99126,40.62167],[-73.99484,40.61823],[-73.99728,40.61971],[-73.99371,40.62316],[-73.99126,40.62167]]]}},{"type":"Feature","properties":{"e":"49019"},"geometry":{"type":"Polygon","coordinates":[[[-73.98928,40.62002],[-73.99251,40.61683],[-73.99484,40.61823],[-73.99155,40.62139],[-73.98928,40.62002]]]}},{"type":"Feature","properties":{"e":"49020"},"geometry":{"type":"Polygon","coordinates":[[[-74.01316,40.61824],[-74.00656,40.61425],[-74.00714,40.61368],[-74.01375,40.61768],[-74.01316,40.61824]]]}},{"type":"Feature","properties":{"e":"49021"},"geometry":{"type":"Polygon","coordinates":[[[-73.98349,40.6188],[-73.98523,40.61713],[-73.98744,40.61845],[-73.98714,40.61874],[-73.98928,40.62002],[-73.98785,40.62143],[-73.98349,40.6188]]]}},{"type":"Feature","properties":{"e":"49022"},"geometry":{"type":"Polygon","coordinates":[[[-73.98129,40.61747],[-73.98367,40.61519],[-73.98807,40.61785],[-73.98744,40.61845],[-73.98523,40.61713],[-73.98349,40.6188],[-73.98129,40.61747]]]}},{"type":"Feature","properties":{"e":"49023"},"geometry":{"type":"Polygon","coordinates":[[[-73.98707,40.61536],[-73.98823,40.61424],[-73.99043,40.61557],[-73.99101,40.61501],[-73.99308,40.61626],[-73.99137,40.61796],[-73.98707,40.61536]]]}},{"type":"Feature","properties":{"e":"49024"},"geometry":{"type":"Polygon","coordinates":[[[-73.98778,40.61123],[-73.99136,40.60779],[-73.99356,40.60912],[-73.98998,40.61256],[-73.98778,40.61123]]]}},{"type":"Feature","properties":{"e":"49025"},"geometry":{"type":"Polygon","coordinates":[[[-73.98367,40.61519],[-73.98778,40.61123],[-73.98998,40.61256],[-73.98586,40.61652],[-73.98367,40.61519]]]}},{"type":"Feature","properties":{"e":"49026"},"geometry":{"type":"Polygon","coordinates":[[[-73.98823,40.61424],[-73.99056,40.612],[-73.9948,40.61456],[-73.99308,40.61626],[-73.99101,40.61501],[-73.99043,40.61557],[-73.98823,40.61424]]]}},{"type":"Feature","properties":{"e":"49027"},"geometry":{"type":"Polygon","coordinates":[[[-73.99056,40.612],[-73.99298,40.60968],[-73.99717,40.61221],[-73.9948,40.61456],[-73.99056,40.612]]]}},{"type":"Feature","properties":{"e":"49028"},"geometry":{"type":"Polygon","coordinates":[[[-73.99298,40.60968],[-73.99472,40.608],[-73.99888,40.61052],[-73.99717,40.61221],[-73.99298,40.60968]]]}},{"type":"Feature","properties":{"e":"49029"},"geometry":{"type":"Polygon","coordinates":[[[-73.99472,40.608],[-73.99588,40.60689],[-74.00002,40.60939],[-73.99888,40.61052],[-73.99472,40.608]]]}},{"type":"Feature","properties":{"e":"49030"},"geometry":{"type":"Polygon","coordinates":[[[-73.99971,40.61662],[-73.99775,40.61544],[-74.00091,40.61239],[-74.00107,40.61183],[-73.99888,40.61052],[-73.99945,40.60995],[-74.00436,40.61292],[-73.99962,40.61747],[-73.99949,40.6174],[-73.99971,40.61662]]]}},{"type":"Feature","properties":{"e":"49031"},"geometry":{"type":"Polygon","coordinates":[[[-73.9948,40.61456],[-73.99888,40.61052],[-74.00107,40.61183],[-74.00091,40.61239],[-73.99775,40.61544],[-73.99971,40.61662],[-73.99949,40.6174],[-73.9948,40.61456]]]}},{"type":"Feature","properties":{"e":"49032"},"geometry":{"type":"Polygon","coordinates":[[[-73.99251,40.61683],[-73.9948,40.61456],[-73.99949,40.6174],[-73.99927,40.61818],[-73.99903,40.61803],[-73.99728,40.61971],[-73.99251,40.61683]]]}},{"type":"Feature","properties":{"e":"49033"},"geometry":{"type":"Polygon","coordinates":[[[-73.99962,40.61747],[-74.00494,40.61236],[-74.00714,40.61368],[-74.00182,40.61881],[-73.99962,40.61747]]]}},{"type":"Feature","properties":{"e":"49034"},"geometry":{"type":"Polygon","coordinates":[[[-73.99728,40.61971],[-73.99903,40.61803],[-73.99927,40.61818],[-73.99949,40.6174],[-74.00182,40.61881],[-74.00065,40.61992],[-74.00286,40.62125],[-74.00169,40.62237],[-73.99728,40.61971]]]}},{"type":"Feature","properties":{"e":"49035"},"geometry":{"type":"Polygon","coordinates":[[[-74.00523,40.61897],[-74.00585,40.61837],[-74.00805,40.6197],[-74.01096,40.61691],[-74.01316,40.61824],[-74.01026,40.62103],[-74.01246,40.62236],[-74.01183,40.62296],[-74.00523,40.61897]]]}},{"type":"Feature","properties":{"e":"49036"},"geometry":{"type":"Polygon","coordinates":[[[-74.00585,40.61837],[-74.0076,40.61669],[-74.0054,40.61536],[-74.00656,40.61425],[-74.01096,40.61691],[-74.00805,40.6197],[-74.00585,40.61837]]]}},{"type":"Feature","properties":{"e":"49037"},"geometry":{"type":"Polygon","coordinates":[[[-74.00065,40.61992],[-74.0054,40.61536],[-74.0076,40.61669],[-74.00286,40.62125],[-74.00065,40.61992]]]}},{"type":"Feature","properties":{"e":"49038"},"geometry":{"type":"Polygon","coordinates":[[[-74.00714,40.62748],[-74.00273,40.62482],[-74.00053,40.62349],[-74.00169,40.62237],[-74.0083,40.62636],[-74.00714,40.62748]]]}},{"type":"Feature","properties":{"e":"49039"},"geometry":{"type":"Polygon","coordinates":[[[-74.0105,40.62769],[-74.00593,40.62493],[-74.00169,40.62237],[-74.00228,40.62181],[-74.00448,40.62314],[-74.00564,40.62202],[-74.00784,40.62336],[-74.00726,40.62391],[-74.01167,40.62657],[-74.0105,40.62769]]]}},{"type":"Feature","properties":{"e":"49040"},"geometry":{"type":"Polygon","coordinates":[[[-74.00784,40.62336],[-74.00564,40.62202],[-74.00448,40.62314],[-74.00228,40.62181],[-74.00523,40.61897],[-74.01183,40.62296],[-74.01121,40.62357],[-74.009,40.62224],[-74.00784,40.62336]]]}},{"type":"Feature","properties":{"e":"49041"},"geometry":{"type":"Polygon","coordinates":[[[-74.0105,40.62769],[-74.01225,40.62602],[-74.01004,40.62469],[-74.01062,40.62413],[-74.01283,40.62546],[-74.01341,40.6249],[-74.01121,40.62357],[-74.01246,40.62236],[-74.01726,40.62527],[-74.01214,40.62868],[-74.0105,40.62769]]]}},{"type":"Feature","properties":{"e":"49042"},"geometry":{"type":"Polygon","coordinates":[[[-74.00726,40.62391],[-74.009,40.62224],[-74.01341,40.6249],[-74.01283,40.62546],[-74.01062,40.62413],[-74.01004,40.62469],[-74.01225,40.62602],[-74.01167,40.62657],[-74.00726,40.62391]]]}},{"type":"Feature","properties":{"e":"49043"},"geometry":{"type":"Polygon","coordinates":[[[-74.0149,40.63035],[-74.01477,40.62995],[-74.01288,40.62868],[-74.01279,40.62876],[-74.01268,40.62869],[-74.01254,40.62882],[-74.01235,40.62871],[-74.01214,40.62868],[-74.01861,40.62437],[-74.01886,40.62427],[-74.01958,40.62427],[-74.01919,40.62496],[-74.01808,40.6275],[-74.017,40.63058],[-74.01667,40.63142],[-74.0149,40.63035]]]}},{"type":"Feature","properties":{"e":"49044"},"geometry":{"type":"Polygon","coordinates":[[[-74.00655,40.62804],[-74.0083,40.62636],[-74.0105,40.62769],[-74.00875,40.62937],[-74.00655,40.62804]]]}},{"type":"Feature","properties":{"e":"49045"},"geometry":{"type":"Polygon","coordinates":[[[-74.0156,40.63352],[-74.01,40.63011],[-74.01143,40.62916],[-74.01432,40.63091],[-74.0149,40.63035],[-74.01667,40.63142],[-74.01635,40.63235],[-74.01622,40.63282],[-74.01613,40.63326],[-74.0156,40.63352]]]}},{"type":"Feature","properties":{"e":"49046"},"geometry":{"type":"Polygon","coordinates":[[[-74.00576,40.63225],[-73.99679,40.62683],[-73.99702,40.62606],[-74.00702,40.63211],[-74.00411,40.63406],[-74.00399,40.63399],[-74.00576,40.63225]]]}},{"type":"Feature","properties":{"e":"49047"},"geometry":{"type":"Polygon","coordinates":[[[-73.99702,40.62606],[-73.99724,40.62529],[-74.00031,40.62714],[-74.00089,40.62658],[-74.0031,40.62792],[-74.00251,40.62847],[-74.00472,40.6298],[-74.0053,40.62925],[-74.0075,40.63058],[-74.00634,40.63169],[-73.99702,40.62606]]]}},{"type":"Feature","properties":{"e":"49048"},"geometry":{"type":"Polygon","coordinates":[[[-73.99433,40.62534],[-73.98785,40.62143],[-73.98842,40.62087],[-73.99702,40.62606],[-73.99679,40.62683],[-73.99508,40.62581],[-73.99465,40.6257],[-73.99489,40.62546],[-73.99433,40.62534]]]}},{"type":"Feature","properties":{"e":"49049"},"geometry":{"type":"Polygon","coordinates":[[[-73.98842,40.62087],[-73.98928,40.62002],[-73.99155,40.62139],[-73.99126,40.62167],[-73.99591,40.6245],[-73.9965,40.62392],[-73.99748,40.62452],[-73.99702,40.62606],[-73.98842,40.62087]]]}},{"type":"Feature","properties":{"e":"49050"},"geometry":{"type":"Polygon","coordinates":[[[-73.98807,40.61785],[-73.98586,40.61652],[-73.98707,40.61536],[-73.99137,40.61796],[-73.98928,40.62002],[-73.98714,40.61874],[-73.98807,40.61785]]]}},{"type":"Feature","properties":{"e":"49051"},"geometry":{"type":"Polygon","coordinates":[[[-73.99872,40.63902],[-74.00047,40.63734],[-74.00267,40.63867],[-74.00093,40.64035],[-73.99872,40.63902]]]}},{"type":"Feature","properties":{"e":"49052"},"geometry":{"type":"Polygon","coordinates":[[[-74.00034,40.64091],[-74.00254,40.64224],[-74.00475,40.64357],[-74.00416,40.64413],[-73.99976,40.64147],[-74.00034,40.64091]]]}}]}