{"type":"FeatureCollection","ad":50,"features":[{"type":"Feature","properties":{"e":"50001"},"geometry":{"type":"Polygon","coordinates":[[[-73.95272,40.73889],[-73.95297,40.73808],[-73.953,40.73779],[-73.95296,40.73751],[-73.9569,40.73715],[-73.95864,40.73621],[-73.95829,40.73414],[-73.96233,40.73375],[-73.96229,40.73405],[-73.96209,40.73451],[-73.96191,40.73475],[-73.96176,40.73489],[-73.96157,40.73518],[-73.95983,40.73706],[-73.95838,40.7381],[-73.95763,40.73854],[-73.95693,40.73889],[-73.95476,40.73912],[-73.95416,40.73911],[-73.95323,40.73899],[-73.95272,40.73889]]]}},{"type":"Feature","properties":{"e":"50002"},"geometry":{"type":"Polygon","coordinates":[[[-73.95261,40.73539],[-73.95841,40.73484],[-73.95864,40.73621],[-73.9569,40.73715],[-73.95296,40.73751],[-73.95261,40.73539]]]}},{"type":"Feature","properties":{"e":"50003"},"geometry":{"type":"Polygon","coordinates":[[[-73.95226,40.73399],[-73.95818,40.73343],[-73.95806,40.73272],[-73.96203,40.73238],[-73.96226,40.73292],[-73.96234,40.73339],[-73.96231,40.73353],[-73.96233,40.73375],[-73.95829,40.73414],[-73.95841,40.73484],[-73.95261,40.73539],[-73.95226,40.73399]]]}},{"type":"Feature","properties":{"e":"50004"},"geometry":{"type":"Polygon","coordinates":[[[-73.94064,40.73317],[-73.9415,40.73288],[-73.94204,40.73277],[-73.9428,40.73265],[-73.94372,40.73239],[-73.9479,40.73088],[-73.94877,40.73072],[-73.95425,40.7302],[-73.95473,40.73303],[-73.95213,40.73328],[-73.95226,40.73399],[-73.95263,40.73551],[-73.95299,40.73765],[-73.95297,40.73808],[-73.95272,40.73889],[-73.95199,40.73875],[-73.95193,40.7387],[-73.95188,40.73871],[-73.95046,40.73831],[-73.94812,40.7374],[-73.94809,40.73747],[-73.94716,40.73715],[-73.94684,40.737],[-73.94662,40.73692],[-73.94652,40.73693],[-73.94644,40.73678],[-73.9472,40.73536],[-73.94707,40.7344],[-73.9466,40.73444],[-73.94674,40.73528],[-73.94625,40.73617],[-73.94617,40.7362],[-73.94587,40.7361],[-73.94557,40.73661],[-73.94553,40.73661],[-73.94555,40.73654],[-73.94542,40.7365],[-73.94536,40.73655],[-73.94521,40.73651],[-73.94522,40.73644],[-73.94508,40.73639],[-73.94506,40.73644],[-73.945,40.73644],[-73.94525,40.73589],[-73.94519,40.73548],[-73.94503,40.73543],[-73.94496,40.73563],[-73.94477,40.73599],[-73.94452,40.73624],[-73.94454,40.73626],[-73.94452,40.73628],[-73.94439,40.73626],[-73.94321,40.73579],[-73.94239,40.73543],[-73.94174,40.73495],[-73.94179,40.73489],[-73.94161,40.73469],[-73.94155,40.73473],[-73.94115,40.73415],[-73.941,40.73379],[-73.94116,40.73375],[-73.94104,40.73349],[-73.94093,40.73351],[-73.94082,40.73325],[-73.94073,40.73329],[-73.94064,40.73317]]]}},{"type":"Feature","properties":{"e":"50005"},"geometry":{"type":"Polygon","coordinates":[[[-73.95461,40.73232],[-73.95794,40.73201],[-73.95783,40.7313],[-73.95948,40.73114],[-73.95971,40.73256],[-73.95806,40.73272],[-73.95818,40.73343],[-73.95226,40.73399],[-73.95213,40.73328],[-73.95473,40.73303],[-73.95461,40.73232]]]}},{"type":"Feature","properties":{"e":"50006"},"geometry":{"type":"Polygon","coordinates":[[[-73.95425,40.7302],[-73.95759,40.72988],[-73.95794,40.73201],[-73.95461,40.73232],[-73.95425,40.7302]]]}},{"type":"Feature","properties":{"e":"50007"},"geometry":{"type":"Polygon","coordinates":[[[-73.95783,40.7313],[-73.95759,40.72988],[-73.95425,40.7302],[-73.95396,40.7295],[-73.95748,40.72917],[-73.95736,40.72846],[-73.96114,40.7281],[-73.96102,40.7287],[-73.96143,40.73095],[-73.96175,40.73166],[-73.96203,40.73238],[-73.95971,40.73256],[-73.95948,40.73114],[-73.95783,40.7313]]]}},{"type":"Feature","properties":{"e":"50008"},"geometry":{"type":"Polygon","coordinates":[[[-73.95241,40.72842],[-73.95633,40.72712],[-73.95722,40.72703],[-73.95735,40.7263],[-73.95979,40.7261],[-73.96029,40.72595],[-73.96106,40.72584],[-73.96162,40.72587],[-73.96165,40.7262],[-73.96162,40.72666],[-73.9615,40.72675],[-73.96142,40.72736],[-73.96114,40.7281],[-73.95736,40.72846],[-73.95748,40.72917],[-73.95396,40.7295],[-73.95425,40.7302],[-73.95347,40.73027],[-73.95241,40.72842]]]}},{"type":"Feature","properties":{"e":"50009"},"geometry":{"type":"Polygon","coordinates":[[[-73.95427,40.7246],[-73.95332,40.72293],[-73.95165,40.72349],[-73.95065,40.72171],[-73.95271,40.72045],[-73.95347,40.7198],[-73.95604,40.7214],[-73.95842,40.71919],[-73.96149,40.72112],[-73.96276,40.7224],[-73.96224,40.72357],[-73.96201,40.72399],[-73.96189,40.72411],[-73.96166,40.72486],[-73.96211,40.72515],[-73.9619,40.72532],[-73.96154,40.72511],[-73.96116,40.72526],[-73.96043,40.72511],[-73.96037,40.72505],[-73.95833,40.72441],[-73.95804,40.72443],[-73.95794,40.72465],[-73.95795,40.72504],[-73.95835,40.7252],[-73.95843,40.7254],[-73.96013,40.72532],[-73.96029,40.72595],[-73.95979,40.7261],[-73.95735,40.7263],[-73.95772,40.72429],[-73.95627,40.72339],[-73.95531,40.72427],[-73.95427,40.7246]]]}},{"type":"Feature","properties":{"e":"50010"},"geometry":{"type":"Polygon","coordinates":[[[-73.94709,40.72278],[-73.94908,40.72254],[-73.94987,40.72218],[-73.95079,40.72377],[-73.94817,40.72464],[-73.94709,40.72278]]]}},{"type":"Feature","properties":{"e":"50011"},"geometry":{"type":"Polygon","coordinates":[[[-73.94222,40.72327],[-73.94627,40.72286],[-73.94742,40.72488],[-73.94577,40.72543],[-73.94543,40.72552],[-73.94264,40.72579],[-73.94222,40.72327]]]}},{"type":"Feature","properties":{"e":"50012"},"geometry":{"type":"Polygon","coordinates":[[[-73.96285,40.71727],[-73.96447,40.71573],[-73.9655,40.71348],[-73.96839,40.71426],[-73.96736,40.71648],[-73.96724,40.71659],[-73.96726,40.71667],[-73.96711,40.71691],[-73.96725,40.71699],[-73.96655,40.71804],[-73.96653,40.71803],[-73.96631,40.71832],[-73.9662,40.71825],[-73.96552,40.71892],[-73.96285,40.71727]]]}},{"type":"Feature","properties":{"e":"50013"},"geometry":{"type":"Polygon","coordinates":[[[-73.94294,40.72766],[-73.94588,40.72735],[-73.94684,40.72903],[-73.95182,40.72738],[-73.95347,40.73027],[-73.94877,40.73072],[-73.9479,40.73088],[-73.94372,40.73239],[-73.94294,40.72766]]]}},{"type":"Feature","properties":{"e":"50014"},"geometry":{"type":"Polygon","coordinates":[[[-73.95182,40.72738],[-73.95268,40.7271],[-73.95174,40.72544],[-73.95531,40.72427],[-73.95627,40.72339],[-73.95772,40.72429],[-73.95722,40.72703],[-73.95633,40.72712],[-73.95241,40.72842],[-73.95182,40.72738]]]}},{"type":"Feature","properties":{"e":"50015"},"geometry":{"type":"Polygon","coordinates":[[[-73.95182,40.72738],[-73.94992,40.72406],[-73.95079,40.72377],[-73.94987,40.72218],[-73.95065,40.72171],[-73.95165,40.72349],[-73.95332,40.72293],[-73.95427,40.7246],[-73.95174,40.72544],[-73.95268,40.7271],[-73.95182,40.72738]]]}},{"type":"Feature","properties":{"e":"50016"},"geometry":{"type":"Polygon","coordinates":[[[-73.94588,40.72735],[-73.95087,40.72572],[-73.95182,40.72738],[-73.94684,40.72903],[-73.94588,40.72735]]]}},{"type":"Feature","properties":{"e":"50017"},"geometry":{"type":"Polygon","coordinates":[[[-73.94169,40.72588],[-73.94543,40.72552],[-73.94659,40.72516],[-73.94754,40.72682],[-73.94574,40.72738],[-73.94199,40.72775],[-73.94169,40.72588]]]}},{"type":"Feature","properties":{"e":"50018"},"geometry":{"type":"Polygon","coordinates":[[[-73.94659,40.72516],[-73.94742,40.72488],[-73.94627,40.72286],[-73.94709,40.72278],[-73.94817,40.72464],[-73.94992,40.72406],[-73.95087,40.72572],[-73.94754,40.72682],[-73.94659,40.72516]]]}},{"type":"Feature","properties":{"e":"50019"},"geometry":{"type":"Polygon","coordinates":[[[-73.93676,40.72484],[-73.93705,40.72457],[-73.93739,40.72433],[-73.93849,40.72381],[-73.93931,40.72335],[-73.94022,40.72289],[-73.94074,40.72597],[-73.94169,40.72588],[-73.94199,40.72775],[-73.9382,40.7281],[-73.93724,40.72779],[-73.93676,40.72484]]]}},{"type":"Feature","properties":{"e":"50020"},"geometry":{"type":"Polygon","coordinates":[[[-73.94022,40.72289],[-73.94109,40.72231],[-73.94196,40.72165],[-73.94282,40.72114],[-73.94315,40.72318],[-73.94222,40.72327],[-73.94264,40.72579],[-73.94074,40.72597],[-73.94022,40.72289]]]}},{"type":"Feature","properties":{"e":"50021"},"geometry":{"type":"Polygon","coordinates":[[[-73.94282,40.72114],[-73.9456,40.71957],[-73.94698,40.72147],[-73.94747,40.72273],[-73.94315,40.72318],[-73.94282,40.72114]]]}},{"type":"Feature","properties":{"e":"50022"},"geometry":{"type":"Polygon","coordinates":[[[-73.9456,40.71957],[-73.94721,40.71856],[-73.95007,40.7183],[-73.95065,40.72171],[-73.94987,40.72218],[-73.94908,40.72254],[-73.94747,40.72273],[-73.94698,40.72147],[-73.9456,40.71957]]]}},{"type":"Feature","properties":{"e":"50023"},"geometry":{"type":"Polygon","coordinates":[[[-73.95065,40.72171],[-73.94983,40.7169],[-73.95114,40.71603],[-73.95184,40.71544],[-73.95212,40.7171],[-73.95466,40.71869],[-73.95347,40.7198],[-73.95271,40.72045],[-73.95065,40.72171]]]}},{"type":"Feature","properties":{"e":"50024"},"geometry":{"type":"Polygon","coordinates":[[[-73.95466,40.71869],[-73.9534,40.71791],[-73.95519,40.71625],[-73.95901,40.71864],[-73.95842,40.71919],[-73.95584,40.71759],[-73.95466,40.71869]]]}},{"type":"Feature","properties":{"e":"50025"},"geometry":{"type":"Polygon","coordinates":[[[-73.95773,40.71783],[-73.95275,40.71474],[-73.95348,40.71407],[-73.95466,40.71408],[-73.95891,40.71673],[-73.95773,40.71783]]]}},{"type":"Feature","properties":{"e":"50026"},"geometry":{"type":"Polygon","coordinates":[[[-73.95347,40.7198],[-73.95584,40.71759],[-73.95842,40.71919],[-73.95604,40.7214],[-73.95347,40.7198]]]}},{"type":"Feature","properties":{"e":"50027"},"geometry":{"type":"Polygon","coordinates":[[[-73.95842,40.71919],[-73.95901,40.71864],[-73.96043,40.71952],[-73.96103,40.71897],[-73.96327,40.72038],[-73.964,40.72094],[-73.96354,40.72157],[-73.96344,40.72156],[-73.96297,40.72203],[-73.96276,40.7224],[-73.96149,40.72112],[-73.95842,40.71919]]]}},{"type":"Feature","properties":{"e":"50028"},"geometry":{"type":"Polygon","coordinates":[[[-73.96043,40.71952],[-73.95773,40.71783],[-73.95951,40.71617],[-73.96222,40.71786],[-73.96043,40.71952]]]}},{"type":"Feature","properties":{"e":"50029"},"geometry":{"type":"Polygon","coordinates":[[[-73.96103,40.71897],[-73.96222,40.71786],[-73.96349,40.71867],[-73.96396,40.71888],[-73.96424,40.71905],[-73.96427,40.71912],[-73.96425,40.71918],[-73.96369,40.7197],[-73.96403,40.71991],[-73.96401,40.72002],[-73.96425,40.72021],[-73.96411,40.72043],[-73.96424,40.72061],[-73.96407,40.7208],[-73.964,40.72094],[-73.96327,40.72038],[-73.96103,40.71897]]]}},{"type":"Feature","properties":{"e":"50030"},"geometry":{"type":"Polygon","coordinates":[[[-73.96222,40.71786],[-73.96285,40.71727],[-73.96552,40.71892],[-73.96512,40.71923],[-73.96532,40.71941],[-73.9654,40.71964],[-73.96535,40.71997],[-73.96523,40.72019],[-73.96503,40.72038],[-73.96448,40.72004],[-73.96433,40.72021],[-73.96445,40.72028],[-73.96433,40.72039],[-73.9644,40.72044],[-73.96424,40.72061],[-73.96411,40.72043],[-73.96425,40.72021],[-73.96401,40.72002],[-73.96403,40.71991],[-73.96369,40.7197],[-73.96425,40.71918],[-73.96427,40.71912],[-73.96424,40.71905],[-73.96396,40.71888],[-73.96349,40.71867],[-73.96222,40.71786]]]}},{"type":"Feature","properties":{"e":"50031"},"geometry":{"type":"Polygon","coordinates":[[[-73.9655,40.71348],[-73.96626,40.71179],[-73.96887,40.71258],[-73.96878,40.71276],[-73.96872,40.71274],[-73.96867,40.71286],[-73.9685,40.71281],[-73.96847,40.71282],[-73.96844,40.71294],[-73.96856,40.71299],[-73.96851,40.71311],[-73.96885,40.71321],[-73.96839,40.71426],[-73.9655,40.71348]]]}},{"type":"Feature","properties":{"e":"50032"},"geometry":{"type":"Polygon","coordinates":[[[-73.96626,40.71179],[-73.96678,40.71063],[-73.9671,40.70905],[-73.96848,40.70919],[-73.96852,40.71004],[-73.96961,40.71015],[-73.96961,40.71027],[-73.96969,40.71032],[-73.97001,40.71039],[-73.97006,40.71043],[-73.97006,40.71049],[-73.96999,40.71053],[-73.96966,40.7105],[-73.96963,40.71066],[-73.96977,40.71069],[-73.96977,40.71079],[-73.96969,40.71085],[-73.96942,40.71094],[-73.96937,40.71102],[-73.96991,40.71127],[-73.96931,40.71111],[-73.96923,40.71124],[-73.96929,40.71127],[-73.96923,40.71143],[-73.96914,40.71146],[-73.96887,40.71223],[-73.96882,40.71225],[-73.96887,40.71227],[-73.96884,40.71239],[-73.96894,40.71242],[-73.96887,40.71258],[-73.96626,40.71179]]]}},{"type":"Feature","properties":{"e":"50033"},"geometry":{"type":"Polygon","coordinates":[[[-73.9671,40.70905],[-73.96742,40.70745],[-73.96729,40.707],[-73.96702,40.70628],[-73.96795,40.70573],[-73.96838,40.70683],[-73.96929,40.70709],[-73.96985,40.708],[-73.96994,40.7093],[-73.96961,40.71015],[-73.96852,40.71004],[-73.96848,40.70919],[-73.9671,40.70905]]]}},{"type":"Feature","properties":{"e":"50034"},"geometry":{"type":"Polygon","coordinates":[[[-73.96403,40.70953],[-73.96442,40.70753],[-73.96485,40.70745],[-73.96512,40.70713],[-73.96674,40.70682],[-73.96729,40.707],[-73.96742,40.70745],[-73.96678,40.71063],[-73.96551,40.71045],[-73.96564,40.70972],[-73.96403,40.70953]]]}},{"type":"Feature","properties":{"e":"50035"},"geometry":{"type":"Polygon","coordinates":[[[-73.96375,40.70648],[-73.96632,40.70483],[-73.96653,40.70507],[-73.96663,40.70525],[-73.96729,40.707],[-73.96674,40.70682],[-73.96512,40.70713],[-73.96485,40.70745],[-73.96465,40.70724],[-73.96439,40.70706],[-73.96375,40.70648]]]}},{"type":"Feature","properties":{"e":"50036"},"geometry":{"type":"Polygon","coordinates":[[[-73.96367,40.70361],[-73.96443,40.70312],[-73.96632,40.70483],[-73.96555,40.70533],[-73.96372,40.70373],[-73.96367,40.70361]]]}},{"type":"Feature","properties":{"e":"50037"},"geometry":{"type":"Polygon","coordinates":[[[-73.95911,40.70498],[-73.96115,40.70139],[-73.96239,40.70251],[-73.9643,40.70301],[-73.96443,40.70312],[-73.96015,40.7059],[-73.95911,40.70498]]]}},{"type":"Feature","properties":{"e":"50038"},"geometry":{"type":"Polygon","coordinates":[[[-73.96187,40.70479],[-73.96367,40.70361],[-73.96372,40.70373],[-73.96555,40.70533],[-73.96375,40.70648],[-73.96187,40.70479]]]}},{"type":"Feature","properties":{"e":"50039"},"geometry":{"type":"Polygon","coordinates":[[[-73.96328,40.70773],[-73.9594,40.70735],[-73.96078,40.70646],[-73.96015,40.7059],[-73.96187,40.70479],[-73.96439,40.70706],[-73.96465,40.70724],[-73.96485,40.70745],[-73.96328,40.70773]]]}},{"type":"Feature","properties":{"e":"50040"},"geometry":{"type":"Polygon","coordinates":[[[-73.96257,40.70854],[-73.95968,40.70821],[-73.95985,40.70794],[-73.95994,40.70741],[-73.96328,40.70773],[-73.96442,40.70753],[-73.96403,40.70953],[-73.96241,40.70935],[-73.96257,40.70854]]]}},{"type":"Feature","properties":{"e":"50041"},"geometry":{"type":"Polygon","coordinates":[[[-73.95925,40.7089],[-73.95554,40.70759],[-73.95338,40.70686],[-73.95413,40.70692],[-73.95442,40.70667],[-73.95474,40.70697],[-73.95777,40.70718],[-73.95794,40.70688],[-73.95831,40.70723],[-73.95846,40.70725],[-73.95855,40.70688],[-73.96015,40.7059],[-73.96078,40.70646],[-73.9594,40.70735],[-73.95994,40.70741],[-73.95985,40.70794],[-73.95968,40.70821],[-73.96098,40.70836],[-73.96079,40.7094],[-73.95925,40.7089]]]}},{"type":"Feature","properties":{"e":"50042"},"geometry":{"type":"Polygon","coordinates":[[[-73.95338,40.70686],[-73.95291,40.7067],[-73.9557,40.70488],[-73.95634,40.70544],[-73.95824,40.7042],[-73.96015,40.7059],[-73.95855,40.70688],[-73.95846,40.70725],[-73.95831,40.70723],[-73.95794,40.70688],[-73.95777,40.70718],[-73.95474,40.70697],[-73.95442,40.70667],[-73.95413,40.70692],[-73.95338,40.70686]]]}},{"type":"Feature","properties":{"e":"50043"},"geometry":{"type":"Polygon","coordinates":[[[-73.95634,40.70544],[-73.95507,40.70431],[-73.95698,40.70307],[-73.95762,40.70364],[-73.95933,40.70253],[-73.96011,40.70323],[-73.95911,40.70498],[-73.95824,40.7042],[-73.95634,40.70544]]]}},{"type":"Feature","properties":{"e":"50044"},"geometry":{"type":"Polygon","coordinates":[[[-73.95291,40.7067],[-73.95191,40.70636],[-73.95024,40.70547],[-73.94925,40.7049],[-73.94879,40.70448],[-73.95023,40.70356],[-73.95025,40.70294],[-73.9519,40.70442],[-73.95381,40.70318],[-73.9557,40.70488],[-73.95291,40.7067]]]}},{"type":"Feature","properties":{"e":"50045"},"geometry":{"type":"Polygon","coordinates":[[[-73.9519,40.70442],[-73.95001,40.70273],[-73.95192,40.70149],[-73.95255,40.70205],[-73.95446,40.70082],[-73.95635,40.70251],[-73.95444,40.70375],[-73.95381,40.70318],[-73.9519,40.70442]]]}},{"type":"Feature","properties":{"e":"50046"},"geometry":{"type":"Polygon","coordinates":[[[-73.95255,40.70205],[-73.95066,40.70035],[-73.95014,40.69992],[-73.95009,40.69979],[-73.95337,40.6994],[-73.95401,40.70037],[-73.95446,40.70082],[-73.95255,40.70205]]]}},{"type":"Feature","properties":{"e":"50047"},"geometry":{"type":"Polygon","coordinates":[[[-73.95444,40.70375],[-73.95635,40.70251],[-73.95509,40.70138],[-73.95723,40.7],[-73.95746,40.70082],[-73.95933,40.70253],[-73.95762,40.70364],[-73.95698,40.70307],[-73.95507,40.70431],[-73.95444,40.70375]]]}},{"type":"Feature","properties":{"e":"50048"},"geometry":{"type":"Polygon","coordinates":[[[-73.95509,40.70138],[-73.95401,40.70037],[-73.95337,40.6994],[-73.95702,40.69897],[-73.96248,40.6981],[-73.96186,40.70003],[-73.9605,40.69918],[-73.95779,40.69961],[-73.95509,40.70138]]]}},{"type":"Feature","properties":{"e":"50049"},"geometry":{"type":"Polygon","coordinates":[[[-73.96011,40.70323],[-73.95746,40.70082],[-73.95723,40.7],[-73.95779,40.69961],[-73.9605,40.69918],[-73.96186,40.70003],[-73.96121,40.70145],[-73.96115,40.70139],[-73.96011,40.70323]]]}},{"type":"Feature","properties":{"e":"50050"},"geometry":{"type":"Polygon","coordinates":[[[-73.96626,40.71179],[-73.96112,40.71023],[-73.9606,40.71011],[-73.96038,40.71],[-73.96,40.70994],[-73.95749,40.70908],[-73.9579,40.70843],[-73.95925,40.7089],[-73.96079,40.7094],[-73.96098,40.70836],[-73.96257,40.70854],[-73.96241,40.70935],[-73.96564,40.70972],[-73.96551,40.71045],[-73.96678,40.71063],[-73.96626,40.71179]]]}},{"type":"Feature","properties":{"e":"50051"},"geometry":{"type":"Polygon","coordinates":[[[-73.96255,40.71253],[-73.96294,40.7119],[-73.96142,40.71135],[-73.96196,40.71049],[-73.96626,40.71179],[-73.9655,40.71348],[-73.96407,40.71308],[-73.96255,40.71253]]]}},{"type":"Feature","properties":{"e":"50052"},"geometry":{"type":"Polygon","coordinates":[[[-73.9598,40.71389],[-73.96016,40.71335],[-73.96168,40.7139],[-73.96255,40.71253],[-73.96407,40.71308],[-73.9655,40.71348],[-73.96447,40.71573],[-73.96278,40.71511],[-73.9598,40.71389]]]}},{"type":"Feature","properties":{"e":"50053"},"geometry":{"type":"Polygon","coordinates":[[[-73.96222,40.71786],[-73.95822,40.71537],[-73.9598,40.71389],[-73.96278,40.71511],[-73.96447,40.71573],[-73.96222,40.71786]]]}},{"type":"Feature","properties":{"e":"50054"},"geometry":{"type":"Polygon","coordinates":[[[-73.95599,40.71409],[-73.95316,40.71407],[-73.95352,40.71373],[-73.95355,40.71363],[-73.95375,40.71348],[-73.95424,40.71293],[-73.95487,40.71204],[-73.95834,40.71331],[-73.95756,40.7145],[-73.95599,40.71409]]]}},{"type":"Feature","properties":{"e":"50055"},"geometry":{"type":"Polygon","coordinates":[[[-73.94983,40.7169],[-73.95007,40.7183],[-73.94721,40.71856],[-73.94904,40.71743],[-73.94983,40.7169]]]}},{"type":"Feature","properties":{"e":"50056"},"geometry":{"type":"Polygon","coordinates":[[[-73.94913,40.71261],[-73.94889,40.71117],[-73.95164,40.71091],[-73.95487,40.71204],[-73.95424,40.71293],[-73.95375,40.71348],[-73.95355,40.71363],[-73.95352,40.71373],[-73.95316,40.71407],[-73.95291,40.71406],[-73.95178,40.71502],[-73.95136,40.7124],[-73.94913,40.71261]]]}},{"type":"Feature","properties":{"e":"50057"},"geometry":{"type":"Polygon","coordinates":[[[-73.94069,40.71196],[-73.94889,40.71117],[-73.94913,40.71261],[-73.94139,40.71335],[-73.94069,40.71196]]]}},{"type":"Feature","properties":{"e":"50058"},"geometry":{"type":"Polygon","coordinates":[[[-73.94783,40.71491],[-73.94748,40.71277],[-73.95136,40.7124],[-73.95178,40.71502],[-73.95144,40.71528],[-73.9496,40.71546],[-73.94948,40.71476],[-73.94783,40.71491]]]}},{"type":"Feature","properties":{"e":"50059"},"geometry":{"type":"Polygon","coordinates":[[[-73.94207,40.71473],[-73.94139,40.71335],[-73.94748,40.71277],[-73.94783,40.71491],[-73.9445,40.71523],[-73.94439,40.71453],[-73.94207,40.71473]]]}},{"type":"Feature","properties":{"e":"50060"},"geometry":{"type":"Polygon","coordinates":[[[-73.94675,40.71861],[-73.94619,40.71507],[-73.94948,40.71476],[-73.9496,40.71546],[-73.95144,40.71528],[-73.95032,40.71611],[-73.94976,40.71648],[-73.94983,40.7169],[-73.94904,40.71743],[-73.94721,40.71856],[-73.94675,40.71861]]]}},{"type":"Feature","properties":{"e":"50061"},"geometry":{"type":"Polygon","coordinates":[[[-73.94184,40.71692],[-73.94208,40.71618],[-73.94216,40.71545],[-73.94216,40.71506],[-73.94207,40.71473],[-73.94439,40.71453],[-73.9445,40.71523],[-73.94619,40.71507],[-73.94653,40.7172],[-73.94127,40.7177],[-73.94184,40.71692]]]}},{"type":"Feature","properties":{"e":"50062"},"geometry":{"type":"Polygon","coordinates":[[[-73.94049,40.71868],[-73.94127,40.7177],[-73.94653,40.7172],[-73.94675,40.71861],[-73.94664,40.71862],[-73.94614,40.71891],[-73.94427,40.72007],[-73.94343,40.71893],[-73.94059,40.71921],[-73.94049,40.71868]]]}},{"type":"Feature","properties":{"e":"50063"},"geometry":{"type":"Polygon","coordinates":[[[-73.9278,40.72501],[-73.93711,40.7226],[-73.93589,40.71987],[-73.94049,40.71868],[-73.94059,40.71921],[-73.94343,40.71893],[-73.94427,40.72007],[-73.94212,40.72129],[-73.94018,40.72263],[-73.9393,40.72311],[-73.93812,40.72366],[-73.93721,40.72397],[-73.93617,40.72427],[-73.93631,40.72444],[-73.93638,40.72447],[-73.93655,40.72448],[-73.93668,40.72455],[-73.93677,40.72468],[-73.93676,40.72484],[-73.93412,40.72686],[-73.93213,40.72816],[-73.932,40.72815],[-73.93168,40.72803],[-73.9308,40.72785],[-73.93033,40.7278],[-73.92966,40.72753],[-73.92958,40.72761],[-73.92924,40.7274],[-73.92927,40.72737],[-73.92849,40.72661],[-73.92805,40.72607],[-73.92794,40.72588],[-73.92787,40.72585],[-73.9278,40.72501]]]}},{"type":"Feature","properties":{"e":"50064"},"geometry":{"type":"Polygon","coordinates":[[[-73.93213,40.72816],[-73.93412,40.72686],[-73.93676,40.72484],[-73.93724,40.72779],[-73.9382,40.7281],[-73.94294,40.72766],[-73.94372,40.73239],[-73.9428,40.73265],[-73.94204,40.73277],[-73.9415,40.73288],[-73.94064,40.73317],[-73.94057,40.73306],[-73.94068,40.73302],[-73.94037,40.73221],[-73.93981,40.73115],[-73.93975,40.73107],[-73.93891,40.73038],[-73.93856,40.73013],[-73.9381,40.72973],[-73.93809,40.72975],[-73.93693,40.72911],[-73.93493,40.72854],[-73.93421,40.72844],[-73.93422,40.72839],[-73.9335,40.7283],[-73.93326,40.72824],[-73.93302,40.72821],[-73.93291,40.72823],[-73.93241,40.72815],[-73.93235,40.72818],[-73.93213,40.72816]]]}},{"type":"Feature","properties":{"e":"50065"},"geometry":{"type":"Polygon","coordinates":[[[-73.95466,40.71408],[-73.95599,40.71409],[-73.95756,40.7145],[-73.95834,40.71331],[-73.9598,40.71389],[-73.95822,40.71537],[-73.95951,40.71617],[-73.95891,40.71673],[-73.95466,40.71408]]]}},{"type":"Feature","properties":{"e":"50066"},"geometry":{"type":"Polygon","coordinates":[[[-73.95184,40.71544],[-73.95275,40.71474],[-73.95519,40.71625],[-73.9534,40.71791],[-73.95212,40.7171],[-73.95184,40.71544]]]}},{"type":"Feature","properties":{"e":"50067"},"geometry":{"type":"Polygon","coordinates":[[[-73.9550754428888,40.7351680017275],[-73.9549602145621,40.7344574819523],[-73.9548440994407,40.7337485213152],[-73.9581773320959,40.7334339437681],[-73.9580608297776,40.7327242290932],[-73.9597132996694,40.7325670730006],[-73.9617690238562,40.7324091033599],[-73.9620360206025,40.7323886318216],[-73.9622648406156,40.7329238134997],[-73.9623053544525,40.7331219228956],[-73.9623420583773,40.7333974885992],[-73.9623098127411,40.7335405867617],[-73.9623332130163,40.7336312860825],[-73.96232993904,40.7337626033681],[-73.959946181217,40.7339870533071],[-73.9600421512009,40.7346811170372],[-73.9601713758858,40.7354062089865],[-73.9589287511575,40.7360661614699],[-73.9586368381469,40.7362211915466],[-73.9585256229864,40.7355606830561],[-73.9584095506095,40.7348524094938],[-73.9550754428888,40.7351680017275]]]}},{"type":"Feature","properties":{"e":"50068"},"geometry":{"type":"Polygon","coordinates":[[[-73.9519216197873,40.7014958052397],[-73.9533723951654,40.700553917232],[-73.9538878588947,40.7002192512367],[-73.9538209480344,40.7001162418661],[-73.9541238531434,40.7000805134903],[-73.9558969023961,40.6998713509242],[-73.9544612361669,40.7008245425003],[-73.9525519585233,40.7020599231845],[-73.9506417918448,40.7032956299898],[-73.9502272207549,40.703564498362],[-73.9502489315209,40.7029485664069],[-73.9500145095319,40.7027340529317],[-73.9502524152215,40.7025778542497],[-73.9519216197873,40.7014958052397]]]}}]}