{"type":"FeatureCollection","ad":51,"features":[{"type":"Feature","properties":{"e":"51001"},"geometry":{"type":"Polygon","coordinates":[[[-74.02417,40.63867],[-74.02195,40.63745],[-74.02263,40.6368],[-74.02324,40.63532],[-74.02575,40.63647],[-74.02547,40.63714],[-74.02583,40.63731],[-74.028,40.63814],[-74.0278,40.63863],[-74.02635,40.64002],[-74.02417,40.63867]]]}},{"type":"Feature","properties":{"e":"51002"},"geometry":{"type":"Polygon","coordinates":[[[-74.02031,40.63747],[-74.0176,40.63583],[-74.01691,40.6353],[-74.01751,40.63475],[-74.0178,40.63417],[-74.01824,40.63303],[-74.02324,40.63532],[-74.02263,40.6368],[-74.02117,40.63818],[-74.02076,40.63781],[-74.02031,40.63747]]]}},{"type":"Feature","properties":{"e":"51003"},"geometry":{"type":"Polygon","coordinates":[[[-74.02635,40.64002],[-74.02624,40.64013],[-74.02579,40.64004],[-74.02566,40.63996],[-74.02539,40.63993],[-74.02457,40.63992],[-74.02396,40.64],[-74.02336,40.64014],[-74.02284,40.64033],[-74.02243,40.64052],[-74.02174,40.64092],[-74.02235,40.64049],[-74.02297,40.63993],[-74.02417,40.63867],[-74.02635,40.64002]]]}},{"type":"Feature","properties":{"e":"51004"},"geometry":{"type":"Polygon","coordinates":[[[-74.02117,40.63818],[-74.02195,40.63745],[-74.02417,40.63867],[-74.02297,40.63993],[-74.02235,40.64049],[-74.02135,40.64118],[-74.02153,40.64087],[-74.02173,40.6404],[-74.0218,40.64011],[-74.02185,40.63971],[-74.02181,40.63939],[-74.02166,40.63887],[-74.02144,40.63849],[-74.02117,40.63818]]]}},{"type":"Feature","properties":{"e":"51005"},"geometry":{"type":"Polygon","coordinates":[[[-74.01843,40.64084],[-74.02117,40.63818],[-74.02144,40.63849],[-74.02166,40.63887],[-74.02183,40.6395],[-74.02185,40.63982],[-74.02173,40.6404],[-74.02153,40.64087],[-74.02135,40.64118],[-74.02087,40.64155],[-74.0204,40.64204],[-74.01843,40.64084]]]}},{"type":"Feature","properties":{"e":"51006"},"geometry":{"type":"Polygon","coordinates":[[[-74.0163,40.64598],[-74.02071,40.64174],[-74.02087,40.64155],[-74.02101,40.64145],[-74.02337,40.64289],[-74.01867,40.64741],[-74.0163,40.64598]]]}},{"type":"Feature","properties":{"e":"51007"},"geometry":{"type":"Polygon","coordinates":[[[-74.0144,40.64119],[-74.01617,40.63948],[-74.0204,40.64204],[-74.01862,40.64374],[-74.0144,40.64119]]]}},{"type":"Feature","properties":{"e":"51008"},"geometry":{"type":"Polygon","coordinates":[[[-74.01432,40.64479],[-74.01549,40.64367],[-74.01323,40.64231],[-74.0144,40.64119],[-74.01862,40.64374],[-74.0163,40.64598],[-74.01432,40.64479]]]}},{"type":"Feature","properties":{"e":"51009"},"geometry":{"type":"Polygon","coordinates":[[[-74.01617,40.63948],[-74.01905,40.6367],[-74.02031,40.63747],[-74.02076,40.63781],[-74.02117,40.63818],[-74.01843,40.64084],[-74.01617,40.63948]]]}},{"type":"Feature","properties":{"e":"51010"},"geometry":{"type":"Polygon","coordinates":[[[-74.01278,40.6393],[-74.01691,40.6353],[-74.0176,40.63583],[-74.01905,40.6367],[-74.01498,40.64063],[-74.01278,40.6393]]]}},{"type":"Feature","properties":{"e":"51011"},"geometry":{"type":"Polygon","coordinates":[[[-74.01374,40.64535],[-74.00928,40.64266],[-74.01045,40.64154],[-74.01265,40.64287],[-74.01323,40.64231],[-74.01549,40.64367],[-74.01374,40.64535]]]}},{"type":"Feature","properties":{"e":"51012"},"geometry":{"type":"Polygon","coordinates":[[[-74.01045,40.64154],[-74.01278,40.6393],[-74.01498,40.64063],[-74.01265,40.64287],[-74.01045,40.64154]]]}},{"type":"Feature","properties":{"e":"51013"},"geometry":{"type":"Polygon","coordinates":[[[-74.00915,40.64623],[-74.01148,40.64399],[-74.01374,40.64535],[-74.01141,40.64759],[-74.00915,40.64623]]]}},{"type":"Feature","properties":{"e":"51014"},"geometry":{"type":"Polygon","coordinates":[[[-74.012,40.64703],[-74.01432,40.64479],[-74.01867,40.64741],[-74.01634,40.64966],[-74.012,40.64703]]]}},{"type":"Feature","properties":{"e":"51015"},"geometry":{"type":"Polygon","coordinates":[[[-74.01442,40.65761],[-74.01397,40.65737],[-74.01049,40.65528],[-74.01343,40.65245],[-74.00909,40.64982],[-74.012,40.64703],[-74.01634,40.64966],[-74.01809,40.64797],[-74.02029,40.6493],[-74.02302,40.65101],[-74.02272,40.6513],[-74.02262,40.65131],[-74.02154,40.65067],[-74.02134,40.65085],[-74.02128,40.65082],[-74.02125,40.65084],[-74.02113,40.65094],[-74.02105,40.6511],[-74.0209,40.65125],[-74.02381,40.65304],[-74.02359,40.65322],[-74.02353,40.6531],[-74.02333,40.65294],[-74.02294,40.65288],[-74.02285,40.65274],[-74.02196,40.65222],[-74.02187,40.65222],[-74.02162,40.65232],[-74.02123,40.6527],[-74.02119,40.65284],[-74.0232,40.6541],[-74.02306,40.65423],[-74.0221,40.65359],[-74.02188,40.65355],[-74.02163,40.65365],[-74.02128,40.65397],[-74.02124,40.65413],[-74.02115,40.65421],[-74.02182,40.65466],[-74.02164,40.65488],[-74.02089,40.65443],[-74.02064,40.65444],[-74.0206,40.65441],[-74.0206,40.65429],[-74.02047,40.65422],[-74.02024,40.65422],[-74.02002,40.65417],[-74.01962,40.65417],[-74.01942,40.654],[-74.01919,40.65402],[-74.01924,40.65394],[-74.01918,40.65389],[-74.01897,40.65387],[-74.01873,40.65347],[-74.01862,40.65349],[-74.01812,40.65389],[-74.02026,40.65512],[-74.02005,40.65534],[-74.01787,40.65406],[-74.01715,40.65478],[-74.01747,40.65493],[-74.01742,40.65499],[-74.0198,40.65649],[-74.01971,40.65658],[-74.01727,40.65519],[-74.01692,40.65548],[-74.01665,40.65534],[-74.01639,40.65562],[-74.01911,40.65737],[-74.01861,40.65785],[-74.01585,40.65621],[-74.01544,40.65663],[-74.01774,40.6581],[-74.01767,40.65819],[-74.01787,40.65831],[-74.01769,40.65845],[-74.01749,40.65834],[-74.01751,40.65827],[-74.01505,40.65695],[-74.01442,40.65761]]]}},{"type":"Feature","properties":{"e":"51016"},"geometry":{"type":"Polygon","coordinates":[[[-74.00637,40.64546],[-74.00928,40.64266],[-74.01148,40.64399],[-74.00857,40.64679],[-74.00637,40.64546]]]}},{"type":"Feature","properties":{"e":"51017"},"geometry":{"type":"Polygon","coordinates":[[[-74.0052,40.64658],[-74.00637,40.64546],[-74.00857,40.64679],[-74.00915,40.64623],[-74.01141,40.64759],[-74.01025,40.64871],[-74.00799,40.64734],[-74.00741,40.64791],[-74.0052,40.64658]]]}},{"type":"Feature","properties":{"e":"51018"},"geometry":{"type":"Polygon","coordinates":[[[-74.00624,40.64902],[-74.00682,40.64846],[-74.00462,40.64713],[-74.0052,40.64658],[-74.00741,40.64791],[-74.00799,40.64734],[-74.01025,40.64871],[-74.0085,40.65039],[-74.00624,40.64902]]]}},{"type":"Feature","properties":{"e":"51019"},"geometry":{"type":"Polygon","coordinates":[[[-74.00507,40.65015],[-74.00624,40.64902],[-74.0085,40.65039],[-74.00909,40.64982],[-74.01343,40.65245],[-74.01168,40.65413],[-74.00507,40.65015]]]}},{"type":"Feature","properties":{"e":"51020"},"geometry":{"type":"Polygon","coordinates":[[[-74.00217,40.65295],[-74.00507,40.65015],[-74.01168,40.65413],[-74.00879,40.65696],[-74.00217,40.65295]]]}},{"type":"Feature","properties":{"e":"51021"},"geometry":{"type":"Polygon","coordinates":[[[-74.00419,40.66153],[-74.00176,40.66001],[-74.00294,40.65888],[-73.99867,40.65631],[-74.00217,40.65295],[-74.00879,40.65696],[-74.01049,40.65528],[-74.01746,40.65945],[-74.01554,40.66076],[-74.014,40.65981],[-74.01366,40.66003],[-74.01184,40.65891],[-74.01142,40.65933],[-74.01111,40.65971],[-74.01402,40.66153],[-74.01316,40.66198],[-74.01265,40.66198],[-74.01023,40.66046],[-74.0086,40.65952],[-74.00746,40.66056],[-74.01037,40.6624],[-74.01046,40.66264],[-74.00955,40.66327],[-74.00868,40.66337],[-74.00616,40.66185],[-74.00569,40.66227],[-74.00428,40.66144],[-74.00419,40.66153]]]}},{"type":"Feature","properties":{"e":"51022"},"geometry":{"type":"Polygon","coordinates":[[[-73.99684,40.66903],[-73.99632,40.66807],[-73.99619,40.66771],[-73.99607,40.66726],[-73.99604,40.66649],[-73.99609,40.66613],[-73.99618,40.66576],[-73.99645,40.66525],[-73.99676,40.66484],[-73.99887,40.66279],[-73.99459,40.66023],[-73.99867,40.65631],[-74.00294,40.65888],[-74.00176,40.66001],[-74.00285,40.66072],[-74.0041,40.66147],[-74.00419,40.66153],[-74.00415,40.66156],[-74.00512,40.66214],[-74.00514,40.66218],[-74.00562,40.66249],[-74.00578,40.66258],[-74.00586,40.66257],[-74.00623,40.66279],[-74.00592,40.66311],[-74.00423,40.66218],[-74.00381,40.66191],[-74.00349,40.66224],[-74.00455,40.66282],[-74.00461,40.66272],[-74.00454,40.66268],[-74.00473,40.6625],[-74.00536,40.66287],[-74.00516,40.66305],[-74.00506,40.66299],[-74.00497,40.66307],[-74.00519,40.6632],[-74.00524,40.66316],[-74.00525,40.66311],[-74.00519,40.66307],[-74.00538,40.66288],[-74.006,40.66326],[-74.0058,40.66344],[-74.0057,40.66338],[-74.00561,40.66346],[-74.00773,40.66474],[-74.00764,40.6648],[-74.00731,40.6646],[-74.00725,40.66469],[-74.00732,40.66473],[-74.00713,40.66492],[-74.00652,40.66455],[-74.00671,40.66436],[-74.0068,40.66442],[-74.00688,40.66434],[-74.00663,40.66419],[-74.00654,40.66426],[-74.00664,40.66432],[-74.00645,40.66451],[-74.00584,40.66414],[-74.00603,40.66396],[-74.00612,40.66401],[-74.0062,40.66393],[-74.00605,40.66384],[-74.00599,40.66389],[-74.00592,40.66385],[-74.0059,40.66388],[-74.00581,40.66387],[-74.00576,40.66392],[-74.00578,40.66399],[-74.00575,40.66401],[-74.00582,40.66405],[-74.00576,40.66411],[-74.00589,40.66419],[-74.00575,40.66433],[-74.00574,40.66438],[-74.00577,40.6644],[-74.00574,40.66442],[-74.00585,40.6645],[-74.00582,40.66453],[-74.00564,40.66453],[-74.00565,40.6639],[-74.0043,40.66309],[-74.00427,40.66312],[-74.00363,40.66273],[-74.0034,40.66299],[-74.00459,40.66374],[-74.00432,40.66405],[-74.00528,40.66466],[-74.00486,40.66506],[-74.00114,40.6629],[-74.00094,40.66308],[-74.00083,40.66301],[-74.00049,40.66331],[-74.00054,40.66333],[-74.00003,40.66382],[-74.0001,40.66386],[-73.99953,40.6644],[-74.00292,40.66646],[-74.00224,40.66679],[-74.00162,40.66677],[-74.00121,40.66702],[-74.00146,40.66717],[-74.00069,40.66755],[-73.99998,40.66745],[-73.99903,40.66844],[-73.99905,40.66885],[-73.99895,40.66897],[-73.99903,40.66901],[-73.99918,40.6683],[-73.99924,40.66831],[-73.99908,40.66904],[-73.99866,40.66951],[-73.99891,40.66965],[-73.99892,40.6698],[-73.99856,40.67134],[-73.99877,40.6716],[-73.99862,40.67183],[-73.99684,40.66903]]]}},{"type":"Feature","properties":{"e":"51023"},"geometry":{"type":"Polygon","coordinates":[[[-73.99071,40.664],[-73.99109,40.66359],[-73.99335,40.66495],[-73.99685,40.66159],[-73.99887,40.66279],[-73.99686,40.66473],[-73.99645,40.66525],[-73.99618,40.66576],[-73.99609,40.66613],[-73.99604,40.66649],[-73.99607,40.66726],[-73.99583,40.66701],[-73.99567,40.6669],[-73.99418,40.666],[-73.99391,40.66591],[-73.99071,40.664]]]}},{"type":"Feature","properties":{"e":"51024"},"geometry":{"type":"Polygon","coordinates":[[[-73.99167,40.66303],[-73.99459,40.66023],[-73.99685,40.66159],[-73.99393,40.6644],[-73.99167,40.66303]]]}},{"type":"Feature","properties":{"e":"51025"},"geometry":{"type":"Polygon","coordinates":[[[-73.98695,40.66443],[-73.98745,40.66382],[-73.98666,40.66344],[-73.98757,40.66234],[-73.98832,40.66279],[-73.98872,40.6624],[-73.98921,40.66293],[-73.98948,40.66317],[-73.99007,40.66361],[-73.99071,40.664],[-73.98981,40.66496],[-73.98931,40.66557],[-73.98695,40.66443]]]}},{"type":"Feature","properties":{"e":"51026"},"geometry":{"type":"Polygon","coordinates":[[[-73.9964,40.66901],[-73.98931,40.66557],[-73.98981,40.66496],[-73.99071,40.664],[-73.99391,40.66591],[-73.99418,40.666],[-73.99583,40.66701],[-73.99607,40.66726],[-73.99619,40.66771],[-73.99632,40.66807],[-73.99684,40.66903],[-73.99659,40.66909],[-73.9964,40.66901]]]}},{"type":"Feature","properties":{"e":"51027"},"geometry":{"type":"Polygon","coordinates":[[[-73.99109,40.66359],[-73.99167,40.66303],[-73.99393,40.6644],[-73.99335,40.66495],[-73.99109,40.66359]]]}},{"type":"Feature","properties":{"e":"51028"},"geometry":{"type":"Polygon","coordinates":[[[-73.98922,40.66975],[-73.99173,40.66674],[-73.9964,40.66901],[-73.99659,40.66909],[-73.99684,40.66903],[-73.99862,40.67183],[-73.99847,40.67206],[-73.99803,40.67137],[-73.99764,40.67209],[-73.9949,40.67079],[-73.99388,40.672],[-73.98922,40.66975]]]}},{"type":"Feature","properties":{"e":"51029"},"geometry":{"type":"Polygon","coordinates":[[[-74.00717,40.68636],[-74.00485,40.68567],[-74.00454,40.68635],[-74.00247,40.6858],[-74.00236,40.68573],[-74.00065,40.68525],[-74.00289,40.68056],[-74.0033,40.67952],[-74.00239,40.67847],[-74.00153,40.67727],[-74.00217,40.67733],[-74.00295,40.67842],[-74.00476,40.68044],[-74.00545,40.68134],[-74.00688,40.68349],[-74.00671,40.68362],[-74.00695,40.68378],[-74.0086,40.68591],[-74.00798,40.68628],[-74.00783,40.68624],[-74.00772,40.68626],[-74.00753,40.68607],[-74.00717,40.68636]]]}},{"type":"Feature","properties":{"e":"51030"},"geometry":{"type":"Polygon","coordinates":[[[-74.00153,40.67727],[-74.00103,40.67641],[-74.00067,40.67556],[-73.99777,40.67474],[-73.99882,40.67257],[-73.99847,40.67206],[-73.99855,40.67193],[-74.00036,40.67475],[-74.00045,40.67477],[-74.00102,40.67567],[-74.00112,40.6757],[-74.00166,40.67659],[-74.00217,40.67733],[-74.00153,40.67727]]]}},{"type":"Feature","properties":{"e":"51031"},"geometry":{"type":"Polygon","coordinates":[[[-74.00475,40.64357],[-74.00591,40.64245],[-74.00812,40.64378],[-74.00695,40.6449],[-74.00475,40.64357]]]}},{"type":"Feature","properties":{"e":"51032"},"geometry":{"type":"Polygon","coordinates":[[[-74.00671,40.68362],[-74.0117,40.67936],[-74.01382,40.68076],[-74.0169,40.67812],[-74.0154,40.6771],[-74.01603,40.67656],[-74.0118,40.67369],[-74.01118,40.67422],[-74.01034,40.67365],[-74.00999,40.67437],[-74.01055,40.67476],[-74.00992,40.6753],[-74.00961,40.67512],[-74.00771,40.67463],[-74.00834,40.6733],[-74.00324,40.67185],[-74.00261,40.67318],[-73.99935,40.67227],[-73.99916,40.67224],[-73.99893,40.67233],[-73.99888,40.67243],[-73.99855,40.67193],[-73.99893,40.67141],[-73.99931,40.67077],[-74.0003,40.66872],[-74.00106,40.66895],[-74.00142,40.66836],[-74.00222,40.66858],[-74.00289,40.66735],[-74.00319,40.66726],[-74.00369,40.66743],[-74.00363,40.66757],[-74.0051,40.66798],[-74.00547,40.66795],[-74.00553,40.6679],[-74.00586,40.66799],[-74.00597,40.66788],[-74.006,40.66789],[-74.00626,40.66734],[-74.00623,40.66733],[-74.00677,40.66618],[-74.00684,40.6662],[-74.00687,40.66613],[-74.00684,40.66606],[-74.0069,40.66602],[-74.00696,40.66605],[-74.00696,40.66611],[-74.00688,40.66613],[-74.00685,40.6662],[-74.0069,40.66622],[-74.00475,40.67072],[-74.00544,40.67092],[-74.00662,40.66862],[-74.0068,40.66859],[-74.00755,40.66705],[-74.0078,40.66716],[-74.00709,40.66859],[-74.00985,40.66852],[-74.01154,40.66509],[-74.01575,40.66457],[-74.0169,40.66485],[-74.01744,40.66527],[-74.01789,40.66585],[-74.01858,40.67039],[-74.01876,40.67108],[-74.01934,40.67162],[-74.01888,40.6716],[-74.01751,40.67103],[-74.01669,40.66544],[-74.01658,40.66504],[-74.01649,40.66493],[-74.01603,40.66486],[-74.01594,40.66547],[-74.01228,40.66573],[-74.01088,40.6686],[-74.01036,40.66864],[-74.01034,40.66908],[-74.01056,40.66919],[-74.01091,40.66919],[-74.01087,40.66971],[-74.01154,40.66978],[-74.01162,40.67011],[-74.01151,40.67041],[-74.01163,40.67058],[-74.01406,40.66971],[-74.01425,40.66973],[-74.01424,40.66981],[-74.01175,40.67066],[-74.01187,40.67082],[-74.01208,40.67093],[-74.01233,40.67095],[-74.01262,40.67084],[-74.01355,40.67126],[-74.01371,40.67118],[-74.01394,40.67118],[-74.01427,40.67138],[-74.01508,40.67069],[-74.0152,40.67075],[-74.01387,40.67188],[-74.01423,40.67213],[-74.0156,40.67097],[-74.01569,40.67104],[-74.01429,40.67224],[-74.01423,40.67221],[-74.01298,40.67333],[-74.01336,40.67359],[-74.01512,40.67216],[-74.01632,40.67291],[-74.01458,40.67441],[-74.01496,40.67468],[-74.01817,40.67194],[-74.0188,40.67225],[-74.01727,40.67361],[-74.01817,40.67442],[-74.01805,40.67477],[-74.01802,40.67501],[-74.01792,40.67508],[-74.01799,40.67513],[-74.01783,40.67526],[-74.01815,40.67547],[-74.0182,40.67544],[-74.0183,40.67546],[-74.01876,40.67506],[-74.01883,40.67504],[-74.01889,40.67509],[-74.01888,40.67512],[-74.01841,40.67552],[-74.01848,40.6756],[-74.01854,40.67577],[-74.0185,40.67584],[-74.01842,40.67587],[-74.01802,40.67588],[-74.01789,40.67616],[-74.01788,40.6763],[-74.01792,40.67651],[-74.01797,40.67651],[-74.01798,40.67657],[-74.01911,40.67654],[-74.01912,40.67662],[-74.01977,40.67661],[-74.01995,40.6771],[-74.01908,40.67714],[-74.01914,40.67772],[-74.01922,40.67778],[-74.01918,40.67783],[-74.01908,40.67783],[-74.01904,40.67788],[-74.01843,40.67791],[-74.01841,40.67841],[-74.0186,40.6784],[-74.01863,40.67837],[-74.01866,40.67839],[-74.01895,40.67838],[-74.01898,40.67835],[-74.01902,40.67838],[-74.01947,40.67836],[-74.01954,40.6783],[-74.01966,40.67839],[-74.01955,40.67848],[-74.01943,40.6784],[-74.01928,40.6784],[-74.01925,40.67843],[-74.01921,40.67841],[-74.01906,40.67842],[-74.01903,40.67844],[-74.01899,40.67842],[-74.01885,40.67842],[-74.01882,40.67845],[-74.01863,40.67843],[-74.0186,40.67846],[-74.01841,40.67844],[-74.01842,40.67855],[-74.01827,40.67855],[-74.01828,40.67873],[-74.01838,40.67874],[-74.01858,40.67898],[-74.01946,40.67893],[-74.01954,40.67897],[-74.01955,40.67903],[-74.01928,40.67965],[-74.01893,40.67984],[-74.01899,40.6799],[-74.01773,40.68066],[-74.01765,40.6806],[-74.01757,40.68065],[-74.01747,40.68061],[-74.0152,40.68198],[-74.01532,40.68211],[-74.01487,40.68238],[-74.01411,40.68171],[-74.01361,40.68122],[-74.01387,40.68101],[-74.01302,40.68041],[-74.00967,40.68327],[-74.01093,40.68449],[-74.0086,40.68591],[-74.00695,40.68378],[-74.00671,40.68362]]]}},{"type":"Feature","properties":{"e":"51033"},"geometry":{"type":"Polygon","coordinates":[[[-74.01045,40.68043],[-74.00981,40.67999],[-74.01168,40.67839],[-74.01017,40.67737],[-74.01331,40.67472],[-74.01603,40.67656],[-74.0154,40.6771],[-74.0169,40.67812],[-74.01382,40.68076],[-74.0117,40.67936],[-74.01045,40.68043]]]}},{"type":"Feature","properties":{"e":"51034"},"geometry":{"type":"Polygon","coordinates":[[[-74.00742,40.67523],[-74.00771,40.67463],[-74.00961,40.67512],[-74.00992,40.6753],[-74.01055,40.67476],[-74.00999,40.67437],[-74.01034,40.67365],[-74.01118,40.67422],[-74.0118,40.67369],[-74.01331,40.67472],[-74.01017,40.67737],[-74.00859,40.6764],[-74.00933,40.67578],[-74.00742,40.67523]]]}},{"type":"Feature","properties":{"e":"51035"},"geometry":{"type":"Polygon","coordinates":[[[-74.0063,40.6776],[-74.00742,40.67523],[-74.00933,40.67578],[-74.00859,40.6764],[-74.01017,40.67737],[-74.01168,40.67839],[-74.00981,40.67999],[-74.0063,40.6776]]]}},{"type":"Feature","properties":{"e":"51036"},"geometry":{"type":"Polygon","coordinates":[[[-74.00233,40.67758],[-74.00262,40.67745],[-74.00319,40.67627],[-74.00476,40.67671],[-74.00541,40.67543],[-74.0071,40.6759],[-74.0063,40.6776],[-74.01045,40.68043],[-74.00688,40.68349],[-74.00535,40.6812],[-74.00465,40.68032],[-74.00295,40.67842],[-74.00233,40.67758]]]}},{"type":"Feature","properties":{"e":"51037"},"geometry":{"type":"Polygon","coordinates":[[[-74.00541,40.67543],[-74.00382,40.6749],[-74.00414,40.67433],[-74.00508,40.67236],[-74.00834,40.6733],[-74.0071,40.6759],[-74.00541,40.67543]]]}},{"type":"Feature","properties":{"e":"51038"},"geometry":{"type":"Polygon","coordinates":[[[-74.00233,40.67758],[-74.00166,40.67659],[-74.00112,40.6757],[-74.00102,40.67567],[-74.00045,40.67477],[-74.00036,40.67475],[-73.9999,40.67404],[-73.99888,40.67243],[-73.99893,40.67233],[-73.99916,40.67224],[-73.99935,40.67227],[-74.00261,40.67318],[-74.00324,40.67185],[-74.00508,40.67236],[-74.00414,40.67433],[-74.00382,40.6749],[-74.00541,40.67543],[-74.00476,40.67671],[-74.00319,40.67627],[-74.00262,40.67745],[-74.00233,40.67758]]]}},{"type":"Feature","properties":{"e":"51039"},"geometry":{"type":"Polygon","coordinates":[[[-74.02302,40.65101],[-74.01809,40.64797],[-74.02337,40.64289],[-74.02101,40.64145],[-74.02135,40.64118],[-74.02163,40.64098],[-74.02259,40.64044],[-74.02336,40.64014],[-74.02396,40.64],[-74.02457,40.63992],[-74.02512,40.63991],[-74.02566,40.63996],[-74.02579,40.64004],[-74.02624,40.64013],[-74.02673,40.64027],[-74.02835,40.64138],[-74.02906,40.64173],[-74.02983,40.64232],[-74.0323,40.64358],[-74.03224,40.64364],[-74.03254,40.64383],[-74.03227,40.64407],[-74.03198,40.64389],[-74.0319,40.64389],[-74.03052,40.64527],[-74.02908,40.6444],[-74.02897,40.6445],[-74.0285,40.64418],[-74.02821,40.64402],[-74.02775,40.64451],[-74.02703,40.6452],[-74.02605,40.64626],[-74.02974,40.64849],[-74.02939,40.6488],[-74.02572,40.64662],[-74.02538,40.64691],[-74.02507,40.64673],[-74.02415,40.64762],[-74.02513,40.64832],[-74.02497,40.64861],[-74.02554,40.64978],[-74.02477,40.65069],[-74.02452,40.65094],[-74.02449,40.65092],[-74.02418,40.65119],[-74.02382,40.65135],[-74.02365,40.65126],[-74.02359,40.65132],[-74.02306,40.65097],[-74.02302,40.65101]]]}},{"type":"Feature","properties":{"e":"51040"},"geometry":{"type":"Polygon","coordinates":[[[-73.98947,40.6617],[-73.9918,40.65946],[-73.994,40.66079],[-73.99167,40.66303],[-73.98947,40.6617]]]}},{"type":"Feature","properties":{"e":"51041"},"geometry":{"type":"Polygon","coordinates":[[[-73.98832,40.66279],[-73.98722,40.66213],[-73.98774,40.6616],[-73.98668,40.66093],[-73.98725,40.66038],[-73.98735,40.66039],[-73.98731,40.66033],[-73.98784,40.65982],[-73.98564,40.65848],[-73.98623,40.65792],[-73.99064,40.66058],[-73.98947,40.6617],[-73.99167,40.66303],[-73.99109,40.66359],[-73.99071,40.664],[-73.99007,40.66361],[-73.98948,40.66317],[-73.98921,40.66293],[-73.98872,40.6624],[-73.98832,40.66279]]]}},{"type":"Feature","properties":{"e":"51042"},"geometry":{"type":"Polygon","coordinates":[[[-73.99064,40.66058],[-73.98843,40.65925],[-73.99019,40.6576],[-73.99238,40.6589],[-73.99296,40.65834],[-73.99517,40.65967],[-73.994,40.66079],[-73.9918,40.65946],[-73.99064,40.66058]]]}},{"type":"Feature","properties":{"e":"51043"},"geometry":{"type":"Polygon","coordinates":[[[-74.02624,40.64013],[-74.0278,40.63863],[-74.028,40.63814],[-74.02583,40.63731],[-74.02547,40.63714],[-74.02567,40.63667],[-74.03089,40.63828],[-74.03032,40.63965],[-74.02916,40.64077],[-74.02885,40.6408],[-74.0289,40.64101],[-74.0289,40.64121],[-74.02906,40.64173],[-74.02835,40.64138],[-74.02673,40.64027],[-74.02624,40.64013]]]}},{"type":"Feature","properties":{"e":"51044"},"geometry":{"type":"Polygon","coordinates":[[[-74.00241,40.64581],[-74.00682,40.64846],[-74.00217,40.65295],[-73.99779,40.65029],[-73.99831,40.64974],[-73.99883,40.64933],[-73.99923,40.64889],[-74.00008,40.64805],[-74.00241,40.64581]]]}},{"type":"Feature","properties":{"e":"51045"},"geometry":{"type":"Polygon","coordinates":[[[-73.98843,40.65925],[-73.9818,40.65525],[-73.98036,40.64769],[-73.98835,40.64456],[-73.98906,40.64412],[-73.99605,40.64834],[-73.99702,40.64754],[-74.00021,40.64448],[-74.00241,40.64581],[-74.00008,40.64805],[-73.99923,40.64889],[-73.99883,40.64933],[-73.99831,40.64974],[-73.99779,40.65029],[-74.00217,40.65295],[-73.99517,40.65967],[-73.99296,40.65834],[-73.99238,40.6589],[-73.99019,40.6576],[-73.98843,40.65925]]]}},{"type":"Feature","properties":{"e":"51046"},"geometry":{"type":"Polygon","coordinates":[[[-73.99181,40.64578],[-73.99231,40.64518],[-73.9929,40.64462],[-73.9951,40.64595],[-73.99743,40.64371],[-73.99964,40.64504],[-73.99702,40.64754],[-73.99605,40.64834],[-73.99181,40.64578]]]}},{"type":"Feature","properties":{"e":"51047"},"geometry":{"type":"Polygon","coordinates":[[[-73.9929,40.64462],[-73.99523,40.64237],[-73.99743,40.64371],[-73.9951,40.64595],[-73.9929,40.64462]]]}},{"type":"Feature","properties":{"e":"51048"},"geometry":{"type":"Polygon","coordinates":[[[-74.00358,40.64469],[-74.00475,40.64357],[-74.00695,40.6449],[-74.00578,40.64602],[-74.00358,40.64469]]]}},{"type":"Feature","properties":{"e":"51049"},"geometry":{"type":"Polygon","coordinates":[[[-74.00462,40.64713],[-74.00021,40.64448],[-74.0008,40.64392],[-74.003,40.64525],[-74.00358,40.64469],[-74.00578,40.64602],[-74.00462,40.64713]]]}},{"type":"Feature","properties":{"e":"51050"},"geometry":{"type":"Polygon","coordinates":[[[-73.98906,40.64412],[-73.99264,40.64173],[-73.99427,40.64271],[-73.99426,40.6433],[-73.99231,40.64518],[-73.99181,40.64578],[-73.98906,40.64412]]]}},{"type":"Feature","properties":{"e":"51051"},"geometry":{"type":"Polygon","coordinates":[[[-73.99264,40.64173],[-73.99623,40.63933],[-73.99756,40.64014],[-73.99426,40.6433],[-73.99427,40.64271],[-73.99264,40.64173]]]}},{"type":"Feature","properties":{"e":"51052"},"geometry":{"type":"Polygon","coordinates":[[[-73.99964,40.64504],[-73.99743,40.64371],[-73.99976,40.64147],[-74.00416,40.64413],[-74.003,40.64525],[-74.0008,40.64392],[-73.99964,40.64504]]]}},{"type":"Feature","properties":{"e":"51053"},"geometry":{"type":"Polygon","coordinates":[[[-73.99523,40.64237],[-73.99756,40.64014],[-73.99976,40.64147],[-73.99743,40.64371],[-73.99523,40.64237]]]}}]}