{"type":"FeatureCollection","ad":52,"features":[{"type":"Feature","properties":{"e":"52001"},"geometry":{"type":"Polygon","coordinates":[[[-73.96632,40.70483],[-73.9643,40.70301],[-73.96239,40.70251],[-73.96121,40.70145],[-73.96186,40.70003],[-73.96248,40.6981],[-73.96284,40.69804],[-73.96218,40.70022],[-73.96387,40.70154],[-73.96721,40.70426],[-73.96762,40.70496],[-73.96795,40.70573],[-73.96702,40.70628],[-73.96663,40.70525],[-73.96653,40.70507],[-73.96632,40.70483]]]}},{"type":"Feature","properties":{"e":"52002"},"geometry":{"type":"Polygon","coordinates":[[[-73.96973,40.6978],[-73.96939,40.69608],[-73.97643,40.69634],[-73.97949,40.69648],[-73.98041,40.69656],[-73.98051,40.69745],[-73.98054,40.69825],[-73.96973,40.6978]]]}},{"type":"Feature","properties":{"e":"52003"},"geometry":{"type":"Polygon","coordinates":[[[-73.96488,40.69771],[-73.96455,40.69611],[-73.965,40.69599],[-73.96547,40.69593],[-73.96939,40.69608],[-73.96973,40.6978],[-73.96577,40.69764],[-73.96488,40.69771]]]}},{"type":"Feature","properties":{"e":"52004"},"geometry":{"type":"Polygon","coordinates":[[[-73.96455,40.69611],[-73.96488,40.69771],[-73.96284,40.69804],[-73.96295,40.6976],[-73.96305,40.69739],[-73.96318,40.69719],[-73.96348,40.6968],[-73.96365,40.69662],[-73.96397,40.69638],[-73.96455,40.69611]]]}},{"type":"Feature","properties":{"e":"52005"},"geometry":{"type":"Polygon","coordinates":[[[-73.97906,40.70595],[-73.97924,40.70555],[-73.97912,40.70553],[-73.97933,40.70475],[-73.9796,40.70418],[-73.98027,40.70304],[-73.98003,40.70214],[-73.9809,40.70186],[-73.98065,40.70156],[-73.98084,40.7013],[-73.98476,40.70144],[-73.98462,40.70369],[-73.98871,40.70383],[-73.9892,40.70472],[-73.98899,40.70469],[-73.9887,40.70456],[-73.9883,40.70454],[-73.98829,40.70507],[-73.98796,40.70513],[-73.98727,40.70518],[-73.98692,40.70516],[-73.98673,40.70511],[-73.98662,40.70498],[-73.98653,40.70498],[-73.98643,40.70507],[-73.98643,40.70535],[-73.98474,40.70554],[-73.98344,40.70564],[-73.98341,40.70547],[-73.98337,40.70546],[-73.98309,40.70548],[-73.98309,40.70551],[-73.98274,40.70557],[-73.98275,40.70553],[-73.98246,40.70551],[-73.98246,40.70554],[-73.98233,40.70555],[-73.98093,40.70537],[-73.98091,40.70591],[-73.98074,40.70586],[-73.98022,40.70585],[-73.98024,40.70576],[-73.97956,40.70574],[-73.97956,40.70577],[-73.97933,40.70577],[-73.97928,40.70579],[-73.97927,40.70592],[-73.97921,40.70591],[-73.97918,40.70597],[-73.97906,40.70595]]]}},{"type":"Feature","properties":{"e":"52006"},"geometry":{"type":"Polygon","coordinates":[[[-73.98476,40.70144],[-73.98675,40.70153],[-73.98679,40.70063],[-73.98692,40.70063],[-73.98871,40.70383],[-73.98462,40.70369],[-73.98476,40.70144]]]}},{"type":"Feature","properties":{"e":"52007"},"geometry":{"type":"Polygon","coordinates":[[[-73.9892,40.70472],[-73.98794,40.70247],[-73.99175,40.70256],[-73.99251,40.70261],[-73.993,40.70255],[-73.9933,40.70243],[-73.99418,40.70281],[-73.99446,40.70229],[-73.99522,40.70064],[-73.99568,40.70034],[-73.99622,40.69987],[-73.99643,40.69957],[-73.99662,40.69919],[-73.9967,40.69921],[-73.99676,40.69948],[-73.99695,40.69962],[-73.9971,40.69967],[-73.99732,40.69954],[-73.9975,40.69964],[-73.99737,40.69963],[-73.99716,40.69979],[-73.99718,40.70011],[-73.99724,40.70014],[-73.99505,40.70313],[-73.9948,40.70329],[-73.99466,40.70343],[-73.995,40.70365],[-73.99471,40.704],[-73.99479,40.70407],[-73.9947,40.70416],[-73.99478,40.70425],[-73.99457,40.70438],[-73.99386,40.70456],[-73.99381,40.70454],[-73.99377,40.70445],[-73.99359,40.70451],[-73.99363,40.7046],[-73.99351,40.70462],[-73.99269,40.70463],[-73.99251,40.70469],[-73.99213,40.70469],[-73.99212,40.7044],[-73.99186,40.70409],[-73.99142,40.704],[-73.99095,40.70403],[-73.99071,40.70435],[-73.99055,40.70442],[-73.99023,40.70493],[-73.99009,40.70494],[-73.98949,40.70481],[-73.98935,40.70473],[-73.9892,40.70472]]]}},{"type":"Feature","properties":{"e":"52008"},"geometry":{"type":"Polygon","coordinates":[[[-73.98794,40.70247],[-73.98692,40.70063],[-73.99013,40.70074],[-73.9913,40.70166],[-73.99144,40.70166],[-73.99234,40.70165],[-73.99313,40.7015],[-73.99426,40.70112],[-73.99522,40.70064],[-73.99446,40.70229],[-73.99418,40.70281],[-73.9933,40.70243],[-73.993,40.70255],[-73.99251,40.70261],[-73.99175,40.70256],[-73.98794,40.70247]]]}},{"type":"Feature","properties":{"e":"52009"},"geometry":{"type":"Polygon","coordinates":[[[-73.99013,40.70074],[-73.99025,40.70075],[-73.99016,40.70068],[-73.99009,40.70055],[-73.99005,40.70042],[-73.99004,40.70022],[-73.9901,40.70003],[-73.99024,40.69988],[-73.99046,40.69979],[-73.9907,40.69976],[-73.99176,40.70005],[-73.99208,40.69941],[-73.99538,40.70031],[-73.99522,40.70064],[-73.99426,40.70112],[-73.99313,40.7015],[-73.99234,40.70165],[-73.9913,40.70166],[-73.99013,40.70074]]]}},{"type":"Feature","properties":{"e":"52010"},"geometry":{"type":"Polygon","coordinates":[[[-73.99025,40.70075],[-73.98692,40.70063],[-73.98571,40.69845],[-73.98697,40.6985],[-73.9873,40.69223],[-73.98897,40.69231],[-73.98876,40.6962],[-73.99004,40.69623],[-73.98975,40.7004],[-73.99025,40.70075]]]}},{"type":"Feature","properties":{"e":"52011"},"geometry":{"type":"Polygon","coordinates":[[[-73.98476,40.70144],[-73.98483,40.70058],[-73.98571,40.7006],[-73.98503,40.70014],[-73.98315,40.69838],[-73.98305,40.69838],[-73.98312,40.69754],[-73.98227,40.69751],[-73.98238,40.6961],[-73.98263,40.69604],[-73.98447,40.69612],[-73.9838,40.69484],[-73.98716,40.69497],[-73.98697,40.6985],[-73.98571,40.69845],[-73.98692,40.70063],[-73.98679,40.70063],[-73.98675,40.70153],[-73.98476,40.70144]]]}},{"type":"Feature","properties":{"e":"52012"},"geometry":{"type":"Polygon","coordinates":[[[-73.98238,40.6961],[-73.98251,40.69366],[-73.98252,40.69298],[-73.98257,40.6923],[-73.98322,40.69369],[-73.98447,40.69612],[-73.98263,40.69604],[-73.98238,40.6961]]]}},{"type":"Feature","properties":{"e":"52013"},"geometry":{"type":"Polygon","coordinates":[[[-73.99632,40.67403],[-73.99102,40.67146],[-73.98871,40.67036],[-73.98922,40.66975],[-73.99388,40.672],[-73.9949,40.67079],[-73.99764,40.67209],[-73.99803,40.67137],[-73.99847,40.67206],[-73.99813,40.67244],[-73.99806,40.67247],[-73.99666,40.67414],[-73.99632,40.67403]]]}},{"type":"Feature","properties":{"e":"52014"},"geometry":{"type":"Polygon","coordinates":[[[-73.99004,40.69623],[-73.99117,40.69625],[-73.99128,40.69659],[-73.99137,40.69701],[-73.99142,40.69778],[-73.99429,40.69854],[-73.99368,40.69984],[-73.99208,40.69941],[-73.99176,40.70005],[-73.9907,40.69976],[-73.99052,40.69978],[-73.99024,40.69988],[-73.99013,40.69999],[-73.99007,40.70009],[-73.99003,40.70029],[-73.99005,40.70042],[-73.99016,40.70068],[-73.98975,40.7004],[-73.99004,40.69623]]]}},{"type":"Feature","properties":{"e":"52015"},"geometry":{"type":"Polygon","coordinates":[[[-73.99137,40.69701],[-73.99212,40.69723],[-73.9946,40.69789],[-73.99429,40.69854],[-73.99142,40.69778],[-73.99137,40.69701]]]}},{"type":"Feature","properties":{"e":"52016"},"geometry":{"type":"Polygon","coordinates":[[[-73.99368,40.69984],[-73.9946,40.69789],[-73.99546,40.69812],[-73.99641,40.69613],[-73.9979,40.69653],[-73.99643,40.69957],[-73.99622,40.69987],[-73.99593,40.70015],[-73.99568,40.70034],[-73.99522,40.70064],[-73.99538,40.70031],[-73.99368,40.69984]]]}},{"type":"Feature","properties":{"e":"52017"},"geometry":{"type":"Polygon","coordinates":[[[-73.99546,40.69812],[-73.99302,40.69746],[-73.99398,40.69546],[-73.99641,40.69613],[-73.99546,40.69812]]]}},{"type":"Feature","properties":{"e":"52018"},"geometry":{"type":"Polygon","coordinates":[[[-73.99137,40.69701],[-73.99128,40.69659],[-73.99117,40.69625],[-73.99004,40.69623],[-73.99009,40.69508],[-73.99074,40.69503],[-73.99061,40.69457],[-73.99072,40.69457],[-73.99398,40.69546],[-73.99302,40.69746],[-73.99137,40.69701]]]}},{"type":"Feature","properties":{"e":"52019"},"geometry":{"type":"Polygon","coordinates":[[[-73.9838,40.69484],[-73.98318,40.69361],[-73.98283,40.69281],[-73.98242,40.69205],[-73.9873,40.69223],[-73.98716,40.69497],[-73.9838,40.69484]]]}},{"type":"Feature","properties":{"e":"52020"},"geometry":{"type":"Polygon","coordinates":[[[-73.99662,40.69919],[-73.9979,40.69653],[-73.99555,40.69589],[-73.99672,40.69344],[-73.99913,40.69386],[-74.00059,40.69429],[-74.00066,40.69425],[-74.00078,40.69429],[-74.00027,40.69497],[-73.99941,40.69636],[-73.99952,40.69657],[-73.99947,40.6967],[-73.99918,40.69689],[-73.999,40.69681],[-73.99894,40.69694],[-73.99887,40.69692],[-73.99876,40.69712],[-73.99887,40.69716],[-73.99802,40.69876],[-73.9975,40.69964],[-73.99732,40.69954],[-73.9971,40.69967],[-73.99695,40.69962],[-73.99676,40.69948],[-73.9967,40.69921],[-73.99662,40.69919]]]}},{"type":"Feature","properties":{"e":"52021"},"geometry":{"type":"Polygon","coordinates":[[[-73.99555,40.69589],[-73.99067,40.69457],[-73.99044,40.69383],[-73.99045,40.69372],[-73.99073,40.69305],[-73.99097,40.69255],[-73.9931,40.69285],[-73.99274,40.6936],[-73.99617,40.69456],[-73.99555,40.69589]]]}},{"type":"Feature","properties":{"e":"52022"},"geometry":{"type":"Polygon","coordinates":[[[-73.99097,40.69255],[-73.99145,40.6916],[-73.99446,40.69243],[-73.99419,40.69301],[-73.99672,40.69344],[-73.99617,40.69456],[-73.99274,40.6936],[-73.9931,40.69285],[-73.99097,40.69255]]]}},{"type":"Feature","properties":{"e":"52023"},"geometry":{"type":"Polygon","coordinates":[[[-73.98897,40.69231],[-73.98929,40.69104],[-73.98974,40.69036],[-73.99174,40.69099],[-73.99205,40.69035],[-73.99405,40.6909],[-73.99344,40.69215],[-73.99145,40.6916],[-73.99097,40.69255],[-73.98947,40.69229],[-73.98897,40.69231]]]}},{"type":"Feature","properties":{"e":"52024"},"geometry":{"type":"Polygon","coordinates":[[[-73.99672,40.69344],[-73.99749,40.69185],[-73.99777,40.69119],[-73.99992,40.69177],[-74.00019,40.6919],[-74.00062,40.69204],[-74.00059,40.69213],[-74.00105,40.69226],[-74.00162,40.69255],[-74.0017,40.69238],[-74.00174,40.69241],[-74.00127,40.6933],[-74.00096,40.69407],[-74.00078,40.69429],[-74.00066,40.69425],[-74.00059,40.69429],[-73.99913,40.69386],[-73.99672,40.69344]]]}},{"type":"Feature","properties":{"e":"52025"},"geometry":{"type":"Polygon","coordinates":[[[-73.99344,40.69215],[-73.99405,40.6909],[-73.99205,40.69035],[-73.99236,40.68969],[-73.99777,40.69119],[-73.99749,40.69185],[-73.99672,40.69344],[-73.99419,40.69301],[-73.99446,40.69243],[-73.99344,40.69215]]]}},{"type":"Feature","properties":{"e":"52026"},"geometry":{"type":"Polygon","coordinates":[[[-73.98897,40.69231],[-73.98528,40.69216],[-73.98536,40.69067],[-73.98407,40.69014],[-73.9847,40.68923],[-73.98789,40.69047],[-73.9883,40.68987],[-73.98974,40.69036],[-73.98929,40.69104],[-73.98897,40.69231]]]}},{"type":"Feature","properties":{"e":"52027"},"geometry":{"type":"Polygon","coordinates":[[[-73.9814,40.68993],[-73.98083,40.68886],[-73.98102,40.68894],[-73.98089,40.6887],[-73.9814,40.68794],[-73.9847,40.68923],[-73.98407,40.69014],[-73.98372,40.69001],[-73.9814,40.68993]]]}},{"type":"Feature","properties":{"e":"52028"},"geometry":{"type":"Polygon","coordinates":[[[-73.98789,40.69047],[-73.98357,40.68879],[-73.98399,40.68817],[-73.9883,40.68987],[-73.98789,40.69047]]]}},{"type":"Feature","properties":{"e":"52029"},"geometry":{"type":"Polygon","coordinates":[[[-73.98357,40.68879],[-73.97984,40.68734],[-73.97959,40.687],[-73.97981,40.68665],[-73.98182,40.68733],[-73.98399,40.68817],[-73.98357,40.68879]]]}},{"type":"Feature","properties":{"e":"52030"},"geometry":{"type":"Polygon","coordinates":[[[-73.98242,40.69205],[-73.9814,40.68993],[-73.98372,40.69001],[-73.98443,40.69029],[-73.98434,40.69212],[-73.98242,40.69205]]]}},{"type":"Feature","properties":{"e":"52031"},"geometry":{"type":"Polygon","coordinates":[[[-74.00105,40.69226],[-74.00059,40.69213],[-74.00068,40.6919],[-73.99988,40.69165],[-73.99977,40.69157],[-73.99972,40.69146],[-73.99973,40.69135],[-74.00048,40.68976],[-74.00055,40.68968],[-73.99893,40.68923],[-73.99987,40.68725],[-74.00054,40.68748],[-74.0015,40.68549],[-74.00236,40.68573],[-74.00247,40.6858],[-74.00454,40.68635],[-74.00485,40.68567],[-74.00717,40.68636],[-74.00753,40.68607],[-74.00772,40.68626],[-74.00702,40.68653],[-74.00644,40.68629],[-74.00588,40.6862],[-74.00563,40.68678],[-74.005,40.68761],[-74.00459,40.68822],[-74.00382,40.68893],[-74.00341,40.68961],[-74.00298,40.69043],[-74.00196,40.69014],[-74.00185,40.69039],[-74.00096,40.69013],[-74.0007,40.69061],[-74.00133,40.69146],[-74.00197,40.69184],[-74.00174,40.69241],[-74.0017,40.69238],[-74.00162,40.69255],[-74.00105,40.69226]]]}},{"type":"Feature","properties":{"e":"52032"},"geometry":{"type":"Polygon","coordinates":[[[-73.99992,40.69177],[-73.99236,40.68969],[-73.99269,40.68903],[-73.99655,40.6901],[-73.99687,40.68943],[-73.993,40.68836],[-73.99334,40.68768],[-74.00055,40.68968],[-74.00048,40.68976],[-73.99972,40.69142],[-73.99975,40.69154],[-73.99988,40.69165],[-74.00068,40.6919],[-74.00062,40.69204],[-74.00019,40.6919],[-73.99992,40.69177]]]}},{"type":"Feature","properties":{"e":"52033"},"geometry":{"type":"Polygon","coordinates":[[[-73.99269,40.68903],[-73.993,40.68836],[-73.99687,40.68943],[-73.99655,40.6901],[-73.99269,40.68903]]]}},{"type":"Feature","properties":{"e":"52034"},"geometry":{"type":"Polygon","coordinates":[[[-73.99334,40.68768],[-73.99409,40.68611],[-73.99604,40.68675],[-73.99573,40.6874],[-73.99907,40.6885],[-73.99874,40.68918],[-73.99334,40.68768]]]}},{"type":"Feature","properties":{"e":"52035"},"geometry":{"type":"Polygon","coordinates":[[[-73.99874,40.68918],[-73.99907,40.6885],[-73.99573,40.6874],[-73.99636,40.6861],[-73.99987,40.68725],[-73.99893,40.68923],[-73.99874,40.68918]]]}},{"type":"Feature","properties":{"e":"52036"},"geometry":{"type":"Polygon","coordinates":[[[-73.98974,40.69036],[-73.9883,40.68987],[-73.98917,40.68862],[-73.99071,40.68914],[-73.99109,40.68857],[-73.99262,40.68916],[-73.99174,40.69099],[-73.98974,40.69036]]]}},{"type":"Feature","properties":{"e":"52037"},"geometry":{"type":"Polygon","coordinates":[[[-73.98917,40.68862],[-73.99047,40.68673],[-73.99327,40.68782],[-73.99262,40.68916],[-73.99109,40.68857],[-73.99071,40.68914],[-73.98917,40.68862]]]}},{"type":"Feature","properties":{"e":"52038"},"geometry":{"type":"Polygon","coordinates":[[[-73.99327,40.68782],[-73.98828,40.68587],[-73.98871,40.68522],[-73.9936,40.68713],[-73.99327,40.68782]]]}},{"type":"Feature","properties":{"e":"52039"},"geometry":{"type":"Polygon","coordinates":[[[-73.98399,40.68817],[-73.98483,40.68693],[-73.98917,40.68862],[-73.9883,40.68987],[-73.98399,40.68817]]]}},{"type":"Feature","properties":{"e":"52040"},"geometry":{"type":"Polygon","coordinates":[[[-73.98483,40.68693],[-73.98612,40.68502],[-73.99047,40.68673],[-73.98917,40.68862],[-73.98483,40.68693]]]}},{"type":"Feature","properties":{"e":"52041"},"geometry":{"type":"Polygon","coordinates":[[[-73.98182,40.68733],[-73.98395,40.68418],[-73.98612,40.68502],[-73.98399,40.68817],[-73.98182,40.68733]]]}},{"type":"Feature","properties":{"e":"52042"},"geometry":{"type":"Polygon","coordinates":[[[-73.97959,40.687],[-73.97808,40.68491],[-73.97876,40.68377],[-73.98309,40.68545],[-73.98182,40.68733],[-73.97981,40.68665],[-73.97959,40.687]]]}},{"type":"Feature","properties":{"e":"52043"},"geometry":{"type":"Polygon","coordinates":[[[-73.99908,40.68482],[-74.00069,40.68146],[-74.00225,40.68189],[-74.00065,40.68525],[-73.99908,40.68482]]]}},{"type":"Feature","properties":{"e":"52044"},"geometry":{"type":"Polygon","coordinates":[[[-74.00069,40.68146],[-74.00112,40.68057],[-73.99927,40.68005],[-74.00103,40.67641],[-74.00153,40.67727],[-74.00202,40.67798],[-74.00297,40.67916],[-74.0033,40.67952],[-74.00289,40.68056],[-74.00225,40.68189],[-74.00069,40.68146]]]}},{"type":"Feature","properties":{"e":"52045"},"geometry":{"type":"Polygon","coordinates":[[[-73.9909,40.68609],[-73.99305,40.68291],[-73.99523,40.68374],[-73.9936,40.68713],[-73.9909,40.68609]]]}},{"type":"Feature","properties":{"e":"52046"},"geometry":{"type":"Polygon","coordinates":[[[-73.99409,40.68611],[-73.99523,40.68374],[-73.99908,40.68482],[-73.99819,40.6867],[-73.99636,40.6861],[-73.99604,40.68675],[-73.99409,40.68611]]]}},{"type":"Feature","properties":{"e":"52047"},"geometry":{"type":"Polygon","coordinates":[[[-73.99723,40.6843],[-73.99755,40.68363],[-73.99556,40.68307],[-73.99621,40.68172],[-74.00005,40.6828],[-73.99908,40.68482],[-73.99723,40.6843]]]}},{"type":"Feature","properties":{"e":"52048"},"geometry":{"type":"Polygon","coordinates":[[[-73.99621,40.68172],[-73.99689,40.68032],[-73.99888,40.68087],[-73.99927,40.68005],[-74.00112,40.68057],[-74.00005,40.6828],[-73.99621,40.68172]]]}},{"type":"Feature","properties":{"e":"52049"},"geometry":{"type":"Polygon","coordinates":[[[-73.99523,40.68374],[-73.99305,40.68291],[-73.99489,40.6802],[-73.99278,40.67923],[-73.99373,40.67784],[-73.99579,40.67884],[-73.99514,40.67983],[-73.99689,40.68032],[-73.99556,40.68307],[-73.99755,40.68363],[-73.99723,40.6843],[-73.99523,40.68374]]]}},{"type":"Feature","properties":{"e":"52050"},"geometry":{"type":"Polygon","coordinates":[[[-73.99888,40.68087],[-73.99514,40.67983],[-73.99579,40.67884],[-73.99647,40.67744],[-74.00005,40.67842],[-73.99888,40.68087]]]}},{"type":"Feature","properties":{"e":"52051"},"geometry":{"type":"Polygon","coordinates":[[[-73.99807,40.67787],[-73.99873,40.67649],[-74.00072,40.67704],[-74.00005,40.67842],[-73.99807,40.67787]]]}},{"type":"Feature","properties":{"e":"52052"},"geometry":{"type":"Polygon","coordinates":[[[-73.99647,40.67744],[-73.99777,40.67474],[-74.00067,40.67556],[-74.00103,40.67641],[-74.00072,40.67704],[-73.99873,40.67649],[-73.99807,40.67787],[-73.99647,40.67744]]]}},{"type":"Feature","properties":{"e":"52053"},"geometry":{"type":"Polygon","coordinates":[[[-73.98871,40.68522],[-73.98999,40.68332],[-73.99219,40.68418],[-73.9909,40.68609],[-73.98871,40.68522]]]}},{"type":"Feature","properties":{"e":"52054"},"geometry":{"type":"Polygon","coordinates":[[[-73.98999,40.68332],[-73.99042,40.68269],[-73.98722,40.68145],[-73.98702,40.68177],[-73.98671,40.68164],[-73.98732,40.68069],[-73.98765,40.68082],[-73.98808,40.68017],[-73.99348,40.68227],[-73.99219,40.68418],[-73.98999,40.68332]]]}},{"type":"Feature","properties":{"e":"52055"},"geometry":{"type":"Polygon","coordinates":[[[-73.98743,40.68313],[-73.98827,40.68186],[-73.99042,40.68269],[-73.98956,40.68396],[-73.98743,40.68313]]]}},{"type":"Feature","properties":{"e":"52056"},"geometry":{"type":"Polygon","coordinates":[[[-73.98743,40.68313],[-73.98956,40.68396],[-73.98871,40.68522],[-73.98656,40.68439],[-73.98743,40.68313]]]}},{"type":"Feature","properties":{"e":"52057"},"geometry":{"type":"Polygon","coordinates":[[[-73.98828,40.68587],[-73.98199,40.68342],[-73.98242,40.68278],[-73.98437,40.68354],[-73.98653,40.68037],[-73.98732,40.68069],[-73.98671,40.68164],[-73.98702,40.68177],[-73.98722,40.68145],[-73.98827,40.68186],[-73.98656,40.68439],[-73.98871,40.68522],[-73.98828,40.68587]]]}},{"type":"Feature","properties":{"e":"52058"},"geometry":{"type":"Polygon","coordinates":[[[-73.97876,40.68377],[-73.97962,40.68249],[-73.98395,40.68418],[-73.98309,40.68545],[-73.97876,40.68377]]]}},{"type":"Feature","properties":{"e":"52059"},"geometry":{"type":"Polygon","coordinates":[[[-73.98242,40.68278],[-73.98326,40.68152],[-73.98096,40.68062],[-73.98272,40.67809],[-73.98696,40.67974],[-73.98779,40.68003],[-73.98732,40.68069],[-73.98653,40.68037],[-73.98437,40.68354],[-73.98242,40.68278]]]}},{"type":"Feature","properties":{"e":"52060"},"geometry":{"type":"Polygon","coordinates":[[[-73.97962,40.68249],[-73.98262,40.67804],[-73.98272,40.67809],[-73.98096,40.68062],[-73.98326,40.68152],[-73.98199,40.68342],[-73.97962,40.68249]]]}},{"type":"Feature","properties":{"e":"52061"},"geometry":{"type":"Polygon","coordinates":[[[-73.98913,40.68058],[-73.99043,40.67868],[-73.99259,40.67952],[-73.99278,40.67923],[-73.99489,40.6802],[-73.99348,40.68227],[-73.98913,40.68058]]]}},{"type":"Feature","properties":{"e":"52062"},"geometry":{"type":"Polygon","coordinates":[[[-73.98732,40.68069],[-73.98779,40.68003],[-73.98696,40.67974],[-73.98262,40.67804],[-73.9839,40.67615],[-73.98551,40.67677],[-73.98623,40.67591],[-73.98905,40.67734],[-73.98901,40.67813],[-73.98932,40.67825],[-73.98941,40.67737],[-73.98963,40.67758],[-73.99091,40.67811],[-73.99043,40.67868],[-73.98913,40.68058],[-73.98808,40.68017],[-73.98765,40.68082],[-73.98732,40.68069]]]}},{"type":"Feature","properties":{"e":"52063"},"geometry":{"type":"Polygon","coordinates":[[[-73.99043,40.67868],[-73.99091,40.67811],[-73.98963,40.67758],[-73.98941,40.67737],[-73.98932,40.67825],[-73.98901,40.67813],[-73.98905,40.67734],[-73.99048,40.67557],[-73.99094,40.67554],[-73.99265,40.67584],[-73.99352,40.67597],[-73.99407,40.67596],[-73.9947,40.6757],[-73.99492,40.67558],[-73.99519,40.67537],[-73.99632,40.67403],[-73.99666,40.67414],[-73.99806,40.67247],[-73.99813,40.67244],[-73.99847,40.67206],[-73.99882,40.67257],[-73.99579,40.67884],[-73.99373,40.67784],[-73.99259,40.67952],[-73.99043,40.67868]]]}},{"type":"Feature","properties":{"e":"52064"},"geometry":{"type":"Polygon","coordinates":[[[-73.9839,40.67615],[-73.98871,40.67036],[-73.99632,40.67403],[-73.99511,40.67544],[-73.9947,40.6757],[-73.99407,40.67596],[-73.99341,40.67596],[-73.99094,40.67554],[-73.99048,40.67557],[-73.98905,40.67734],[-73.98623,40.67591],[-73.98551,40.67677],[-73.9839,40.67615]]]}},{"type":"Feature","properties":{"e":"52065"},"geometry":{"type":"Polygon","coordinates":[[[-73.98278,40.6734],[-73.98479,40.67099],[-73.98721,40.67216],[-73.9852,40.67457],[-73.98278,40.6734]]]}},{"type":"Feature","properties":{"e":"52066"},"geometry":{"type":"Polygon","coordinates":[[[-73.97942,40.67346],[-73.98042,40.67226],[-73.9852,40.67457],[-73.9842,40.67577],[-73.97942,40.67346]]]}},{"type":"Feature","properties":{"e":"52067"},"geometry":{"type":"Polygon","coordinates":[[[-73.97839,40.6748],[-73.97882,40.67417],[-73.97942,40.67346],[-73.9842,40.67577],[-73.9839,40.67615],[-73.98133,40.67515],[-73.98089,40.67578],[-73.97839,40.6748]]]}},{"type":"Feature","properties":{"e":"52068"},"geometry":{"type":"Polygon","coordinates":[[[-73.97796,40.67544],[-73.97839,40.6748],[-73.98089,40.67578],[-73.98133,40.67515],[-73.9839,40.67615],[-73.98306,40.67741],[-73.97796,40.67544]]]}},{"type":"Feature","properties":{"e":"52069"},"geometry":{"type":"Polygon","coordinates":[[[-73.98219,40.67868],[-73.9771,40.67671],[-73.97796,40.67544],[-73.98306,40.67741],[-73.98219,40.67868]]]}},{"type":"Feature","properties":{"e":"52070"},"geometry":{"type":"Polygon","coordinates":[[[-73.97662,40.67743],[-73.9771,40.67671],[-73.9796,40.67768],[-73.97911,40.67841],[-73.97662,40.67743]]]}},{"type":"Feature","properties":{"e":"52071"},"geometry":{"type":"Polygon","coordinates":[[[-73.97618,40.67806],[-73.97662,40.67743],[-73.97911,40.67841],[-73.9796,40.67768],[-73.98219,40.67868],[-73.98089,40.68059],[-73.97912,40.6799],[-73.97955,40.67928],[-73.97873,40.67898],[-73.97868,40.67905],[-73.97618,40.67806]]]}},{"type":"Feature","properties":{"e":"52072"},"geometry":{"type":"Polygon","coordinates":[[[-73.97496,40.67988],[-73.97532,40.67933],[-73.97782,40.68031],[-73.97789,40.68022],[-73.98046,40.68122],[-73.98004,40.68185],[-73.97496,40.67988]]]}},{"type":"Feature","properties":{"e":"52073"},"geometry":{"type":"Polygon","coordinates":[[[-73.97746,40.68405],[-73.97632,40.68251],[-73.97431,40.67973],[-73.9749,40.67995],[-73.97496,40.67988],[-73.98004,40.68185],[-73.97876,40.68377],[-73.97839,40.68442],[-73.97746,40.68405]]]}},{"type":"Feature","properties":{"e":"52074"},"geometry":{"type":"Polygon","coordinates":[[[-73.97431,40.67973],[-73.97351,40.67864],[-73.97532,40.67933],[-73.9749,40.67995],[-73.97431,40.67973]]]}},{"type":"Feature","properties":{"e":"52075"},"geometry":{"type":"Polygon","coordinates":[[[-73.97351,40.67864],[-73.96597,40.67706],[-73.9663,40.67618],[-73.97235,40.67745],[-73.97244,40.67716],[-73.97351,40.67864]]]}},{"type":"Feature","properties":{"e":"52076"},"geometry":{"type":"Polygon","coordinates":[[[-73.9663,40.67618],[-73.96661,40.6753],[-73.97189,40.67639],[-73.97244,40.67716],[-73.97235,40.67745],[-73.9663,40.67618]]]}},{"type":"Feature","properties":{"e":"52077"},"geometry":{"type":"Polygon","coordinates":[[[-73.96661,40.6753],[-73.96694,40.67443],[-73.96872,40.67393],[-73.96884,40.67441],[-73.96906,40.67481],[-73.96938,40.67515],[-73.96969,40.67536],[-73.9695,40.67591],[-73.96661,40.6753]]]}},{"type":"Feature","properties":{"e":"52078"},"geometry":{"type":"Polygon","coordinates":[[[-73.9695,40.67591],[-73.96969,40.67536],[-73.96938,40.67515],[-73.96913,40.6749],[-73.96891,40.67456],[-73.96874,40.67409],[-73.96871,40.67381],[-73.96873,40.67357],[-73.96888,40.67298],[-73.96894,40.67289],[-73.96966,40.67264],[-73.97041,40.67265],[-73.97088,40.67271],[-73.97128,40.67327],[-73.97138,40.67351],[-73.97147,40.6739],[-73.97146,40.6743],[-73.97139,40.6747],[-73.97125,40.67498],[-73.97105,40.67524],[-73.97189,40.67639],[-73.9695,40.67591]]]}},{"type":"Feature","properties":{"e":"52079"},"geometry":{"type":"Polygon","coordinates":[[[-73.97351,40.67864],[-73.97272,40.67752],[-73.97105,40.67524],[-73.97662,40.67743],[-73.97532,40.67933],[-73.97351,40.67864]]]}},{"type":"Feature","properties":{"e":"52080"},"geometry":{"type":"Polygon","coordinates":[[[-73.97105,40.67524],[-73.97131,40.67489],[-73.97141,40.6746],[-73.97148,40.6741],[-73.97144,40.6737],[-73.97503,40.6751],[-73.9746,40.67573],[-73.9771,40.67671],[-73.97662,40.67743],[-73.97105,40.67524]]]}},{"type":"Feature","properties":{"e":"52081"},"geometry":{"type":"Polygon","coordinates":[[[-73.97144,40.6737],[-73.97138,40.67351],[-73.97123,40.67319],[-73.97088,40.67271],[-73.97296,40.67349],[-73.97796,40.67544],[-73.9771,40.67671],[-73.9746,40.67573],[-73.97503,40.6751],[-73.97144,40.6737]]]}},{"type":"Feature","properties":{"e":"52082"},"geometry":{"type":"Polygon","coordinates":[[[-73.97942,40.67346],[-73.9747,40.67118],[-73.9752,40.67058],[-73.97282,40.66943],[-73.97332,40.66882],[-73.98042,40.67226],[-73.97942,40.67346]]]}},{"type":"Feature","properties":{"e":"52083"},"geometry":{"type":"Polygon","coordinates":[[[-73.97467,40.67255],[-73.97133,40.67125],[-73.97282,40.66943],[-73.9752,40.67058],[-73.9747,40.67118],[-73.97549,40.67156],[-73.97467,40.67255]]]}},{"type":"Feature","properties":{"e":"52084"},"geometry":{"type":"Polygon","coordinates":[[[-73.97547,40.67447],[-73.97589,40.67383],[-73.97339,40.67285],[-73.97382,40.67222],[-73.97467,40.67255],[-73.97549,40.67156],[-73.97942,40.67346],[-73.97882,40.67417],[-73.97796,40.67544],[-73.97547,40.67447]]]}},{"type":"Feature","properties":{"e":"52085"},"geometry":{"type":"Polygon","coordinates":[[[-73.97088,40.67271],[-73.97041,40.67265],[-73.97085,40.67186],[-73.97133,40.67125],[-73.97382,40.67222],[-73.97339,40.67285],[-73.97589,40.67383],[-73.97547,40.67447],[-73.97088,40.67271]]]}},{"type":"Feature","properties":{"e":"52086"},"geometry":{"type":"Polygon","coordinates":[[[-73.97532,40.67933],[-73.97618,40.67806],[-73.97868,40.67905],[-73.97873,40.67898],[-73.97955,40.67928],[-73.97912,40.6799],[-73.98089,40.68059],[-73.98046,40.68122],[-73.97789,40.68022],[-73.97782,40.68031],[-73.97532,40.67933]]]}},{"type":"Feature","properties":{"e":"52087"},"geometry":{"type":"Polygon","coordinates":[[[-73.9683340740758,40.704491640676],[-73.9682869302503,40.7045358156742],[-73.9678867223115,40.70485029213],[-73.9678361120269,40.7048727279827],[-73.9676169136521,40.7049698915974],[-73.9672110559978,40.7042639652396],[-73.9666711378107,40.7038148599049],[-73.9665389071598,40.7037048689156],[-73.9660755708926,40.7033284088838],[-73.9659173537592,40.7031998593903],[-73.9658756215116,40.7031659519145],[-73.9658371977631,40.7031352639382],[-73.965205824512,40.7026310006505],[-73.9645198826698,40.7020832340208],[-73.9638703282463,40.7015501448824],[-73.9631839550427,40.7010083509637],[-73.9625513591409,40.7005052886539],[-73.9625480446934,40.7004576047885],[-73.9623672335896,40.699613841196],[-73.9628410709599,40.6980469233603],[-73.9639505194925,40.6978683623515],[-73.9648771677629,40.6977225866185],[-73.965776197385,40.6976440353276],[-73.9667437211322,40.6976803934384],[-73.9677288822397,40.6977258791039],[-73.9687409284033,40.697768105569],[-73.9697293348088,40.6978122691158],[-73.9707745858413,40.6978490561941],[-73.9712042481948,40.6978662445669],[-73.9718093772713,40.697893322705],[-73.9727962149656,40.6979290923757],[-73.9733252231308,40.697947905199],[-73.9738001471154,40.6979687049094],[-73.9747880757228,40.6980130658055],[-73.9751945900519,40.6980304417747],[-73.9757841961673,40.6980559844029],[-73.976787864472,40.698095202091],[-73.9775324554832,40.6981240672004],[-73.9780903665334,40.6981465796819],[-73.9805456313165,40.6982547666933],[-73.9804874818758,40.6992874827767],[-73.9804822185622,40.6993809691502],[-73.980463612209,40.6997114129004],[-73.9804422251256,40.7001918857161],[-73.9804188776238,40.7005259192312],[-73.9804062650444,40.7007072616644],[-73.9804173556727,40.700749983819],[-73.9804308028739,40.7007923121701],[-73.9804465827441,40.7008341714611],[-73.9804646672323,40.7008754872688],[-73.9804850241895,40.7009161861365],[-73.9805076174266,40.7009561957041],[-73.9805324067779,40.7009954448369],[-73.9805593481733,40.7010338637522],[-73.9805883937935,40.701071384091],[-73.9806194919199,40.7011079391935],[-73.980652587265,40.7011434640664],[-73.9806876209897,40.7011778955481],[-73.9807245308084,40.7012111724208],[-73.9807632510996,40.7012432355194],[-73.9808037130225,40.7012740278368],[-73.9808458446395,40.7013034946254],[-73.9806505175899,40.7015691283438],[-73.9809054685864,40.7018696849671],[-73.9800278283625,40.702148716163],[-73.9802411465766,40.7029326641202],[-73.9802758632443,40.7030496558353],[-73.9799899804007,40.7035493136891],[-73.9796043677037,40.7041846558954],[-73.9793290641781,40.7047545320885],[-73.9791223618854,40.7055383255924],[-73.9789649902211,40.7055104529258],[-73.9789394217285,40.7055064420065],[-73.9789290982966,40.7055044550882],[-73.97879250128,40.7054820651294],[-73.9787397342025,40.7054713205912],[-73.9787301335158,40.7054699635231],[-73.9787082965561,40.7054661524316],[-73.9786984212271,40.7054645163773],[-73.9786858458233,40.7054624335299],[-73.9786467322629,40.7055992780458],[-73.9784670177444,40.7055704778125],[-73.9784554931941,40.7055686311823],[-73.9784282728648,40.7055650644575],[-73.9785945761219,40.7049868404748],[-73.9785334281019,40.7048847792411],[-73.9784433463648,40.7048796516567],[-73.9782844591049,40.7046748074244],[-73.9781634360117,40.7045366833329],[-73.9781740089673,40.7044940970803],[-73.9781783282119,40.7044766993635],[-73.9780221123018,40.7042992226732],[-73.9773571477598,40.7041863454896],[-73.9773402235199,40.704237806512],[-73.9772634852486,40.7042283520618],[-73.9772134028246,40.7042221823521],[-73.977513593756,40.7032050081813],[-73.9773622777518,40.7031477765254],[-73.9772968229536,40.7031975641142],[-73.9771370649281,40.7030138373986],[-73.9770566282502,40.7031870244306],[-73.9768339022483,40.7036239974951],[-73.9762400868394,40.7047839000628],[-73.9759624018498,40.704723762813],[-73.9769289304784,40.7028060763631],[-73.9766420308752,40.702505021506],[-73.9763497949711,40.7023073611254],[-73.9761608112315,40.7021795357211],[-73.9755360030613,40.7030510643626],[-73.9753313120327,40.7029601798845],[-73.9759490599225,40.7020202518432],[-73.9759489071156,40.7020197490621],[-73.9759823661374,40.7019832917343],[-73.9760073167031,40.7019543886046],[-73.9758974190227,40.7019087267033],[-73.9758156170104,40.7019034384693],[-73.9758137829409,40.7019027595986],[-73.9755944560136,40.7018220440823],[-73.9756021565142,40.7018147220938],[-73.9756123080923,40.7018050698175],[-73.9755022698396,40.7017665642719],[-73.9754049202991,40.7019194029072],[-73.9745516716445,40.7015985991089],[-73.9756133613101,40.7000455714226],[-73.9758009563644,40.6997606729035],[-73.9758050253549,40.6997295294034],[-73.9758025490955,40.6996982891087],[-73.9757935903518,40.6996677437499],[-73.9757783761758,40.6996386674442],[-73.9757572921508,40.6996117970775],[-73.9757308726191,40.6995878136294],[-73.975699787139,40.6995673249151],[-73.9756648235166,40.699550850182],[-73.9756268678399,40.6995388069504],[-73.9755868820228,40.6995315004324],[-73.975545879428,40.6995291157975],[-73.9755048991856,40.6995317134796],[-73.9754649798596,40.6995392276456],[-73.9754271331275,40.6995514678635],[-73.9753923181423,40.699568123929],[-73.9753614172252,40.6995887737261],[-73.9751839803117,40.6998810455964],[-73.9743199393812,40.701202550246],[-73.9741165775297,40.7013135261829],[-73.9738902260039,40.7010934496239],[-73.9738563185728,40.70109224126],[-73.973763547504,40.7010889357808],[-73.973545613633,40.7009005477348],[-73.9735574081591,40.7008758875837],[-73.973289973322,40.7006324397138],[-73.9729278656487,40.7003028085372],[-73.9725745567086,40.7000903112012],[-73.9723934509581,40.7001745783579],[-73.9726224681372,40.70047425073],[-73.9729843419931,40.7008145209543],[-73.9732699874762,40.7010591662179],[-73.9733314388028,40.7010591804712],[-73.9735211439562,40.7012339154912],[-73.9735373703138,40.7013357087825],[-73.9737584446355,40.7015423942053],[-73.973188204038,40.7016780590437],[-73.972885485597,40.7014250513072],[-73.9728471791664,40.7014429787504],[-73.9715705756737,40.7003089348028],[-73.9711396823991,40.699926148859],[-73.9709804057481,40.6998647127442],[-73.9707834423367,40.699986918134],[-73.9708066807997,40.7001057559901],[-73.9725436504534,40.701644698183],[-73.9725095398412,40.7016706418553],[-73.9733259984575,40.7024209115215],[-73.9728365658283,40.702736996334],[-73.9725173821344,40.7024735997705],[-73.9698270017618,40.700253326079],[-73.9694879882555,40.7005273165322],[-73.9721328212394,40.7027579941784],[-73.9728403377293,40.7033546838103],[-73.9726708216115,40.7035096366809],[-73.9718331341839,40.7029869257565],[-73.9692468287823,40.7013729978345],[-73.9689361841486,40.7016241237156],[-73.9689866102778,40.7017553448215],[-73.9714762753387,40.7033247970693],[-73.9723138999416,40.7038527958681],[-73.9721594260491,40.7039784634833],[-73.9714580104346,40.7035169717157],[-73.9711048597586,40.7034679916336],[-73.9709345155889,40.7036330283836],[-73.9710210686105,40.7038238695531],[-73.9734318055032,40.7053096667854],[-73.9746571341463,40.7060825191762],[-73.9743922730195,40.7063340303853],[-73.9733937430362,40.7057414678007],[-73.9725502379771,40.7062127467877],[-73.973300201928,40.7067059701264],[-73.9746311048594,40.7076893172662],[-73.9742376077348,40.7080326427013],[-73.9731077092062,40.7071438256649],[-73.9722193858017,40.7065137493849],[-73.9717066865407,40.7061442889783],[-73.9712263660726,40.7057981561574],[-73.9710979918037,40.7058583128209],[-73.9710058238006,40.7068364974043],[-73.9710583600281,40.7069546902957],[-73.9727590076084,40.7088395358391],[-73.9723217588981,40.7090911406603],[-73.9706711942912,40.7072679653755],[-73.9705420593062,40.7073243329236],[-73.9702636220311,40.7068957607794],[-73.9704902558368,40.7054089223205],[-73.9701703816853,40.7053701096068],[-73.9701821922917,40.7049375266811],[-73.9676225841082,40.7033567615911],[-73.9675166025306,40.7034456132959],[-73.9674781805689,40.7039581269733],[-73.9683340740758,40.704491640676]]]}},{"type":"Feature","properties":{"e":"52088"},"geometry":{"type":"Polygon","coordinates":[[[-74.00054,40.68748],[-73.99819,40.6867],[-73.99908,40.68482],[-74.0015,40.68549],[-74.00054,40.68748]]]}},{"type":"Feature","properties":{"e":"52089"},"geometry":{"type":"Polygon","coordinates":[[[-73.98434,40.69212],[-73.98443,40.69029],[-73.98536,40.69067],[-73.98528,40.69216],[-73.98434,40.69212]]]}},{"type":"Feature","properties":{"e":"52090"},"geometry":{"type":"Polygon","coordinates":[[[-73.98897,40.69231],[-73.98947,40.69229],[-73.99097,40.69255],[-73.99073,40.69305],[-73.99045,40.69372],[-73.99044,40.69383],[-73.99067,40.69457],[-73.99061,40.69457],[-73.99074,40.69503],[-73.99009,40.69508],[-73.99004,40.69623],[-73.98876,40.6962],[-73.98897,40.69231]]]}}]}