{"type":"FeatureCollection","ad":53,"features":[{"type":"Feature","properties":{"e":"53001"},"geometry":{"type":"Polygon","coordinates":[[[-73.92115,40.6928],[-73.92128,40.6928],[-73.92364,40.6904],[-73.92632,40.69193],[-73.92495,40.69332],[-73.92521,40.69345],[-73.92425,40.69443],[-73.92199,40.69314],[-73.92115,40.6928]]]}},{"type":"Feature","properties":{"e":"53002"},"geometry":{"type":"Polygon","coordinates":[[[-73.92725,40.69614],[-73.92425,40.69443],[-73.92521,40.69345],[-73.92495,40.69332],[-73.92632,40.69193],[-73.9297,40.69386],[-73.92843,40.6952],[-73.92826,40.69511],[-73.92725,40.69614]]]}},{"type":"Feature","properties":{"e":"53003"},"geometry":{"type":"Polygon","coordinates":[[[-73.92227,40.69644],[-73.91927,40.69473],[-73.92115,40.6928],[-73.92199,40.69314],[-73.92425,40.69443],[-73.92227,40.69644]]]}},{"type":"Feature","properties":{"e":"53004"},"geometry":{"type":"Polygon","coordinates":[[[-73.92227,40.69644],[-73.92425,40.69443],[-73.92575,40.69528],[-73.92378,40.6973],[-73.92227,40.69644]]]}},{"type":"Feature","properties":{"e":"53005"},"geometry":{"type":"Polygon","coordinates":[[[-73.91181,40.69755],[-73.91626,40.69302],[-73.91776,40.69388],[-73.91331,40.69841],[-73.91181,40.69755]]]}},{"type":"Feature","properties":{"e":"53006"},"geometry":{"type":"Polygon","coordinates":[[[-73.91487,40.69683],[-73.91776,40.69388],[-73.92001,40.69516],[-73.91856,40.69663],[-73.91782,40.69621],[-73.91637,40.69768],[-73.91487,40.69683]]]}},{"type":"Feature","properties":{"e":"53007"},"geometry":{"type":"Polygon","coordinates":[[[-73.91938,40.69939],[-73.91637,40.69768],[-73.91782,40.69621],[-73.91856,40.69663],[-73.92001,40.69516],[-73.92227,40.69644],[-73.91938,40.69939]]]}},{"type":"Feature","properties":{"e":"53008"},"geometry":{"type":"Polygon","coordinates":[[[-73.91938,40.69939],[-73.92227,40.69644],[-73.92527,40.69816],[-73.92383,40.69963],[-73.92233,40.69877],[-73.92088,40.70025],[-73.91938,40.69939]]]}},{"type":"Feature","properties":{"e":"53009"},"geometry":{"type":"Polygon","coordinates":[[[-73.91068,40.70105],[-73.91181,40.69995],[-73.91107,40.69956],[-73.90877,40.69826],[-73.90951,40.6975],[-73.91027,40.69793],[-73.91105,40.69713],[-73.91481,40.69927],[-73.91216,40.70192],[-73.91068,40.70105]]]}},{"type":"Feature","properties":{"e":"53010"},"geometry":{"type":"Polygon","coordinates":[[[-73.91707,40.70055],[-73.91331,40.69841],[-73.91487,40.69683],[-73.91863,40.69897],[-73.91707,40.70055]]]}},{"type":"Feature","properties":{"e":"53011"},"geometry":{"type":"Polygon","coordinates":[[[-73.91364,40.7028],[-73.91216,40.70192],[-73.91481,40.69927],[-73.91707,40.70055],[-73.9156,40.70205],[-73.91485,40.70162],[-73.91364,40.7028]]]}},{"type":"Feature","properties":{"e":"53012"},"geometry":{"type":"Polygon","coordinates":[[[-73.91551,40.70563],[-73.91181,40.70343],[-73.9129,40.70236],[-73.91661,40.70455],[-73.91551,40.70563]]]}},{"type":"Feature","properties":{"e":"53013"},"geometry":{"type":"Polygon","coordinates":[[[-73.91364,40.7028],[-73.91485,40.70162],[-73.91632,40.7025],[-73.91782,40.70098],[-73.91932,40.70183],[-73.91661,40.70455],[-73.91364,40.7028]]]}},{"type":"Feature","properties":{"e":"53014"},"geometry":{"type":"Polygon","coordinates":[[[-73.9156,40.70205],[-73.91863,40.69897],[-73.92088,40.70025],[-73.91932,40.70183],[-73.91782,40.70098],[-73.91632,40.7025],[-73.9156,40.70205]]]}},{"type":"Feature","properties":{"e":"53015"},"geometry":{"type":"Polygon","coordinates":[[[-73.91551,40.70563],[-73.91778,40.7034],[-73.91923,40.70431],[-73.92083,40.70269],[-73.92158,40.70311],[-73.91996,40.70476],[-73.91774,40.70694],[-73.91551,40.70563]]]}},{"type":"Feature","properties":{"e":"53016"},"geometry":{"type":"Polygon","coordinates":[[[-73.91778,40.7034],[-73.92088,40.70025],[-73.92238,40.7011],[-73.91923,40.70431],[-73.91778,40.7034]]]}},{"type":"Feature","properties":{"e":"53017"},"geometry":{"type":"Polygon","coordinates":[[[-73.92083,40.70269],[-73.92238,40.7011],[-73.92088,40.70025],[-73.92233,40.69877],[-73.92383,40.69963],[-73.92527,40.69816],[-73.92602,40.69858],[-73.92158,40.70311],[-73.92083,40.70269]]]}},{"type":"Feature","properties":{"e":"53018"},"geometry":{"type":"Polygon","coordinates":[[[-73.92725,40.69614],[-73.92826,40.69511],[-73.92843,40.6952],[-73.9297,40.69386],[-73.93237,40.69536],[-73.93108,40.69666],[-73.92962,40.69761],[-73.92939,40.69771],[-73.92823,40.69667],[-73.92725,40.69614]]]}},{"type":"Feature","properties":{"e":"53019"},"geometry":{"type":"Polygon","coordinates":[[[-73.92904,40.70029],[-73.92527,40.69816],[-73.92725,40.69614],[-73.92823,40.69667],[-73.92883,40.69719],[-73.93052,40.69877],[-73.92904,40.70029]]]}},{"type":"Feature","properties":{"e":"53020"},"geometry":{"type":"Polygon","coordinates":[[[-73.93052,40.69877],[-73.92939,40.69771],[-73.92962,40.69761],[-73.93108,40.69666],[-73.93237,40.69536],[-73.93522,40.69699],[-73.93401,40.69712],[-73.93325,40.69786],[-73.9337,40.6981],[-73.93379,40.69842],[-73.93155,40.69936],[-73.93052,40.69877]]]}},{"type":"Feature","properties":{"e":"53021"},"geometry":{"type":"Polygon","coordinates":[[[-73.93155,40.69936],[-73.93379,40.69842],[-73.9337,40.6981],[-73.93325,40.69786],[-73.93401,40.69712],[-73.93522,40.69699],[-73.93739,40.69819],[-73.93622,40.69941],[-73.93547,40.69907],[-73.93609,40.70004],[-73.93453,40.70047],[-73.93425,40.69983],[-73.93401,40.69911],[-73.93235,40.69981],[-73.93155,40.69936]]]}},{"type":"Feature","properties":{"e":"53022"},"geometry":{"type":"Polygon","coordinates":[[[-73.93646,40.70064],[-73.93547,40.69907],[-73.93622,40.69941],[-73.93739,40.69819],[-73.94193,40.70073],[-73.93837,40.70154],[-73.93534,40.70231],[-73.93479,40.70108],[-73.93646,40.70064]]]}},{"type":"Feature","properties":{"e":"53023"},"geometry":{"type":"Polygon","coordinates":[[[-73.93352,40.70285],[-73.92904,40.70029],[-73.93052,40.69877],[-73.93235,40.69981],[-73.93401,40.69911],[-73.93425,40.69983],[-73.93453,40.70047],[-73.93609,40.70004],[-73.93646,40.70064],[-73.93479,40.70108],[-73.93534,40.70231],[-73.93395,40.70267],[-73.93352,40.70285]]]}},{"type":"Feature","properties":{"e":"53024"},"geometry":{"type":"Polygon","coordinates":[[[-73.92313,40.70153],[-73.92602,40.69858],[-73.92904,40.70029],[-73.92759,40.70176],[-73.92608,40.70091],[-73.92464,40.70239],[-73.92313,40.70153]]]}},{"type":"Feature","properties":{"e":"53025"},"geometry":{"type":"Polygon","coordinates":[[[-73.92689,40.70367],[-73.92464,40.70239],[-73.92608,40.70091],[-73.92759,40.70176],[-73.92904,40.70029],[-73.92979,40.70072],[-73.92689,40.70367]]]}},{"type":"Feature","properties":{"e":"53026"},"geometry":{"type":"Polygon","coordinates":[[[-73.92834,40.70219],[-73.92979,40.70072],[-73.93352,40.70285],[-73.92874,40.70472],[-73.9284,40.70453],[-73.92984,40.70305],[-73.92834,40.70219]]]}},{"type":"Feature","properties":{"e":"53027"},"geometry":{"type":"Polygon","coordinates":[[[-73.92459,40.70482],[-73.92614,40.70324],[-73.92689,40.70367],[-73.92834,40.70219],[-73.92984,40.70305],[-73.9284,40.70453],[-73.92874,40.70472],[-73.92665,40.70553],[-73.92609,40.70568],[-73.92459,40.70482]]]}},{"type":"Feature","properties":{"e":"53028"},"geometry":{"type":"Polygon","coordinates":[[[-73.91996,40.70476],[-73.92313,40.70153],[-73.92614,40.70324],[-73.92459,40.70482],[-73.92383,40.7044],[-73.92214,40.70612],[-73.91996,40.70476]]]}},{"type":"Feature","properties":{"e":"53029"},"geometry":{"type":"Polygon","coordinates":[[[-73.91774,40.70694],[-73.91996,40.70476],[-73.92214,40.70612],[-73.91996,40.70826],[-73.91774,40.70694]]]}},{"type":"Feature","properties":{"e":"53030"},"geometry":{"type":"Polygon","coordinates":[[[-73.92404,40.71401],[-73.92314,40.71339],[-73.92223,40.71286],[-73.92155,40.71104],[-73.92122,40.71079],[-73.92075,40.71053],[-73.92189,40.7094],[-73.91996,40.70826],[-73.92214,40.70612],[-73.92383,40.7044],[-73.92609,40.70568],[-73.92665,40.70553],[-73.92811,40.70495],[-73.92903,40.70828],[-73.93207,40.70779],[-73.93252,40.70824],[-73.9348,40.71337],[-73.93137,40.71425],[-73.93131,40.71414],[-73.93144,40.71413],[-73.93124,40.71372],[-73.93145,40.71344],[-73.93165,40.71334],[-73.9326,40.71308],[-73.93265,40.71303],[-73.93203,40.71159],[-73.93338,40.71123],[-73.93328,40.71098],[-73.9319,40.71134],[-73.93093,40.70917],[-73.93078,40.7091],[-73.93076,40.70897],[-73.93054,40.70877],[-73.9305,40.70868],[-73.93036,40.70872],[-73.93038,40.7088],[-73.93025,40.70893],[-73.93155,40.71186],[-73.93086,40.71206],[-73.9308,40.7121],[-73.93078,40.71216],[-73.93086,40.71222],[-73.93161,40.71204],[-73.93183,40.71251],[-73.93184,40.71263],[-73.93181,40.71269],[-73.93173,40.71275],[-73.93053,40.71306],[-73.93042,40.71317],[-73.93105,40.71461],[-73.93085,40.7149],[-73.92992,40.71515],[-73.9299,40.71513],[-73.92931,40.71528],[-73.92925,40.71533],[-73.92844,40.71553],[-73.9289,40.71657],[-73.92888,40.71668],[-73.92877,40.71681],[-73.92821,40.71711],[-73.92595,40.71769],[-73.92473,40.71794],[-73.92458,40.71795],[-73.92445,40.71789],[-73.92412,40.71768],[-73.92359,40.71727],[-73.92335,40.71697],[-73.92317,40.71648],[-73.92312,40.71648],[-73.92306,40.71634],[-73.92361,40.7161],[-73.92359,40.71603],[-73.92431,40.71585],[-73.92483,40.71528],[-73.92489,40.71527],[-73.92476,40.71498],[-73.92456,40.71475],[-73.92443,40.71436],[-73.92435,40.71431],[-73.92434,40.71412],[-73.92406,40.71411],[-73.92404,40.71401]]]}},{"type":"Feature","properties":{"e":"53031"},"geometry":{"type":"Polygon","coordinates":[[[-73.92811,40.70495],[-73.93395,40.70267],[-73.93423,40.7033],[-73.93456,40.70324],[-73.9359,40.70728],[-73.93392,40.70749],[-73.92903,40.70828],[-73.92811,40.70495]]]}},{"type":"Feature","properties":{"e":"53032"},"geometry":{"type":"Polygon","coordinates":[[[-73.93395,40.70267],[-73.93698,40.70191],[-73.93763,40.70337],[-73.93778,40.70352],[-73.93849,40.70395],[-73.93913,40.70457],[-73.93931,40.70481],[-73.94062,40.70468],[-73.94066,40.70493],[-73.9398,40.70502],[-73.93997,40.70617],[-73.93567,40.70658],[-73.93456,40.70324],[-73.93423,40.7033],[-73.93395,40.70267]]]}},{"type":"Feature","properties":{"e":"53033"},"geometry":{"type":"Polygon","coordinates":[[[-73.93765,40.70173],[-73.94042,40.70108],[-73.94068,40.70259],[-73.9406,40.70279],[-73.94009,40.70282],[-73.93997,40.70287],[-73.9395,40.70281],[-73.93904,40.70264],[-73.93903,40.70268],[-73.93888,40.70279],[-73.93853,40.70285],[-73.93835,40.70274],[-73.93795,40.70236],[-73.9378,40.70213],[-73.93765,40.70173]]]}},{"type":"Feature","properties":{"e":"53034"},"geometry":{"type":"Polygon","coordinates":[[[-73.93698,40.70191],[-73.93765,40.70173],[-73.9378,40.70213],[-73.93795,40.70236],[-73.93835,40.70274],[-73.93853,40.70285],[-73.93888,40.70279],[-73.93903,40.70268],[-73.93904,40.70264],[-73.9395,40.70281],[-73.93997,40.70287],[-73.93898,40.70331],[-73.9389,40.70405],[-73.9386,40.70407],[-73.93841,40.7039],[-73.93778,40.70352],[-73.93763,40.70337],[-73.93698,40.70191]]]}},{"type":"Feature","properties":{"e":"53035"},"geometry":{"type":"Polygon","coordinates":[[[-73.9386,40.70407],[-73.9389,40.70405],[-73.93898,40.70331],[-73.94009,40.70282],[-73.9406,40.70279],[-73.94068,40.70259],[-73.94078,40.70322],[-73.94249,40.70305],[-73.94273,40.70447],[-73.93931,40.70481],[-73.93913,40.70457],[-73.9386,40.70407]]]}},{"type":"Feature","properties":{"e":"53036"},"geometry":{"type":"Polygon","coordinates":[[[-73.94285,40.70518],[-73.94249,40.70305],[-73.94078,40.70322],[-73.94042,40.70108],[-73.94193,40.70073],[-73.94323,40.70152],[-73.94625,40.70321],[-73.94591,40.70342],[-73.94433,40.70359],[-73.94457,40.70502],[-73.94285,40.70518]]]}},{"type":"Feature","properties":{"e":"53037"},"geometry":{"type":"Polygon","coordinates":[[[-73.94925,40.7049],[-73.94323,40.70152],[-73.94193,40.70073],[-73.95009,40.69979],[-73.95014,40.69992],[-73.95066,40.70035],[-73.95192,40.70149],[-73.95001,40.70273],[-73.95025,40.70294],[-73.95023,40.70356],[-73.94879,40.70448],[-73.94925,40.7049]]]}},{"type":"Feature","properties":{"e":"53038"},"geometry":{"type":"Polygon","coordinates":[[[-73.94285,40.70518],[-73.94457,40.70502],[-73.94433,40.70359],[-73.94591,40.70342],[-73.94626,40.7056],[-73.94297,40.70589],[-73.94285,40.70518]]]}},{"type":"Feature","properties":{"e":"53039"},"geometry":{"type":"Polygon","coordinates":[[[-73.94591,40.70342],[-73.94625,40.70321],[-73.94984,40.70523],[-73.94626,40.7056],[-73.94591,40.70342]]]}},{"type":"Feature","properties":{"e":"53040"},"geometry":{"type":"Polygon","coordinates":[[[-73.94626,40.7056],[-73.94984,40.70523],[-73.95024,40.70547],[-73.95191,40.70636],[-73.95041,40.70665],[-73.9482,40.70685],[-73.9483,40.7076],[-73.94666,40.70775],[-73.94626,40.7056]]]}},{"type":"Feature","properties":{"e":"53041"},"geometry":{"type":"Polygon","coordinates":[[[-73.94297,40.70589],[-73.94626,40.7056],[-73.94666,40.70775],[-73.94332,40.70807],[-73.94297,40.70589]]]}},{"type":"Feature","properties":{"e":"53042"},"geometry":{"type":"Polygon","coordinates":[[[-73.94062,40.70468],[-73.94273,40.70447],[-73.94297,40.70589],[-73.93997,40.70617],[-73.9398,40.70502],[-73.94066,40.70493],[-73.94062,40.70468]]]}},{"type":"Feature","properties":{"e":"53043"},"geometry":{"type":"Polygon","coordinates":[[[-73.9396,40.70621],[-73.94297,40.70589],[-73.94332,40.70807],[-73.93995,40.7084],[-73.9396,40.70621]]]}},{"type":"Feature","properties":{"e":"53044"},"geometry":{"type":"Polygon","coordinates":[[[-73.9598,40.71389],[-73.95834,40.71331],[-73.95906,40.71217],[-73.96056,40.71271],[-73.96103,40.71197],[-73.96255,40.71253],[-73.96168,40.7139],[-73.96016,40.71335],[-73.9598,40.71389]]]}},{"type":"Feature","properties":{"e":"53045"},"geometry":{"type":"Polygon","coordinates":[[[-73.95681,40.71276],[-73.958,40.71086],[-73.95953,40.71142],[-73.95834,40.71331],[-73.95681,40.71276]]]}},{"type":"Feature","properties":{"e":"53046"},"geometry":{"type":"Polygon","coordinates":[[[-73.95906,40.71217],[-73.95994,40.71079],[-73.95884,40.71037],[-73.95839,40.71025],[-73.95886,40.70955],[-73.96,40.70994],[-73.96038,40.71],[-73.9606,40.71011],[-73.96112,40.71023],[-73.96196,40.71049],[-73.96142,40.71135],[-73.96294,40.7119],[-73.96255,40.71253],[-73.96103,40.71197],[-73.96056,40.71271],[-73.95906,40.71217]]]}},{"type":"Feature","properties":{"e":"53047"},"geometry":{"type":"Polygon","coordinates":[[[-73.9561,40.71017],[-73.95728,40.70821],[-73.9579,40.70843],[-73.95749,40.70908],[-73.95886,40.70955],[-73.95839,40.71025],[-73.95884,40.71037],[-73.95994,40.71079],[-73.95953,40.71142],[-73.958,40.71086],[-73.95753,40.71161],[-73.9562,40.71111],[-73.95648,40.71064],[-73.95655,40.71047],[-73.95647,40.71034],[-73.9561,40.71017]]]}},{"type":"Feature","properties":{"e":"53048"},"geometry":{"type":"Polygon","coordinates":[[[-73.95681,40.71276],[-73.95164,40.71091],[-73.95112,40.71096],[-73.95099,40.71022],[-73.95152,40.71017],[-73.95313,40.71076],[-73.95358,40.71072],[-73.95433,40.70952],[-73.95643,40.71031],[-73.95652,40.71037],[-73.95655,40.71051],[-73.9562,40.71111],[-73.95753,40.71161],[-73.95681,40.71276]]]}},{"type":"Feature","properties":{"e":"53049"},"geometry":{"type":"Polygon","coordinates":[[[-73.95433,40.70952],[-73.95512,40.70827],[-73.95209,40.70722],[-73.95252,40.70656],[-73.95728,40.70821],[-73.9561,40.71017],[-73.95433,40.70952]]]}},{"type":"Feature","properties":{"e":"53050"},"geometry":{"type":"Polygon","coordinates":[[[-73.95076,40.7088],[-73.95041,40.70665],[-73.95191,40.70636],[-73.95252,40.70656],[-73.95209,40.70722],[-73.95512,40.70827],[-73.95472,40.7089],[-73.95322,40.70835],[-73.95283,40.70897],[-73.95133,40.70843],[-73.95112,40.70878],[-73.95076,40.7088]]]}},{"type":"Feature","properties":{"e":"53051"},"geometry":{"type":"Polygon","coordinates":[[[-73.95236,40.70972],[-73.95322,40.70835],[-73.95472,40.7089],[-73.95386,40.71026],[-73.95236,40.70972]]]}},{"type":"Feature","properties":{"e":"53052"},"geometry":{"type":"Polygon","coordinates":[[[-73.95099,40.71022],[-73.95076,40.7088],[-73.95112,40.70878],[-73.95133,40.70843],[-73.95283,40.70897],[-73.95236,40.70972],[-73.95386,40.71026],[-73.95358,40.71072],[-73.95313,40.71076],[-73.95152,40.71017],[-73.95099,40.71022]]]}},{"type":"Feature","properties":{"e":"53053"},"geometry":{"type":"Polygon","coordinates":[[[-73.94501,40.70791],[-73.9483,40.7076],[-73.9482,40.70685],[-73.95041,40.70665],[-73.95076,40.7088],[-73.94661,40.7092],[-73.94635,40.70914],[-73.94617,40.70919],[-73.94606,40.70926],[-73.94524,40.70932],[-73.94501,40.70791]]]}},{"type":"Feature","properties":{"e":"53054"},"geometry":{"type":"Polygon","coordinates":[[[-73.94008,40.7091],[-73.93995,40.7084],[-73.94501,40.70791],[-73.94524,40.70932],[-73.94606,40.70926],[-73.94617,40.70919],[-73.94635,40.70914],[-73.94661,40.7092],[-73.94685,40.70918],[-73.94697,40.70989],[-73.94627,40.70995],[-73.94609,40.70991],[-73.94604,40.71002],[-73.94588,40.7101],[-73.94576,40.71008],[-73.94567,40.71002],[-73.94368,40.71022],[-73.94344,40.70878],[-73.94008,40.7091]]]}},{"type":"Feature","properties":{"e":"53055"},"geometry":{"type":"Polygon","coordinates":[[[-73.94854,40.70902],[-73.95076,40.7088],[-73.95112,40.71096],[-73.94724,40.71132],[-73.9471,40.71059],[-73.94877,40.71043],[-73.94854,40.70902]]]}},{"type":"Feature","properties":{"e":"53056"},"geometry":{"type":"Polygon","coordinates":[[[-73.94368,40.71022],[-73.94567,40.71002],[-73.94576,40.71008],[-73.94588,40.7101],[-73.94604,40.71002],[-73.94609,40.70991],[-73.94627,40.70995],[-73.94697,40.70989],[-73.94685,40.70918],[-73.94854,40.70902],[-73.94877,40.71043],[-73.9471,40.71059],[-73.94724,40.71132],[-73.94391,40.71164],[-73.94368,40.71022]]]}},{"type":"Feature","properties":{"e":"53057"},"geometry":{"type":"Polygon","coordinates":[[[-73.94031,40.71052],[-73.94008,40.7091],[-73.94344,40.70878],[-73.94368,40.71022],[-73.94291,40.71027],[-73.94281,40.71026],[-73.94266,40.71037],[-73.94252,40.71042],[-73.94236,40.7104],[-73.94225,40.71033],[-73.94143,40.71041],[-73.94127,40.71038],[-73.94117,40.7104],[-73.94106,40.71049],[-73.94091,40.71055],[-73.94074,40.71055],[-73.94061,40.71048],[-73.94031,40.71052]]]}},{"type":"Feature","properties":{"e":"53058"},"geometry":{"type":"Polygon","coordinates":[[[-73.93207,40.70779],[-73.93392,40.70749],[-73.9359,40.70728],[-73.93567,40.70658],[-73.9396,40.70621],[-73.94048,40.71156],[-73.94069,40.71196],[-73.9348,40.71337],[-73.93252,40.70824],[-73.93207,40.70779]]]}},{"type":"Feature","properties":{"e":"53059"},"geometry":{"type":"Polygon","coordinates":[[[-73.94031,40.71052],[-73.94061,40.71048],[-73.94074,40.71055],[-73.94091,40.71055],[-73.94106,40.71049],[-73.94117,40.7104],[-73.94127,40.71038],[-73.94143,40.71041],[-73.94225,40.71033],[-73.94236,40.7104],[-73.94252,40.71042],[-73.94266,40.71037],[-73.94281,40.71026],[-73.94291,40.71027],[-73.94368,40.71022],[-73.94391,40.71164],[-73.94069,40.71196],[-73.94048,40.71156],[-73.94031,40.71052]]]}},{"type":"Feature","properties":{"e":"53060"},"geometry":{"type":"Polygon","coordinates":[[[-73.93137,40.71425],[-73.9348,40.71337],[-73.94069,40.71196],[-73.94207,40.71473],[-73.93529,40.71446],[-73.93571,40.71541],[-73.93408,40.71582],[-73.93344,40.71439],[-73.93228,40.71435],[-73.93137,40.71425]]]}},{"type":"Feature","properties":{"e":"53061"},"geometry":{"type":"Polygon","coordinates":[[[-73.93137,40.71425],[-73.93228,40.71435],[-73.93344,40.71439],[-73.93408,40.71582],[-73.93571,40.71541],[-73.93529,40.71446],[-73.94207,40.71473],[-73.94216,40.71506],[-73.94216,40.71545],[-73.94208,40.71618],[-73.94184,40.71692],[-73.94023,40.71709],[-73.94012,40.71636],[-73.93834,40.71691],[-73.93805,40.7168],[-73.93655,40.71722],[-73.93666,40.71744],[-73.93498,40.71784],[-73.9347,40.71721],[-73.93161,40.71801],[-73.92468,40.71989],[-73.92452,40.71961],[-73.92454,40.71934],[-73.92469,40.71872],[-73.92486,40.71844],[-73.92499,40.71838],[-73.92509,40.71838],[-73.92616,40.7181],[-73.92638,40.71808],[-73.92838,40.71758],[-73.92847,40.71763],[-73.92867,40.71766],[-73.92879,40.71773],[-73.92885,40.71773],[-73.92911,40.71754],[-73.92919,40.71741],[-73.92961,40.71719],[-73.92968,40.7171],[-73.92971,40.71701],[-73.9295,40.71657],[-73.9295,40.7165],[-73.92932,40.71608],[-73.92936,40.7159],[-73.92947,40.71572],[-73.93149,40.71521],[-73.93179,40.71518],[-73.93208,40.71506],[-73.93223,40.71494],[-73.93223,40.71485],[-73.93215,40.71469],[-73.93175,40.71474],[-73.93159,40.7144],[-73.93154,40.71436],[-73.93143,40.71438],[-73.93137,40.71425]]]}},{"type":"Feature","properties":{"e":"53062"},"geometry":{"type":"Polygon","coordinates":[[[-73.92468,40.71989],[-73.93161,40.71801],[-73.9347,40.71721],[-73.93498,40.71784],[-73.93666,40.71744],[-73.93655,40.71722],[-73.93805,40.7168],[-73.93834,40.71691],[-73.94012,40.71636],[-73.94023,40.71709],[-73.94184,40.71692],[-73.94127,40.7177],[-73.94049,40.71868],[-73.93589,40.71987],[-73.93711,40.7226],[-73.9278,40.72501],[-73.9278,40.72493],[-73.9272,40.72365],[-73.92561,40.72006],[-73.92482,40.72027],[-73.92471,40.72],[-73.92475,40.71999],[-73.92468,40.71989]]]}},{"type":"Feature","properties":{"e":"53063"},"geometry":{"type":"Polygon","coordinates":[[[-73.92378,40.6973],[-73.92575,40.69528],[-73.92725,40.69614],[-73.92527,40.69816],[-73.92378,40.6973]]]}},{"type":"Feature","properties":{"e":"53064"},"geometry":{"type":"Polygon","coordinates":[[[-73.9270497905077,40.6991676110757],[-73.9293956962099,40.6977214645337],[-73.9296164825807,40.6976152476831],[-73.9298551936916,40.6974611747395],[-73.9310849307504,40.6966674382425],[-73.9323674806322,40.6953666328577],[-73.9331200527349,40.695799409466],[-73.9318438896718,40.6970859080434],[-73.9313392470025,40.6974289819502],[-73.9312247388972,40.6974412688958],[-73.9312295658235,40.6974576606934],[-73.9312280283956,40.6974744183315],[-73.9312202552304,40.6974901409513],[-73.9312068962249,40.6975035134176],[-73.9299655536038,40.6982581844052],[-73.9302643644899,40.6985388361249],[-73.9305217108759,40.6987805395676],[-73.9290366404315,40.7002980693509],[-73.9282837901295,40.6998698862006],[-73.9277982500707,40.6995933771466],[-73.9275333933727,40.6994470578357],[-73.9270497905077,40.6991676110757]]]}},{"type":"Feature","properties":{"e":"53065"},"geometry":{"type":"Polygon","coordinates":[[[-73.9419322160857,40.7007334909748],[-73.9437249560531,40.7005140919037],[-73.944389313997,40.7004327799167],[-73.9446190892198,40.7004135565421],[-73.946317003954,40.7002232087874],[-73.9471290503588,40.7001310668632],[-73.9472495166483,40.7001131652181],[-73.9481336831142,40.70001452924],[-73.949795223213,40.6998315707532],[-73.9500923769745,40.699798849048],[-73.9501378134178,40.6999236705509],[-73.9506581564185,40.7003552316755],[-73.9507574865737,40.7004529077785],[-73.9505048022384,40.7004783828284],[-73.9502911375806,40.7006016789583],[-73.9487485277163,40.701602497596],[-73.9469088404087,40.7027923748075],[-73.9462525066054,40.703217004571],[-73.945856419785,40.7029954633604],[-73.945451310435,40.7027688925294],[-73.9446405297752,40.7023219511703],[-73.9443160297402,40.7021416018239],[-73.9440064684896,40.7019700486461],[-73.9438261660103,40.7018702643143],[-73.9432282878496,40.7015289655354],[-73.9430654967873,40.7014326914686],[-73.9423354109634,40.7009813852882],[-73.9422020144124,40.7008989237698],[-73.9419322160857,40.7007334909748]]]}}]}