{"type":"FeatureCollection","ad":54,"features":[{"type":"Feature","properties":{"e":"54001"},"geometry":{"type":"Polygon","coordinates":[[[-73.86218,40.67658],[-73.86454,40.67645],[-73.86485,40.67772],[-73.8625,40.67786],[-73.86218,40.67658]]]}},{"type":"Feature","properties":{"e":"54002"},"geometry":{"type":"Polygon","coordinates":[[[-73.8641,40.68237],[-73.86328,40.67908],[-73.86235,40.67916],[-73.86171,40.67661],[-73.86218,40.67658],[-73.8625,40.67786],[-73.86485,40.67772],[-73.86454,40.67645],[-73.86546,40.67633],[-73.86608,40.67885],[-73.86537,40.67894],[-73.86602,40.68192],[-73.86499,40.68213],[-73.8641,40.68237]]]}},{"type":"Feature","properties":{"e":"54003"},"geometry":{"type":"Polygon","coordinates":[[[-73.86546,40.67633],[-73.86713,40.6761],[-73.86978,40.67703],[-73.872,40.67765],[-73.87267,40.6779],[-73.86793,40.67858],[-73.86762,40.67734],[-73.8667,40.67747],[-73.867,40.67871],[-73.86608,40.67885],[-73.86546,40.67633]]]}},{"type":"Feature","properties":{"e":"54004"},"geometry":{"type":"Polygon","coordinates":[[[-73.87099,40.67554],[-73.87192,40.6754],[-73.8713,40.67286],[-73.87372,40.67251],[-73.87404,40.67378],[-73.87588,40.67352],[-73.87619,40.67479],[-73.87435,40.67505],[-73.87467,40.67632],[-73.87131,40.67681],[-73.87099,40.67554]]]}},{"type":"Feature","properties":{"e":"54005"},"geometry":{"type":"Polygon","coordinates":[[[-73.87372,40.67251],[-73.87925,40.67173],[-73.87957,40.67299],[-73.87404,40.67378],[-73.87372,40.67251]]]}},{"type":"Feature","properties":{"e":"54006"},"geometry":{"type":"Polygon","coordinates":[[[-73.87925,40.67173],[-73.8852,40.67086],[-73.88552,40.67211],[-73.87957,40.67299],[-73.87925,40.67173]]]}},{"type":"Feature","properties":{"e":"54007"},"geometry":{"type":"Polygon","coordinates":[[[-73.8663,40.68319],[-73.86537,40.67894],[-73.867,40.67871],[-73.8667,40.67747],[-73.86762,40.67734],[-73.86793,40.67858],[-73.86803,40.67857],[-73.86843,40.68031],[-73.86754,40.68043],[-73.86806,40.68261],[-73.86814,40.68267],[-73.8663,40.68319]]]}},{"type":"Feature","properties":{"e":"54008"},"geometry":{"type":"Polygon","coordinates":[[[-73.86886,40.67844],[-73.87211,40.67798],[-73.87264,40.67818],[-73.87288,40.6783],[-73.87344,40.68059],[-73.87137,40.68089],[-73.8712,40.68022],[-73.86941,40.68047],[-73.86896,40.6785],[-73.86886,40.67844]]]}},{"type":"Feature","properties":{"e":"54009"},"geometry":{"type":"Polygon","coordinates":[[[-73.86803,40.67857],[-73.86886,40.67844],[-73.86896,40.6785],[-73.86941,40.68047],[-73.8712,40.68022],[-73.87137,40.68089],[-73.87344,40.68059],[-73.87359,40.68109],[-73.86814,40.68267],[-73.86806,40.68261],[-73.86754,40.68043],[-73.86843,40.68031],[-73.86803,40.67857]]]}},{"type":"Feature","properties":{"e":"54010"},"geometry":{"type":"Polygon","coordinates":[[[-73.87148,40.6775],[-73.87131,40.67681],[-73.87743,40.67592],[-73.87774,40.67717],[-73.87267,40.6779],[-73.87225,40.67773],[-73.87148,40.6775]]]}},{"type":"Feature","properties":{"e":"54011"},"geometry":{"type":"Polygon","coordinates":[[[-73.87588,40.67352],[-73.87865,40.67312],[-73.87928,40.67566],[-73.87467,40.67632],[-73.87435,40.67505],[-73.87619,40.67479],[-73.87588,40.67352]]]}},{"type":"Feature","properties":{"e":"54012"},"geometry":{"type":"Polygon","coordinates":[[[-73.87865,40.67312],[-73.88226,40.67259],[-73.88291,40.67513],[-73.87928,40.67566],[-73.87865,40.67312]]]}},{"type":"Feature","properties":{"e":"54013"},"geometry":{"type":"Polygon","coordinates":[[[-73.88226,40.67259],[-73.88552,40.67211],[-73.88617,40.67465],[-73.88291,40.67513],[-73.88226,40.67259]]]}},{"type":"Feature","properties":{"e":"54014"},"geometry":{"type":"Polygon","coordinates":[[[-73.88552,40.67211],[-73.8891,40.67158],[-73.88974,40.67412],[-73.88617,40.67465],[-73.88552,40.67211]]]}},{"type":"Feature","properties":{"e":"54015"},"geometry":{"type":"Polygon","coordinates":[[[-73.8891,40.67158],[-73.89271,40.67105],[-73.89303,40.67231],[-73.89212,40.67245],[-73.89245,40.67372],[-73.88974,40.67412],[-73.8891,40.67158]]]}},{"type":"Feature","properties":{"e":"54016"},"geometry":{"type":"Polygon","coordinates":[[[-73.89271,40.67105],[-73.89554,40.67063],[-73.89619,40.67315],[-73.89245,40.67372],[-73.89212,40.67245],[-73.89303,40.67231],[-73.89271,40.67105]]]}},{"type":"Feature","properties":{"e":"54017"},"geometry":{"type":"Polygon","coordinates":[[[-73.88974,40.67412],[-73.89619,40.67315],[-73.89651,40.6744],[-73.89006,40.67536],[-73.88974,40.67412]]]}},{"type":"Feature","properties":{"e":"54018"},"geometry":{"type":"Polygon","coordinates":[[[-73.88901,40.67856],[-73.88826,40.67562],[-73.89277,40.67496],[-73.89307,40.67614],[-73.89582,40.67581],[-73.89622,40.67736],[-73.88987,40.6783],[-73.88901,40.67856]]]}},{"type":"Feature","properties":{"e":"54019"},"geometry":{"type":"Polygon","coordinates":[[[-73.88686,40.67736],[-73.88859,40.67696],[-73.88901,40.67856],[-73.88987,40.6783],[-73.89077,40.67816],[-73.89121,40.67987],[-73.88764,40.6804],[-73.88686,40.67736]]]}},{"type":"Feature","properties":{"e":"54020"},"geometry":{"type":"Polygon","coordinates":[[[-73.87864,40.67704],[-73.88826,40.67562],[-73.88859,40.67696],[-73.88601,40.67758],[-73.87927,40.67949],[-73.87864,40.67704]]]}},{"type":"Feature","properties":{"e":"54021"},"geometry":{"type":"Polygon","coordinates":[[[-73.87344,40.68059],[-73.87288,40.6783],[-73.87251,40.67812],[-73.87211,40.67798],[-73.87864,40.67704],[-73.87927,40.67949],[-73.87743,40.68001],[-73.8774,40.6801],[-73.87632,40.68041],[-73.87585,40.68045],[-73.87359,40.68109],[-73.87344,40.68059]]]}},{"type":"Feature","properties":{"e":"54022"},"geometry":{"type":"Polygon","coordinates":[[[-73.88331,40.67834],[-73.88686,40.67736],[-73.88764,40.6804],[-73.88397,40.68095],[-73.88331,40.67834]]]}},{"type":"Feature","properties":{"e":"54023"},"geometry":{"type":"Polygon","coordinates":[[[-73.87863,40.67968],[-73.88331,40.67834],[-73.88397,40.68095],[-73.88117,40.68135],[-73.88164,40.68327],[-73.88072,40.68341],[-73.87963,40.68369],[-73.87863,40.67968]]]}},{"type":"Feature","properties":{"e":"54024"},"geometry":{"type":"Polygon","coordinates":[[[-73.87486,40.68072],[-73.87585,40.68045],[-73.87632,40.68041],[-73.8774,40.6801],[-73.87743,40.68001],[-73.87863,40.67968],[-73.87963,40.68369],[-73.87583,40.68464],[-73.87486,40.68072]]]}},{"type":"Feature","properties":{"e":"54025"},"geometry":{"type":"Polygon","coordinates":[[[-73.87072,40.68193],[-73.87486,40.68072],[-73.87583,40.68464],[-73.87274,40.68541],[-73.87219,40.68365],[-73.87119,40.68394],[-73.87072,40.68193]]]}},{"type":"Feature","properties":{"e":"54026"},"geometry":{"type":"Polygon","coordinates":[[[-73.86902,40.68241],[-73.87072,40.68193],[-73.87119,40.68394],[-73.87219,40.68365],[-73.87274,40.68541],[-73.86991,40.68612],[-73.86902,40.68241]]]}},{"type":"Feature","properties":{"e":"54027"},"geometry":{"type":"Polygon","coordinates":[[[-73.8663,40.68319],[-73.86902,40.68241],[-73.86991,40.68612],[-73.86702,40.68683],[-73.8666,40.68527],[-73.8663,40.68319]]]}},{"type":"Feature","properties":{"e":"54028"},"geometry":{"type":"Polygon","coordinates":[[[-73.86841,40.69473],[-73.86868,40.69403],[-73.86859,40.69388],[-73.86806,40.69118],[-73.86746,40.6884],[-73.86702,40.68683],[-73.86908,40.68632],[-73.87013,40.69071],[-73.87173,40.69028],[-73.87405,40.6893],[-73.87571,40.68856],[-73.87778,40.69072],[-73.87806,40.69096],[-73.87839,40.69111],[-73.87876,40.6912],[-73.87915,40.69121],[-73.87951,40.69115],[-73.87402,40.69419],[-73.86892,40.69515],[-73.86841,40.69473]]]}},{"type":"Feature","properties":{"e":"54029"},"geometry":{"type":"Polygon","coordinates":[[[-73.86908,40.68632],[-73.8716,40.6857],[-73.8726,40.68992],[-73.87173,40.69028],[-73.87013,40.69071],[-73.86908,40.68632]]]}},{"type":"Feature","properties":{"e":"54030"},"geometry":{"type":"Polygon","coordinates":[[[-73.8716,40.6857],[-73.87457,40.68495],[-73.87536,40.68815],[-73.87571,40.68856],[-73.8726,40.68992],[-73.8716,40.6857]]]}},{"type":"Feature","properties":{"e":"54031"},"geometry":{"type":"Polygon","coordinates":[[[-73.87571,40.68856],[-73.87536,40.68815],[-73.87457,40.68495],[-73.87963,40.68369],[-73.88027,40.68628],[-73.88227,40.68904],[-73.87951,40.69115],[-73.87915,40.69121],[-73.87876,40.6912],[-73.87839,40.69111],[-73.87822,40.69104],[-73.87792,40.69086],[-73.87571,40.68856]]]}},{"type":"Feature","properties":{"e":"54032"},"geometry":{"type":"Polygon","coordinates":[[[-73.87963,40.68369],[-73.88072,40.68341],[-73.88538,40.68273],[-73.88565,40.68375],[-73.88819,40.68256],[-73.88892,40.68313],[-73.88963,40.68424],[-73.88909,40.68464],[-73.88808,40.68529],[-73.88452,40.68668],[-73.88378,40.68786],[-73.88227,40.68904],[-73.88027,40.68628],[-73.87963,40.68369]]]}},{"type":"Feature","properties":{"e":"54033"},"geometry":{"type":"Polygon","coordinates":[[[-73.88164,40.68327],[-73.88117,40.68135],[-73.88582,40.68067],[-73.8865,40.68335],[-73.88565,40.68375],[-73.88538,40.68273],[-73.88164,40.68327]]]}},{"type":"Feature","properties":{"e":"54034"},"geometry":{"type":"Polygon","coordinates":[[[-73.88963,40.68424],[-73.88892,40.68313],[-73.88819,40.68256],[-73.8865,40.68335],[-73.88582,40.68067],[-73.88941,40.68014],[-73.88977,40.6818],[-73.89058,40.68287],[-73.8906,40.68303],[-73.89056,40.68312],[-73.8903,40.68333],[-73.89027,40.68349],[-73.89021,40.6835],[-73.89035,40.68378],[-73.89094,40.68341],[-73.89166,40.68404],[-73.89015,40.685],[-73.88963,40.68424]]]}},{"type":"Feature","properties":{"e":"54035"},"geometry":{"type":"Polygon","coordinates":[[[-73.89166,40.68404],[-73.89094,40.68341],[-73.89197,40.68274],[-73.89325,40.68207],[-73.89431,40.68157],[-73.89319,40.68016],[-73.89233,40.68057],[-73.89167,40.67803],[-73.89622,40.67736],[-73.89654,40.67859],[-73.89748,40.67816],[-73.89745,40.6785],[-73.89735,40.67887],[-73.89695,40.67977],[-73.89672,40.68041],[-73.89664,40.68083],[-73.89653,40.682],[-73.89647,40.68234],[-73.89636,40.68262],[-73.896,40.6832],[-73.89555,40.68379],[-73.89417,40.68528],[-73.89258,40.68349],[-73.89166,40.68404]]]}},{"type":"Feature","properties":{"e":"54036"},"geometry":{"type":"Polygon","coordinates":[[[-73.88941,40.68014],[-73.89121,40.67987],[-73.89077,40.67816],[-73.89167,40.67803],[-73.89233,40.68057],[-73.89319,40.68016],[-73.89431,40.68157],[-73.89325,40.68207],[-73.89197,40.68274],[-73.89035,40.68378],[-73.89021,40.6835],[-73.89027,40.68349],[-73.8903,40.68333],[-73.89056,40.68312],[-73.8906,40.68303],[-73.89058,40.68287],[-73.88977,40.6818],[-73.88941,40.68014]]]}},{"type":"Feature","properties":{"e":"54037"},"geometry":{"type":"Polygon","coordinates":[[[-73.89653,40.682],[-73.89664,40.68083],[-73.89672,40.68041],[-73.89695,40.67977],[-73.89735,40.67887],[-73.89745,40.6785],[-73.89748,40.67816],[-73.89762,40.67811],[-73.90075,40.67968],[-73.90262,40.68066],[-73.90405,40.67922],[-73.90852,40.6818],[-73.90604,40.68433],[-73.90591,40.68474],[-73.90587,40.6853],[-73.90579,40.68583],[-73.9056,40.68654],[-73.90547,40.68689],[-73.90497,40.6866],[-73.90471,40.68659],[-73.90116,40.68788],[-73.89647,40.68234],[-73.89653,40.682]]]}},{"type":"Feature","properties":{"e":"54038"},"geometry":{"type":"Polygon","coordinates":[[[-73.90547,40.68689],[-73.9056,40.68654],[-73.90579,40.68583],[-73.90587,40.6853],[-73.90591,40.68474],[-73.90604,40.68433],[-73.90852,40.6818],[-73.91077,40.68309],[-73.90649,40.68746],[-73.90547,40.68689]]]}},{"type":"Feature","properties":{"e":"54039"},"geometry":{"type":"Polygon","coordinates":[[[-73.90649,40.68746],[-73.91077,40.68309],[-73.91304,40.68437],[-73.91019,40.68727],[-73.90944,40.68684],[-73.90799,40.68832],[-73.90649,40.68746]]]}},{"type":"Feature","properties":{"e":"54040"},"geometry":{"type":"Polygon","coordinates":[[[-73.91019,40.68727],[-73.91304,40.68437],[-73.91529,40.68565],[-73.91244,40.68855],[-73.91019,40.68727]]]}},{"type":"Feature","properties":{"e":"54041"},"geometry":{"type":"Polygon","coordinates":[[[-73.91395,40.68941],[-73.91539,40.68794],[-73.91389,40.68708],[-73.91529,40.68565],[-73.91829,40.68736],[-73.91545,40.69026],[-73.91395,40.68941]]]}},{"type":"Feature","properties":{"e":"54042"},"geometry":{"type":"Polygon","coordinates":[[[-73.911,40.69003],[-73.91389,40.68708],[-73.91539,40.68794],[-73.9125,40.69088],[-73.911,40.69003]]]}},{"type":"Feature","properties":{"e":"54043"},"geometry":{"type":"Polygon","coordinates":[[[-73.91331,40.69363],[-73.91475,40.69217],[-73.9125,40.69088],[-73.91395,40.68941],[-73.91696,40.69111],[-73.91551,40.69259],[-73.91626,40.69302],[-73.91481,40.6945],[-73.91331,40.69363]]]}},{"type":"Feature","properties":{"e":"54044"},"geometry":{"type":"Polygon","coordinates":[[[-73.91331,40.69363],[-73.90955,40.6915],[-73.911,40.69003],[-73.91475,40.69217],[-73.91331,40.69363]]]}},{"type":"Feature","properties":{"e":"54045"},"geometry":{"type":"Polygon","coordinates":[[[-73.90955,40.6915],[-73.90729,40.69022],[-73.90874,40.68875],[-73.90799,40.68832],[-73.90944,40.68684],[-73.91244,40.68855],[-73.90955,40.6915]]]}},{"type":"Feature","properties":{"e":"54046"},"geometry":{"type":"Polygon","coordinates":[[[-73.9014,40.69159],[-73.90189,40.69108],[-73.90042,40.68818],[-73.90116,40.68788],[-73.90471,40.68659],[-73.90497,40.6866],[-73.90874,40.68875],[-73.90729,40.69022],[-73.90579,40.68936],[-73.90279,40.69242],[-73.9014,40.69159]]]}},{"type":"Feature","properties":{"e":"54047"},"geometry":{"type":"Polygon","coordinates":[[[-73.90279,40.69242],[-73.90579,40.68936],[-73.90729,40.69022],[-73.90429,40.69328],[-73.90279,40.69242]]]}},{"type":"Feature","properties":{"e":"54048"},"geometry":{"type":"Polygon","coordinates":[[[-73.90429,40.69328],[-73.90729,40.69022],[-73.9088,40.69107],[-73.9058,40.69413],[-73.90429,40.69328]]]}},{"type":"Feature","properties":{"e":"54049"},"geometry":{"type":"Polygon","coordinates":[[[-73.90426,40.6957],[-73.9048,40.69515],[-73.90491,40.69507],[-73.90557,40.69556],[-73.90655,40.69456],[-73.9058,40.69413],[-73.9088,40.69107],[-73.9103,40.69193],[-73.90577,40.69655],[-73.90426,40.6957]]]}},{"type":"Feature","properties":{"e":"54050"},"geometry":{"type":"Polygon","coordinates":[[[-73.9073,40.69499],[-73.9103,40.69193],[-73.91181,40.69279],[-73.9088,40.69584],[-73.9073,40.69499]]]}},{"type":"Feature","properties":{"e":"54051"},"geometry":{"type":"Polygon","coordinates":[[[-73.90877,40.69826],[-73.90577,40.69655],[-73.9073,40.69499],[-73.91105,40.69713],[-73.91027,40.69793],[-73.90951,40.6975],[-73.90877,40.69826]]]}},{"type":"Feature","properties":{"e":"54052"},"geometry":{"type":"Polygon","coordinates":[[[-73.91181,40.69755],[-73.9103,40.6967],[-73.91186,40.69512],[-73.91111,40.69469],[-73.91255,40.69321],[-73.91481,40.6945],[-73.91181,40.69755]]]}},{"type":"Feature","properties":{"e":"54053"},"geometry":{"type":"Polygon","coordinates":[[[-73.9088,40.69584],[-73.91181,40.69279],[-73.91255,40.69321],[-73.91111,40.69469],[-73.91186,40.69512],[-73.9103,40.6967],[-73.9088,40.69584]]]}},{"type":"Feature","properties":{"e":"54054"},"geometry":{"type":"Polygon","coordinates":[[[-73.91696,40.69111],[-73.91545,40.69026],[-73.9169,40.68879],[-73.91765,40.68922],[-73.91906,40.68778],[-73.92055,40.68864],[-73.91779,40.69146],[-73.91696,40.69111]]]}},{"type":"Feature","properties":{"e":"54055"},"geometry":{"type":"Polygon","coordinates":[[[-73.91776,40.69388],[-73.91946,40.69215],[-73.9203,40.69248],[-73.92141,40.69135],[-73.92223,40.69182],[-73.92128,40.6928],[-73.92115,40.6928],[-73.91927,40.69473],[-73.91776,40.69388]]]}},{"type":"Feature","properties":{"e":"54056"},"geometry":{"type":"Polygon","coordinates":[[[-73.91946,40.69215],[-73.92066,40.69093],[-73.91915,40.69008],[-73.92055,40.68864],[-73.92364,40.6904],[-73.92223,40.69182],[-73.92141,40.69135],[-73.9203,40.69248],[-73.91946,40.69215]]]}},{"type":"Feature","properties":{"e":"54057"},"geometry":{"type":"Polygon","coordinates":[[[-73.91776,40.69388],[-73.91551,40.69259],[-73.91696,40.69111],[-73.91779,40.69146],[-73.91915,40.69008],[-73.92066,40.69093],[-73.91776,40.69388]]]}},{"type":"Feature","properties":{"e":"54058"},"geometry":{"type":"Polygon","coordinates":[[[-73.89654,40.67859],[-73.89582,40.67581],[-73.89307,40.67614],[-73.89277,40.67496],[-73.89651,40.6744],[-73.89724,40.67721],[-73.90002,40.6768],[-73.90005,40.67689],[-73.89836,40.67766],[-73.89776,40.67806],[-73.89654,40.67859]]]}},{"type":"Feature","properties":{"e":"54059"},"geometry":{"type":"Polygon","coordinates":[[[-73.9049156576659,40.6950818277955],[-73.9057973860453,40.6941354117623],[-73.9065469208283,40.6945683142787],[-73.9055665338844,40.69556554424],[-73.9049156576659,40.6950818277955]]]}},{"type":"Feature","properties":{"e":"54060"},"geometry":{"type":"Polygon","coordinates":[[[-73.9169,40.68879],[-73.91829,40.68736],[-73.91906,40.68778],[-73.91765,40.68922],[-73.9169,40.68879]]]}},{"type":"Feature","properties":{"e":"54061"},"geometry":{"type":"Polygon","coordinates":[[[-73.88291,40.67513],[-73.88974,40.67412],[-73.89006,40.67536],[-73.88323,40.67637],[-73.88291,40.67513]]]}},{"type":"Feature","properties":{"e":"54062"},"geometry":{"type":"Polygon","coordinates":[[[-73.87743,40.67592],[-73.88291,40.67513],[-73.88323,40.67637],[-73.87774,40.67717],[-73.87743,40.67592]]]}},{"type":"Feature","properties":{"e":"54063"},"geometry":{"type":"Polygon","coordinates":[[[-73.86978,40.67703],[-73.87131,40.67681],[-73.87148,40.6775],[-73.87046,40.67722],[-73.86978,40.67703]]]}},{"type":"Feature","properties":{"e":"54064"},"geometry":{"type":"Polygon","coordinates":[[[-73.86713,40.6761],[-73.87099,40.67554],[-73.87131,40.67681],[-73.86978,40.67703],[-73.86713,40.6761]]]}}]}