{"type":"FeatureCollection","ad":55,"features":[{"type":"Feature","properties":{"e":"55001"},"geometry":{"type":"Polygon","coordinates":[[[-73.92089,40.68738],[-73.92016,40.68372],[-73.92281,40.68341],[-73.92354,40.68708],[-73.92089,40.68738]]]}},{"type":"Feature","properties":{"e":"55002"},"geometry":{"type":"Polygon","coordinates":[[[-73.92121,40.68902],[-73.91805,40.68721],[-73.9177,40.6855],[-73.92045,40.68519],[-73.92121,40.68902]]]}},{"type":"Feature","properties":{"e":"55003"},"geometry":{"type":"Polygon","coordinates":[[[-73.9147,40.68532],[-73.91491,40.68507],[-73.91476,40.68434],[-73.92016,40.68372],[-73.92045,40.68519],[-73.9177,40.6855],[-73.91785,40.68623],[-73.91663,40.68639],[-73.9147,40.68532]]]}},{"type":"Feature","properties":{"e":"55004"},"geometry":{"type":"Polygon","coordinates":[[[-73.91331,40.68452],[-73.91476,40.68434],[-73.91491,40.68507],[-73.9147,40.68532],[-73.91331,40.68452]]]}},{"type":"Feature","properties":{"e":"55005"},"geometry":{"type":"Polygon","coordinates":[[[-73.91727,40.6833],[-73.92001,40.68299],[-73.91972,40.68152],[-73.92243,40.68121],[-73.92281,40.68341],[-73.91741,40.68403],[-73.91727,40.6833]]]}},{"type":"Feature","properties":{"e":"55006"},"geometry":{"type":"Polygon","coordinates":[[[-73.91432,40.68214],[-73.91972,40.68152],[-73.92001,40.68299],[-73.91727,40.6833],[-73.91712,40.68257],[-73.91447,40.68287],[-73.91432,40.68214]]]}},{"type":"Feature","properties":{"e":"55007"},"geometry":{"type":"Polygon","coordinates":[[[-73.91331,40.68452],[-73.91151,40.6835],[-73.91181,40.68318],[-73.91166,40.68245],[-73.91432,40.68214],[-73.91447,40.68287],[-73.91712,40.68257],[-73.91741,40.68403],[-73.91331,40.68452]]]}},{"type":"Feature","properties":{"e":"55008"},"geometry":{"type":"Polygon","coordinates":[[[-73.91683,40.6811],[-73.9163,40.67858],[-73.92165,40.67887],[-73.92184,40.67895],[-73.92197,40.67908],[-73.92243,40.68121],[-73.91972,40.68152],[-73.91957,40.68079],[-73.91683,40.6811]]]}},{"type":"Feature","properties":{"e":"55009"},"geometry":{"type":"Polygon","coordinates":[[[-73.91654,40.67964],[-73.91683,40.6811],[-73.91957,40.68079],[-73.91972,40.68152],[-73.91432,40.68214],[-73.91388,40.67994],[-73.91654,40.67964]]]}},{"type":"Feature","properties":{"e":"55010"},"geometry":{"type":"Polygon","coordinates":[[[-73.91166,40.68245],[-73.91108,40.67952],[-73.91639,40.67891],[-73.91654,40.67964],[-73.91388,40.67994],[-73.91432,40.68214],[-73.91166,40.68245]]]}},{"type":"Feature","properties":{"e":"55011"},"geometry":{"type":"Polygon","coordinates":[[[-73.91075,40.67828],[-73.91093,40.67634],[-73.9137,40.6765],[-73.91358,40.67767],[-73.91356,40.67843],[-73.91374,40.67921],[-73.91108,40.67952],[-73.91087,40.6784],[-73.91075,40.67828]]]}},{"type":"Feature","properties":{"e":"55012"},"geometry":{"type":"Polygon","coordinates":[[[-73.9137,40.6765],[-73.92182,40.67694],[-73.92165,40.67887],[-73.9163,40.67858],[-73.91639,40.67891],[-73.91374,40.67921],[-73.91356,40.67843],[-73.91358,40.67767],[-73.9137,40.6765]]]}},{"type":"Feature","properties":{"e":"55013"},"geometry":{"type":"Polygon","coordinates":[[[-73.91002,40.68266],[-73.90702,40.68095],[-73.90566,40.68014],[-73.90842,40.67982],[-73.90857,40.68055],[-73.91122,40.68024],[-73.91166,40.68245],[-73.91002,40.68266]]]}},{"type":"Feature","properties":{"e":"55014"},"geometry":{"type":"Polygon","coordinates":[[[-73.90566,40.68014],[-73.90457,40.67952],[-73.90828,40.67909],[-73.90814,40.67836],[-73.90894,40.67828],[-73.9091,40.67818],[-73.91075,40.67828],[-73.91087,40.6784],[-73.91122,40.68024],[-73.90857,40.68055],[-73.90842,40.67982],[-73.90566,40.68014]]]}},{"type":"Feature","properties":{"e":"55015"},"geometry":{"type":"Polygon","coordinates":[[[-73.90457,40.67952],[-73.90005,40.67689],[-73.90268,40.67579],[-73.90438,40.67598],[-73.91093,40.67634],[-73.91075,40.67828],[-73.9091,40.67818],[-73.90894,40.67828],[-73.90814,40.67836],[-73.90828,40.67909],[-73.90457,40.67952]]]}},{"type":"Feature","properties":{"e":"55016"},"geometry":{"type":"Polygon","coordinates":[[[-73.91108,40.67476],[-73.91123,40.67308],[-73.90924,40.67295],[-73.91134,40.67208],[-73.91132,40.6722],[-73.91312,40.67229],[-73.91696,40.67071],[-73.91702,40.67072],[-73.91669,40.67428],[-73.91392,40.67413],[-73.91385,40.67491],[-73.91108,40.67476]]]}},{"type":"Feature","properties":{"e":"55017"},"geometry":{"type":"Polygon","coordinates":[[[-73.89651,40.6744],[-73.90023,40.67385],[-73.90068,40.6756],[-73.89972,40.6756],[-73.90002,40.6768],[-73.89724,40.67721],[-73.89651,40.6744]]]}},{"type":"Feature","properties":{"e":"55018"},"geometry":{"type":"Polygon","coordinates":[[[-73.89619,40.67315],[-73.89991,40.67261],[-73.90023,40.67385],[-73.89651,40.6744],[-73.89619,40.67315]]]}},{"type":"Feature","properties":{"e":"55019"},"geometry":{"type":"Polygon","coordinates":[[[-73.90268,40.67579],[-73.90439,40.67521],[-73.90451,40.67505],[-73.90924,40.67295],[-73.91123,40.67308],[-73.91093,40.67634],[-73.90438,40.67598],[-73.90268,40.67579]]]}},{"type":"Feature","properties":{"e":"55020"},"geometry":{"type":"Polygon","coordinates":[[[-73.90229,40.67094],[-73.90167,40.66841],[-73.90357,40.66813],[-73.9042,40.67066],[-73.90797,40.6701],[-73.90831,40.67136],[-73.90734,40.67151],[-73.90788,40.67357],[-73.90451,40.67505],[-73.90439,40.67521],[-73.90347,40.67551],[-73.90266,40.6722],[-73.90229,40.67094]]]}},{"type":"Feature","properties":{"e":"55021"},"geometry":{"type":"Polygon","coordinates":[[[-73.90068,40.6756],[-73.89991,40.67261],[-73.89619,40.67315],[-73.89587,40.67189],[-73.90229,40.67094],[-73.90266,40.6722],[-73.90347,40.67551],[-73.90292,40.67568],[-73.90079,40.67657],[-73.90084,40.67636],[-73.90068,40.6756]]]}},{"type":"Feature","properties":{"e":"55022"},"geometry":{"type":"Polygon","coordinates":[[[-73.90167,40.66841],[-73.90043,40.66381],[-73.90238,40.66352],[-73.9028,40.66506],[-73.90357,40.66813],[-73.90167,40.66841]]]}},{"type":"Feature","properties":{"e":"55023"},"geometry":{"type":"Polygon","coordinates":[[[-73.90797,40.6701],[-73.91074,40.66968],[-73.91134,40.67208],[-73.90924,40.67295],[-73.90788,40.67357],[-73.90734,40.67151],[-73.90831,40.67136],[-73.90797,40.6701]]]}},{"type":"Feature","properties":{"e":"55024"},"geometry":{"type":"Polygon","coordinates":[[[-73.90357,40.66813],[-73.90636,40.66771],[-73.90667,40.66897],[-73.91042,40.66841],[-73.91074,40.66968],[-73.9042,40.67066],[-73.90357,40.66813]]]}},{"type":"Feature","properties":{"e":"55025"},"geometry":{"type":"Polygon","coordinates":[[[-73.90636,40.66771],[-73.90823,40.66742],[-73.90813,40.66677],[-73.9079,40.66589],[-73.9097,40.66563],[-73.91042,40.66841],[-73.90667,40.66897],[-73.90636,40.66771]]]}},{"type":"Feature","properties":{"e":"55026"},"geometry":{"type":"Polygon","coordinates":[[[-73.90319,40.66659],[-73.9079,40.66589],[-73.90813,40.66677],[-73.90823,40.66742],[-73.90357,40.66813],[-73.90319,40.66659]]]}},{"type":"Feature","properties":{"e":"55027"},"geometry":{"type":"Polygon","coordinates":[[[-73.9028,40.66506],[-73.90558,40.66466],[-73.90597,40.66618],[-73.90319,40.66659],[-73.9028,40.66506]]]}},{"type":"Feature","properties":{"e":"55028"},"geometry":{"type":"Polygon","coordinates":[[[-73.90238,40.66352],[-73.90517,40.66311],[-73.90558,40.66466],[-73.9028,40.66506],[-73.90238,40.66352]]]}},{"type":"Feature","properties":{"e":"55029"},"geometry":{"type":"Polygon","coordinates":[[[-73.90043,40.66381],[-73.89879,40.65741],[-73.89904,40.65737],[-73.90029,40.65721],[-73.9003,40.6573],[-73.90356,40.65683],[-73.90399,40.6585],[-73.90119,40.65891],[-73.90238,40.66352],[-73.90043,40.66381]]]}},{"type":"Feature","properties":{"e":"55030"},"geometry":{"type":"Polygon","coordinates":[[[-73.90356,40.65683],[-73.90918,40.65599],[-73.9096,40.65767],[-73.90399,40.6585],[-73.90356,40.65683]]]}},{"type":"Feature","properties":{"e":"55031"},"geometry":{"type":"Polygon","coordinates":[[[-73.91106,40.65432],[-73.91254,40.6543],[-73.91466,40.65621],[-73.91378,40.65678],[-73.91106,40.65432]]]}},{"type":"Feature","properties":{"e":"55032"},"geometry":{"type":"Polygon","coordinates":[[[-73.90918,40.65599],[-73.91012,40.65585],[-73.90978,40.65447],[-73.91074,40.65434],[-73.91071,40.65418],[-73.91093,40.65417],[-73.91236,40.65551],[-73.91403,40.657],[-73.9096,40.65767],[-73.90918,40.65599]]]}},{"type":"Feature","properties":{"e":"55033"},"geometry":{"type":"Polygon","coordinates":[[[-73.91055,40.65753],[-73.91403,40.657],[-73.91707,40.65975],[-73.91134,40.6606],[-73.91055,40.65753]]]}},{"type":"Feature","properties":{"e":"55034"},"geometry":{"type":"Polygon","coordinates":[[[-73.91959,40.662],[-73.91557,40.65839],[-73.91649,40.65786],[-73.91974,40.66077],[-73.91959,40.662]]]}},{"type":"Feature","properties":{"e":"55035"},"geometry":{"type":"Polygon","coordinates":[[[-73.91643,40.66143],[-73.91604,40.6599],[-73.91707,40.65975],[-73.91959,40.662],[-73.91963,40.66256],[-73.91775,40.66284],[-73.91735,40.6613],[-73.91643,40.66143]]]}},{"type":"Feature","properties":{"e":"55036"},"geometry":{"type":"Polygon","coordinates":[[[-73.90986,40.66241],[-73.90946,40.66088],[-73.91604,40.6599],[-73.91643,40.66143],[-73.91548,40.66157],[-73.91588,40.66312],[-73.91492,40.66326],[-73.91453,40.66172],[-73.90986,40.66241]]]}},{"type":"Feature","properties":{"e":"55037"},"geometry":{"type":"Polygon","coordinates":[[[-73.89554,40.67063],[-73.90198,40.66967],[-73.90229,40.67094],[-73.89587,40.67189],[-73.89554,40.67063]]]}},{"type":"Feature","properties":{"e":"55038"},"geometry":{"type":"Polygon","coordinates":[[[-73.90774,40.66183],[-73.90719,40.65962],[-73.90627,40.65975],[-73.90588,40.65822],[-73.91055,40.65753],[-73.91134,40.6606],[-73.90946,40.66088],[-73.90986,40.66241],[-73.90805,40.66268],[-73.90774,40.66183]]]}},{"type":"Feature","properties":{"e":"55039"},"geometry":{"type":"Polygon","coordinates":[[[-73.90119,40.65891],[-73.90588,40.65822],[-73.90627,40.65975],[-73.90719,40.65962],[-73.90759,40.66116],[-73.90289,40.66185],[-73.90328,40.66338],[-73.90238,40.66352],[-73.90119,40.65891]]]}},{"type":"Feature","properties":{"e":"55040"},"geometry":{"type":"Polygon","coordinates":[[[-73.90759,40.66116],[-73.90774,40.66183],[-73.90805,40.66268],[-73.90328,40.66338],[-73.90289,40.66185],[-73.90759,40.66116]]]}},{"type":"Feature","properties":{"e":"55041"},"geometry":{"type":"Polygon","coordinates":[[[-73.90517,40.66311],[-73.90712,40.66282],[-73.9073,40.6636],[-73.90824,40.66347],[-73.90815,40.66427],[-73.90558,40.66466],[-73.90517,40.66311]]]}},{"type":"Feature","properties":{"e":"55042"},"geometry":{"type":"Polygon","coordinates":[[[-73.90558,40.66466],[-73.90931,40.6641],[-73.9097,40.66563],[-73.90597,40.66618],[-73.90558,40.66466]]]}},{"type":"Feature","properties":{"e":"55043"},"geometry":{"type":"Polygon","coordinates":[[[-73.90815,40.66427],[-73.90824,40.66347],[-73.9073,40.6636],[-73.90712,40.66282],[-73.90986,40.66241],[-73.91062,40.66549],[-73.9097,40.66563],[-73.90931,40.6641],[-73.90815,40.66427]]]}},{"type":"Feature","properties":{"e":"55044"},"geometry":{"type":"Polygon","coordinates":[[[-73.90986,40.66241],[-73.91453,40.66172],[-73.91492,40.66326],[-73.91588,40.66312],[-73.91627,40.66465],[-73.91062,40.66549],[-73.90986,40.66241]]]}},{"type":"Feature","properties":{"e":"55045"},"geometry":{"type":"Polygon","coordinates":[[[-73.91439,40.66493],[-73.91627,40.66465],[-73.91548,40.66157],[-73.91735,40.6613],[-73.91775,40.66284],[-73.9187,40.66269],[-73.9191,40.66423],[-73.91923,40.66465],[-73.91941,40.66578],[-73.91479,40.66647],[-73.91439,40.66493]]]}},{"type":"Feature","properties":{"e":"55046"},"geometry":{"type":"Polygon","coordinates":[[[-73.9191,40.66423],[-73.9187,40.66269],[-73.91963,40.66256],[-73.91959,40.662],[-73.91974,40.66077],[-73.92546,40.66592],[-73.92439,40.66638],[-73.9241,40.66604],[-73.9221,40.66425],[-73.92232,40.66535],[-73.92137,40.66549],[-73.92097,40.66395],[-73.9191,40.66423]]]}},{"type":"Feature","properties":{"e":"55047"},"geometry":{"type":"Polygon","coordinates":[[[-73.91074,40.66968],[-73.9097,40.66563],[-73.91439,40.66493],[-73.91543,40.66899],[-73.91074,40.66968]]]}},{"type":"Feature","properties":{"e":"55048"},"geometry":{"type":"Polygon","coordinates":[[[-73.91573,40.67016],[-73.91479,40.66647],[-73.91941,40.66578],[-73.92005,40.66828],[-73.91996,40.66832],[-73.91942,40.6684],[-73.91923,40.66863],[-73.91573,40.67016]]]}},{"type":"Feature","properties":{"e":"55049"},"geometry":{"type":"Polygon","coordinates":[[[-73.91941,40.66578],[-73.91923,40.66465],[-73.9191,40.66423],[-73.92097,40.66395],[-73.92137,40.66549],[-73.92232,40.66535],[-73.9221,40.66425],[-73.9241,40.66604],[-73.92439,40.66638],[-73.92005,40.66828],[-73.91941,40.66578]]]}},{"type":"Feature","properties":{"e":"55050"},"geometry":{"type":"Polygon","coordinates":[[[-73.91134,40.67208],[-73.91074,40.66968],[-73.91543,40.66899],[-73.91573,40.67016],[-73.91923,40.66863],[-73.91942,40.6684],[-73.91996,40.66832],[-73.92275,40.6671],[-73.92263,40.66837],[-73.92252,40.66838],[-73.92071,40.66917],[-73.91312,40.67229],[-73.91132,40.6722],[-73.91134,40.67208]]]}},{"type":"Feature","properties":{"e":"55051"},"geometry":{"type":"Polygon","coordinates":[[[-73.92835,40.66865],[-73.9286,40.66597],[-73.92946,40.66602],[-73.92931,40.66512],[-73.93146,40.66523],[-73.93112,40.6688],[-73.92835,40.66865]]]}},{"type":"Feature","properties":{"e":"55052"},"geometry":{"type":"Polygon","coordinates":[[[-73.92247,40.67012],[-73.92275,40.6671],[-73.92872,40.6645],[-73.92868,40.66509],[-73.92931,40.66512],[-73.92946,40.66602],[-73.9286,40.66597],[-73.92835,40.66865],[-73.92561,40.66851],[-73.92541,40.67028],[-73.92247,40.67012]]]}},{"type":"Feature","properties":{"e":"55053"},"geometry":{"type":"Polygon","coordinates":[[[-73.92541,40.67028],[-73.92561,40.66851],[-73.93112,40.6688],[-73.93095,40.67058],[-73.92541,40.67028]]]}},{"type":"Feature","properties":{"e":"55054"},"geometry":{"type":"Polygon","coordinates":[[[-73.92205,40.67457],[-73.92213,40.67368],[-73.92508,40.67384],[-73.925,40.67474],[-73.92205,40.67457]]]}},{"type":"Feature","properties":{"e":"55055"},"geometry":{"type":"Polygon","coordinates":[[[-73.91677,40.67339],[-73.91702,40.67072],[-73.91696,40.67071],[-73.91997,40.66948],[-73.91988,40.66998],[-73.91954,40.67354],[-73.91677,40.67339]]]}},{"type":"Feature","properties":{"e":"55056"},"geometry":{"type":"Polygon","coordinates":[[[-73.91954,40.67354],[-73.91988,40.66998],[-73.91997,40.66948],[-73.92252,40.66838],[-73.92263,40.66837],[-73.92213,40.67368],[-73.91954,40.67354]]]}},{"type":"Feature","properties":{"e":"55057"},"geometry":{"type":"Polygon","coordinates":[[[-73.92213,40.67368],[-73.92247,40.67012],[-73.92541,40.67028],[-73.92508,40.67384],[-73.92213,40.67368]]]}},{"type":"Feature","properties":{"e":"55058"},"geometry":{"type":"Polygon","coordinates":[[[-73.90005,40.67689],[-73.89972,40.6756],[-73.90068,40.6756],[-73.90084,40.67636],[-73.90079,40.67657],[-73.90005,40.67689]]]}},{"type":"Feature","properties":{"e":"55059"},"geometry":{"type":"Polygon","coordinates":[[[-73.92525,40.67206],[-73.92541,40.67028],[-73.93095,40.67058],[-73.93087,40.67147],[-73.9281,40.67132],[-73.92801,40.67221],[-73.92525,40.67206]]]}},{"type":"Feature","properties":{"e":"55060"},"geometry":{"type":"Polygon","coordinates":[[[-73.92776,40.67489],[-73.9281,40.67132],[-73.93087,40.67147],[-73.93053,40.67504],[-73.92776,40.67489]]]}},{"type":"Feature","properties":{"e":"55061"},"geometry":{"type":"Polygon","coordinates":[[[-73.92776,40.67489],[-73.925,40.67474],[-73.92525,40.67206],[-73.92801,40.67221],[-73.92776,40.67489]]]}},{"type":"Feature","properties":{"e":"55062"},"geometry":{"type":"Polygon","coordinates":[[[-73.91924,40.67681],[-73.91946,40.67444],[-73.91669,40.67428],[-73.91677,40.67339],[-73.92213,40.67368],[-73.92182,40.67694],[-73.91924,40.67681]]]}},{"type":"Feature","properties":{"e":"55063"},"geometry":{"type":"Polygon","coordinates":[[[-73.9137,40.6765],[-73.91392,40.67413],[-73.91946,40.67444],[-73.91924,40.67681],[-73.9137,40.6765]]]}},{"type":"Feature","properties":{"e":"55064"},"geometry":{"type":"Polygon","coordinates":[[[-73.91093,40.67634],[-73.91108,40.67476],[-73.91385,40.67491],[-73.9137,40.6765],[-73.91093,40.67634]]]}},{"type":"Feature","properties":{"e":"55066"},"geometry":{"type":"Polygon","coordinates":[[[-73.91663,40.68639],[-73.91785,40.68623],[-73.91805,40.68721],[-73.9168,40.6865],[-73.91663,40.68639]]]}}]}