{"type":"FeatureCollection","ad":57,"features":[{"type":"Feature","properties":{"e":"57001"},"geometry":{"type":"Polygon","coordinates":[[[-73.98199,40.70132],[-73.98205,40.69975],[-73.98453,40.69982],[-73.98506,40.7003],[-73.98545,40.70059],[-73.98483,40.70058],[-73.98476,40.70144],[-73.98199,40.70132]]]}},{"type":"Feature","properties":{"e":"57002"},"geometry":{"type":"Polygon","coordinates":[[[-73.98084,40.7013],[-73.98056,40.70103],[-73.9804,40.7007],[-73.98054,40.69825],[-73.98305,40.69838],[-73.98293,40.69977],[-73.98205,40.69975],[-73.98199,40.70132],[-73.98084,40.7013]]]}},{"type":"Feature","properties":{"e":"57003"},"geometry":{"type":"Polygon","coordinates":[[[-73.97917,40.69349],[-73.98251,40.69361],[-73.98239,40.69595],[-73.98226,40.69588],[-73.98139,40.69583],[-73.98111,40.69591],[-73.98068,40.6961],[-73.98036,40.69618],[-73.98016,40.69482],[-73.9801,40.6946],[-73.97996,40.69438],[-73.97938,40.69389],[-73.97929,40.69376],[-73.97917,40.69349]]]}},{"type":"Feature","properties":{"e":"57004"},"geometry":{"type":"Polygon","coordinates":[[[-73.97851,40.69644],[-73.97853,40.69615],[-73.97887,40.69616],[-73.97895,40.69547],[-73.97877,40.69544],[-73.9786,40.69535],[-73.97817,40.69538],[-73.97801,40.69463],[-73.97799,40.69426],[-73.97783,40.69344],[-73.97917,40.69349],[-73.97929,40.69376],[-73.97938,40.69389],[-73.97996,40.69438],[-73.98014,40.69471],[-73.98041,40.69656],[-73.97851,40.69644]]]}},{"type":"Feature","properties":{"e":"57005"},"geometry":{"type":"Polygon","coordinates":[[[-73.97643,40.69634],[-73.97598,40.69407],[-73.97533,40.6942],[-73.97499,40.69333],[-73.97783,40.69344],[-73.97799,40.69426],[-73.97801,40.69463],[-73.97817,40.69538],[-73.9786,40.69535],[-73.97877,40.69544],[-73.97895,40.69547],[-73.97887,40.69616],[-73.97853,40.69615],[-73.97851,40.69644],[-73.97643,40.69634]]]}},{"type":"Feature","properties":{"e":"57006"},"geometry":{"type":"Polygon","coordinates":[[[-73.97314,40.69433],[-73.97297,40.69331],[-73.97286,40.69325],[-73.97499,40.69333],[-73.97533,40.6942],[-73.97598,40.69407],[-73.9762,40.69515],[-73.9759,40.69518],[-73.97513,40.69514],[-73.97444,40.69514],[-73.97434,40.69427],[-73.97393,40.69423],[-73.97314,40.69433]]]}},{"type":"Feature","properties":{"e":"57007"},"geometry":{"type":"Polygon","coordinates":[[[-73.97346,40.69624],[-73.97341,40.69593],[-73.97345,40.69589],[-73.97314,40.69433],[-73.97393,40.69423],[-73.97434,40.69427],[-73.97444,40.69514],[-73.97513,40.69514],[-73.9759,40.69518],[-73.9762,40.69515],[-73.97643,40.69634],[-73.97346,40.69624]]]}},{"type":"Feature","properties":{"e":"57008"},"geometry":{"type":"Polygon","coordinates":[[[-73.96939,40.69608],[-73.96881,40.69312],[-73.97286,40.69325],[-73.97297,40.69331],[-73.97345,40.69589],[-73.97341,40.69593],[-73.97346,40.69624],[-73.96939,40.69608]]]}},{"type":"Feature","properties":{"e":"57009"},"geometry":{"type":"Polygon","coordinates":[[[-73.96455,40.69611],[-73.96406,40.69367],[-73.96881,40.69312],[-73.96939,40.69608],[-73.96547,40.69593],[-73.965,40.69599],[-73.96455,40.69611]]]}},{"type":"Feature","properties":{"e":"57010"},"geometry":{"type":"Polygon","coordinates":[[[-73.96074,40.69242],[-73.9656,40.69187],[-73.96593,40.69346],[-73.96406,40.69367],[-73.96451,40.69596],[-73.96418,40.6959],[-73.96383,40.69592],[-73.96312,40.69605],[-73.96159,40.69621],[-73.96074,40.69242]]]}},{"type":"Feature","properties":{"e":"57011"},"geometry":{"type":"Polygon","coordinates":[[[-73.9656,40.69187],[-73.96849,40.69154],[-73.96881,40.69312],[-73.96593,40.69346],[-73.9656,40.69187]]]}},{"type":"Feature","properties":{"e":"57012"},"geometry":{"type":"Polygon","coordinates":[[[-73.95899,40.69263],[-73.96074,40.69242],[-73.96159,40.69621],[-73.96312,40.69605],[-73.96383,40.69592],[-73.96418,40.6959],[-73.96451,40.69596],[-73.96455,40.69611],[-73.96415,40.69627],[-73.9638,40.69649],[-73.96332,40.69699],[-73.96318,40.69719],[-73.96295,40.6976],[-73.96284,40.69804],[-73.96105,40.69833],[-73.96016,40.69412],[-73.95931,40.69422],[-73.95899,40.69263]]]}},{"type":"Feature","properties":{"e":"57013"},"geometry":{"type":"Polygon","coordinates":[[[-73.95337,40.6994],[-73.95249,40.695],[-73.95709,40.69447],[-73.95796,40.69882],[-73.95702,40.69897],[-73.95337,40.6994]]]}},{"type":"Feature","properties":{"e":"57014"},"geometry":{"type":"Polygon","coordinates":[[[-73.95399,40.69321],[-73.95899,40.69263],[-73.95931,40.69422],[-73.95431,40.69479],[-73.95399,40.69321]]]}},{"type":"Feature","properties":{"e":"57015"},"geometry":{"type":"Polygon","coordinates":[[[-73.98175,40.69358],[-73.98178,40.69247],[-73.98059,40.69243],[-73.98056,40.69301],[-73.97909,40.69295],[-73.97895,40.69192],[-73.98242,40.69205],[-73.98257,40.6923],[-73.98252,40.69298],[-73.98251,40.69361],[-73.98175,40.69358]]]}},{"type":"Feature","properties":{"e":"57016"},"geometry":{"type":"Polygon","coordinates":[[[-73.98175,40.69358],[-73.97783,40.69344],[-73.97755,40.6919],[-73.97895,40.69192],[-73.97909,40.69295],[-73.98056,40.69301],[-73.98059,40.69243],[-73.98178,40.69247],[-73.98175,40.69358]]]}},{"type":"Feature","properties":{"e":"57017"},"geometry":{"type":"Polygon","coordinates":[[[-73.97895,40.69192],[-73.97835,40.68789],[-73.97929,40.68825],[-73.97907,40.68672],[-73.97936,40.68668],[-73.98065,40.68846],[-73.98064,40.68854],[-73.9814,40.68993],[-73.98206,40.69131],[-73.98179,40.69164],[-73.98179,40.69203],[-73.97895,40.69192]]]}},{"type":"Feature","properties":{"e":"57018"},"geometry":{"type":"Polygon","coordinates":[[[-73.97703,40.68519],[-73.97795,40.68511],[-73.97808,40.68491],[-73.97936,40.68668],[-73.97736,40.68691],[-73.97703,40.68519]]]}},{"type":"Feature","properties":{"e":"57019"},"geometry":{"type":"Polygon","coordinates":[[[-73.97313,40.68962],[-73.97307,40.68932],[-73.97355,40.68927],[-73.97346,40.68881],[-73.97353,40.68881],[-73.97351,40.68872],[-73.97344,40.68873],[-73.97326,40.68783],[-73.97309,40.68786],[-73.97306,40.68773],[-73.97276,40.68776],[-73.97269,40.68742],[-73.97462,40.68719],[-73.97511,40.6897],[-73.97313,40.68962]]]}},{"type":"Feature","properties":{"e":"57020"},"geometry":{"type":"Polygon","coordinates":[[[-73.97313,40.68962],[-73.9691,40.68947],[-73.96849,40.6864],[-73.97047,40.68617],[-73.97076,40.68764],[-73.97269,40.68742],[-73.97276,40.68776],[-73.97306,40.68773],[-73.97309,40.68786],[-73.97326,40.68783],[-73.97344,40.68873],[-73.97351,40.68872],[-73.97353,40.68881],[-73.97346,40.68881],[-73.97355,40.68927],[-73.97307,40.68932],[-73.97313,40.68962]]]}},{"type":"Feature","properties":{"e":"57021"},"geometry":{"type":"Polygon","coordinates":[[[-73.97783,40.69344],[-73.97187,40.69321],[-73.97156,40.69164],[-73.97055,40.6916],[-73.97013,40.68951],[-73.97863,40.68984],[-73.97895,40.69192],[-73.97755,40.6919],[-73.97783,40.69344]]]}},{"type":"Feature","properties":{"e":"57022"},"geometry":{"type":"Polygon","coordinates":[[[-73.96881,40.69312],[-73.96849,40.69154],[-73.96952,40.69156],[-73.9691,40.68947],[-73.97013,40.68951],[-73.97055,40.6916],[-73.97156,40.69164],[-73.97187,40.69321],[-73.96881,40.69312]]]}},{"type":"Feature","properties":{"e":"57023"},"geometry":{"type":"Polygon","coordinates":[[[-73.96029,40.69035],[-73.96808,40.68945],[-73.9691,40.68947],[-73.96952,40.69156],[-73.96849,40.69154],[-73.96074,40.69242],[-73.96029,40.69035]]]}},{"type":"Feature","properties":{"e":"57024"},"geometry":{"type":"Polygon","coordinates":[[[-73.95727,40.69069],[-73.95943,40.69045],[-73.95984,40.69253],[-73.95768,40.69278],[-73.95727,40.69069]]]}},{"type":"Feature","properties":{"e":"57025"},"geometry":{"type":"Polygon","coordinates":[[[-73.95357,40.69112],[-73.95727,40.69069],[-73.95768,40.69278],[-73.95399,40.69321],[-73.95357,40.69112]]]}},{"type":"Feature","properties":{"e":"57026"},"geometry":{"type":"Polygon","coordinates":[[[-73.97276,40.68564],[-73.97279,40.68549],[-73.97273,40.68519],[-73.97265,40.6852],[-73.97261,40.68501],[-73.97264,40.68501],[-73.97263,40.68494],[-73.97269,40.68494],[-73.97261,40.68453],[-73.97219,40.68456],[-73.97212,40.68424],[-73.97254,40.6842],[-73.97244,40.68407],[-73.97251,40.68406],[-73.97229,40.68295],[-73.9723,40.68276],[-73.97595,40.68351],[-73.97746,40.68405],[-73.97808,40.68491],[-73.97795,40.68511],[-73.97428,40.68551],[-73.97332,40.68559],[-73.97307,40.68576],[-73.97276,40.68564]]]}},{"type":"Feature","properties":{"e":"57027"},"geometry":{"type":"Polygon","coordinates":[[[-73.96849,40.6864],[-73.96796,40.68373],[-73.97337,40.68588],[-73.97365,40.6873],[-73.97076,40.68764],[-73.97047,40.68617],[-73.96849,40.6864]]]}},{"type":"Feature","properties":{"e":"57028"},"geometry":{"type":"Polygon","coordinates":[[[-73.96796,40.68373],[-73.96753,40.68177],[-73.97186,40.68267],[-73.97182,40.68283],[-73.97182,40.68303],[-73.97231,40.68546],[-73.96796,40.68373]]]}},{"type":"Feature","properties":{"e":"57029"},"geometry":{"type":"Polygon","coordinates":[[[-73.96481,40.68833],[-73.96779,40.68798],[-73.96749,40.68652],[-73.96849,40.6864],[-73.9691,40.68947],[-73.96808,40.68945],[-73.96519,40.68978],[-73.96481,40.68833]]]}},{"type":"Feature","properties":{"e":"57030"},"geometry":{"type":"Polygon","coordinates":[[[-73.96001,40.68888],[-73.96481,40.68833],[-73.96519,40.68978],[-73.96029,40.69035],[-73.96001,40.68888]]]}},{"type":"Feature","properties":{"e":"57031"},"geometry":{"type":"Polygon","coordinates":[[[-73.95722,40.6892],[-73.96001,40.68888],[-73.96029,40.69035],[-73.95727,40.69069],[-73.95706,40.68949],[-73.95722,40.6892]]]}},{"type":"Feature","properties":{"e":"57032"},"geometry":{"type":"Polygon","coordinates":[[[-73.95147,40.68987],[-73.95512,40.68944],[-73.95498,40.68871],[-73.95713,40.68846],[-73.95722,40.6892],[-73.95706,40.68949],[-73.95727,40.69069],[-73.95176,40.69133],[-73.95147,40.68987]]]}},{"type":"Feature","properties":{"e":"57033"},"geometry":{"type":"Polygon","coordinates":[[[-73.95147,40.68987],[-73.95103,40.68767],[-73.95468,40.68724],[-73.95512,40.68944],[-73.95147,40.68987]]]}},{"type":"Feature","properties":{"e":"57034"},"geometry":{"type":"Polygon","coordinates":[[[-73.95103,40.68767],[-73.95088,40.68693],[-73.95454,40.68651],[-73.95439,40.68578],[-73.95655,40.68553],[-73.95713,40.68846],[-73.95498,40.68871],[-73.95468,40.68724],[-73.95103,40.68767]]]}},{"type":"Feature","properties":{"e":"57035"},"geometry":{"type":"Polygon","coordinates":[[[-73.95088,40.68693],[-73.95045,40.68473],[-73.9541,40.68431],[-73.95425,40.68505],[-73.9564,40.6848],[-73.95655,40.68553],[-73.95439,40.68578],[-73.95454,40.68651],[-73.95088,40.68693]]]}},{"type":"Feature","properties":{"e":"57036"},"geometry":{"type":"Polygon","coordinates":[[[-73.95045,40.68473],[-73.95015,40.68327],[-73.95753,40.68242],[-73.95768,40.68315],[-73.95611,40.68333],[-73.9564,40.6848],[-73.95425,40.68505],[-73.9541,40.68431],[-73.95045,40.68473]]]}},{"type":"Feature","properties":{"e":"57037"},"geometry":{"type":"Polygon","coordinates":[[[-73.95015,40.68327],[-73.94956,40.68039],[-73.95156,40.6805],[-73.95337,40.68064],[-73.9544,40.68086],[-73.95462,40.682],[-73.95582,40.68187],[-73.95597,40.6826],[-73.95015,40.68327]]]}},{"type":"Feature","properties":{"e":"57038"},"geometry":{"type":"Polygon","coordinates":[[[-73.94956,40.68039],[-73.94958,40.67964],[-73.94968,40.67857],[-73.95205,40.67867],[-73.95301,40.67882],[-73.95531,40.67927],[-73.95529,40.6792],[-73.95596,40.67935],[-73.95584,40.67981],[-73.95577,40.68026],[-73.95549,40.68019],[-73.95582,40.68187],[-73.95462,40.682],[-73.9544,40.68086],[-73.95337,40.68064],[-73.95156,40.6805],[-73.94956,40.68039]]]}},{"type":"Feature","properties":{"e":"57039"},"geometry":{"type":"Polygon","coordinates":[[[-73.95829,40.67983],[-73.96135,40.68046],[-73.96127,40.68052],[-73.96161,40.68238],[-73.95959,40.68195],[-73.95978,40.68291],[-73.95884,40.68302],[-73.95825,40.67999],[-73.95829,40.67983]]]}},{"type":"Feature","properties":{"e":"57040"},"geometry":{"type":"Polygon","coordinates":[[[-73.94968,40.67857],[-73.94984,40.67687],[-73.95268,40.67703],[-73.95301,40.67882],[-73.95205,40.67867],[-73.94968,40.67857]]]}},{"type":"Feature","properties":{"e":"57041"},"geometry":{"type":"Polygon","coordinates":[[[-73.94984,40.67687],[-73.94992,40.6761],[-73.95269,40.67625],[-73.95302,40.67268],[-73.95432,40.67275],[-73.95307,40.67625],[-73.95268,40.67703],[-73.94984,40.67687]]]}},{"type":"Feature","properties":{"e":"57042"},"geometry":{"type":"Polygon","coordinates":[[[-73.95302,40.67268],[-73.95327,40.67001],[-73.95527,40.67012],[-73.95432,40.67275],[-73.95302,40.67268]]]}},{"type":"Feature","properties":{"e":"57043"},"geometry":{"type":"Polygon","coordinates":[[[-73.96609,40.68443],[-73.96805,40.6842],[-73.96849,40.6864],[-73.96749,40.68652],[-73.96779,40.68798],[-73.96682,40.68809],[-73.96609,40.68443]]]}},{"type":"Feature","properties":{"e":"57044"},"geometry":{"type":"Polygon","coordinates":[[[-73.96351,40.68698],[-73.96307,40.68478],[-73.96609,40.68443],[-73.96682,40.68809],[-73.96481,40.68833],[-73.96447,40.68687],[-73.96351,40.68698]]]}},{"type":"Feature","properties":{"e":"57045"},"geometry":{"type":"Polygon","coordinates":[[[-73.95971,40.68742],[-73.96447,40.68687],[-73.96481,40.68833],[-73.96001,40.68888],[-73.95971,40.68742]]]}},{"type":"Feature","properties":{"e":"57046"},"geometry":{"type":"Polygon","coordinates":[[[-73.95928,40.68522],[-73.96307,40.68478],[-73.96351,40.68698],[-73.95971,40.68742],[-73.95928,40.68522]]]}},{"type":"Feature","properties":{"e":"57047"},"geometry":{"type":"Polygon","coordinates":[[[-73.95713,40.68846],[-73.95655,40.68553],[-73.95928,40.68522],[-73.96001,40.68888],[-73.95722,40.6892],[-73.95713,40.68846]]]}},{"type":"Feature","properties":{"e":"57048"},"geometry":{"type":"Polygon","coordinates":[[[-73.96442,40.68112],[-73.96753,40.68177],[-73.96805,40.6842],[-73.96508,40.68455],[-73.96441,40.68119],[-73.96442,40.68112]]]}},{"type":"Feature","properties":{"e":"57049"},"geometry":{"type":"Polygon","coordinates":[[[-73.96161,40.68238],[-73.96127,40.68052],[-73.96135,40.68046],[-73.96442,40.68112],[-73.96441,40.68119],[-73.96508,40.68455],[-73.96307,40.68478],[-73.96264,40.68259],[-73.96161,40.68238]]]}},{"type":"Feature","properties":{"e":"57050"},"geometry":{"type":"Polygon","coordinates":[[[-73.95884,40.68302],[-73.95978,40.68291],[-73.95959,40.68195],[-73.96264,40.68259],[-73.96307,40.68478],[-73.95928,40.68522],[-73.95884,40.68302]]]}},{"type":"Feature","properties":{"e":"57051"},"geometry":{"type":"Polygon","coordinates":[[[-73.95655,40.68553],[-73.95611,40.68333],[-73.95768,40.68315],[-73.95753,40.68242],[-73.95597,40.6826],[-73.95549,40.68019],[-73.95577,40.68026],[-73.95584,40.67981],[-73.95596,40.67935],[-73.95829,40.67983],[-73.95825,40.67999],[-73.95928,40.68522],[-73.95655,40.68553]]]}},{"type":"Feature","properties":{"e":"57052"},"geometry":{"type":"Polygon","coordinates":[[[-73.95547,40.67758],[-73.95575,40.67681],[-73.95683,40.67703],[-73.95714,40.67615],[-73.95943,40.67663],[-73.95912,40.67751],[-73.96223,40.67817],[-73.96196,40.67893],[-73.95547,40.67758]]]}},{"type":"Feature","properties":{"e":"57053"},"geometry":{"type":"Polygon","coordinates":[[[-73.95299,40.67872],[-73.95268,40.67703],[-73.95307,40.67625],[-73.95575,40.67681],[-73.9552,40.67834],[-73.95517,40.67857],[-73.95529,40.6792],[-73.95299,40.67872]]]}},{"type":"Feature","properties":{"e":"57054"},"geometry":{"type":"Polygon","coordinates":[[[-73.95575,40.67681],[-73.95639,40.67505],[-73.95976,40.67576],[-73.95943,40.67663],[-73.95714,40.67615],[-73.95683,40.67703],[-73.95575,40.67681]]]}},{"type":"Feature","properties":{"e":"57055"},"geometry":{"type":"Polygon","coordinates":[[[-73.95307,40.67625],[-73.954,40.67363],[-73.9567,40.67417],[-73.95575,40.67681],[-73.95307,40.67625]]]}},{"type":"Feature","properties":{"e":"57056"},"geometry":{"type":"Polygon","coordinates":[[[-73.95639,40.67505],[-73.95702,40.67329],[-73.9581,40.6735],[-73.95842,40.67264],[-73.96071,40.67312],[-73.95976,40.67576],[-73.95639,40.67505]]]}},{"type":"Feature","properties":{"e":"57057"},"geometry":{"type":"Polygon","coordinates":[[[-73.95842,40.67264],[-73.95874,40.67176],[-73.95766,40.67154],[-73.95797,40.67066],[-73.96134,40.67136],[-73.96071,40.67312],[-73.95842,40.67264]]]}},{"type":"Feature","properties":{"e":"57058"},"geometry":{"type":"Polygon","coordinates":[[[-73.954,40.67363],[-73.95464,40.67187],[-73.95842,40.67264],[-73.9581,40.6735],[-73.95702,40.67329],[-73.9567,40.67417],[-73.954,40.67363]]]}},{"type":"Feature","properties":{"e":"57059"},"geometry":{"type":"Polygon","coordinates":[[[-73.95464,40.67187],[-73.95527,40.67012],[-73.95797,40.67066],[-73.95766,40.67154],[-73.95874,40.67176],[-73.95842,40.67264],[-73.95464,40.67187]]]}},{"type":"Feature","properties":{"e":"57060"},"geometry":{"type":"Polygon","coordinates":[[[-73.95797,40.67066],[-73.95893,40.66802],[-73.96,40.66824],[-73.96032,40.66736],[-73.96181,40.66768],[-73.96219,40.66964],[-73.96195,40.66964],[-73.96134,40.67136],[-73.95797,40.67066]]]}},{"type":"Feature","properties":{"e":"57061"},"geometry":{"type":"Polygon","coordinates":[[[-73.95527,40.67012],[-73.95327,40.67001],[-73.95344,40.66822],[-73.95591,40.66836],[-73.95861,40.6689],[-73.95797,40.67066],[-73.95527,40.67012]]]}},{"type":"Feature","properties":{"e":"57062"},"geometry":{"type":"Polygon","coordinates":[[[-73.95344,40.66822],[-73.95352,40.66733],[-73.95622,40.66748],[-73.95893,40.66802],[-73.95861,40.6689],[-73.95591,40.66836],[-73.95344,40.66822]]]}},{"type":"Feature","properties":{"e":"57063"},"geometry":{"type":"Polygon","coordinates":[[[-73.95352,40.66733],[-73.95379,40.66451],[-73.95603,40.66438],[-73.95591,40.66567],[-73.95686,40.66572],[-73.95956,40.66626],[-73.95893,40.66802],[-73.95622,40.66748],[-73.95352,40.66733]]]}},{"type":"Feature","properties":{"e":"57064"},"geometry":{"type":"Polygon","coordinates":[[[-73.95379,40.66451],[-73.95385,40.66373],[-73.96062,40.6633],[-73.96096,40.66329],[-73.96111,40.66406],[-73.95808,40.66426],[-73.95791,40.66475],[-73.9584,40.66485],[-73.95816,40.66552],[-73.95702,40.66528],[-73.95686,40.66572],[-73.95591,40.66567],[-73.95603,40.66438],[-73.95379,40.66451]]]}},{"type":"Feature","properties":{"e":"57065"},"geometry":{"type":"Polygon","coordinates":[[[-73.95686,40.66572],[-73.95702,40.66528],[-73.95816,40.66552],[-73.9584,40.66485],[-73.95791,40.66475],[-73.95808,40.66426],[-73.95934,40.66418],[-73.95863,40.66606],[-73.95686,40.66572]]]}},{"type":"Feature","properties":{"e":"57066"},"geometry":{"type":"Polygon","coordinates":[[[-73.95893,40.66802],[-73.95956,40.66626],[-73.95863,40.66606],[-73.95934,40.66418],[-73.96111,40.66406],[-73.96126,40.6648],[-73.96067,40.66649],[-73.96,40.66824],[-73.95893,40.66802]]]}},{"type":"Feature","properties":{"e":"57067"},"geometry":{"type":"Polygon","coordinates":[[[-73.97231,40.68546],[-73.97182,40.68303],[-73.97182,40.68283],[-73.97186,40.68267],[-73.9723,40.68276],[-73.97229,40.68295],[-73.97251,40.68406],[-73.97244,40.68407],[-73.97254,40.6842],[-73.97212,40.68424],[-73.97219,40.68456],[-73.97261,40.68453],[-73.97269,40.68494],[-73.97263,40.68494],[-73.97264,40.68501],[-73.97261,40.68501],[-73.97265,40.6852],[-73.97273,40.68519],[-73.97279,40.68549],[-73.97276,40.68564],[-73.97231,40.68546]]]}},{"type":"Feature","properties":{"e":"57068"},"geometry":{"type":"Polygon","coordinates":[[[-73.96135,40.68046],[-73.95529,40.6792],[-73.95517,40.67857],[-73.9552,40.67834],[-73.95547,40.67758],[-73.96196,40.67893],[-73.96141,40.68041],[-73.96135,40.68046]]]}},{"type":"Feature","properties":{"e":"57069"},"geometry":{"type":"Polygon","coordinates":[[[-73.97307,40.68576],[-73.97332,40.68559],[-73.97428,40.68551],[-73.97462,40.68719],[-73.97365,40.6873],[-73.97337,40.68588],[-73.97307,40.68576]]]}},{"type":"Feature","properties":{"e":"57070"},"geometry":{"type":"Polygon","coordinates":[[[-73.96032,40.66736],[-73.96067,40.66649],[-73.96126,40.6648],[-73.96181,40.66768],[-73.96032,40.66736]]]}},{"type":"Feature","properties":{"e":"57071"},"geometry":{"type":"Polygon","coordinates":[[[-73.95709,40.69447],[-73.96016,40.69412],[-73.96105,40.69833],[-73.95796,40.69882],[-73.95709,40.69447]]]}},{"type":"Feature","properties":{"e":"57072"},"geometry":{"type":"Polygon","coordinates":[[[-73.95943,40.69045],[-73.96029,40.69035],[-73.96074,40.69242],[-73.95984,40.69253],[-73.95943,40.69045]]]}},{"type":"Feature","properties":{"e":"57073"},"geometry":{"type":"Polygon","coordinates":[[[-73.9761,40.68974],[-73.97559,40.68709],[-73.97907,40.68672],[-73.97929,40.68825],[-73.97835,40.68789],[-73.97863,40.68984],[-73.9761,40.68974]]]}},{"type":"Feature","properties":{"e":"57074"},"geometry":{"type":"Polygon","coordinates":[[[-73.97511,40.6897],[-73.97428,40.68551],[-73.97703,40.68519],[-73.97736,40.68691],[-73.97559,40.68709],[-73.9761,40.68974],[-73.97511,40.6897]]]}},{"type":"Feature","properties":{"e":"57075"},"geometry":{"type":"Polygon","coordinates":[[[-73.95218,40.69347],[-73.95229,40.69341],[-73.95399,40.69321],[-73.95431,40.69479],[-73.95249,40.695],[-73.95218,40.69347]]]}},{"type":"Feature","properties":{"e":"57076"},"geometry":{"type":"Polygon","coordinates":[[[-73.95218,40.69347],[-73.95176,40.69133],[-73.95357,40.69112],[-73.95399,40.69321],[-73.95229,40.69341],[-73.95218,40.69347]]]}},{"type":"Feature","properties":{"e":"57077"},"geometry":{"type":"Polygon","coordinates":[[[-73.9503008081656,40.6840096638353],[-73.9501564701058,40.6832772207954],[-73.9500098873183,40.6825450130808],[-73.9536639921678,40.6821231563349],[-73.953810365294,40.6828562606308],[-73.9539559610732,40.6835890318197],[-73.9541018559091,40.6843213602681],[-73.9504472308042,40.6847430150215],[-73.9503008081656,40.6840096638353]]]}}]}