{"type":"FeatureCollection","ad":58,"features":[{"type":"Feature","properties":{"e":"58001"},"geometry":{"type":"Polygon","coordinates":[[[-73.93618,40.65147],[-73.93905,40.65133],[-73.93942,40.6548],[-73.93655,40.65498],[-73.93618,40.65147]]]}},{"type":"Feature","properties":{"e":"58002"},"geometry":{"type":"Polygon","coordinates":[[[-73.93427,40.65156],[-73.93618,40.65147],[-73.93655,40.65498],[-73.93465,40.6551],[-73.93427,40.65156]]]}},{"type":"Feature","properties":{"e":"58003"},"geometry":{"type":"Polygon","coordinates":[[[-73.93077,40.65534],[-73.93177,40.65527],[-73.93139,40.65169],[-73.93427,40.65156],[-73.93478,40.65636],[-73.9309,40.65661],[-73.93077,40.65534]]]}},{"type":"Feature","properties":{"e":"58004"},"geometry":{"type":"Polygon","coordinates":[[[-73.91557,40.65839],[-73.91378,40.65678],[-73.91633,40.65513],[-73.91815,40.65677],[-73.91649,40.65786],[-73.91557,40.65839]]]}},{"type":"Feature","properties":{"e":"58005"},"geometry":{"type":"Polygon","coordinates":[[[-73.93905,40.65133],[-73.94283,40.65111],[-73.9438,40.65111],[-73.944,40.65297],[-73.94023,40.65321],[-73.9404,40.65474],[-73.93942,40.6548],[-73.93905,40.65133]]]}},{"type":"Feature","properties":{"e":"58006"},"geometry":{"type":"Polygon","coordinates":[[[-73.92703,40.65686],[-73.92689,40.65558],[-73.93077,40.65534],[-73.93133,40.66059],[-73.93032,40.66066],[-73.9299,40.65668],[-73.92703,40.65686]]]}},{"type":"Feature","properties":{"e":"58007"},"geometry":{"type":"Polygon","coordinates":[[[-73.92751,40.65232],[-73.92848,40.65218],[-73.92939,40.65194],[-73.93038,40.65173],[-73.93139,40.65169],[-73.93177,40.65527],[-73.92786,40.65552],[-73.92751,40.65232]]]}},{"type":"Feature","properties":{"e":"58008"},"geometry":{"type":"Polygon","coordinates":[[[-73.92285,40.65246],[-73.92358,40.65052],[-73.9292,40.65017],[-73.92939,40.65194],[-73.92848,40.65218],[-73.92751,40.65232],[-73.92367,40.65254],[-73.92285,40.65246]]]}},{"type":"Feature","properties":{"e":"58009"},"geometry":{"type":"Polygon","coordinates":[[[-73.92367,40.65254],[-73.92751,40.65232],[-73.92786,40.65552],[-73.92498,40.65569],[-73.92482,40.65416],[-73.92385,40.65422],[-73.92367,40.65254]]]}},{"type":"Feature","properties":{"e":"58010"},"geometry":{"type":"Polygon","coordinates":[[[-73.922,40.65463],[-73.9209,40.65363],[-73.92077,40.65255],[-73.92285,40.65246],[-73.92367,40.65254],[-73.92385,40.65422],[-73.92482,40.65416],[-73.92498,40.65569],[-73.92689,40.65558],[-73.92703,40.65686],[-73.92465,40.65701],[-73.92331,40.6558],[-73.92301,40.65547],[-73.922,40.65463]]]}},{"type":"Feature","properties":{"e":"58011"},"geometry":{"type":"Polygon","coordinates":[[[-73.92646,40.65981],[-73.92464,40.65818],[-73.92541,40.65768],[-73.92465,40.65701],[-73.9299,40.65668],[-73.93032,40.66066],[-73.92882,40.66075],[-73.92726,40.65934],[-73.92646,40.65981]]]}},{"type":"Feature","properties":{"e":"58012"},"geometry":{"type":"Polygon","coordinates":[[[-73.92868,40.66509],[-73.92872,40.6645],[-73.93068,40.66362],[-73.92646,40.65981],[-73.92726,40.65934],[-73.92882,40.66075],[-73.93133,40.66059],[-73.9316,40.66323],[-73.93161,40.66356],[-73.93146,40.66523],[-73.92868,40.66509]]]}},{"type":"Feature","properties":{"e":"58013"},"geometry":{"type":"Polygon","coordinates":[[[-73.92542,40.66329],[-73.92828,40.66145],[-73.93068,40.66362],[-73.92739,40.66507],[-73.92542,40.66329]]]}},{"type":"Feature","properties":{"e":"58014"},"geometry":{"type":"Polygon","coordinates":[[[-73.92193,40.66274],[-73.92361,40.66166],[-73.92739,40.66507],[-73.92546,40.66592],[-73.92193,40.66274]]]}},{"type":"Feature","properties":{"e":"58015"},"geometry":{"type":"Polygon","coordinates":[[[-73.92361,40.66166],[-73.92646,40.65981],[-73.92828,40.66145],[-73.92542,40.66329],[-73.92361,40.66166]]]}},{"type":"Feature","properties":{"e":"58016"},"geometry":{"type":"Polygon","coordinates":[[[-73.92179,40.66003],[-73.92464,40.65818],[-73.92646,40.65981],[-73.92361,40.66166],[-73.92179,40.66003]]]}},{"type":"Feature","properties":{"e":"58017"},"geometry":{"type":"Polygon","coordinates":[[[-73.91974,40.66077],[-73.92076,40.65801],[-73.9225,40.65957],[-73.92179,40.66003],[-73.92361,40.66166],[-73.92193,40.66274],[-73.91974,40.66077]]]}},{"type":"Feature","properties":{"e":"58018"},"geometry":{"type":"Polygon","coordinates":[[[-73.92076,40.65801],[-73.922,40.65463],[-73.92301,40.65547],[-73.92331,40.6558],[-73.92541,40.65768],[-73.9225,40.65957],[-73.92076,40.65801]]]}},{"type":"Feature","properties":{"e":"58019"},"geometry":{"type":"Polygon","coordinates":[[[-73.91649,40.65786],[-73.91815,40.65677],[-73.92046,40.65884],[-73.91974,40.66077],[-73.91649,40.65786]]]}},{"type":"Feature","properties":{"e":"58020"},"geometry":{"type":"Polygon","coordinates":[[[-73.91815,40.65677],[-73.92101,40.65492],[-73.91918,40.65329],[-73.91996,40.65279],[-73.92077,40.65255],[-73.9209,40.65363],[-73.922,40.65463],[-73.92046,40.65884],[-73.91815,40.65677]]]}},{"type":"Feature","properties":{"e":"58021"},"geometry":{"type":"Polygon","coordinates":[[[-73.91633,40.65513],[-73.91918,40.65329],[-73.92101,40.65492],[-73.91815,40.65677],[-73.91633,40.65513]]]}},{"type":"Feature","properties":{"e":"58022"},"geometry":{"type":"Polygon","coordinates":[[[-73.91466,40.65621],[-73.91233,40.65413],[-73.91758,40.65431],[-73.91466,40.65621]]]}},{"type":"Feature","properties":{"e":"58023"},"geometry":{"type":"Polygon","coordinates":[[[-73.91352,40.65416],[-73.91737,40.65165],[-73.91555,40.65002],[-73.91632,40.64953],[-73.91996,40.65279],[-73.91758,40.65431],[-73.91352,40.65416]]]}},{"type":"Feature","properties":{"e":"58024"},"geometry":{"type":"Polygon","coordinates":[[[-73.94214,40.64468],[-73.94311,40.64464],[-73.9436,40.64928],[-73.94263,40.64934],[-73.94214,40.64468]]]}},{"type":"Feature","properties":{"e":"58025"},"geometry":{"type":"Polygon","coordinates":[[[-73.93599,40.64975],[-73.9436,40.64928],[-73.9438,40.65111],[-73.94283,40.65111],[-73.93618,40.65147],[-73.93599,40.64975]]]}},{"type":"Feature","properties":{"e":"58026"},"geometry":{"type":"Polygon","coordinates":[[[-73.9292,40.65017],[-73.93599,40.64975],[-73.93618,40.65147],[-73.93038,40.65173],[-73.92939,40.65194],[-73.9292,40.65017]]]}},{"type":"Feature","properties":{"e":"58027"},"geometry":{"type":"Polygon","coordinates":[[[-73.93261,40.64525],[-73.93358,40.64508],[-73.93451,40.64503],[-73.94214,40.64468],[-73.94263,40.64934],[-73.93021,40.65011],[-73.93,40.64818],[-73.93194,40.64806],[-73.93174,40.6462],[-73.9327,40.64614],[-73.93261,40.64525]]]}},{"type":"Feature","properties":{"e":"58028"},"geometry":{"type":"Polygon","coordinates":[[[-73.92689,40.6465],[-73.9288,40.64638],[-73.92859,40.64449],[-73.93251,40.64425],[-73.9327,40.64614],[-73.93174,40.6462],[-73.93194,40.64806],[-73.93,40.64818],[-73.93021,40.65011],[-73.92826,40.65023],[-73.92806,40.6483],[-73.92709,40.64836],[-73.92689,40.6465]]]}},{"type":"Feature","properties":{"e":"58029"},"geometry":{"type":"Polygon","coordinates":[[[-73.92459,40.64664],[-73.92689,40.6465],[-73.92709,40.64836],[-73.92806,40.6483],[-73.92826,40.65023],[-73.92358,40.65052],[-73.92422,40.64871],[-73.92459,40.64664]]]}},{"type":"Feature","properties":{"e":"58030"},"geometry":{"type":"Polygon","coordinates":[[[-73.92038,40.64878],[-73.92231,40.64866],[-73.92252,40.65059],[-73.92358,40.65052],[-73.92285,40.65246],[-73.92077,40.65255],[-73.92038,40.64878]]]}},{"type":"Feature","properties":{"e":"58031"},"geometry":{"type":"Polygon","coordinates":[[[-73.91632,40.64953],[-73.92018,40.64701],[-73.92077,40.65255],[-73.91996,40.65279],[-73.91632,40.64953]]]}},{"type":"Feature","properties":{"e":"58032"},"geometry":{"type":"Polygon","coordinates":[[[-73.92192,40.64491],[-73.92174,40.64338],[-73.92087,40.644],[-73.91995,40.64471],[-73.91956,40.64119],[-73.91946,40.64024],[-73.92042,40.63962],[-73.92014,40.63699],[-73.92102,40.63653],[-73.9213,40.63905],[-73.92308,40.63791],[-73.92337,40.6405],[-73.92357,40.6425],[-73.92538,40.64238],[-73.92459,40.64664],[-73.92118,40.64686],[-73.92098,40.64497],[-73.92192,40.64491]]]}},{"type":"Feature","properties":{"e":"58033"},"geometry":{"type":"Polygon","coordinates":[[[-73.92538,40.64238],[-73.92835,40.6422],[-73.9288,40.64638],[-73.92459,40.64664],[-73.92538,40.64238]]]}},{"type":"Feature","properties":{"e":"58034"},"geometry":{"type":"Polygon","coordinates":[[[-73.93801,40.6416],[-73.94178,40.64137],[-73.94214,40.64468],[-73.93836,40.64486],[-73.93801,40.6416]]]}},{"type":"Feature","properties":{"e":"58035"},"geometry":{"type":"Polygon","coordinates":[[[-73.93251,40.64425],[-73.93348,40.64419],[-73.93323,40.64189],[-73.93801,40.6416],[-73.93836,40.64486],[-73.93358,40.64508],[-73.93261,40.64525],[-73.93251,40.64425]]]}},{"type":"Feature","properties":{"e":"58036"},"geometry":{"type":"Polygon","coordinates":[[[-73.92835,40.6422],[-73.93226,40.64195],[-73.93201,40.63962],[-73.93298,40.63955],[-73.93348,40.64419],[-73.92859,40.64449],[-73.92835,40.6422]]]}},{"type":"Feature","properties":{"e":"58037"},"geometry":{"type":"Polygon","coordinates":[[[-73.94203,40.64366],[-73.94153,40.63902],[-73.94456,40.63884],[-73.94444,40.63951],[-73.94455,40.64023],[-73.94552,40.64016],[-73.94563,40.64113],[-73.94372,40.64124],[-73.94397,40.64354],[-73.94203,40.64366]]]}},{"type":"Feature","properties":{"e":"58038"},"geometry":{"type":"Polygon","coordinates":[[[-73.94402,40.63887],[-73.94387,40.63761],[-73.94335,40.63764],[-73.94322,40.63656],[-73.94512,40.63645],[-73.94552,40.64016],[-73.94455,40.64023],[-73.94444,40.63951],[-73.94456,40.63884],[-73.94402,40.63887]]]}},{"type":"Feature","properties":{"e":"58039"},"geometry":{"type":"Polygon","coordinates":[[[-73.94104,40.63442],[-73.94201,40.63435],[-73.94225,40.63663],[-73.94322,40.63656],[-73.94335,40.63764],[-73.94387,40.63761],[-73.94402,40.63887],[-73.94153,40.63902],[-73.94104,40.63442]]]}},{"type":"Feature","properties":{"e":"58040"},"geometry":{"type":"Polygon","coordinates":[[[-73.94104,40.63442],[-73.94079,40.63208],[-73.94463,40.63184],[-73.94488,40.63418],[-73.94391,40.63424],[-73.94415,40.63651],[-73.94225,40.63663],[-73.94201,40.63435],[-73.94104,40.63442]]]}},{"type":"Feature","properties":{"e":"58041"},"geometry":{"type":"Polygon","coordinates":[[[-73.93679,40.63932],[-73.94153,40.63902],[-73.94178,40.64137],[-73.93704,40.64166],[-73.93679,40.63932]]]}},{"type":"Feature","properties":{"e":"58042"},"geometry":{"type":"Polygon","coordinates":[[[-73.93323,40.64189],[-73.93273,40.63722],[-73.93464,40.6371],[-73.93489,40.63944],[-73.93679,40.63932],[-73.93704,40.64166],[-73.93323,40.64189]]]}},{"type":"Feature","properties":{"e":"58043"},"geometry":{"type":"Polygon","coordinates":[[[-73.93273,40.63722],[-73.9325,40.63495],[-73.93824,40.63459],[-73.93848,40.63686],[-73.93941,40.6368],[-73.93966,40.63914],[-73.93489,40.63944],[-73.93464,40.6371],[-73.93273,40.63722]]]}},{"type":"Feature","properties":{"e":"58044"},"geometry":{"type":"Polygon","coordinates":[[[-73.93824,40.63459],[-73.94104,40.63442],[-73.94153,40.63902],[-73.93966,40.63914],[-73.93941,40.6368],[-73.93848,40.63686],[-73.93824,40.63459]]]}},{"type":"Feature","properties":{"e":"58045"},"geometry":{"type":"Polygon","coordinates":[[[-73.93317,40.63255],[-73.94079,40.63208],[-73.94104,40.63442],[-73.93343,40.63488],[-73.93317,40.63255]]]}},{"type":"Feature","properties":{"e":"58046"},"geometry":{"type":"Polygon","coordinates":[[[-73.92102,40.63653],[-73.92283,40.63556],[-73.92308,40.63791],[-73.9213,40.63905],[-73.92102,40.63653]]]}},{"type":"Feature","properties":{"e":"58047"},"geometry":{"type":"Polygon","coordinates":[[[-73.91917,40.63747],[-73.92014,40.63699],[-73.92042,40.63962],[-73.91946,40.64024],[-73.91917,40.63747]]]}},{"type":"Feature","properties":{"e":"58048"},"geometry":{"type":"Polygon","coordinates":[[[-73.91005,40.64271],[-73.91157,40.64173],[-73.91229,40.64141],[-73.91444,40.64334],[-73.91341,40.64398],[-73.91294,40.6442],[-73.91112,40.64485],[-73.91021,40.64404],[-73.91093,40.6435],[-73.91005,40.64271]]]}},{"type":"Feature","properties":{"e":"58049"},"geometry":{"type":"Polygon","coordinates":[[[-73.91112,40.64485],[-73.91294,40.6442],[-73.91341,40.64398],[-73.91472,40.64316],[-73.9157,40.64404],[-73.91758,40.64283],[-73.91795,40.64316],[-73.91966,40.64208],[-73.92018,40.64701],[-73.91632,40.64953],[-73.91112,40.64485]]]}},{"type":"Feature","properties":{"e":"58050"},"geometry":{"type":"Polygon","coordinates":[[[-73.91223,40.64815],[-73.91196,40.6477],[-73.91176,40.64722],[-73.9084,40.64939],[-73.9066,40.64775],[-73.91112,40.64485],[-73.91632,40.64953],[-73.91555,40.65002],[-73.91396,40.6486],[-73.91325,40.64906],[-73.91223,40.64815]]]}},{"type":"Feature","properties":{"e":"58051"},"geometry":{"type":"Polygon","coordinates":[[[-73.91182,40.64998],[-73.91396,40.6486],[-73.91737,40.65165],[-73.91451,40.6535],[-73.91269,40.65187],[-73.91341,40.65141],[-73.91182,40.64998]]]}},{"type":"Feature","properties":{"e":"58052"},"geometry":{"type":"Polygon","coordinates":[[[-73.91071,40.65418],[-73.91067,40.65401],[-73.90856,40.6521],[-73.91182,40.64998],[-73.91341,40.65141],[-73.91269,40.65187],[-73.91451,40.6535],[-73.91352,40.65416],[-73.91233,40.65413],[-73.91254,40.6543],[-73.91106,40.65432],[-73.91093,40.65417],[-73.91071,40.65418]]]}},{"type":"Feature","properties":{"e":"58053"},"geometry":{"type":"Polygon","coordinates":[[[-73.90731,40.65627],[-73.90623,40.65205],[-73.90599,40.65095],[-73.90762,40.6499],[-73.90828,40.6505],[-73.90849,40.65059],[-73.90869,40.65072],[-73.90945,40.65152],[-73.90856,40.6521],[-73.91067,40.65401],[-73.91074,40.65434],[-73.90978,40.65447],[-73.91012,40.65585],[-73.90731,40.65627]]]}},{"type":"Feature","properties":{"e":"58054"},"geometry":{"type":"Polygon","coordinates":[[[-73.899,40.65137],[-73.89798,40.65049],[-73.90075,40.64874],[-73.90478,40.64612],[-73.9084,40.64939],[-73.91176,40.64722],[-73.91196,40.6477],[-73.91223,40.64815],[-73.91325,40.64906],[-73.90945,40.65152],[-73.90869,40.65072],[-73.90849,40.65059],[-73.90828,40.6505],[-73.90762,40.6499],[-73.90165,40.65375],[-73.899,40.65137]]]}},{"type":"Feature","properties":{"e":"58055"},"geometry":{"type":"Polygon","coordinates":[[[-73.89468,40.64753],[-73.8969,40.64609],[-73.90019,40.64909],[-73.89798,40.65049],[-73.89468,40.64753]]]}},{"type":"Feature","properties":{"e":"58056"},"geometry":{"type":"Polygon","coordinates":[[[-73.90478,40.64612],[-73.91005,40.64271],[-73.91093,40.6435],[-73.91021,40.64404],[-73.91112,40.64485],[-73.9066,40.64775],[-73.90478,40.64612]]]}},{"type":"Feature","properties":{"e":"58057"},"geometry":{"type":"Polygon","coordinates":[[[-73.89976,40.64535],[-73.90669,40.64087],[-73.90928,40.6432],[-73.90236,40.64769],[-73.89976,40.64535]]]}},{"type":"Feature","properties":{"e":"58058"},"geometry":{"type":"Polygon","coordinates":[[[-73.88372,40.63768],[-73.8897,40.6338],[-73.89156,40.63548],[-73.88557,40.63935],[-73.88372,40.63768]]]}},{"type":"Feature","properties":{"e":"58059"},"geometry":{"type":"Polygon","coordinates":[[[-73.88557,40.63935],[-73.89156,40.63548],[-73.89337,40.63711],[-73.88887,40.64002],[-73.89068,40.64165],[-73.8892,40.64261],[-73.88557,40.63935]]]}},{"type":"Feature","properties":{"e":"58060"},"geometry":{"type":"Polygon","coordinates":[[[-73.89068,40.64165],[-73.88887,40.64002],[-73.89337,40.63711],[-73.89701,40.64037],[-73.89325,40.64281],[-73.89143,40.64117],[-73.89068,40.64165]]]}},{"type":"Feature","properties":{"e":"58061"},"geometry":{"type":"Polygon","coordinates":[[[-73.89102,40.64425],[-73.8892,40.64261],[-73.89143,40.64117],[-73.89506,40.64444],[-73.89432,40.64492],[-73.89616,40.64657],[-73.89542,40.64705],[-73.89176,40.64376],[-73.89102,40.64425]]]}},{"type":"Feature","properties":{"e":"58062"},"geometry":{"type":"Polygon","coordinates":[[[-73.89506,40.64444],[-73.89325,40.64281],[-73.89701,40.64037],[-73.89991,40.64298],[-73.89757,40.64448],[-73.89649,40.64352],[-73.89506,40.64444]]]}},{"type":"Feature","properties":{"e":"58063"},"geometry":{"type":"Polygon","coordinates":[[[-73.89616,40.64657],[-73.89432,40.64492],[-73.89649,40.64352],[-73.89757,40.64448],[-73.89991,40.64298],[-73.90138,40.6443],[-73.89976,40.64535],[-73.90236,40.64769],[-73.90019,40.64909],[-73.8969,40.64609],[-73.89616,40.64657]]]}},{"type":"Feature","properties":{"e":"58064"},"geometry":{"type":"Polygon","coordinates":[[[-73.92038,40.64878],[-73.91998,40.64503],[-73.92098,40.64497],[-73.92118,40.64686],[-73.92459,40.64664],[-73.92422,40.64871],[-73.92358,40.65052],[-73.92252,40.65059],[-73.92231,40.64866],[-73.92038,40.64878]]]}}]}