{"type":"FeatureCollection","ad":60,"features":[{"type":"Feature","properties":{"e":"60001"},"geometry":{"type":"Polygon","coordinates":[[[-73.85646,40.66704],[-73.86013,40.66652],[-73.86054,40.66804],[-73.86242,40.66778],[-73.86283,40.66946],[-73.85727,40.67026],[-73.85646,40.66704]]]}},{"type":"Feature","properties":{"e":"60002"},"geometry":{"type":"Polygon","coordinates":[[[-73.86013,40.66652],[-73.86752,40.66547],[-73.86788,40.667],[-73.86054,40.66804],[-73.86013,40.66652]]]}},{"type":"Feature","properties":{"e":"60003"},"geometry":{"type":"Polygon","coordinates":[[[-73.86242,40.66778],[-73.86788,40.667],[-73.86831,40.66867],[-73.86283,40.66946],[-73.86242,40.66778]]]}},{"type":"Feature","properties":{"e":"60004"},"geometry":{"type":"Polygon","coordinates":[[[-73.85568,40.66387],[-73.85843,40.66345],[-73.85812,40.66204],[-73.85762,40.66012],[-73.85851,40.6599],[-73.8603,40.65963],[-73.86119,40.65925],[-73.86175,40.65894],[-73.86317,40.65828],[-73.86594,40.6589],[-73.86599,40.65886],[-73.86816,40.66173],[-73.87057,40.66503],[-73.85646,40.66704],[-73.85612,40.66551],[-73.85568,40.66387]]]}},{"type":"Feature","properties":{"e":"60005"},"geometry":{"type":"Polygon","coordinates":[[[-73.86831,40.66867],[-73.86752,40.66547],[-73.86845,40.66532],[-73.87057,40.66503],[-73.86837,40.66201],[-73.86937,40.66186],[-73.87509,40.65939],[-73.8784,40.66384],[-73.87267,40.66629],[-73.87182,40.66671],[-73.87085,40.66735],[-73.86962,40.66829],[-73.86925,40.6685],[-73.86883,40.66861],[-73.86831,40.66867]]]}},{"type":"Feature","properties":{"e":"60006"},"geometry":{"type":"Polygon","coordinates":[[[-73.86317,40.65828],[-73.8627,40.65762],[-73.863,40.65749],[-73.863,40.65726],[-73.86307,40.65721],[-73.86313,40.65721],[-73.86312,40.65716],[-73.86316,40.65709],[-73.86328,40.65694],[-73.86318,40.65683],[-73.86304,40.65674],[-73.863,40.65665],[-73.86306,40.65647],[-73.863,40.65636],[-73.86307,40.65633],[-73.86317,40.65641],[-73.8632,40.65636],[-73.86305,40.65611],[-73.86264,40.65567],[-73.86173,40.6553],[-73.86099,40.65521],[-73.86001,40.65397],[-73.85722,40.65028],[-73.85743,40.65016],[-73.85755,40.64993],[-73.85759,40.6494],[-73.85771,40.64875],[-73.85783,40.6483],[-73.85838,40.64727],[-73.85717,40.64368],[-73.85816,40.64338],[-73.85894,40.64322],[-73.85973,40.64312],[-73.86105,40.64303],[-73.86201,40.64289],[-73.86289,40.64255],[-73.86331,40.6423],[-73.8638,40.6418],[-73.86509,40.64094],[-73.86531,40.64075],[-73.8667,40.64002],[-73.8662,40.63954],[-73.86628,40.63947],[-73.86682,40.63996],[-73.86703,40.63985],[-73.86732,40.63987],[-73.86867,40.64093],[-73.86991,40.64328],[-73.87002,40.64407],[-73.87061,40.64486],[-73.87119,40.64531],[-73.87157,40.64541],[-73.87198,40.64545],[-73.87212,40.64542],[-73.87257,40.64558],[-73.87343,40.64678],[-73.87922,40.65459],[-73.87927,40.65457],[-73.87933,40.65462],[-73.87964,40.6545],[-73.87972,40.65438],[-73.87924,40.65374],[-73.87911,40.65371],[-73.87676,40.65056],[-73.87672,40.65032],[-73.87376,40.64616],[-73.87352,40.64587],[-73.87342,40.64565],[-73.87331,40.64558],[-73.87319,40.64545],[-73.87336,40.64511],[-73.87344,40.64467],[-73.87339,40.64423],[-73.87327,40.6439],[-73.8731,40.64393],[-73.87297,40.64384],[-73.87276,40.64325],[-73.87195,40.64239],[-73.87189,40.64225],[-73.87088,40.64077],[-73.87085,40.64056],[-73.87044,40.64029],[-73.87009,40.63984],[-73.87008,40.63921],[-73.8699,40.63893],[-73.86952,40.63865],[-73.86809,40.63819],[-73.868,40.63812],[-73.86961,40.63709],[-73.8697,40.63715],[-73.86921,40.63747],[-73.86956,40.63795],[-73.87061,40.63758],[-73.87167,40.63708],[-73.87618,40.64233],[-73.87647,40.64261],[-73.87655,40.64264],[-73.87616,40.64332],[-73.87546,40.64443],[-73.87495,40.64514],[-73.87458,40.64561],[-73.8761,40.64621],[-73.88172,40.65375],[-73.8822,40.65444],[-73.88221,40.65452],[-73.87973,40.65556],[-73.87933,40.65503],[-73.87699,40.65455],[-73.87637,40.65455],[-73.87582,40.65464],[-73.87548,40.65476],[-73.87518,40.65492],[-73.86908,40.65753],[-73.8685,40.65715],[-73.86826,40.65692],[-73.86544,40.65812],[-73.86599,40.65886],[-73.86594,40.6589],[-73.86317,40.65828]]]}},{"type":"Feature","properties":{"e":"60007"},"geometry":{"type":"Polygon","coordinates":[[[-73.87343,40.65566],[-73.87518,40.65492],[-73.87548,40.65476],[-73.87582,40.65464],[-73.87648,40.65454],[-73.87684,40.65454],[-73.87727,40.65459],[-73.87933,40.65503],[-73.88081,40.65695],[-73.87591,40.65905],[-73.87343,40.65566]]]}},{"type":"Feature","properties":{"e":"60008"},"geometry":{"type":"Polygon","coordinates":[[[-73.87647,40.64261],[-73.87618,40.64233],[-73.87167,40.63708],[-73.87243,40.63655],[-73.87255,40.63649],[-73.87293,40.63636],[-73.87348,40.63629],[-73.87445,40.63666],[-73.87515,40.63705],[-73.87547,40.63727],[-73.87595,40.63775],[-73.8763,40.63805],[-73.87711,40.63864],[-73.87752,40.63878],[-73.87809,40.63881],[-73.87835,40.63887],[-73.87856,40.63904],[-73.87853,40.63911],[-73.87863,40.63922],[-73.87862,40.63937],[-73.87884,40.63947],[-73.87911,40.63976],[-73.87921,40.63995],[-73.87931,40.64007],[-73.87951,40.64021],[-73.87989,40.64036],[-73.87989,40.64052],[-73.87995,40.6406],[-73.8801,40.64065],[-73.88013,40.64073],[-73.88016,40.64074],[-73.88017,40.6409],[-73.88026,40.64097],[-73.88029,40.64099],[-73.88048,40.64098],[-73.88048,40.64112],[-73.88074,40.64157],[-73.88059,40.64146],[-73.88046,40.64146],[-73.88046,40.64142],[-73.88039,40.6414],[-73.88029,40.6414],[-73.8801,40.64157],[-73.88003,40.64172],[-73.88002,40.64188],[-73.88007,40.642],[-73.88028,40.64212],[-73.88032,40.64212],[-73.88037,40.64206],[-73.88054,40.64206],[-73.88068,40.64211],[-73.88078,40.6422],[-73.88099,40.64222],[-73.88113,40.64229],[-73.88139,40.64235],[-73.88157,40.6425],[-73.88163,40.64273],[-73.8817,40.64283],[-73.8821,40.64326],[-73.88225,40.64348],[-73.88215,40.64366],[-73.88215,40.64374],[-73.88179,40.64395],[-73.87927,40.64561],[-73.87752,40.64404],[-73.87756,40.64398],[-73.87728,40.64301],[-73.87647,40.64261]]]}},{"type":"Feature","properties":{"e":"60009"},"geometry":{"type":"Polygon","coordinates":[[[-73.8835,40.64941],[-73.87927,40.64561],[-73.88179,40.64395],[-73.88215,40.64374],[-73.8827,40.64405],[-73.88302,40.64418],[-73.88325,40.64444],[-73.88342,40.64452],[-73.88361,40.64446],[-73.8837,40.64435],[-73.88387,40.64433],[-73.884,40.64437],[-73.88413,40.64429],[-73.88432,40.6441],[-73.88481,40.64395],[-73.88558,40.64404],[-73.88574,40.64418],[-73.88601,40.6445],[-73.88601,40.64457],[-73.88673,40.64513],[-73.8868,40.64524],[-73.8872,40.6456],[-73.88495,40.6468],[-73.88413,40.64733],[-73.88527,40.64825],[-73.88468,40.64868],[-73.8835,40.64941]]]}},{"type":"Feature","properties":{"e":"60010"},"geometry":{"type":"MultiPolygon","coordinates":[[[[-73.88847,40.6469],[-73.88844,40.64692],[-73.88846,40.64695],[-73.88854,40.64697],[-73.88864,40.64708],[-73.88858,40.64711],[-73.88864,40.64719],[-73.88864,40.64722],[-73.88858,40.64733],[-73.88852,40.64736],[-73.88844,40.64736],[-73.8883,40.64716],[-73.8882,40.64714],[-73.88818,40.64703],[-73.88821,40.64692],[-73.88818,40.64681],[-73.88829,40.64672],[-73.88847,40.6469]]],[[[-73.88768,40.64919],[-73.88656,40.64991],[-73.8861,40.64922],[-73.88441,40.65031],[-73.88411,40.64996],[-73.8835,40.64941],[-73.88468,40.64868],[-73.88527,40.64825],[-73.88413,40.64733],[-73.88495,40.6468],[-73.8872,40.6456],[-73.88722,40.64568],[-73.88727,40.64571],[-73.88728,40.64576],[-73.88743,40.64594],[-73.88736,40.64599],[-73.88739,40.64608],[-73.88745,40.6461],[-73.88746,40.64616],[-73.88753,40.64618],[-73.88764,40.64633],[-73.88767,40.6465],[-73.88764,40.64659],[-73.88767,40.64666],[-73.88766,40.64672],[-73.88773,40.64714],[-73.88757,40.64727],[-73.88752,40.64742],[-73.88762,40.64752],[-73.88764,40.64759],[-73.88764,40.6478],[-73.88777,40.64789],[-73.88807,40.6479],[-73.88815,40.64787],[-73.88843,40.64801],[-73.88864,40.64802],[-73.88878,40.6482],[-73.88881,40.64834],[-73.88888,40.64836],[-73.88925,40.64875],[-73.88953,40.64888],[-73.88993,40.64924],[-73.89007,40.64932],[-73.89022,40.64938],[-73.89034,40.64935],[-73.89014,40.64917],[-73.89035,40.64903],[-73.89057,40.64921],[-73.89125,40.65003],[-73.89001,40.65115],[-73.88909,40.65031],[-73.88768,40.64919]]]]}},{"type":"Feature","properties":{"e":"60011"},"geometry":{"type":"Polygon","coordinates":[[[-73.88441,40.65031],[-73.8861,40.64922],[-73.88656,40.64991],[-73.88768,40.64919],[-73.88909,40.65031],[-73.89001,40.65115],[-73.88629,40.65277],[-73.88441,40.65031]]]}},{"type":"Feature","properties":{"e":"60012"},"geometry":{"type":"Polygon","coordinates":[[[-73.89255,40.64891],[-73.89468,40.64753],[-73.89798,40.65049],[-73.89984,40.65212],[-73.89833,40.65309],[-73.89784,40.65337],[-73.89761,40.65345],[-73.89255,40.64891]]]}},{"type":"Feature","properties":{"e":"60013"},"geometry":{"type":"Polygon","coordinates":[[[-73.88942,40.65698],[-73.88629,40.65277],[-73.89001,40.65115],[-73.89125,40.65003],[-73.89255,40.64891],[-73.89761,40.65345],[-73.88942,40.65698]]]}},{"type":"Feature","properties":{"e":"60014"},"geometry":{"type":"Polygon","coordinates":[[[-73.88077,40.63958],[-73.88372,40.63768],[-73.8892,40.64261],[-73.88707,40.64399],[-73.88664,40.64438],[-73.88655,40.64431],[-73.88658,40.64429],[-73.88654,40.64423],[-73.88642,40.64418],[-73.8863,40.64401],[-73.88623,40.64395],[-73.88624,40.64382],[-73.88614,40.64379],[-73.88603,40.64366],[-73.88585,40.64365],[-73.88551,40.64347],[-73.88496,40.64326],[-73.88463,40.64309],[-73.88374,40.64245],[-73.88311,40.64187],[-73.8819,40.64083],[-73.88079,40.63976],[-73.88077,40.63958]]]}},{"type":"Feature","properties":{"e":"60015"},"geometry":{"type":"Polygon","coordinates":[[[-73.89102,40.64425],[-73.89176,40.64376],[-73.89542,40.64705],[-73.89255,40.64891],[-73.89009,40.6467],[-73.89222,40.64532],[-73.89102,40.64425]]]}},{"type":"Feature","properties":{"e":"60016"},"geometry":{"type":"MultiPolygon","coordinates":[[[[-73.89057,40.64921],[-73.89085,40.64937],[-73.89096,40.64937],[-73.89103,40.64933],[-73.89121,40.64912],[-73.89108,40.64879],[-73.89087,40.64855],[-73.89051,40.64825],[-73.89024,40.64792],[-73.88945,40.64717],[-73.88935,40.64703],[-73.88947,40.64696],[-73.88948,40.64691],[-73.8888,40.64605],[-73.88876,40.64607],[-73.88941,40.64689],[-73.88938,40.64697],[-73.88919,40.64708],[-73.88913,40.64709],[-73.88904,40.64705],[-73.88905,40.64708],[-73.88899,40.64716],[-73.88887,40.64722],[-73.88876,40.64718],[-73.88854,40.64697],[-73.88862,40.64695],[-73.88865,40.64689],[-73.8886,40.64671],[-73.88843,40.64665],[-73.88823,40.64665],[-73.88808,40.64662],[-73.88806,40.64653],[-73.88809,40.64621],[-73.88827,40.64609],[-73.88829,40.64604],[-73.88826,40.64606],[-73.88822,40.64602],[-73.88826,40.64601],[-73.88821,40.646],[-73.888,40.64603],[-73.88787,40.64591],[-73.88774,40.64574],[-73.88775,40.64571],[-73.88763,40.64563],[-73.88741,40.64533],[-73.88751,40.64532],[-73.88752,40.64527],[-73.88792,40.64507],[-73.88801,40.64515],[-73.88808,40.64515],[-73.88791,40.645],[-73.88767,40.64507],[-73.88734,40.64522],[-73.8872,40.64508],[-73.88717,40.64498],[-73.88709,40.64492],[-73.88706,40.64477],[-73.88698,40.64468],[-73.88691,40.64447],[-73.88678,40.64445],[-73.88679,40.64452],[-73.88664,40.64438],[-73.88707,40.64399],[-73.8892,40.64261],[-73.89222,40.64532],[-73.89009,40.6467],[-73.89255,40.64891],[-73.89125,40.65003],[-73.89057,40.64921]]],[[[-73.88829,40.64672],[-73.88845,40.64673],[-73.88854,40.64679],[-73.88853,40.64686],[-73.88847,40.6469],[-73.88829,40.64672]]]]}},{"type":"Feature","properties":{"e":"60017"},"geometry":{"type":"Polygon","coordinates":[[[-73.87655,40.64264],[-73.87728,40.64301],[-73.87756,40.64398],[-73.87752,40.64404],[-73.88148,40.6476],[-73.87939,40.64888],[-73.87845,40.64935],[-73.8761,40.64621],[-73.87458,40.64561],[-73.87495,40.64514],[-73.87546,40.64443],[-73.87616,40.64332],[-73.87655,40.64264]]]}},{"type":"Feature","properties":{"e":"60018"},"geometry":{"type":"Polygon","coordinates":[[[-73.87845,40.64935],[-73.87939,40.64888],[-73.88148,40.6476],[-73.8835,40.64941],[-73.8825,40.64991],[-73.88197,40.65043],[-73.88104,40.6509],[-73.88055,40.65061],[-73.87993,40.65133],[-73.87845,40.64935]]]}},{"type":"Feature","properties":{"e":"60019"},"geometry":{"type":"Polygon","coordinates":[[[-73.88159,40.65062],[-73.88197,40.65043],[-73.8825,40.64991],[-73.8835,40.64941],[-73.88411,40.64996],[-73.88441,40.65031],[-73.88629,40.65277],[-73.88405,40.65372],[-73.88332,40.6527],[-73.88335,40.65255],[-73.8827,40.65172],[-73.8826,40.6518],[-73.88239,40.65167],[-73.88159,40.65062]]]}},{"type":"Feature","properties":{"e":"60020"},"geometry":{"type":"Polygon","coordinates":[[[-73.87993,40.65133],[-73.88055,40.65061],[-73.88104,40.6509],[-73.88159,40.65062],[-73.88239,40.65167],[-73.8826,40.6518],[-73.8827,40.65172],[-73.88335,40.65255],[-73.88332,40.6527],[-73.88405,40.65372],[-73.88221,40.65452],[-73.8822,40.65444],[-73.88172,40.65375],[-73.87993,40.65133]]]}},{"type":"Feature","properties":{"e":"60021"},"geometry":{"type":"Polygon","coordinates":[[[-73.87973,40.65556],[-73.88629,40.65277],[-73.88731,40.65414],[-73.88081,40.65695],[-73.87973,40.65556]]]}},{"type":"Feature","properties":{"e":"60022"},"geometry":{"type":"Polygon","coordinates":[[[-73.88349,40.65759],[-73.88251,40.65621],[-73.88731,40.65414],[-73.88942,40.65698],[-73.88779,40.65768],[-73.88669,40.65621],[-73.88349,40.65759]]]}},{"type":"Feature","properties":{"e":"60023"},"geometry":{"type":"Polygon","coordinates":[[[-73.88183,40.65831],[-73.88669,40.65621],[-73.88779,40.65768],[-73.88942,40.65698],[-73.89062,40.65858],[-73.8841,40.66138],[-73.88183,40.65831]]]}},{"type":"Feature","properties":{"e":"60024"},"geometry":{"type":"Polygon","coordinates":[[[-73.88019,40.65901],[-73.88183,40.65831],[-73.8841,40.66138],[-73.88247,40.66209],[-73.88236,40.66195],[-73.88208,40.66183],[-73.88184,40.66168],[-73.88111,40.66069],[-73.88093,40.66048],[-73.88083,40.66028],[-73.88057,40.65996],[-73.88058,40.6598],[-73.88069,40.65966],[-73.88019,40.65901]]]}},{"type":"Feature","properties":{"e":"60025"},"geometry":{"type":"Polygon","coordinates":[[[-73.87509,40.65939],[-73.88251,40.65621],[-73.88349,40.65759],[-73.87775,40.66007],[-73.87883,40.66154],[-73.8772,40.66224],[-73.87509,40.65939]]]}},{"type":"Feature","properties":{"e":"60026"},"geometry":{"type":"Polygon","coordinates":[[[-73.8772,40.66224],[-73.87883,40.66154],[-73.87775,40.66007],[-73.88019,40.65901],[-73.88069,40.65966],[-73.88058,40.6598],[-73.88057,40.65996],[-73.88083,40.66028],[-73.88093,40.66048],[-73.88111,40.66069],[-73.88184,40.66168],[-73.88208,40.66183],[-73.88236,40.66195],[-73.88247,40.66209],[-73.8784,40.66384],[-73.8772,40.66224]]]}},{"type":"Feature","properties":{"e":"60027"},"geometry":{"type":"Polygon","coordinates":[[[-73.88942,40.65698],[-73.89784,40.65337],[-73.89833,40.65309],[-73.89984,40.65212],[-73.90165,40.65375],[-73.90599,40.65095],[-73.90623,40.65205],[-73.90692,40.65474],[-73.90318,40.65531],[-73.90244,40.65569],[-73.90119,40.65651],[-73.90057,40.6571],[-73.90029,40.65721],[-73.89613,40.65781],[-73.89367,40.65747],[-73.89337,40.65746],[-73.89309,40.65752],[-73.89062,40.65858],[-73.88942,40.65698]]]}},{"type":"Feature","properties":{"e":"60028"},"geometry":{"type":"Polygon","coordinates":[[[-73.89165,40.65993],[-73.89076,40.65871],[-73.89062,40.65858],[-73.89309,40.65752],[-73.89337,40.65746],[-73.89367,40.65747],[-73.89613,40.65781],[-73.89879,40.65741],[-73.89922,40.65911],[-73.89469,40.66113],[-73.89328,40.65923],[-73.89165,40.65993]]]}},{"type":"Feature","properties":{"e":"60029"},"geometry":{"type":"Polygon","coordinates":[[[-73.8931,40.66184],[-73.89165,40.65993],[-73.89328,40.65923],[-73.89469,40.66113],[-73.8976,40.65983],[-73.89829,40.66253],[-73.89365,40.66322],[-73.8934,40.66227],[-73.8931,40.66184]]]}},{"type":"Feature","properties":{"e":"60030"},"geometry":{"type":"Polygon","coordinates":[[[-73.89463,40.66308],[-73.89829,40.66253],[-73.8976,40.65983],[-73.89922,40.65911],[-73.90043,40.66381],[-73.89502,40.6646],[-73.89463,40.66308]]]}},{"type":"Feature","properties":{"e":"60031"},"geometry":{"type":"Polygon","coordinates":[[[-73.89365,40.66322],[-73.89463,40.66308],[-73.89502,40.6646],[-73.90043,40.66381],[-73.90085,40.66535],[-73.89444,40.6663],[-73.89365,40.66322]]]}},{"type":"Feature","properties":{"e":"60032"},"geometry":{"type":"Polygon","coordinates":[[[-73.89723,40.66588],[-73.90085,40.66535],[-73.90127,40.66688],[-73.89763,40.66742],[-73.89723,40.66588]]]}},{"type":"Feature","properties":{"e":"60033"},"geometry":{"type":"Polygon","coordinates":[[[-73.89444,40.6663],[-73.89723,40.66588],[-73.89763,40.66742],[-73.89581,40.66769],[-73.8962,40.66923],[-73.89522,40.66937],[-73.89444,40.6663]]]}},{"type":"Feature","properties":{"e":"60034"},"geometry":{"type":"Polygon","coordinates":[[[-73.89522,40.66937],[-73.8962,40.66923],[-73.89581,40.66769],[-73.90127,40.66688],[-73.90167,40.66841],[-73.89986,40.66868],[-73.90018,40.66994],[-73.89554,40.67063],[-73.89522,40.66937]]]}},{"type":"Feature","properties":{"e":"60035"},"geometry":{"type":"Polygon","coordinates":[[[-73.88738,40.65997],[-73.89062,40.65858],[-73.89076,40.65871],[-73.8931,40.66184],[-73.88979,40.6633],[-73.88738,40.65997]]]}},{"type":"Feature","properties":{"e":"60036"},"geometry":{"type":"Polygon","coordinates":[[[-73.88429,40.6631],[-73.8833,40.66173],[-73.88738,40.65997],[-73.88979,40.6633],[-73.88739,40.66435],[-73.88594,40.66239],[-73.88429,40.6631]]]}},{"type":"Feature","properties":{"e":"60037"},"geometry":{"type":"Polygon","coordinates":[[[-73.88491,40.66613],[-73.88759,40.66572],[-73.88726,40.66441],[-73.88811,40.66405],[-73.88928,40.66866],[-73.88569,40.66919],[-73.88491,40.66613]]]}},{"type":"Feature","properties":{"e":"60038"},"geometry":{"type":"Polygon","coordinates":[[[-73.87921,40.66349],[-73.8833,40.66173],[-73.88429,40.6631],[-73.88267,40.6638],[-73.88412,40.66576],[-73.88166,40.66682],[-73.88146,40.66653],[-73.87921,40.66349]]]}},{"type":"Feature","properties":{"e":"60039"},"geometry":{"type":"Polygon","coordinates":[[[-73.87594,40.6649],[-73.87921,40.66349],[-73.88146,40.66653],[-73.88166,40.66682],[-73.88197,40.66815],[-73.87849,40.66865],[-73.87835,40.66813],[-73.87594,40.6649]]]}},{"type":"Feature","properties":{"e":"60040"},"geometry":{"type":"Polygon","coordinates":[[[-73.87182,40.66671],[-73.87267,40.66629],[-73.87594,40.6649],[-73.87835,40.66813],[-73.87849,40.66865],[-73.87478,40.66919],[-73.87369,40.66766],[-73.87282,40.66802],[-73.87182,40.66671]]]}},{"type":"Feature","properties":{"e":"60041"},"geometry":{"type":"Polygon","coordinates":[[[-73.87006,40.66795],[-73.87085,40.66735],[-73.87182,40.66671],[-73.87282,40.66802],[-73.87369,40.66766],[-73.87478,40.66919],[-73.8738,40.66933],[-73.87374,40.66925],[-73.87296,40.66954],[-73.87253,40.66962],[-73.87237,40.66955],[-73.87056,40.6698],[-73.87006,40.66795]]]}},{"type":"Feature","properties":{"e":"60042"},"geometry":{"type":"Polygon","coordinates":[[[-73.86401,40.66928],[-73.86883,40.66861],[-73.86925,40.6685],[-73.86962,40.66829],[-73.87006,40.66795],[-73.87056,40.6698],[-73.86591,40.67047],[-73.86628,40.67201],[-73.86516,40.67226],[-73.86488,40.67172],[-73.86443,40.66961],[-73.86406,40.66944],[-73.86401,40.66928]]]}},{"type":"Feature","properties":{"e":"60043"},"geometry":{"type":"Polygon","coordinates":[[[-73.86628,40.67201],[-73.86591,40.67047],[-73.87056,40.6698],[-73.8713,40.67286],[-73.86852,40.67328],[-73.86814,40.67174],[-73.86628,40.67201]]]}},{"type":"Feature","properties":{"e":"60044"},"geometry":{"type":"Polygon","coordinates":[[[-73.86176,40.67423],[-73.86207,40.67421],[-73.86169,40.67266],[-73.86355,40.67241],[-73.86516,40.67226],[-73.86628,40.67201],[-73.86814,40.67174],[-73.86852,40.67328],[-73.86299,40.67407],[-73.8631,40.67465],[-73.86176,40.67423]]]}},{"type":"Feature","properties":{"e":"60045"},"geometry":{"type":"Polygon","coordinates":[[[-73.8631,40.67465],[-73.86299,40.67407],[-73.86945,40.67314],[-73.87007,40.67567],[-73.86713,40.6761],[-73.86627,40.67576],[-73.8631,40.67465]]]}},{"type":"Feature","properties":{"e":"60046"},"geometry":{"type":"Polygon","coordinates":[[[-73.86039,40.67125],[-73.85763,40.67166],[-73.85727,40.67026],[-73.86401,40.66928],[-73.86406,40.66944],[-73.86443,40.66961],[-73.86488,40.67172],[-73.86516,40.67226],[-73.86355,40.67241],[-73.86078,40.67281],[-73.86039,40.67125]]]}},{"type":"Feature","properties":{"e":"60047"},"geometry":{"type":"Polygon","coordinates":[[[-73.86171,40.67661],[-73.86114,40.67433],[-73.86176,40.67423],[-73.86413,40.675],[-73.86713,40.6761],[-73.86454,40.67645],[-73.86171,40.67661]]]}},{"type":"Feature","properties":{"e":"60048"},"geometry":{"type":"Polygon","coordinates":[[[-73.86945,40.67314],[-73.87037,40.67301],[-73.87099,40.67554],[-73.87007,40.67567],[-73.86945,40.67314]]]}},{"type":"Feature","properties":{"e":"60049"},"geometry":{"type":"Polygon","coordinates":[[[-73.87056,40.6698],[-73.87237,40.66955],[-73.87253,40.66962],[-73.87296,40.66954],[-73.87374,40.66925],[-73.87388,40.66945],[-73.87462,40.67239],[-73.8713,40.67286],[-73.87056,40.6698]]]}},{"type":"Feature","properties":{"e":"60050"},"geometry":{"type":"Polygon","coordinates":[[[-73.8738,40.66933],[-73.87757,40.66879],[-73.87795,40.67033],[-73.87703,40.67046],[-73.87741,40.672],[-73.87462,40.67239],[-73.87388,40.66945],[-73.8738,40.66933]]]}},{"type":"Feature","properties":{"e":"60051"},"geometry":{"type":"Polygon","coordinates":[[[-73.87757,40.66879],[-73.88197,40.66815],[-73.88275,40.67122],[-73.87741,40.672],[-73.87703,40.67046],[-73.87795,40.67033],[-73.87757,40.66879]]]}},{"type":"Feature","properties":{"e":"60052"},"geometry":{"type":"Polygon","coordinates":[[[-73.88236,40.66968],[-73.88166,40.66682],[-73.88474,40.66549],[-73.88569,40.66919],[-73.88236,40.66968]]]}},{"type":"Feature","properties":{"e":"60053"},"geometry":{"type":"Polygon","coordinates":[[[-73.88275,40.67122],[-73.88236,40.66968],[-73.88838,40.66879],[-73.8891,40.67158],[-73.88552,40.67211],[-73.8852,40.67086],[-73.88275,40.67122]]]}},{"type":"Feature","properties":{"e":"60054"},"geometry":{"type":"Polygon","coordinates":[[[-73.88979,40.6633],[-73.8931,40.66184],[-73.8934,40.66227],[-73.89444,40.6663],[-73.89253,40.66658],[-73.89213,40.66503],[-73.8903,40.66531],[-73.88979,40.6633]]]}},{"type":"Feature","properties":{"e":"60055"},"geometry":{"type":"Polygon","coordinates":[[[-73.88811,40.66405],[-73.88979,40.6633],[-73.8903,40.66531],[-73.89213,40.66503],[-73.89253,40.66658],[-73.89161,40.66672],[-73.892,40.66825],[-73.88928,40.66866],[-73.88811,40.66405]]]}},{"type":"Feature","properties":{"e":"60056"},"geometry":{"type":"Polygon","coordinates":[[[-73.88412,40.66576],[-73.88267,40.6638],[-73.88594,40.66239],[-73.88739,40.66435],[-73.88726,40.66441],[-73.88759,40.66572],[-73.88491,40.66613],[-73.88474,40.66549],[-73.88412,40.66576]]]}},{"type":"Feature","properties":{"e":"60057"},"geometry":{"type":"Polygon","coordinates":[[[-73.892,40.66825],[-73.89161,40.66672],[-73.89444,40.6663],[-73.89554,40.67063],[-73.89271,40.67105],[-73.8924,40.66979],[-73.89331,40.66965],[-73.89292,40.66812],[-73.892,40.66825]]]}},{"type":"Feature","properties":{"e":"60058"},"geometry":{"type":"Polygon","coordinates":[[[-73.88838,40.66879],[-73.89292,40.66812],[-73.89331,40.66965],[-73.8924,40.66979],[-73.89271,40.67105],[-73.8891,40.67158],[-73.88838,40.66879]]]}},{"type":"Feature","properties":{"e":"60059"},"geometry":{"type":"Polygon","coordinates":[[[-73.90029,40.65721],[-73.90057,40.6571],[-73.90119,40.65651],[-73.90244,40.65569],[-73.90318,40.65531],[-73.90692,40.65474],[-73.90731,40.65627],[-73.9003,40.6573],[-73.90029,40.65721]]]}},{"type":"Feature","properties":{"e":"60060"},"geometry":{"type":"Polygon","coordinates":[[[-73.86107,40.67402],[-73.86078,40.67281],[-73.86169,40.67266],[-73.86207,40.67421],[-73.86176,40.67423],[-73.86107,40.67402]]]}},{"type":"Feature","properties":{"e":"60061"},"geometry":{"type":"Polygon","coordinates":[[[-73.90167,40.66841],[-73.90198,40.66967],[-73.90018,40.66994],[-73.89986,40.66868],[-73.90167,40.66841]]]}},{"type":"Feature","properties":{"e":"60062"},"geometry":{"type":"Polygon","coordinates":[[[-73.86837,40.66201],[-73.86544,40.65812],[-73.86826,40.65692],[-73.8685,40.65715],[-73.86908,40.65753],[-73.87343,40.65566],[-73.87591,40.65905],[-73.86937,40.66186],[-73.86837,40.66201]]]}},{"type":"Feature","properties":{"e":"60063"},"geometry":{"type":"Polygon","coordinates":[[[-73.87037,40.67301],[-73.8713,40.67286],[-73.87192,40.6754],[-73.87099,40.67554],[-73.87037,40.67301]]]}}]}