{"type":"FeatureCollection","ad":66,"features":[{"type":"Feature","properties":{"e":"66001"},"geometry":{"type":"Polygon","coordinates":[[[-73.9825577351044,40.7313583954126],[-73.9830709119685,40.7306634867713],[-73.9854453425052,40.7316660680797],[-73.984946948952,40.732357933788],[-73.9835619636863,40.7317784858388],[-73.9834678845234,40.7317393415166],[-73.9832161144801,40.7316324291797],[-73.9829658489019,40.7315291034247],[-73.9825577351044,40.7313583954126]]]}},{"type":"Feature","properties":{"e":"66002"},"geometry":{"type":"Polygon","coordinates":[[[-74.0068129510274,40.7440695861091],[-74.0069329579735,40.7439031690597],[-74.0072346415127,40.7434776905186],[-74.0069917415873,40.7433749140723],[-74.0050070109388,40.7425404398156],[-74.0048871921123,40.7424900847119],[-74.0045493988396,40.7423481241923],[-74.0044167607661,40.7422923812898],[-74.0015567633383,40.7410882879584],[-74.0020208272632,40.7404523513624],[-73.9991864061646,40.7392510986226],[-73.9994132620942,40.7389371211885],[-73.999442979094,40.7388964589926],[-73.9996856784418,40.7385607354838],[-74.0025252638588,40.7397609054452],[-74.0031087880745,40.740005782892],[-74.0051269851135,40.740858474995],[-74.0053636703058,40.7409577654557],[-74.0054435984888,40.7409904022031],[-74.0069722284732,40.7416353891721],[-74.0077926121999,40.7419791062965],[-74.0082054697793,40.7421557808635],[-74.00870047413,40.7423699860605],[-74.0085185311027,40.743182734123],[-74.0083731903947,40.7439772442478],[-74.0082603601434,40.7446821059553],[-74.0069773373321,40.7441391534453],[-74.0068129510274,40.7440695861091]]]}},{"type":"Feature","properties":{"e":"66003"},"geometry":{"type":"Polygon","coordinates":[[[-73.9987141539185,40.7398891400069],[-73.9991864061646,40.7392510986226],[-74.0020208272632,40.7404523513624],[-74.0015567633383,40.7410882879584],[-73.9987141539185,40.7398891400069]]]}},{"type":"Feature","properties":{"e":"66004"},"geometry":{"type":"Polygon","coordinates":[[[-73.9958755420864,40.7386942079956],[-73.9963438166064,40.7380534937422],[-73.9968413863301,40.7373691509324],[-73.9996856784418,40.7385607354838],[-73.999442979094,40.7388964589926],[-73.9994132620942,40.7389371211885],[-73.9991864061646,40.7392510986226],[-73.9987141539185,40.7398891400069],[-73.9958755420864,40.7386942079956]]]}},{"type":"Feature","properties":{"e":"66005"},"geometry":{"type":"Polygon","coordinates":[[[-73.992655756013,40.7373387300156],[-73.9931209801255,40.736699307447],[-73.9952968303171,40.7376147425904],[-73.9958160230221,40.7378283197737],[-73.9963438166064,40.7380534937422],[-73.9958755420864,40.7386942079956],[-73.992655756013,40.7373387300156]]]}},{"type":"Feature","properties":{"e":"66006"},"geometry":{"type":"Polygon","coordinates":[[[-73.9931209801255,40.736699307447],[-73.9936183299057,40.7360127529977],[-73.9968413863301,40.7373691509324],[-73.9963438166064,40.7380534937422],[-73.9958160230221,40.7378283197737],[-73.9952968303171,40.7376147425904],[-73.9931209801255,40.736699307447]]]}},{"type":"Feature","properties":{"e":"66007"},"geometry":{"type":"Polygon","coordinates":[[[-73.9903321477519,40.7371401220348],[-73.9907538453569,40.7365391665747],[-73.9912122045098,40.7358964481418],[-73.9917164330276,40.735223562463],[-73.9936183299057,40.7360127529977],[-73.9931209801255,40.736699307447],[-73.992655756013,40.7373387300156],[-73.9922262944282,40.737925246715],[-73.9903321477519,40.7371401220348]]]}},{"type":"Feature","properties":{"e":"66008"},"geometry":{"type":"Polygon","coordinates":[[[-74.0091549030144,40.7425044496636],[-74.0090197176852,40.7424457406838],[-74.0088948498741,40.7423924297865],[-74.008792257085,40.7423834063227],[-74.00870047413,40.7423699860605],[-74.0082054697793,40.7421557808635],[-74.0077926121999,40.7419791062965],[-74.0069722284732,40.7416353891721],[-74.0054435984888,40.7409904022031],[-74.0053636703058,40.7409577654557],[-74.0051269851135,40.740858474995],[-74.0052932384124,40.7400314851333],[-74.0053918103554,40.7394202347583],[-74.0054963905158,40.7387621841188],[-74.0055930228806,40.738147231389],[-74.0061020799612,40.7381468250772],[-74.0064719876,40.7381469876461],[-74.0081553556585,40.7381499516298],[-74.0096522011674,40.7381547966613],[-74.0097376971385,40.738155074927],[-74.0098551328264,40.7381554557738],[-74.0099858348471,40.7381558770651],[-74.0099222557418,40.7375754683306],[-74.0099533501952,40.7369762865636],[-74.0099668384199,40.7368167070734],[-74.0099747652039,40.7367229285977],[-74.0100349627403,40.7360107191303],[-74.0101418888579,40.7360129785718],[-74.0102707911991,40.7360242612766],[-74.0106443722453,40.7360569584974],[-74.0106786980106,40.7360645407497],[-74.0106713189298,40.7361101927312],[-74.0106889774617,40.7361221285266],[-74.0107054948837,40.7361374452371],[-74.0107184811938,40.736154617318],[-74.0107275837593,40.7361731784788],[-74.0107325554056,40.7361926247098],[-74.010733261129,40.7362124279676],[-74.0107296817624,40.7362320505137],[-74.0107219144965,40.7362509595159],[-74.010710170241,40.7362686415175],[-74.0106865787091,40.736291261268],[-74.0106565772668,40.7363089500068],[-74.0106556617664,40.7363560055941],[-74.0106205521904,40.7363536515734],[-74.0105695571722,40.7369804811186],[-74.0105172672265,40.7376043260537],[-74.010478049619,40.7380722017882],[-74.0110885180315,40.7381010112586],[-74.011069371022,40.7383123573934],[-74.0110949660673,40.7383295071481],[-74.0111158391238,40.7383500269531],[-74.0111312379893,40.7383731773412],[-74.0111406077324,40.7383981240467],[-74.0111050908351,40.738400661431],[-74.011069540596,40.7383984103352],[-74.011055718834,40.7383962091935],[-74.0110527136454,40.7384046869887],[-74.0104557801319,40.7383727669783],[-74.0104301303446,40.7387116259788],[-74.0103944828611,40.7391825579753],[-74.0105000414322,40.73918169418],[-74.0105561915361,40.7391945004592],[-74.0107482129818,40.739184198081],[-74.0113894359022,40.7392243174754],[-74.0114860192164,40.7392687234835],[-74.0115819069243,40.7392727975015],[-74.0115896391532,40.7392798567882],[-74.0115886100826,40.7394871312634],[-74.0116349708848,40.7395147475011],[-74.0116293750521,40.7395707350497],[-74.0115566334737,40.7395649876749],[-74.0115289021253,40.7398820324579],[-74.0115163692885,40.7399811252292],[-74.0114621914963,40.7405924764046],[-74.0121588712983,40.7406142597632],[-74.0121551784109,40.7406825182661],[-74.0126588772329,40.7407049138639],[-74.0126607344216,40.7407559001395],[-74.0125751822781,40.7407499934887],[-74.0125751810559,40.7407435192652],[-74.0114763211423,40.7406953219428],[-74.0113758401287,40.7407322093238],[-74.0107198578077,40.7406938556236],[-74.0096329070784,40.7406536291026],[-74.0094983065263,40.7407352735345],[-74.0094929975348,40.7407509711921],[-74.0095177249138,40.740781845431],[-74.0095198932937,40.7408139846806],[-74.0095028303889,40.7408374855146],[-74.0094643899246,40.7409105990249],[-74.0094128539826,40.7411623551485],[-74.0095404758531,40.7412594204663],[-74.0096657850524,40.7413070622136],[-74.009620685805,40.7413718723842],[-74.0102096415393,40.7416157998247],[-74.0103850323694,40.7414061153758],[-74.0113975444182,40.741831075132],[-74.0108413259856,40.7426049960904],[-74.0102924575951,40.7423667866802],[-74.0101270887446,40.742584093866],[-74.0093225910909,40.7422525047689],[-74.0092825021393,40.7423135024986],[-74.0091933051481,40.742300893583],[-74.0091549030144,40.7425044496636]],[[-74.0093727038203,40.7421934123236],[-74.0100894852641,40.7424964177468],[-74.0101997283665,40.7423420157789],[-74.0098237930894,40.7421743140775],[-74.0101670484884,40.7416806099842],[-74.0095705739135,40.7414309649442],[-74.0095229674664,40.7414938693366],[-74.0093631996047,40.741431885632],[-74.0093472114132,40.7415186726115],[-74.0092793788832,40.7418868728384],[-74.009239250717,40.7420798891793],[-74.0094152993188,40.7421381321975],[-74.0093727038203,40.7421934123236]]]}},{"type":"Feature","properties":{"e":"66009"},"geometry":{"type":"Polygon","coordinates":[[[-74.0055930228806,40.738147231389],[-74.0056884951536,40.737560141076],[-74.0064890728618,40.7375578562217],[-74.0082074688527,40.7375620777645],[-74.0082546564505,40.7369684419409],[-74.0083099300485,40.7362004142715],[-74.0086278607608,40.7361610112754],[-74.0099314820126,40.7360126099282],[-74.0100349627403,40.7360107191303],[-74.0099747652039,40.7367229285977],[-74.0099668384199,40.7368167070734],[-74.0099533501952,40.7369762865636],[-74.0099222557418,40.7375754683306],[-74.0099858348471,40.7381558770651],[-74.0098551328264,40.7381554557738],[-74.0097376971385,40.738155074927],[-74.0096522011674,40.7381547966613],[-74.0081553556585,40.7381499516298],[-74.0064719876,40.7381469876461],[-74.0061020799612,40.7381468250772],[-74.0055930228806,40.738147231389]]]}},{"type":"Feature","properties":{"e":"66010"},"geometry":{"type":"Polygon","coordinates":[[[-74.0069819054731,40.735010426039],[-74.0070299963847,40.7348220995445],[-74.0071636431851,40.7343040737297],[-74.0084931136814,40.7341026303614],[-74.0084638150828,40.734484799016],[-74.0100767832413,40.7342338759217],[-74.0101851783288,40.734221726407],[-74.0102188293531,40.7338298646667],[-74.0103266704971,40.7338331020431],[-74.0104666604784,40.7338334939778],[-74.0107726885343,40.7337942097622],[-74.0107819639561,40.7336153909162],[-74.0107563941367,40.7336020916178],[-74.0107337126928,40.7335860443441],[-74.0107144253344,40.7335676068898],[-74.0106989620946,40.7335471903415],[-74.0106876677424,40.7335252499118],[-74.0106807940949,40.7335022747897],[-74.010678494404,40.7334787772335],[-74.010680819939,40.7334552811491],[-74.0106877188447,40.7334323104091],[-74.0106990372975,40.7334103771726],[-74.0107145229356,40.7333899704655],[-74.0107338304858,40.7333715452781],[-74.0107565294627,40.7333555124196],[-74.010782113766,40.7333422293599],[-74.0108100129654,40.7333319922587],[-74.0108396050182,40.7333250293628],[-74.0108414410781,40.7332059315622],[-74.0109256498595,40.7331552620697],[-74.0109053501552,40.7333058773842],[-74.0108998584483,40.7333594676313],[-74.0108794178555,40.7333602189189],[-74.0108592309143,40.733362773819],[-74.0108395717108,40.7333670976428],[-74.0108207071656,40.7333731316841],[-74.0108028934105,40.7333807940162],[-74.0107863723102,40.7333899806046],[-74.0107713681791,40.7334005667193],[-74.0107580847351,40.7334124086284],[-74.0107447514673,40.733430907589],[-74.0107356957925,40.7334508482184],[-74.0107311754254,40.7334716630363],[-74.0107313190133,40.7334927596838],[-74.0107361224742,40.7335135377808],[-74.0107454491128,40.7335334060125],[-74.0107590335098,40.7335517989568],[-74.0107764890753,40.7335681931756],[-74.0107964576904,40.7335821693171],[-74.0108186132807,40.7335940867665],[-74.0108425915418,40.7336037495644],[-74.0108679981984,40.7336109988251],[-74.0108342976355,40.7340153543971],[-74.0120193718303,40.7340720048119],[-74.0120026939609,40.7343466615762],[-74.0108150461444,40.7342917040885],[-74.0107894353391,40.7345565543379],[-74.0107106804892,40.7353711327961],[-74.0106443722453,40.7360569584974],[-74.0102707911991,40.7360242612766],[-74.0101418888579,40.7360129785718],[-74.0100349627403,40.7360107191303],[-74.0099314820126,40.7360126099282],[-74.0086278607608,40.7361610112754],[-74.0083099300485,40.7362004142715],[-74.0083718305208,40.7355138073995],[-74.0068005201829,40.7357311850805],[-74.0069819054731,40.735010426039]]]}},{"type":"Feature","properties":{"e":"66011"},"geometry":{"type":"Polygon","coordinates":[[[-74.0062956922239,40.7337503027561],[-74.0064085267999,40.7330622009135],[-74.0075242866267,40.7328606172231],[-74.0086347937547,40.7326513785386],[-74.0098705435596,40.732458903791],[-74.010238529452,40.7324091207897],[-74.0103541129669,40.7323934845807],[-74.0104513009249,40.7323854341892],[-74.0106311827417,40.7323666550797],[-74.0109949600834,40.7323286784933],[-74.0109426335842,40.7330160234559],[-74.0114622870762,40.7330366738108],[-74.0140036544467,40.7330762618864],[-74.0140010247254,40.7333405376605],[-74.0109053501552,40.7333058773842],[-74.0109256498595,40.7331552620697],[-74.0108414410781,40.7332059315622],[-74.0108396050182,40.7333250293628],[-74.0108100129654,40.7333319922587],[-74.010782113766,40.7333422293599],[-74.0107565294627,40.7333555124196],[-74.0107338304858,40.7333715452781],[-74.0107145229356,40.7333899704655],[-74.0106990372975,40.7334103771726],[-74.0106877188447,40.7334323104091],[-74.010680819939,40.7334552811491],[-74.010678494404,40.7334787772335],[-74.0106807940949,40.7335022747897],[-74.0106876677424,40.7335252499118],[-74.0106989620946,40.7335471903415],[-74.0107144253344,40.7335676068898],[-74.0107337126928,40.7335860443441],[-74.0107563941367,40.7336020916178],[-74.0107819639561,40.7336153909162],[-74.0107726885343,40.7337942097622],[-74.0104666604784,40.7338334939778],[-74.0103266704971,40.7338331020431],[-74.0102188293531,40.7338298646667],[-74.0101851783288,40.734221726407],[-74.0100767832413,40.7342338759217],[-74.0084638150828,40.734484799016],[-74.0084931136814,40.7341026303614],[-74.0071636431851,40.7343040737297],[-74.0070299963847,40.7348220995445],[-74.0069819054731,40.735010426039],[-74.0060701484856,40.7351414749001],[-74.0061832470677,40.7344473930361],[-74.0062956922239,40.7337503027561]]]}},{"type":"Feature","properties":{"e":"66012"},"geometry":{"type":"Polygon","coordinates":[[[-74.0065028030446,40.7324341357649],[-74.0066255222728,40.7316776391313],[-74.006738583432,40.7309553254808],[-74.0068582711291,40.7302364959735],[-74.0082023317481,40.7303586249014],[-74.0090719065735,40.7304424333566],[-74.0103987167292,40.730566430216],[-74.010511507193,40.7305769736455],[-74.0106143667686,40.7305941908],[-74.0107679232865,40.7305563631066],[-74.0111634081971,40.7304589365296],[-74.0110911651769,40.731260828291],[-74.0110731534993,40.7314607520536],[-74.0109949600834,40.7323286784933],[-74.0106311827417,40.7323666550797],[-74.0104513009249,40.7323854341892],[-74.0103541129669,40.7323934845807],[-74.010238529452,40.7324091207897],[-74.0098705435596,40.732458903791],[-74.0086347937547,40.7326513785386],[-74.0075242866267,40.7328606172231],[-74.0064085267999,40.7330622009135],[-74.0065028030446,40.7324341357649]]]}},{"type":"Feature","properties":{"e":"66013"},"geometry":{"type":"Polygon","coordinates":[[[-74.0040321279375,40.7255207549887],[-74.0039034151139,40.7255116556905],[-74.0033776636935,40.725259934625],[-74.0043812977991,40.7240624029728],[-74.0047871977206,40.7236330961608],[-74.0061181724576,40.723753989759],[-74.0074762726879,40.7239046817839],[-74.007727179831,40.7238922474602],[-74.0079135102118,40.7237080257372],[-74.0080798027379,40.7238351217551],[-74.0083036125717,40.723986067529],[-74.0085723598194,40.7241776138209],[-74.0086452557122,40.7242295760014],[-74.0093190547438,40.7247098100056],[-74.0097329739048,40.72499863019],[-74.0100714620057,40.7250526058238],[-74.0110576469984,40.7251566695259],[-74.0111781119677,40.7251776838347],[-74.0112447661314,40.7248428674817],[-74.0112716870067,40.7247076361014],[-74.0113557342016,40.7242854417077],[-74.0114407806759,40.7242927272332],[-74.0115926771463,40.724305862718],[-74.0119657722698,40.7243381231931],[-74.0118148469675,40.7250862649086],[-74.0116556021521,40.7258756328337],[-74.0116547168112,40.7258800206152],[-74.0119597819643,40.7259858579922],[-74.0123173355085,40.7260421020577],[-74.0141174063639,40.7262241220477],[-74.0147796676219,40.7262899652078],[-74.0151646934471,40.7263279706651],[-74.0152057182506,40.7263702081147],[-74.015190102099,40.7264594417608],[-74.0151722931397,40.7265876494365],[-74.0151447075133,40.7267187855876],[-74.0117462279449,40.7262781937964],[-74.0115757574745,40.7262329994628],[-74.0115833917446,40.726179293657],[-74.0112703825678,40.7261424154131],[-74.011090310577,40.7261218669897],[-74.0109743896717,40.7261036347769],[-74.0108714195326,40.7260929729293],[-74.0099234902298,40.7259951646578],[-74.0091081863748,40.7259223175675],[-74.0088598356856,40.7258981759147],[-74.0083624724464,40.7258497210105],[-74.0075720404402,40.7257720171975],[-74.0075587916428,40.7258484886476],[-74.0064880977283,40.7257479855238],[-74.00578267152,40.7256817641386],[-74.0045533835982,40.7255670752738],[-74.0040321279375,40.7255207549887]]]}},{"type":"Feature","properties":{"e":"66014"},"geometry":{"type":"Polygon","coordinates":[[[-73.9996856784418,40.7385607354838],[-74.0001845362302,40.737873198128],[-74.0006487097962,40.7372377899592],[-74.001095406171,40.7365684944551],[-74.0014641991566,40.737176826457],[-74.0017694281042,40.7376831873984],[-74.0020334718268,40.7381387225584],[-74.0023969315396,40.7387705642],[-74.0030536125715,40.7387662882816],[-74.0034471321769,40.738764153769],[-74.003860742566,40.7387614035903],[-74.0042236719556,40.7387615786406],[-74.0044006526126,40.7387616641494],[-74.0045854703712,40.7387617519222],[-74.0047640214007,40.7387618379827],[-74.0054963905158,40.7387621841188],[-74.0053918103554,40.7394202347583],[-74.0052932384124,40.7400314851333],[-74.0051269851135,40.740858474995],[-74.0031087880745,40.740005782892],[-74.0025252638588,40.7397609054452],[-73.9996856784418,40.7385607354838]]]}},{"type":"Feature","properties":{"e":"66015"},"geometry":{"type":"Polygon","coordinates":[[[-74.0017694281042,40.7376831873984],[-74.0038671837682,40.7375523194831],[-74.0048310429484,40.7375557315929],[-74.0056884951536,40.737560141076],[-74.0055930228806,40.738147231389],[-74.0054963905158,40.7387621841188],[-74.0047640214007,40.7387618379827],[-74.0045854703712,40.7387617519222],[-74.0044006526126,40.7387616641494],[-74.0042236719556,40.7387615786406],[-74.003860742566,40.7387614035903],[-74.0034471321769,40.738764153769],[-74.0030536125715,40.7387662882816],[-74.0023969315396,40.7387705642],[-74.0020334718268,40.7381387225584],[-74.0017694281042,40.7376831873984]]]}},{"type":"Feature","properties":{"e":"66016"},"geometry":{"type":"Polygon","coordinates":[[[-74.0038671837682,40.7375523194831],[-74.0037154891164,40.7368466232048],[-74.0035287689859,40.736186782578],[-74.003343048606,40.7355472199691],[-74.0031556034428,40.7349043071914],[-74.0047485100732,40.7346677436074],[-74.0045627931869,40.7340178900011],[-74.0062956922239,40.7337503027561],[-74.0061832470677,40.7344473930361],[-74.0060701484856,40.7351414749001],[-74.0059616303198,40.7358532682526],[-74.0051276139488,40.7359699961418],[-74.005315260075,40.7366196949505],[-74.00532812907,40.7366586239811],[-74.005345548828,40.7366965148631],[-74.0053673781646,40.7367330604807],[-74.0053934401537,40.7367679646208],[-74.0054235237489,40.7368009441127],[-74.0054573849012,40.7368317318956],[-74.0054947491601,40.7368600784243],[-74.0055353136798,40.7368857539408],[-74.0048310429484,40.7375557315929],[-74.0038671837682,40.7375523194831]]]}},{"type":"Feature","properties":{"e":"66017"},"geometry":{"type":"Polygon","coordinates":[[[-74.001095406171,40.7365684944551],[-74.0015540113801,40.7358055771722],[-74.0016944923064,40.735542852295],[-74.0019728014341,40.7350781407824],[-74.0023925173626,40.7343480726104],[-74.0029710737899,40.7342606019106],[-74.0031556034428,40.7349043071914],[-74.003343048606,40.7355472199691],[-74.0035287689859,40.736186782578],[-74.0037154891164,40.7368466232048],[-74.0038671837682,40.7375523194831],[-74.0017694281042,40.7376831873984],[-74.0014641991566,40.737176826457],[-74.001095406171,40.7365684944551]]]}},{"type":"Feature","properties":{"e":"66018"},"geometry":{"type":"Polygon","coordinates":[[[-74.0023925173626,40.7343480726104],[-74.0027878626028,40.7336407696121],[-74.0030335433545,40.7332233586558],[-74.0035216616003,40.7323638478147],[-74.0036134065745,40.7323320552991],[-74.003977470419,40.7329232809947],[-74.0042790029102,40.733399774443],[-74.0053738309493,40.7332309355005],[-74.0054126639499,40.7332259206169],[-74.0058630447129,40.7331552541253],[-74.0054642868473,40.7324563240289],[-74.0057956710737,40.7323805931897],[-74.0065028030446,40.7324341357649],[-74.0064085267999,40.7330622009135],[-74.0062956922239,40.7337503027561],[-74.0045627931869,40.7340178900011],[-74.0047485100732,40.7346677436074],[-74.0031556034428,40.7349043071914],[-74.0029710737899,40.7342606019106],[-74.0023925173626,40.7343480726104]]]}},{"type":"Feature","properties":{"e":"66019"},"geometry":{"type":"Polygon","coordinates":[[[-74.0036134065745,40.7323320552991],[-74.0035786994842,40.7322716558574],[-74.0037918154411,40.7319017229157],[-74.0042249489921,40.7311358080036],[-74.0046277652482,40.7310115050416],[-74.0052970629459,40.7308059428404],[-74.0055352630186,40.7308306284009],[-74.0061326999667,40.7308925412423],[-74.0063925452253,40.7309194673899],[-74.006738583432,40.7309553254808],[-74.0066255222728,40.7316776391313],[-74.0065028030446,40.7324341357649],[-74.0057956710737,40.7323805931897],[-74.0054642868473,40.7324563240289],[-74.0058630447129,40.7331552541253],[-74.0054126639499,40.7332259206169],[-74.0053738309493,40.7332309355005],[-74.0042790029102,40.733399774443],[-74.003977470419,40.7329232809947],[-74.0036134065745,40.7323320552991]]]}},{"type":"Feature","properties":{"e":"66020"},"geometry":{"type":"Polygon","coordinates":[[[-74.0031291230444,40.7284020611692],[-74.0053151414799,40.7286127541059],[-74.0052953457683,40.7288296648219],[-74.0052051850488,40.7293364475398],[-74.0051730227461,40.7294554699532],[-74.0054253643309,40.7293481124692],[-74.0069744382951,40.7295032504834],[-74.0084016088902,40.729636529471],[-74.0092096072615,40.7297147399518],[-74.010489465902,40.7298259505418],[-74.0106005027555,40.7298345495635],[-74.010511507193,40.7305769736455],[-74.0103987167292,40.730566430216],[-74.0090719065735,40.7304424333566],[-74.0082023317481,40.7303586249014],[-74.0068582711291,40.7302364959735],[-74.006738583432,40.7309553254808],[-74.0063925452253,40.7309194673899],[-74.0061326999667,40.7308925412423],[-74.0055352630186,40.7308306284009],[-74.0052970629459,40.7308059428404],[-74.0046277652482,40.7310115050416],[-74.0044618060439,40.730726598291],[-74.0043041223748,40.7304549212264],[-74.0039568675137,40.7298651542726],[-74.003658109329,40.729352352119],[-74.0032978663531,40.7287217272727],[-74.003336579138,40.7285115765526],[-74.0031291230444,40.7284020611692]]]}},{"type":"Feature","properties":{"e":"66021"},"geometry":{"type":"Polygon","coordinates":[[[-74.0111634081971,40.7304589365296],[-74.0107679232865,40.7305563631066],[-74.0106143667686,40.7305941908],[-74.010511507193,40.7305769736455],[-74.0106005027555,40.7298345495635],[-74.010489465902,40.7298259505418],[-74.0092096072615,40.7297147399518],[-74.0084016088902,40.729636529471],[-74.0069744382951,40.7295032504834],[-74.0054253643309,40.7293481124692],[-74.0051730227461,40.7294554699532],[-74.0052051850488,40.7293364475398],[-74.0052953457683,40.7288296648219],[-74.0053151414799,40.7286127541059],[-74.0031291230444,40.7284020611692],[-74.002818714825,40.7283713888661],[-74.0030424720197,40.7279290886876],[-74.0031728133974,40.7276733791779],[-74.0033326906545,40.7272589202216],[-74.0033636920139,40.727174364923],[-74.0034463627156,40.7269670756914],[-74.0037316237604,40.7262583176791],[-74.0038511110132,40.7259650468684],[-74.0040321279375,40.7255207549887],[-74.0045533835982,40.7255670752738],[-74.00578267152,40.7256817641386],[-74.0064880977283,40.7257479855238],[-74.0075587916428,40.7258484886476],[-74.0075720404402,40.7257720171975],[-74.0083624724464,40.7258497210105],[-74.0088598356856,40.7258981759147],[-74.0091081863748,40.7259223175675],[-74.0099234902298,40.7259951646578],[-74.0108714195326,40.7260929729293],[-74.0109743896717,40.7261036347769],[-74.011090310577,40.7261218669897],[-74.0112703825678,40.7261424154131],[-74.0115833917446,40.726179293657],[-74.0115757574745,40.7262329994628],[-74.0117462279449,40.7262781937964],[-74.0151447075133,40.7267187855876],[-74.0151250177737,40.7268022018898],[-74.0143081679785,40.7267163800312],[-74.0134182269292,40.7266292900621],[-74.0123459990328,40.7265276893489],[-74.0115434700871,40.726455605305],[-74.0113846872159,40.7282375316023],[-74.0143921514695,40.728471307198],[-74.0143460675428,40.7286304434921],[-74.0142207382458,40.7295316871445],[-74.0140788660889,40.7306486693033],[-74.0140883884416,40.7306714326571],[-74.0140394220766,40.7307024784685],[-74.0140169757751,40.7306910992793],[-74.0111634081971,40.7304589365296]]]}},{"type":"Feature","properties":{"e":"66022"},"geometry":{"type":"Polygon","coordinates":[[[-74.0021503634077,40.7280436260233],[-74.002195589643,40.727989693481],[-74.0025146940923,40.7276091868328],[-74.0031235121868,40.7268853876769],[-74.0032006675794,40.7269132621188],[-74.0032805502854,40.726936264509],[-74.003362630657,40.7269542422576],[-74.0034463627156,40.7269670756914],[-74.0033636920139,40.727174364923],[-74.0033326906545,40.7272589202216],[-74.0031728133974,40.7276733791779],[-74.0030424720197,40.7279290886876],[-74.002818714825,40.7283713888661],[-74.0027215456781,40.7283310745786],[-74.0026254445338,40.7282869020459],[-74.0024240957403,40.7281837974993],[-74.0021503634077,40.7280436260233]]]}},{"type":"Feature","properties":{"e":"66023"},"geometry":{"type":"Polygon","coordinates":[[[-73.9968413863301,40.7373691509324],[-73.9973427755184,40.7366761507416],[-73.997808957376,40.736044167813],[-74.0006487097962,40.7372377899592],[-74.0001845362302,40.737873198128],[-73.9996856784418,40.7385607354838],[-73.9968413863301,40.7373691509324]]]}},{"type":"Feature","properties":{"e":"66024"},"geometry":{"type":"Polygon","coordinates":[[[-73.9936183299057,40.7360127529977],[-73.9941200151819,40.7353209013796],[-73.9945866552793,40.7346809338513],[-73.9967004602215,40.735575221079],[-73.9970128677504,40.7357073862107],[-73.997808957376,40.736044167813],[-73.9973427755184,40.7366761507416],[-73.9968413863301,40.7373691509324],[-73.9936183299057,40.7360127529977]]]}},{"type":"Feature","properties":{"e":"66025"},"geometry":{"type":"Polygon","coordinates":[[[-73.997808957376,40.736044167813],[-73.9982756372667,40.7353994006788],[-73.9985316639066,40.7350461533504],[-73.9987158857857,40.7347921218917],[-73.998873938731,40.7348472261895],[-73.9992470964627,40.7347963864417],[-73.9999740542018,40.7346961619686],[-74.0013902337935,40.7344910803377],[-74.0012062071424,40.7338513532865],[-74.0017595459118,40.733776504849],[-74.0026614740458,40.7336547565468],[-74.0027878626028,40.7336407696121],[-74.0023925173626,40.7343480726104],[-74.0019728014341,40.7350781407824],[-74.0016944923064,40.735542852295],[-74.0015540113801,40.7358055771722],[-74.001095406171,40.7365684944551],[-74.0006487097962,40.7372377899592],[-73.997808957376,40.736044167813]]]}},{"type":"Feature","properties":{"e":"66026"},"geometry":{"type":"Polygon","coordinates":[[[-73.9945866552793,40.7346809338513],[-73.9950514167374,40.7340425660161],[-73.9954914597643,40.733444403829],[-73.9964340909755,40.7338384123298],[-73.9964777404632,40.7337692672689],[-73.9966369773726,40.7335431268003],[-73.996754772668,40.7335927761605],[-73.9967729160368,40.7335690438574],[-73.9968556152099,40.7336039012094],[-73.9968385780618,40.7336280996145],[-73.9984070142012,40.7342891676307],[-73.9985736427374,40.7340645018511],[-73.9986283381813,40.7339926986402],[-73.9990395250844,40.7341680464294],[-73.9991874020778,40.7341468432314],[-73.9987158857857,40.7347921218917],[-73.9985316639066,40.7350461533504],[-73.9982756372667,40.7353994006788],[-73.997808957376,40.736044167813],[-73.9970128677504,40.7357073862107],[-73.9967004602215,40.735575221079],[-73.9945866552793,40.7346809338513]]]}},{"type":"Feature","properties":{"e":"66027"},"geometry":{"type":"Polygon","coordinates":[[[-73.9987158857857,40.7347921218917],[-73.9991874020778,40.7341468432314],[-73.9995635730725,40.7336206545241],[-73.9997649177131,40.7333674932084],[-74.0000698758821,40.7329329223869],[-74.0005121114406,40.732323484143],[-74.0018074681562,40.7329571048796],[-74.0025744334123,40.73338020299],[-74.0027878626028,40.7336407696121],[-74.0026614740458,40.7336547565468],[-74.0017595459118,40.733776504849],[-74.0012062071424,40.7338513532865],[-74.0013902337935,40.7344910803377],[-73.9999740542018,40.7346961619686],[-73.9992470964627,40.7347963864417],[-73.998873938731,40.7348472261895],[-73.9987158857857,40.7347921218917]]]}},{"type":"Feature","properties":{"e":"66028"},"geometry":{"type":"Polygon","coordinates":[[[-73.9954914597643,40.733444403829],[-73.9959158210761,40.7328554419243],[-73.9963538076658,40.7322612111351],[-73.9979881550223,40.7329542464216],[-73.9995635730725,40.7336206545241],[-73.9991874020778,40.7341468432314],[-73.9990395250844,40.7341680464294],[-73.9986283381813,40.7339926986402],[-73.9985736427374,40.7340645018511],[-73.9984070142012,40.7342891676307],[-73.9968385780618,40.7336280996145],[-73.9968556152099,40.7336039012094],[-73.9967729160368,40.7335690438574],[-73.996754772668,40.7335927761605],[-73.9966369773726,40.7335431268003],[-73.9964777404632,40.7337692672689],[-73.9964340909755,40.7338384123298],[-73.9954914597643,40.733444403829]]]}},{"type":"Feature","properties":{"e":"66029"},"geometry":{"type":"Polygon","coordinates":[[[-74.0005121114406,40.732323484143],[-74.0009558705803,40.731714358584],[-74.0011679693257,40.7317830666394],[-74.0029445599101,40.7311444746732],[-74.0031412709261,40.731473128135],[-74.0033000638438,40.7317513353999],[-74.0034484303728,40.7320294718843],[-74.0037918154411,40.7319017229157],[-74.0035786994842,40.7322716558574],[-74.0036134065745,40.7323320552991],[-74.0035216616003,40.7323638478147],[-74.0030335433545,40.7332233586558],[-74.0027878626028,40.7336407696121],[-74.0025744334123,40.73338020299],[-74.0018074681562,40.7329571048796],[-74.0005121114406,40.732323484143]]]}},{"type":"Feature","properties":{"e":"66030"},"geometry":{"type":"Polygon","coordinates":[[[-73.9996789183424,40.7284309281181],[-74.0005912744244,40.727345516298],[-74.0006338395739,40.7272948720886],[-74.0013917832983,40.7276682615672],[-74.0021503634077,40.7280436260233],[-74.0024240957403,40.7281837974993],[-74.0026254445338,40.7282869020459],[-74.0027215456781,40.7283310745786],[-74.002818714825,40.7283713888661],[-74.0027849592465,40.7284437298708],[-74.0025274792646,40.7290161795255],[-74.0022048208511,40.7296615156319],[-74.0011917522998,40.7291755978553],[-74.0004364437311,40.7288028658417],[-73.9996789183424,40.7284309281181]]]}},{"type":"Feature","properties":{"e":"66031"},"geometry":{"type":"Polygon","coordinates":[[[-74.0009558705803,40.731714358584],[-74.0014138728948,40.7310735166321],[-74.0016861036755,40.7305898228261],[-74.0021580412347,40.7297650503118],[-74.0022048208511,40.7296615156319],[-74.0025274792646,40.7290161795255],[-74.0027849592465,40.7284437298708],[-74.002818714825,40.7283713888661],[-74.0031291230444,40.7284020611692],[-74.003336579138,40.7285115765526],[-74.0032978663531,40.7287217272727],[-74.003658109329,40.729352352119],[-74.0039568675137,40.7298651542726],[-74.0043041223748,40.7304549212264],[-74.0044618060439,40.730726598291],[-74.0046277652482,40.7310115050416],[-74.0042249489921,40.7311358080036],[-74.0037918154411,40.7319017229157],[-74.0034484303728,40.7320294718843],[-74.0033000638438,40.7317513353999],[-74.0031412709261,40.731473128135],[-74.0029445599101,40.7311444746732],[-74.0011679693257,40.7317830666394],[-74.0009558705803,40.731714358584]]]}},{"type":"Feature","properties":{"e":"66032"},"geometry":{"type":"Polygon","coordinates":[[[-74.0006338395739,40.7272948720886],[-74.0006883488963,40.7272254694957],[-74.0015979838801,40.7261271359086],[-74.0026204816874,40.7248882954987],[-74.0036369067478,40.7236902853279],[-74.0038307382004,40.7234575783456],[-74.0047871977206,40.7236330961608],[-74.0043812977991,40.7240624029728],[-74.0033776636935,40.725259934625],[-74.0039034151139,40.7255116556905],[-74.0040321279375,40.7255207549887],[-74.0038511110132,40.7259650468684],[-74.0037316237604,40.7262583176791],[-74.0034463627156,40.7269670756914],[-74.003362630657,40.7269542422576],[-74.0032805502854,40.726936264509],[-74.0032006675794,40.7269132621188],[-74.0031235121868,40.7268853876769],[-74.0025146940923,40.7276091868328],[-74.002195589643,40.727989693481],[-74.0021503634077,40.7280436260233],[-74.0013917832983,40.7276682615672],[-74.0006338395739,40.7272948720886]]]}},{"type":"Feature","properties":{"e":"66033"},"geometry":{"type":"Polygon","coordinates":[[[-74.0056884951536,40.737560141076],[-74.0048310429484,40.7375557315929],[-74.0055353136798,40.7368857539408],[-74.0054947491601,40.7368600784243],[-74.0054573849012,40.7368317318956],[-74.0054235237489,40.7368009441127],[-74.0053934401537,40.7367679646208],[-74.0053673781646,40.7367330604807],[-74.005345548828,40.7366965148631],[-74.00532812907,40.7366586239811],[-74.005315260075,40.7366196949505],[-74.0051276139488,40.7359699961418],[-74.0059616303198,40.7358532682526],[-74.0060701484856,40.7351414749001],[-74.0069819054731,40.735010426039],[-74.0068005201829,40.7357311850805],[-74.0083718305208,40.7355138073995],[-74.0083099300485,40.7362004142715],[-74.0082546564505,40.7369684419409],[-74.0082074688527,40.7375620777645],[-74.0064890728618,40.7375578562217],[-74.0056884951536,40.737560141076]]]}},{"type":"Feature","properties":{"e":"66034"},"geometry":{"type":"Polygon","coordinates":[[[-73.9917164330276,40.735223562463],[-73.9912004391263,40.7350206298557],[-73.9907554131296,40.7348474158275],[-73.9899044050273,40.7344430513414],[-73.9898819870425,40.7343304690224],[-73.989864718302,40.734217362769],[-73.9898526195791,40.7341038688132],[-73.9898457054197,40.7339901238531],[-73.9898439839798,40.7338762650343],[-73.9898474574445,40.7337624293435],[-73.9898561216038,40.7336487538883],[-73.9898699659957,40.7335353755828],[-73.990036001965,40.7327624122447],[-73.9911149999782,40.7332221832987],[-73.9927942358837,40.7339297572224],[-73.9922674364835,40.7345408624532],[-73.9941200151819,40.7353209013796],[-73.9936183299057,40.7360127529977],[-73.9917164330276,40.735223562463]]]}},{"type":"Feature","properties":{"e":"66035"},"geometry":{"type":"Polygon","coordinates":[[[-73.9927942358837,40.7339297572224],[-73.9933232283685,40.7333120321922],[-73.9938152490496,40.7327389850457],[-73.9942987366954,40.7321741206775],[-73.9959158210761,40.7328554419243],[-73.9954914597643,40.733444403829],[-73.9950514167374,40.7340425660161],[-73.9945866552793,40.7346809338513],[-73.9941200151819,40.7353209013796],[-73.9922674364835,40.7345408624532],[-73.9927942358837,40.7339297572224]]]}},{"type":"Feature","properties":{"e":"66036"},"geometry":{"type":"Polygon","coordinates":[[[-73.990036001965,40.7327624122447],[-73.9901037020477,40.7324536331482],[-73.9901149475778,40.7324087651424],[-73.9902133543416,40.7320045951209],[-73.990391544658,40.7312967849012],[-73.9914611560674,40.7317464200162],[-73.992136107523,40.7316757686775],[-73.9936392985816,40.7322516172781],[-73.9942987366954,40.7321741206775],[-73.9938152490496,40.7327389850457],[-73.9933232283685,40.7333120321922],[-73.9927942358837,40.7339297572224],[-73.9911149999782,40.7332221832987],[-73.990036001965,40.7327624122447]]]}},{"type":"Feature","properties":{"e":"66037"},"geometry":{"type":"Polygon","coordinates":[[[-73.9942987366954,40.7321741206775],[-73.9919221425553,40.7311745582517],[-73.9924090809877,40.730599472261],[-73.9932505687121,40.7309533165055],[-73.9940370215825,40.7312844054912],[-73.9947899827749,40.7316041044851],[-73.9963538076658,40.7322612111351],[-73.9959158210761,40.7328554419243],[-73.9942987366954,40.7321741206775]]]}},{"type":"Feature","properties":{"e":"66038"},"geometry":{"type":"Polygon","coordinates":[[[-73.990391544658,40.7312967849012],[-73.9905070306604,40.7305732171631],[-73.990726748752,40.7298869477596],[-73.9907860606886,40.7297540085936],[-73.9914367156883,40.7298710552021],[-73.9928422028633,40.7300872100132],[-73.9924090809877,40.730599472261],[-73.9919221425553,40.7311745582517],[-73.9942987366954,40.7321741206775],[-73.9936392985816,40.7322516172781],[-73.992136107523,40.7316757686775],[-73.9914611560674,40.7317464200162],[-73.990391544658,40.7312967849012]]]}},{"type":"Feature","properties":{"e":"66039"},"geometry":{"type":"Polygon","coordinates":[[[-73.990726748752,40.7298869477596],[-73.9899316006729,40.7295676801417],[-73.9876730590302,40.7286033649099],[-73.9881204754484,40.7279850050661],[-73.9885394068368,40.7274098782292],[-73.9891574845158,40.7276674166744],[-73.9892335506888,40.7276990598801],[-73.9902260356151,40.7281119230045],[-73.9907812713648,40.7283544312745],[-73.9909837673189,40.728078608478],[-73.991053640871,40.7279758480517],[-73.9910865144672,40.7279280369854],[-73.9912358402763,40.7277350651061],[-73.9913543343324,40.7275656583692],[-73.9913904280946,40.7275059609356],[-73.9915535205399,40.7271025969352],[-73.9931480153312,40.7278754617836],[-73.9942542306295,40.7284207176513],[-73.9937484765289,40.7290155584669],[-73.9936041082193,40.72918584672],[-73.9932630768083,40.7295881015853],[-73.9928422028633,40.7300872100132],[-73.9914367156883,40.7298710552021],[-73.9907860606886,40.7297540085936],[-73.990726748752,40.7298869477596]]]}},{"type":"Feature","properties":{"e":"66040"},"geometry":{"type":"Polygon","coordinates":[[[-73.9979881550223,40.7329542464216],[-73.9982789175829,40.7326201717068],[-73.9986137034544,40.7322236907928],[-73.9991099552857,40.7316350785449],[-73.9996050509586,40.7310515167084],[-73.9997256137084,40.7309094270382],[-73.9999162332999,40.7306847696518],[-74.0001242146734,40.7304396487189],[-74.0014138728948,40.7310735166321],[-74.0009558705803,40.731714358584],[-74.0005121114406,40.732323484143],[-74.0000698758821,40.7329329223869],[-73.9997649177131,40.7333674932084],[-73.9995635730725,40.7336206545241],[-73.9979881550223,40.7329542464216]]]}},{"type":"Feature","properties":{"e":"66041"},"geometry":{"type":"Polygon","coordinates":[[[-73.9963538076658,40.7322612111351],[-73.9947899827749,40.7316041044851],[-73.9940370215825,40.7312844054912],[-73.9948230471799,40.7303581268348],[-73.9953097534133,40.7297849915816],[-73.995813817926,40.7291887929756],[-73.9950624811465,40.7288190324565],[-73.9942542306295,40.7284207176513],[-73.9947523756423,40.7278270356822],[-73.995594111386,40.7282017099636],[-73.9963464745652,40.7285589498223],[-73.9971193709245,40.7289340613591],[-73.997887303839,40.7293187028781],[-73.9986064879002,40.7296935695297],[-73.9993676790542,40.7300667373759],[-73.9995222073516,40.7301429077736],[-74.0001242146734,40.7304396487189],[-73.9999162332999,40.7306847696518],[-73.9997256137084,40.7309094270382],[-73.9996050509586,40.7310515167084],[-73.9991099552857,40.7316350785449],[-73.9986137034544,40.7322236907928],[-73.9982789175829,40.7326201717068],[-73.9979881550223,40.7329542464216],[-73.9963538076658,40.7322612111351]]]}},{"type":"Feature","properties":{"e":"66042"},"geometry":{"type":"Polygon","coordinates":[[[-73.9924090809877,40.730599472261],[-73.9928422028633,40.7300872100132],[-73.9932630768083,40.7295881015853],[-73.9936041082193,40.72918584672],[-73.9937484765289,40.7290155584669],[-73.9942542306295,40.7284207176513],[-73.9950624811465,40.7288190324565],[-73.995813817926,40.7291887929756],[-73.9953097534133,40.7297849915816],[-73.9948230471799,40.7303581268348],[-73.9940370215825,40.7312844054912],[-73.9932505687121,40.7309533165055],[-73.9924090809877,40.730599472261]]]}},{"type":"Feature","properties":{"e":"66043"},"geometry":{"type":"Polygon","coordinates":[[[-73.9887807611186,40.7339736608904],[-73.9875733965622,40.7334652517733],[-73.9871819404304,40.7333004088379],[-73.9876846528227,40.7326119709849],[-73.9881545208469,40.7319734700163],[-73.9889353329269,40.732300886694],[-73.9893131271718,40.7324593029752],[-73.990036001965,40.7327624122447],[-73.9898699659957,40.7335353755828],[-73.9898561216038,40.7336487538883],[-73.9898474574445,40.7337624293435],[-73.9898439839798,40.7338762650343],[-73.9898457054197,40.7339901238531],[-73.9898526195791,40.7341038688132],[-73.989864718302,40.734217362769],[-73.9898819870425,40.7343304690224],[-73.9899044050273,40.7344430513414],[-73.9888407958601,40.7339987405836],[-73.9887807611186,40.7339736608904]]]}},{"type":"Feature","properties":{"e":"66044"},"geometry":{"type":"Polygon","coordinates":[[[-73.984946948952,40.732357933788],[-73.9854453425052,40.7316660680797],[-73.9857544460059,40.7312412065601],[-73.9859100391166,40.7310273411611],[-73.9875109404156,40.731702191093],[-73.9881545208469,40.7319734700163],[-73.9876846528227,40.7326119709849],[-73.9871819404304,40.7333004088379],[-73.984946948952,40.732357933788]]]}},{"type":"Feature","properties":{"e":"66045"},"geometry":{"type":"Polygon","coordinates":[[[-73.9854453425052,40.7316660680797],[-73.9830709119685,40.7306634867713],[-73.9835373675723,40.7300159890238],[-73.9839987809743,40.7293779450053],[-73.9853551918584,40.7299542436471],[-73.9855380041849,40.7300309513835],[-73.9863759593169,40.7303879190642],[-73.9879943561932,40.7310699189622],[-73.9875109404156,40.731702191093],[-73.9859100391166,40.7310273411611],[-73.9857544460059,40.7312412065601],[-73.9854453425052,40.7316660680797]]]}},{"type":"Feature","properties":{"e":"66046"},"geometry":{"type":"Polygon","coordinates":[[[-73.9881545208469,40.7319734700163],[-73.9875109404156,40.731702191093],[-73.9879943561932,40.7310699189622],[-73.9886143412238,40.731330841243],[-73.9890530160317,40.7307313248885],[-73.990391544658,40.7312967849012],[-73.9902133543416,40.7320045951209],[-73.9901149475778,40.7324087651424],[-73.9901037020477,40.7324536331482],[-73.990036001965,40.7327624122447],[-73.9893131271718,40.7324593029752],[-73.9889353329269,40.732300886694],[-73.9881545208469,40.7319734700163]]]}},{"type":"Feature","properties":{"e":"66047"},"geometry":{"type":"Polygon","coordinates":[[[-73.9879943561932,40.7310699189622],[-73.9863759593169,40.7303879190642],[-73.9868090850929,40.7297851507896],[-73.9872512205902,40.7291944214706],[-73.9876730590302,40.7286033649099],[-73.9899316006729,40.7295676801417],[-73.990726748752,40.7298869477596],[-73.9905070306604,40.7305732171631],[-73.990391544658,40.7312967849012],[-73.9890530160317,40.7307313248885],[-73.9886143412238,40.731330841243],[-73.9879943561932,40.7310699189622]]]}},{"type":"Feature","properties":{"e":"66048"},"geometry":{"type":"Polygon","coordinates":[[[-73.9839987809743,40.7293779450053],[-73.9844330569857,40.7287766986754],[-73.9848590737732,40.7281850940829],[-73.9872512205902,40.7291944214706],[-73.9868090850929,40.7297851507896],[-73.9863759593169,40.7303879190642],[-73.9855380041849,40.7300309513835],[-73.9853551918584,40.7299542436471],[-73.9839987809743,40.7293779450053]]]}},{"type":"Feature","properties":{"e":"66049"},"geometry":{"type":"Polygon","coordinates":[[[-73.9885394068368,40.7274098782292],[-73.9889862644513,40.7267871353838],[-73.989430586277,40.7261957230374],[-73.9915535205399,40.7271025969352],[-73.9913904280946,40.7275059609356],[-73.9913543343324,40.7275656583692],[-73.9912358402763,40.7277350651061],[-73.9910865144672,40.7279280369854],[-73.991053640871,40.7279758480517],[-73.9909837673189,40.728078608478],[-73.9907812713648,40.7283544312745],[-73.9902260356151,40.7281119230045],[-73.9892335506888,40.7276990598801],[-73.9891574845158,40.7276674166744],[-73.9885394068368,40.7274098782292]]]}},{"type":"Feature","properties":{"e":"66050"},"geometry":{"type":"Polygon","coordinates":[[[-73.9848590737732,40.7281850940829],[-73.9852952722676,40.7276010992341],[-73.9857398624211,40.7269828202295],[-73.986165023666,40.7264064916719],[-73.9885394068368,40.7274098782292],[-73.9881204754484,40.7279850050661],[-73.9876730590302,40.7286033649099],[-73.9872512205902,40.7291944214706],[-73.9848590737732,40.7281850940829]]]}},{"type":"Feature","properties":{"e":"66051"},"geometry":{"type":"Polygon","coordinates":[[[-73.986165023666,40.7264064916719],[-73.986604662689,40.7257863366911],[-73.987045434963,40.7251995611468],[-73.9874924906847,40.7245820224556],[-73.9898710080001,40.725590431009],[-73.989430586277,40.7261957230374],[-73.9889862644513,40.7267871353838],[-73.9885394068368,40.7274098782292],[-73.986165023666,40.7264064916719]]]}},{"type":"Feature","properties":{"e":"66052"},"geometry":{"type":"Polygon","coordinates":[[[-73.989430586277,40.7261957230374],[-73.9898710080001,40.725590431009],[-73.9901327849607,40.7252142029756],[-73.9901552555851,40.7251818139427],[-73.9903431026349,40.7249403938541],[-73.9908204686642,40.7242825572601],[-73.9909963355548,40.7240173340941],[-73.9910260223008,40.7237435824603],[-73.991025548986,40.7236576917928],[-73.9912745160805,40.7237380725014],[-73.9913561724924,40.7237628786488],[-73.9922000574299,40.7240208677612],[-73.9925334341513,40.7241228256902],[-73.9926046675516,40.7241447087758],[-73.99258131887,40.7242098140292],[-73.9923291244529,40.7249143566449],[-73.9922166109785,40.7252408549889],[-73.9920625302595,40.7256528737412],[-73.9917954069788,40.7264000549242],[-73.9916399788529,40.726841515932],[-73.9915690740293,40.7270429068127],[-73.9915535205399,40.7271025969352],[-73.989430586277,40.7261957230374]]]}},{"type":"Feature","properties":{"e":"66053"},"geometry":{"type":"Polygon","coordinates":[[[-73.9874924906847,40.7245820224556],[-73.9879720126845,40.7239231444627],[-73.9881333443841,40.7236933634163],[-73.9881735482867,40.7236361008767],[-73.9884319243401,40.7232680973019],[-73.9885964586427,40.7230052377478],[-73.9886400720519,40.7229419787569],[-73.9887582762104,40.72297862511],[-73.9893936255183,40.7231823180141],[-73.9902750605968,40.7234342773281],[-73.991025548986,40.7236576917928],[-73.9910260223008,40.7237435824603],[-73.9909963355548,40.7240173340941],[-73.9908204686642,40.7242825572601],[-73.9903431026349,40.7249403938541],[-73.9901552555851,40.7251818139427],[-73.9901327849607,40.7252142029756],[-73.9898710080001,40.725590431009],[-73.9874924906847,40.7245820224556]]]}},{"type":"Feature","properties":{"e":"66054"},"geometry":{"type":"Polygon","coordinates":[[[-74.0001242146734,40.7304396487189],[-73.9995222073516,40.7301429077736],[-73.9993676790542,40.7300667373759],[-73.9986064879002,40.7296935695297],[-73.9996789183424,40.7284309281181],[-74.0004364437311,40.7288028658417],[-74.0011917522998,40.7291755978553],[-74.0022048208511,40.7296615156319],[-74.0021580412347,40.7297650503118],[-74.0016861036755,40.7305898228261],[-74.0014138728948,40.7310735166321],[-74.0001242146734,40.7304396487189]]]}},{"type":"Feature","properties":{"e":"66055"},"geometry":{"type":"Polygon","coordinates":[[[-73.997887303839,40.7293187028781],[-73.9989563333238,40.7280761322334],[-73.9981706410526,40.7276889581289],[-73.999067137248,40.7266136081159],[-73.9991196943153,40.726550572425],[-73.9999172395902,40.7269429728185],[-74.0006338395739,40.7272948720886],[-74.0005912744244,40.727345516298],[-73.9996789183424,40.7284309281181],[-73.9986064879002,40.7296935695297],[-73.997887303839,40.7293187028781]]]}},{"type":"Feature","properties":{"e":"66056"},"geometry":{"type":"Polygon","coordinates":[[[-73.9963464745652,40.7285589498223],[-73.9968869218198,40.7279224319426],[-73.9974053637747,40.7273118280237],[-73.9983122255889,40.7262355658519],[-73.9983626399406,40.7261757275513],[-73.9991196943153,40.726550572425],[-73.999067137248,40.7266136081159],[-73.9981706410526,40.7276889581289],[-73.9989563333238,40.7280761322334],[-73.997887303839,40.7293187028781],[-73.9971193709245,40.7289340613591],[-73.9963464745652,40.7285589498223]]]}},{"type":"Feature","properties":{"e":"66057"},"geometry":{"type":"Polygon","coordinates":[[[-73.9947523756423,40.7278270356822],[-73.9952710850252,40.7272196203625],[-73.9958449733101,40.726534904161],[-73.9961889273372,40.7261292716119],[-73.9964199766811,40.7258567878001],[-73.9967221134842,40.7255004629639],[-73.996773204095,40.7254402027026],[-73.9976116425287,40.7258053978445],[-73.9983626399406,40.7261757275513],[-73.9983122255889,40.7262355658519],[-73.9974053637747,40.7273118280237],[-73.9968869218198,40.7279224319426],[-73.9963464745652,40.7285589498223],[-73.995594111386,40.7282017099636],[-73.9947523756423,40.7278270356822]]]}},{"type":"Feature","properties":{"e":"66058"},"geometry":{"type":"Polygon","coordinates":[[[-73.9915535205399,40.7271025969352],[-73.9915690740293,40.7270429068127],[-73.9916399788529,40.726841515932],[-73.9917954069788,40.7264000549242],[-73.9920625302595,40.7256528737412],[-73.9922166109785,40.7252408549889],[-73.9923291244529,40.7249143566449],[-73.99258131887,40.7242098140292],[-73.9926046675516,40.7241447087758],[-73.9926732693947,40.7241685135167],[-73.9934591361791,40.7244411548038],[-73.9941807503002,40.7247006664602],[-73.994909719584,40.7249594888932],[-73.9953305252114,40.7250919994137],[-73.9958472215957,40.725216613173],[-73.996773204095,40.7254402027026],[-73.9967221134842,40.7255004629639],[-73.9964199766811,40.7258567878001],[-73.9961889273372,40.7261292716119],[-73.9958449733101,40.726534904161],[-73.9952710850252,40.7272196203625],[-73.9947523756423,40.7278270356822],[-73.9942542306295,40.7284207176513],[-73.9931480153312,40.7278754617836],[-73.9915535205399,40.7271025969352]]]}},{"type":"Feature","properties":{"e":"66059"},"geometry":{"type":"Polygon","coordinates":[[[-73.9991196943153,40.726550572425],[-73.9983626399406,40.7261757275513],[-73.9976116425287,40.7258053978445],[-73.996773204095,40.7254402027026],[-73.9968444056732,40.7253560970508],[-73.9977865352142,40.7242431531806],[-73.9988131686273,40.7230296678473],[-73.9996110614223,40.7234309136206],[-74.0003690147003,40.7238034991984],[-73.9993464564909,40.7250157642982],[-74.0001022716185,40.7253898743575],[-74.0008991461773,40.7257813667188],[-74.0015979838801,40.7261271359086],[-74.0006883488963,40.7272254694957],[-74.0006338395739,40.7272948720886],[-73.9999172395902,40.7269429728185],[-73.9991196943153,40.726550572425]]]}},{"type":"Feature","properties":{"e":"66060"},"geometry":{"type":"Polygon","coordinates":[[[-73.994909719584,40.7249594888932],[-73.9949532260944,40.7248730962708],[-73.9953527896099,40.7240797280827],[-73.9957062356785,40.7233742834683],[-73.9962696051422,40.7219602050597],[-73.9971241428175,40.7223090142949],[-73.9974005970898,40.7214574188521],[-73.9976562635654,40.7208441676574],[-73.998196813652,40.7210719260618],[-73.9990330982507,40.7214296006417],[-73.9998547514281,40.7218000460462],[-74.000657853825,40.722191316292],[-73.9996110614223,40.7234309136206],[-73.9988131686273,40.7230296678473],[-73.9977865352142,40.7242431531806],[-73.9968444056732,40.7253560970508],[-73.996773204095,40.7254402027026],[-73.9958472215957,40.725216613173],[-73.9953305252114,40.7250919994137],[-73.994909719584,40.7249594888932]]]}},{"type":"Feature","properties":{"e":"66061"},"geometry":{"type":"Polygon","coordinates":[[[-73.9996110614223,40.7234309136206],[-74.000657853825,40.722191316292],[-74.0014052176099,40.7225638951712],[-74.0020262537862,40.7228655113246],[-74.0021748648346,40.7229376853406],[-74.0029829187284,40.7233166727382],[-74.0038307382004,40.7234575783456],[-74.0036369067478,40.7236902853279],[-74.0026204816874,40.7248882954987],[-74.0015979838801,40.7261271359086],[-74.0008991461773,40.7257813667188],[-74.0001022716185,40.7253898743575],[-73.9993464564909,40.7250157642982],[-74.0003690147003,40.7238034991984],[-73.9996110614223,40.7234309136206]]]}},{"type":"Feature","properties":{"e":"66062"},"geometry":{"type":"Polygon","coordinates":[[[-74.0049775773303,40.7157681969126],[-74.0054209325747,40.7152443139539],[-74.0058899459505,40.7146855419601],[-74.0063111446861,40.7141740832766],[-74.0067833976814,40.7136144087704],[-74.0070253545762,40.7133032892781],[-74.0072259522278,40.713063529488],[-74.008833410754,40.713804203888],[-74.0083883581496,40.7143705502068],[-74.0079408834023,40.714935229376],[-74.0077433964978,40.7151877087885],[-74.0075452084938,40.7154410814882],[-74.0070987375788,40.7160065230026],[-74.0066756418216,40.7165403346533],[-74.006168332125,40.7163096345093],[-74.0049775773303,40.7157681969126]]]}},{"type":"Feature","properties":{"e":"66063"},"geometry":{"type":"Polygon","coordinates":[[[-74.0057787467021,40.7176849050198],[-74.004027474318,40.7168792754553],[-74.0033052397983,40.7165255871829],[-74.0025595080662,40.7161890310496],[-74.0028086827034,40.7158944497456],[-74.0030309423452,40.7155933229907],[-74.0045349493515,40.7162881701981],[-74.0049775773303,40.7157681969126],[-74.006168332125,40.7163096345093],[-74.0066756418216,40.7165403346533],[-74.0079584835417,40.7171305644675],[-74.0075373888778,40.7176694941651],[-74.0072680229267,40.7180012959718],[-74.0070534124537,40.7182772971226],[-74.0057787467021,40.7176849050198]]]}},{"type":"Feature","properties":{"e":"66064"},"geometry":{"type":"Polygon","coordinates":[[[-74.0018855106859,40.7194058281261],[-74.0020930643283,40.7191616506322],[-74.0025394349734,40.7186351412435],[-74.0030467824315,40.718034074169],[-74.0033903981467,40.7176274848501],[-74.0035362544748,40.7174552105479],[-74.004027474318,40.7168792754553],[-74.0057787467021,40.7176849050198],[-74.0053251465614,40.7182816038756],[-74.0065950614116,40.7188704362544],[-74.0064333984968,40.7190902506944],[-74.0069377872974,40.7191349132026],[-74.006809887517,40.7197857561097],[-74.006696011659,40.7204454668728],[-74.0065788718065,40.7211357471058],[-74.0065249613506,40.7214238686396],[-74.0064262643481,40.7218136229445],[-74.0063203247032,40.7224357152436],[-74.0062998663028,40.7225577619689],[-74.0059143478251,40.7222612074213],[-74.005311310135,40.7218324500066],[-74.0052286105496,40.7217523607411],[-74.0046366110371,40.7213618913657],[-74.0039307319291,40.7208626931124],[-74.0035133125756,40.7205646104001],[-74.003260999243,40.7203853537403],[-74.0026014669496,40.7199116837402],[-74.0018855106859,40.7194058281261]]]}},{"type":"Feature","properties":{"e":"66065"},"geometry":{"type":"Polygon","coordinates":[[[-74.0047871977206,40.7236330961608],[-74.0038307382004,40.7234575783456],[-74.0029829187284,40.7233166727382],[-74.0021748648346,40.7229376853406],[-74.0020262537862,40.7228655113246],[-74.0014052176099,40.7225638951712],[-74.000657853825,40.722191316292],[-73.9998547514281,40.7218000460462],[-73.9990330982507,40.7214296006417],[-73.9994080932609,40.7209862977547],[-73.9996043706437,40.7207542654094],[-73.9998694305225,40.7204409159691],[-74.000623717356,40.7195607110925],[-74.0014259575731,40.7199454561261],[-74.0015253848621,40.719828998066],[-74.0018855106859,40.7194058281261],[-74.0026014669496,40.7199116837402],[-74.003260999243,40.7203853537403],[-74.0035133125756,40.7205646104001],[-74.0039307319291,40.7208626931124],[-74.0046366110371,40.7213618913657],[-74.0052286105496,40.7217523607411],[-74.005311310135,40.7218324500066],[-74.0059143478251,40.7222612074213],[-74.0062998663028,40.7225577619689],[-74.0062343234683,40.7231289036685],[-74.0061181724576,40.723753989759],[-74.0047871977206,40.7236330961608]]]}},{"type":"Feature","properties":{"e":"66066"},"geometry":{"type":"Polygon","coordinates":[[[-74.0061181724576,40.723753989759],[-74.0062343234683,40.7231289036685],[-74.0062998663028,40.7225577619689],[-74.0063203247032,40.7224357152436],[-74.0064262643481,40.7218136229445],[-74.0066479824962,40.7218222661252],[-74.0068606132042,40.7218337015901],[-74.0071260941029,40.7218631091946],[-74.0082335043498,40.7219747465235],[-74.0090588706487,40.7220652598928],[-74.0091822900365,40.7214082381624],[-74.0099205675569,40.7214707173352],[-74.0100719025666,40.7207638315166],[-74.010836525423,40.7208564509737],[-74.0118777337059,40.720960545901],[-74.0120296151113,40.7209757316793],[-74.0121696810086,40.720326763617],[-74.01233956248,40.7195417876436],[-74.0124425437393,40.7190659301046],[-74.0125561399615,40.7190781204255],[-74.0127031304412,40.7191000327255],[-74.0130321324084,40.7191397132141],[-74.0130131791387,40.7192272265291],[-74.0129566942292,40.719497710865],[-74.012958946821,40.7195084212729],[-74.0129103787819,40.7197431092239],[-74.0134565076524,40.7198099649376],[-74.0134152164493,40.7200277395697],[-74.0139959737061,40.7200939070147],[-74.0140014511556,40.7200754412058],[-74.0142660715882,40.7201034041241],[-74.014268418315,40.7200950646824],[-74.0155750929917,40.7202515519884],[-74.0155750954976,40.7202622730351],[-74.0157152367722,40.7202789327922],[-74.0157144617318,40.7203116932723],[-74.0163799352063,40.7203848663523],[-74.0163071857178,40.7207352776307],[-74.014498654827,40.7205219788775],[-74.0135206427008,40.7204034441836],[-74.0130012579978,40.7203413483816],[-74.0128987539154,40.7208763037158],[-74.0156961718557,40.7212146825833],[-74.0156239099396,40.7215517114503],[-74.0131621180472,40.7212622210009],[-74.0131180844336,40.7214819923816],[-74.0132552521172,40.7214981778504],[-74.0132633907508,40.7214800697785],[-74.0136366878872,40.7215248189755],[-74.0136170348303,40.7215944404148],[-74.0135627317737,40.7215888717013],[-74.0135625423954,40.7215801516185],[-74.0132571025475,40.721552114399],[-74.0132594479105,40.7215360308858],[-74.0131138244669,40.7215181781538],[-74.0131052204638,40.7215628533383],[-74.012540209203,40.7215114344533],[-74.0124931614474,40.7217880157602],[-74.0123721682841,40.722395838635],[-74.0122322595274,40.7230645152647],[-74.0120960894178,40.7237153108054],[-74.0119657722698,40.7243381231931],[-74.0115926771463,40.724305862718],[-74.0114407806759,40.7242927272332],[-74.0113557342016,40.7242854417077],[-74.0112716870067,40.7247076361014],[-74.0112447661314,40.7248428674817],[-74.0111781119677,40.7251776838347],[-74.0110576469984,40.7251566695259],[-74.0100714620057,40.7250526058238],[-74.0097329739048,40.72499863019],[-74.0093190547438,40.7247098100056],[-74.0086452557122,40.7242295760014],[-74.0085723598194,40.7241776138209],[-74.0083036125717,40.723986067529],[-74.0080798027379,40.7238351217551],[-74.0079135102118,40.7237080257372],[-74.007727179831,40.7238922474602],[-74.0074762726879,40.7239046817839],[-74.0061181724576,40.723753989759]]]}},{"type":"Feature","properties":{"e":"66067"},"geometry":{"type":"Polygon","coordinates":[[[-74.0111199005088,40.7156016538372],[-74.010824026674,40.7154703776128],[-74.0107298262808,40.7154278804934],[-74.0105147603584,40.7153308560067],[-74.0101246435009,40.7151542046752],[-74.0096912027838,40.7149592503393],[-74.0083883581496,40.7143705502068],[-74.008833410754,40.713804203888],[-74.0092561277482,40.7132640630131],[-74.0096695723272,40.7127328263913],[-74.0101231251457,40.7120929525058],[-74.0116805794742,40.7127888037932],[-74.011788691734,40.7128390042968],[-74.0125483748296,40.7131751134617],[-74.013086108985,40.7134154524593],[-74.013725602185,40.7136865659614],[-74.013440426292,40.7144386754233],[-74.0132567955288,40.7150728112016],[-74.0132195674893,40.7152164730218],[-74.0131038187112,40.7156274033697],[-74.0130264178202,40.715960392871],[-74.0129227290292,40.7164064733009],[-74.0118274025867,40.7159306621559],[-74.0115286907358,40.7157917536699],[-74.0114470219891,40.7157537754247],[-74.0111199005088,40.7156016538372]]]}},{"type":"Feature","properties":{"e":"66068"},"geometry":{"type":"Polygon","coordinates":[[[-74.0064262643481,40.7218136229445],[-74.0065249613506,40.7214238686396],[-74.0065788718065,40.7211357471058],[-74.006696011659,40.7204454668728],[-74.006809887517,40.7197857561097],[-74.0069377872974,40.7191349132026],[-74.008700823496,40.7193043339489],[-74.0102949838556,40.7194592417986],[-74.0103146511276,40.7193407751017],[-74.0121844969977,40.7195320887778],[-74.01233956248,40.7195417876436],[-74.0121696810086,40.720326763617],[-74.0120296151113,40.7209757316793],[-74.0118777337059,40.720960545901],[-74.010836525423,40.7208564509737],[-74.0100719025666,40.7207638315166],[-74.0099205675569,40.7214707173352],[-74.0091822900365,40.7214082381624],[-74.0090588706487,40.7220652598928],[-74.0082335043498,40.7219747465235],[-74.0071260941029,40.7218631091946],[-74.0068606132042,40.7218337015901],[-74.0066479824962,40.7218222661252],[-74.0064262643481,40.7218136229445]]]}},{"type":"Feature","properties":{"e":"66069"},"geometry":{"type":"Polygon","coordinates":[[[-74.0069377872974,40.7191349132026],[-74.0064333984968,40.7190902506944],[-74.0065950614116,40.7188704362544],[-74.0053251465614,40.7182816038756],[-74.0057787467021,40.7176849050198],[-74.0070534124537,40.7182772971226],[-74.0072680229267,40.7180012959718],[-74.0075373888778,40.7176694941651],[-74.0079584835417,40.7171305644675],[-74.0083797619246,40.7165957491458],[-74.0088247333757,40.7160220806008],[-74.0092068512797,40.7161962101486],[-74.0108350477024,40.7169335324126],[-74.0106943438057,40.7174782192437],[-74.0105276741477,40.7181228376892],[-74.0104027175433,40.7188102885265],[-74.0103146511276,40.7193407751017],[-74.0102949838556,40.7194592417986],[-74.008700823496,40.7193043339489],[-74.0069377872974,40.7191349132026]]]}},{"type":"Feature","properties":{"e":"66070"},"geometry":{"type":"Polygon","coordinates":[[[-74.0103146511276,40.7193407751017],[-74.0104027175433,40.7188102885265],[-74.0105276741477,40.7181228376892],[-74.0106943438057,40.7174782192437],[-74.0108350477024,40.7169335324126],[-74.0109685874609,40.7163112578035],[-74.0111199005088,40.7156016538372],[-74.0114470219891,40.7157537754247],[-74.0115286907358,40.7157917536699],[-74.0118274025867,40.7159306621559],[-74.0129227290292,40.7164064733009],[-74.0127321203248,40.71712188621],[-74.0126895126806,40.717306352103],[-74.0123268883216,40.7188807107804],[-74.0122931110749,40.7190472056012],[-74.0124425437393,40.7190659301046],[-74.01233956248,40.7195417876436],[-74.0121844969977,40.7195320887778],[-74.0103146511276,40.7193407751017]]]}},{"type":"Feature","properties":{"e":"66071"},"geometry":{"type":"Polygon","coordinates":[[[-74.0066756418216,40.7165403346533],[-74.0070987375788,40.7160065230026],[-74.0075452084938,40.7154410814882],[-74.0077433964978,40.7151877087885],[-74.0079408834023,40.714935229376],[-74.0083883581496,40.7143705502068],[-74.0096912027838,40.7149592503393],[-74.0101246435009,40.7151542046752],[-74.0105147603584,40.7153308560067],[-74.0107298262808,40.7154278804934],[-74.010824026674,40.7154703776128],[-74.0111199005088,40.7156016538372],[-74.0109685874609,40.7163112578035],[-74.0108350477024,40.7169335324126],[-74.0092068512797,40.7161962101486],[-74.0088247333757,40.7160220806008],[-74.0083797619246,40.7165957491458],[-74.0079584835417,40.7171305644675],[-74.0066756418216,40.7165403346533]]]}},{"type":"Feature","properties":{"e":"66072"},"geometry":{"type":"Polygon","coordinates":[[[-74.0030309423452,40.7155933229907],[-74.0031826362323,40.7147148074359],[-74.003405066123,40.7141587722208],[-74.0036042517657,40.7136536870773],[-74.0040604559455,40.7131430467902],[-74.0042155016234,40.712988999644],[-74.0042925868841,40.7129160821782],[-74.0047079715778,40.7125822715725],[-74.0048591289997,40.7124607974901],[-74.0047689932657,40.7123893364194],[-74.0046049065352,40.7122610902913],[-74.0042743622676,40.7119971742931],[-74.0042305181802,40.7120337460555],[-74.0040085114241,40.7118596713234],[-74.0039727077829,40.7118306268988],[-74.0039383049217,40.7118069111143],[-74.0037324155703,40.7116649857374],[-74.0035323876249,40.7115006252609],[-74.0034627557812,40.7114426898318],[-74.0032754072088,40.7112926259484],[-74.0033332948986,40.7112503396256],[-74.0033775401976,40.7112158947776],[-74.0034382824957,40.7111770974032],[-74.0035928091032,40.7110455383925],[-74.0036159907126,40.7110166045746],[-74.0036438459096,40.7109818440137],[-74.0036595824668,40.7109213468209],[-74.0036840151474,40.7108517021856],[-74.0037129374928,40.7107830605958],[-74.0037462789213,40.710715589531],[-74.0037839580695,40.7106494536146],[-74.0038258830883,40.7105848144319],[-74.0038719515618,40.7105218294794],[-74.0039220510764,40.7104606524333],[-74.0039760593845,40.7104014325582],[-74.0042544466491,40.7101744966551],[-74.0050950947565,40.7109856222496],[-74.0053291394083,40.7112008614368],[-74.0054514544109,40.7113133470918],[-74.0058519450869,40.7116859460542],[-74.0060151569328,40.7118621442313],[-74.0060369154195,40.7119144450262],[-74.0060706243679,40.7120166846545],[-74.0061507839951,40.7119975977307],[-74.007019448434,40.7117922094873],[-74.0069872899502,40.7117457546944],[-74.0069530836337,40.7116954815726],[-74.0074689432597,40.7115751588148],[-74.0079693268517,40.7114555881851],[-74.0083490596241,40.7113668015902],[-74.0086023032899,40.711400495743],[-74.0090640972839,40.7108949595387],[-74.0096974897065,40.7111875007451],[-74.0104667889477,40.7115428032429],[-74.0101231251457,40.7120929525058],[-74.0096695723272,40.7127328263913],[-74.0092561277482,40.7132640630131],[-74.008833410754,40.713804203888],[-74.0072259522278,40.713063529488],[-74.0070253545762,40.7133032892781],[-74.0067833976814,40.7136144087704],[-74.0063111446861,40.7141740832766],[-74.0058899459505,40.7146855419601],[-74.0054209325747,40.7152443139539],[-74.0049775773303,40.7157681969126],[-74.0045349493515,40.7162881701981],[-74.0030309423452,40.7155933229907]]]}},{"type":"Feature","properties":{"e":"66073"},"geometry":{"type":"Polygon","coordinates":[[[-73.9890170380318,40.7365684164714],[-73.9892109846439,40.7363153827338],[-73.989456165872,40.7359955087933],[-73.9898756584237,40.7354165203134],[-73.9898634340885,40.7353343610678],[-73.9899718789413,40.7353791529019],[-73.9899992773459,40.7353406747638],[-73.9900287786615,40.7353031070513],[-73.9900603306943,40.7352665162249],[-73.9900938776232,40.7352309670166],[-73.9901293599906,40.7351965219629],[-73.9901667151496,40.7351632423485],[-73.9902058770134,40.7351311870472],[-73.9902467762997,40.7351004127671],[-73.9903665664026,40.7350289399302],[-73.9904915454795,40.7349628078738],[-73.990621303619,40.7349022330652],[-73.9907554131296,40.7348474158275],[-73.9912004391263,40.7350206298557],[-73.9917164330276,40.735223562463],[-73.9912122045098,40.7358964481418],[-73.9907538453569,40.7365391665747],[-73.9903321477519,40.7371401220348],[-73.989080772275,40.7365995792684],[-73.9890170380318,40.7365684164714]]]}}]}