{"type":"FeatureCollection","ad":67,"features":[{"type":"Feature","properties":{"e":"67001"},"geometry":{"type":"Polygon","coordinates":[[[-73.9731880096232,40.7927293187281],[-73.9736505246959,40.7921023997855],[-73.973894508568,40.7917669837918],[-73.9740188733812,40.7915960129922],[-73.974106179015,40.7914759885055],[-73.9745665996245,40.7908498652299],[-73.9746760556368,40.7908947595917],[-73.9759905878206,40.7914464008756],[-73.9755406832903,40.7920790157347],[-73.9753737912183,40.792303788979],[-73.975076141316,40.7927046654488],[-73.9746170392222,40.7933330784251],[-73.9732952590959,40.7927742637968],[-73.9731880096232,40.7927293187281]]]}},{"type":"Feature","properties":{"e":"67002"},"geometry":{"type":"Polygon","coordinates":[[[-73.972234114919,40.7915064760545],[-73.9726911649286,40.7908790083676],[-73.9731491541673,40.7902514309739],[-73.9740587682478,40.7906364528759],[-73.9740864354477,40.7906481637446],[-73.9744625167036,40.7908073471254],[-73.9745665996245,40.7908498652299],[-73.974106179015,40.7914759885055],[-73.9740188733812,40.7915960129922],[-73.973894508568,40.7917669837918],[-73.9736505246959,40.7921023997855],[-73.9735461921742,40.7920588449974],[-73.972234114919,40.7915064760545]]]}},{"type":"Feature","properties":{"e":"67003"},"geometry":{"type":"Polygon","coordinates":[[[-73.9759905878206,40.7914464008756],[-73.9746760556368,40.7908947595917],[-73.9745665996245,40.7908498652299],[-73.9750234818242,40.790220119406],[-73.9751278604249,40.790262645783],[-73.9754510162965,40.7903982916418],[-73.9755528255029,40.7904410263243],[-73.975727676883,40.7905144200168],[-73.9759910289574,40.7906276936765],[-73.976450480059,40.7908219979868],[-73.978671430026,40.7917603467731],[-73.9776927258272,40.7921716549111],[-73.9775627496306,40.7921162750416],[-73.976803550433,40.7917873185823],[-73.9759905878206,40.7914464008756]]]}},{"type":"Feature","properties":{"e":"67004"},"geometry":{"type":"Polygon","coordinates":[[[-73.9750234818242,40.790220119406],[-73.9754783760564,40.789591522521],[-73.9755797210499,40.7896345886189],[-73.9762477859991,40.7899168871372],[-73.9763771191779,40.7899715378007],[-73.9769052582352,40.7901947025384],[-73.9791512857568,40.7911487739489],[-73.9793968555792,40.7912530827143],[-73.979284494444,40.7913773149414],[-73.9792844468161,40.7913773682058],[-73.9791533321609,40.7914923115172],[-73.9791532728532,40.7914923559006],[-73.9791532012015,40.7914924014545],[-73.9790054072317,40.7915957521918],[-73.9788436949321,40.7916855571206],[-73.978671430026,40.7917603467731],[-73.976450480059,40.7908219979868],[-73.9759910289574,40.7906276936765],[-73.975727676883,40.7905144200168],[-73.9755528255029,40.7904410263243],[-73.9754510162965,40.7903982916418],[-73.9751278604249,40.790262645783],[-73.9750234818242,40.790220119406]]]}},{"type":"Feature","properties":{"e":"67005"},"geometry":{"type":"Polygon","coordinates":[[[-73.9731491541673,40.7902514309739],[-73.9736083079266,40.78962305103],[-73.9738529070454,40.7892878822373],[-73.9739212536126,40.7891942282049],[-73.9740651655189,40.78899702643],[-73.9745242671463,40.7883675174399],[-73.9758370830689,40.78892185128],[-73.9759427743103,40.7889673030301],[-73.9754783760564,40.789591522521],[-73.9750234818242,40.790220119406],[-73.9745665996245,40.7908498652299],[-73.9744625167036,40.7908073471254],[-73.9740864354477,40.7906481637446],[-73.9740587682478,40.7906364528759],[-73.9731491541673,40.7902514309739]]]}},{"type":"Feature","properties":{"e":"67006"},"geometry":{"type":"Polygon","coordinates":[[[-73.9875781850727,40.7653724489819],[-73.9880342007181,40.7647454673757],[-73.9884973637121,40.764121144428],[-73.9913340927414,40.7653175376065],[-73.9908774417465,40.7659424883539],[-73.9904231269644,40.7665695261391],[-73.9875781850727,40.7653724489819]]]}},{"type":"Feature","properties":{"e":"67007"},"geometry":{"type":"Polygon","coordinates":[[[-73.9754783760564,40.789591522521],[-73.9759427743103,40.7889673030301],[-73.9764998710777,40.788323819905],[-73.9766028442511,40.7883664319533],[-73.9772486782912,40.7886332197782],[-73.9778579435787,40.7888898122604],[-73.9773618881786,40.7895660452954],[-73.979863908728,40.790622428167],[-73.9793968555792,40.7912530827143],[-73.9791512857568,40.7911487739489],[-73.9769052582352,40.7901947025384],[-73.9763771191779,40.7899715378007],[-73.9762477859991,40.7899168871372],[-73.9755797210499,40.7896345886189],[-73.9754783760564,40.789591522521]]]}},{"type":"Feature","properties":{"e":"67008"},"geometry":{"type":"Polygon","coordinates":[[[-73.9778579435787,40.7888898122604],[-73.9789501575737,40.7893524751295],[-73.9791017581615,40.7894166926582],[-73.9791619129663,40.7894421735705],[-73.9792008758388,40.7894586786522],[-73.9803580385296,40.7899488305441],[-73.979863908728,40.790622428167],[-73.9773618881786,40.7895660452954],[-73.9778579435787,40.7888898122604]]]}},{"type":"Feature","properties":{"e":"67009"},"geometry":{"type":"Polygon","coordinates":[[[-73.9745242671463,40.7883675174399],[-73.9750156152101,40.7876938782041],[-73.9755142298503,40.787010739837],[-73.9759773810406,40.78637725354],[-73.9774851421403,40.7870130239922],[-73.9775867925677,40.7870543317332],[-73.9770623715587,40.7876646775252],[-73.9768598889297,40.7879022124094],[-73.9768043345892,40.7879672705412],[-73.9764998710777,40.788323819905],[-73.9759427743103,40.7889673030301],[-73.9758370830689,40.78892185128],[-73.9745242671463,40.7883675174399]]]}},{"type":"Feature","properties":{"e":"67010"},"geometry":{"type":"Polygon","coordinates":[[[-73.9803580385296,40.7899488305441],[-73.9792008758388,40.7894586786522],[-73.9791619129663,40.7894421735705],[-73.9791017581615,40.7894166926582],[-73.9789501575737,40.7893524751295],[-73.9778579435787,40.7888898122604],[-73.9772486782912,40.7886332197782],[-73.9766028442511,40.7883664319533],[-73.9764998710777,40.788323819905],[-73.9768043345892,40.7879672705412],[-73.9768598889297,40.7879022124094],[-73.9770623715587,40.7876646775252],[-73.9771645800201,40.787706967778],[-73.9783582914717,40.7882091191445],[-73.980854116066,40.7892629571592],[-73.9809313226595,40.7891209794853],[-73.9809916240785,40.7889733431531],[-73.9810340348844,40.788821822788],[-73.9810580479204,40.7886683188994],[-73.9810635655643,40.7885147486407],[-73.9811441240334,40.7877024099329],[-73.9812299910173,40.7869245534797],[-73.9824557040645,40.7877670480534],[-73.9827429695615,40.7880129106822],[-73.9827976391238,40.7881364576231],[-73.9829071652087,40.788069738583],[-73.9834348512466,40.787955459077],[-73.9836738650614,40.7879036950586],[-73.9836966621614,40.7879235532033],[-73.9823480870861,40.7898630535926],[-73.9818879049689,40.7905248528955],[-73.9818612502056,40.7905113512051],[-73.981767176018,40.790463699254],[-73.9816947344354,40.7904270006079],[-73.9815960362316,40.7903923963143],[-73.9809729538061,40.7901691506708],[-73.9803580385296,40.7899488305441]]]}},{"type":"Feature","properties":{"e":"67011"},"geometry":{"type":"Polygon","coordinates":[[[-73.9770623715587,40.7876646775252],[-73.9775867925677,40.7870543317332],[-73.9776938556028,40.7871005030187],[-73.978816198645,40.7875750354102],[-73.9796623340668,40.787928846569],[-73.9796902914144,40.7879405370508],[-73.9797778119619,40.7879771330719],[-73.9798367424756,40.7880017734518],[-73.9810635655643,40.7885147486407],[-73.9810580479204,40.7886683188994],[-73.9810340348844,40.788821822788],[-73.9809916240785,40.7889733431531],[-73.9809313226595,40.7891209794853],[-73.980854116066,40.7892629571592],[-73.9783582914717,40.7882091191445],[-73.9771645800201,40.787706967778],[-73.9770623715587,40.7876646775252]]]}},{"type":"Feature","properties":{"e":"67012"},"geometry":{"type":"Polygon","coordinates":[[[-73.9775867925677,40.7870543317332],[-73.9774851421403,40.7870130239922],[-73.9759773810406,40.78637725354],[-73.976440926526,40.7857431713577],[-73.9779558316075,40.7863843306511],[-73.9780593406299,40.7864278977477],[-73.9781619619404,40.7864716195437],[-73.979289497682,40.7869493628311],[-73.9797935343909,40.7871540260457],[-73.9798802849288,40.7871892506649],[-73.9802292142026,40.7873299846422],[-73.9803986962257,40.7873997446151],[-73.9811441240334,40.7877024099329],[-73.9810635655643,40.7885147486407],[-73.9798367424756,40.7880017734518],[-73.9797778119619,40.7879771330719],[-73.9796902914144,40.7879405370508],[-73.9796623340668,40.787928846569],[-73.978816198645,40.7875750354102],[-73.9776938556028,40.7871005030187],[-73.9775867925677,40.7870543317332]]]}},{"type":"Feature","properties":{"e":"67013"},"geometry":{"type":"Polygon","coordinates":[[[-73.9780593406299,40.7864278977477],[-73.9785352827473,40.7857949086426],[-73.978634621239,40.7858376202386],[-73.9787910403098,40.7859034294227],[-73.9792727581252,40.7861060998033],[-73.9797451392731,40.7863048377213],[-73.9802050241893,40.7856688036662],[-73.9814492212959,40.7861922655067],[-73.9813734651973,40.7863314074559],[-73.9813733944093,40.7863315424698],[-73.9813733344236,40.7863316687741],[-73.9813129671399,40.7864757931889],[-73.9813129078076,40.7864759462973],[-73.9813128601519,40.7864761169978],[-73.9812686630886,40.7866237385829],[-73.9812685922723,40.7866239724366],[-73.9812685560622,40.7866241975846],[-73.9812409332588,40.7867739923047],[-73.9812409211214,40.7867740455757],[-73.9812409211063,40.7867740993513],[-73.9812299910173,40.7869245534797],[-73.9811441240334,40.7877024099329],[-73.9803986962257,40.7873997446151],[-73.9802292142026,40.7873299846422],[-73.9798802849288,40.7871892506649],[-73.9797935343909,40.7871540260457],[-73.979289497682,40.7869493628311],[-73.9781619619404,40.7864716195437],[-73.9780593406299,40.7864278977477]]]}},{"type":"Feature","properties":{"e":"67014"},"geometry":{"type":"Polygon","coordinates":[[[-73.9785352827473,40.7857949086426],[-73.9790030989147,40.7851638152656],[-73.9794718433712,40.7845312346486],[-73.9795721872525,40.7845743140122],[-73.9806673506671,40.7850353081428],[-73.9820057397004,40.7855995715166],[-73.9814492212959,40.7861922655067],[-73.9802050241893,40.7856688036662],[-73.9797451392731,40.7863048377213],[-73.9792727581252,40.7861060998033],[-73.9787910403098,40.7859034294227],[-73.978634621239,40.7858376202386],[-73.9785352827473,40.7857949086426]]]}},{"type":"Feature","properties":{"e":"67015"},"geometry":{"type":"Polygon","coordinates":[[[-73.9812299910173,40.7869245534797],[-73.9812409211063,40.7867740993513],[-73.9812409211214,40.7867740455757],[-73.9812409332588,40.7867739923047],[-73.9812685560622,40.7866241975846],[-73.9812685922723,40.7866239724366],[-73.9812686630886,40.7866237385829],[-73.9813128601519,40.7864761169978],[-73.9813129078076,40.7864759462973],[-73.9813129671399,40.7864757931889],[-73.9813733344236,40.7863316687741],[-73.9813733944093,40.7863315424698],[-73.9813734651973,40.7863314074559],[-73.9814492212959,40.7861922655067],[-73.9820057397004,40.7855995715166],[-73.9806673506671,40.7850353081428],[-73.9795721872525,40.7845743140122],[-73.9794718433712,40.7845312346486],[-73.9799883360256,40.783852472468],[-73.980091841486,40.7838984976974],[-73.9811668688993,40.7843620948672],[-73.9816630525685,40.7836688417967],[-73.9829633408367,40.7842188983766],[-73.9832984578542,40.7843606575638],[-73.9839021626483,40.7837824871998],[-73.9843379963267,40.7833221563831],[-73.9844536493624,40.7832000011914],[-73.9847803373642,40.7824911967397],[-73.9850732894429,40.7817879521138],[-73.9853709728192,40.7810866433595],[-73.9856808072747,40.7803209036686],[-73.9864899796563,40.7806441759103],[-73.9865452365754,40.780666251162],[-73.9870728218979,40.7809146519933],[-73.9873091752074,40.7810495737068],[-73.9873650871764,40.7810710755318],[-73.9874157736059,40.781095782022],[-73.9874636452881,40.7811168800224],[-73.9879950784663,40.7813510883041],[-73.9881289086357,40.7814100674057],[-73.9880427349996,40.781594231351],[-73.9881017407769,40.7816111488063],[-73.9880778960926,40.7816592055129],[-73.9880195069001,40.7816424593205],[-73.98796223976,40.7817792575704],[-73.9879211315009,40.7818417487683],[-73.9878787341485,40.7819003219002],[-73.9864762502581,40.7839248447295],[-73.9862533165558,40.7842470353271],[-73.9861151737412,40.784447183003],[-73.9856172503352,40.7851501338757],[-73.985467258307,40.7853689719042],[-73.9861741515717,40.786076723701],[-73.9864573090899,40.7859274904846],[-73.9870737924566,40.785197910059],[-73.9871204607999,40.7852185897428],[-73.9864992277269,40.7859594742952],[-73.9861660754132,40.7861301539014],[-73.9861298690883,40.7862472728084],[-73.9860725818039,40.7862489775062],[-73.9860287213585,40.7862372357156],[-73.986099084431,40.7860664971409],[-73.9854307675977,40.7854222135251],[-73.9850825839797,40.7859302065625],[-73.9852002795425,40.7859748236544],[-73.9851719486717,40.7860216056249],[-73.9852176649711,40.7860387732849],[-73.9852565442866,40.7859844769681],[-73.985244185679,40.785980843607],[-73.9852510756342,40.78597141131],[-73.9852832255021,40.7859868924061],[-73.98524147919,40.7860441296055],[-73.9856853317011,40.7862303954093],[-73.9857189754715,40.7861842661482],[-73.9857671067811,40.7862045463403],[-73.9856843183865,40.7863180577199],[-73.9856377173784,40.7862984216513],[-73.9856721690207,40.7862511834879],[-73.9856166840812,40.7862279172068],[-73.9852065650953,40.7860559406851],[-73.9852124819038,40.7860478263542],[-73.9851640862268,40.7860292707357],[-73.9851330825842,40.7860685684973],[-73.9850184102975,40.7860225091706],[-73.9849374244173,40.786138992149],[-73.9846565249786,40.7865430133948],[-73.9857452344003,40.7865783544103],[-73.9858937188214,40.7864348005418],[-73.9859443015509,40.786461119406],[-73.9859510081169,40.786495384996],[-73.9858138200506,40.7866251369194],[-73.9851366560087,40.7865958899733],[-73.9846208747241,40.786594287948],[-73.9836966621614,40.7879235532033],[-73.9836738650614,40.7879036950586],[-73.9834348512466,40.787955459077],[-73.9829071652087,40.788069738583],[-73.9827976391238,40.7881364576231],[-73.9827429695615,40.7880129106822],[-73.9824557040645,40.7877670480534],[-73.9812299910173,40.7869245534797]]]}},{"type":"Feature","properties":{"e":"67016"},"geometry":{"type":"Polygon","coordinates":[[[-73.9799883360256,40.783852472468],[-73.9798844262161,40.7838088438591],[-73.9783272355023,40.7831550046329],[-73.978824290345,40.7824732098174],[-73.9792863923057,40.7818472653274],[-73.9807116060761,40.7824387280125],[-73.9808120429196,40.7824814463143],[-73.9809152046244,40.782524895055],[-73.9821273308674,40.7830353668378],[-73.9816630525685,40.7836688417967],[-73.9811668688993,40.7843620948672],[-73.980091841486,40.7838984976974],[-73.9799883360256,40.783852472468]]]}},{"type":"Feature","properties":{"e":"67017"},"geometry":{"type":"Polygon","coordinates":[[[-73.9778276953276,40.7838390472918],[-73.9774114016948,40.7836631903661],[-73.9771175960815,40.7835390742253],[-73.9768816844536,40.7834394152583],[-73.9768176200552,40.7834123519109],[-73.9767507949942,40.7833841214922],[-73.9749865793605,40.7826388085528],[-73.97548176722,40.7819593866133],[-73.9783272355023,40.7831550046329],[-73.9798844262161,40.7838088438591],[-73.9799883360256,40.783852472468],[-73.9794718433712,40.7845312346486],[-73.9793721381933,40.7844900458345],[-73.9778276953276,40.7838390472918]]]}},{"type":"Feature","properties":{"e":"67018"},"geometry":{"type":"Polygon","coordinates":[[[-73.97548176722,40.7819593866133],[-73.9759951129276,40.7812813046211],[-73.9764181390732,40.7806588287993],[-73.9792863923057,40.7818472653274],[-73.978824290345,40.7824732098174],[-73.9783272355023,40.7831550046329],[-73.97548176722,40.7819593866133]]]}},{"type":"Feature","properties":{"e":"67019"},"geometry":{"type":"Polygon","coordinates":[[[-73.9717244979503,40.7820297476204],[-73.9735726170624,40.7794861322167],[-73.9740681248627,40.778813687168],[-73.9742943909653,40.7785062593321],[-73.9745337572808,40.7781760553311],[-73.9773699020252,40.7793725233993],[-73.9769045859504,40.7800056273714],[-73.9766646875748,40.7803369203205],[-73.9764181390732,40.7806588287993],[-73.9759951129276,40.7812813046211],[-73.97548176722,40.7819593866133],[-73.9749865793605,40.7826388085528],[-73.9745418985386,40.7832508090161],[-73.9717244979503,40.7820297476204]]]}},{"type":"Feature","properties":{"e":"67020"},"geometry":{"type":"Polygon","coordinates":[[[-73.9745337572808,40.7781760553311],[-73.9747556839139,40.777872962668],[-73.9750025621486,40.7775360500804],[-73.9754607676151,40.7769069927514],[-73.9762890592595,40.7772563428391],[-73.9769226989052,40.7775241925696],[-73.9782938867343,40.7781037939993],[-73.9778344598783,40.7787389928338],[-73.9773699020252,40.7793725233993],[-73.9745337572808,40.7781760553311]]]}},{"type":"Feature","properties":{"e":"67021"},"geometry":{"type":"Polygon","coordinates":[[[-73.9754607676151,40.7769069927514],[-73.9759566163454,40.7762280250031],[-73.9767895188664,40.7765764085509],[-73.9774318532782,40.776845075288],[-73.97880049216,40.7774212034798],[-73.9782938867343,40.7781037939993],[-73.9769226989052,40.7775241925696],[-73.9762890592595,40.7772563428391],[-73.9754607676151,40.7769069927514]]]}},{"type":"Feature","properties":{"e":"67022"},"geometry":{"type":"Polygon","coordinates":[[[-73.9759566163454,40.7762280250031],[-73.9764592168522,40.7755408074767],[-73.977202138069,40.7758555757745],[-73.9775428230706,40.7759999774456],[-73.9792881491059,40.776733028997],[-73.97880049216,40.7774212034798],[-73.9774318532782,40.776845075288],[-73.9767895188664,40.7765764085509],[-73.9759566163454,40.7762280250031]]]}},{"type":"Feature","properties":{"e":"67023"},"geometry":{"type":"Polygon","coordinates":[[[-73.9764592168522,40.7755408074767],[-73.9769131258851,40.7749173936113],[-73.9797471030326,40.7761198000898],[-73.9792881491059,40.776733028997],[-73.9775428230706,40.7759999774456],[-73.977202138069,40.7758555757745],[-73.9764592168522,40.7755408074767]]]}},{"type":"Feature","properties":{"e":"67024"},"geometry":{"type":"Polygon","coordinates":[[[-73.9816630525685,40.7836688417967],[-73.9821273308674,40.7830353668378],[-73.9809152046244,40.782524895055],[-73.9808120429196,40.7824814463143],[-73.9810649058677,40.7817589969005],[-73.9811696653041,40.7818033283719],[-73.9825914460227,40.7824011784434],[-73.9830321693788,40.7825902390427],[-73.9833971514731,40.7827468057477],[-73.983616560479,40.7828409243916],[-73.9844536493624,40.7832000011914],[-73.9843379963267,40.7833221563831],[-73.9839021626483,40.7837824871998],[-73.9832984578542,40.7843606575638],[-73.9829633408367,40.7842188983766],[-73.9816630525685,40.7836688417967]]]}},{"type":"Feature","properties":{"e":"67025"},"geometry":{"type":"Polygon","coordinates":[[[-73.9792863923057,40.7818472653274],[-73.9764181390732,40.7806588287993],[-73.9766646875748,40.7803369203205],[-73.9769045859504,40.7800056273714],[-73.9797493209467,40.7812036148231],[-73.9802118111563,40.780568687379],[-73.9812016685346,40.7809872446916],[-73.9813123615409,40.7810336564987],[-73.9810649058677,40.7817589969005],[-73.9808120429196,40.7824814463143],[-73.9807116060761,40.7824387280125],[-73.9792863923057,40.7818472653274]]]}},{"type":"Feature","properties":{"e":"67026"},"geometry":{"type":"Polygon","coordinates":[[[-73.9769045859504,40.7800056273714],[-73.9773699020252,40.7793725233993],[-73.9778344598783,40.7787389928338],[-73.9792628098384,40.7793396379754],[-73.9794496029018,40.7794181802084],[-73.9806750985811,40.779933452921],[-73.9802118111563,40.780568687379],[-73.9797493209467,40.7812036148231],[-73.9769045859504,40.7800056273714]]]}},{"type":"Feature","properties":{"e":"67027"},"geometry":{"type":"Polygon","coordinates":[[[-73.9778344598783,40.7787389928338],[-73.9782938867343,40.7781037939993],[-73.9811353748716,40.7792998557864],[-73.9806750985811,40.779933452921],[-73.9794496029018,40.7794181802084],[-73.9792628098384,40.7793396379754],[-73.9778344598783,40.7787389928338]]]}},{"type":"Feature","properties":{"e":"67028"},"geometry":{"type":"Polygon","coordinates":[[[-73.9802118111563,40.780568687379],[-73.9806750985811,40.779933452921],[-73.9811353748716,40.7792998557864],[-73.9782938867343,40.7781037939993],[-73.97880049216,40.7774212034798],[-73.9795739232262,40.7777472806884],[-73.9796542387606,40.7777801769589],[-73.9816227102984,40.7786163535704],[-73.982057413226,40.7788014386573],[-73.9818500518599,40.77959275873],[-73.9817057326885,40.779634186891],[-73.9815205582367,40.7802900279899],[-73.9813123615409,40.7810336564987],[-73.9812016685346,40.7809872446916],[-73.9802118111563,40.780568687379]]]}},{"type":"Feature","properties":{"e":"67029"},"geometry":{"type":"Polygon","coordinates":[[[-73.97880049216,40.7774212034798],[-73.9792881491059,40.776733028997],[-73.9804485653864,40.7772379043696],[-73.9805287597983,40.7772721497652],[-73.9819921199897,40.777871067073],[-73.982089802972,40.7779142333324],[-73.9821842064804,40.7779563275091],[-73.9821765081458,40.7780497018198],[-73.982057413226,40.7788014386573],[-73.9816227102984,40.7786163535704],[-73.9796542387606,40.7777801769589],[-73.9795739232262,40.7777472806884],[-73.97880049216,40.7774212034798]]]}},{"type":"Feature","properties":{"e":"67030"},"geometry":{"type":"Polygon","coordinates":[[[-73.9821842064804,40.7779563275091],[-73.982089802972,40.7779142333324],[-73.9819921199897,40.777871067073],[-73.9805287597983,40.7772721497652],[-73.9804485653864,40.7772379043696],[-73.9792881491059,40.776733028997],[-73.9797471030326,40.7761198000898],[-73.9809238475514,40.7766084301543],[-73.9809867460391,40.7766350864815],[-73.9810987508638,40.7766821174138],[-73.9811373379296,40.7766983209369],[-73.9819874958385,40.7770553002824],[-73.9821035007761,40.7771040082925],[-73.9822129084865,40.7771511303765],[-73.9825843065926,40.7773111075785],[-73.9831813515804,40.7775555048311],[-73.9832264846732,40.7776529143946],[-73.9830494334446,40.7778964038231],[-73.9830770297468,40.7779079949438],[-73.9828948843291,40.7781583924618],[-73.9827436331648,40.7781921159044],[-73.9821842064804,40.7779563275091]]]}},{"type":"Feature","properties":{"e":"67031"},"geometry":{"type":"Polygon","coordinates":[[[-73.9797471030326,40.7761198000898],[-73.980210524696,40.7754886550558],[-73.9806612073177,40.7748599478144],[-73.9811153852888,40.7742357487773],[-73.9815741044879,40.773610343775],[-73.9820807838041,40.7729989814918],[-73.9821980633011,40.7730405215517],[-73.9823178989728,40.7730910042316],[-73.98408784432,40.7738319541969],[-73.9838701517387,40.7741378781876],[-73.9841196048629,40.7742429226998],[-73.9839271276193,40.774507010749],[-73.9838646588377,40.7745820705466],[-73.982340466426,40.7739314028496],[-73.982228397532,40.7738841727337],[-73.9822024791927,40.774687966499],[-73.982165115922,40.7754952519674],[-73.9821386837697,40.7763058270428],[-73.9821035007761,40.7771040082925],[-73.9819874958385,40.7770553002824],[-73.9811373379296,40.7766983209369],[-73.9810987508638,40.7766821174138],[-73.9809867460391,40.7766350864815],[-73.9809238475514,40.7766084301543],[-73.9797471030326,40.7761198000898]]]}},{"type":"Feature","properties":{"e":"67032"},"geometry":{"type":"Polygon","coordinates":[[[-73.9821035007761,40.7771040082925],[-73.9821386837697,40.7763058270428],[-73.982165115922,40.7754952519674],[-73.9822024791927,40.774687966499],[-73.9823108653288,40.7747318375171],[-73.9839729552709,40.7754375431775],[-73.9834975935997,40.7760541314382],[-73.983199638747,40.7764762690424],[-73.9831660599161,40.7765238430555],[-73.983048113226,40.7766909468425],[-73.9825843065926,40.7773111075785],[-73.9822129084865,40.7771511303765],[-73.9821035007761,40.7771040082925]]]}},{"type":"Feature","properties":{"e":"67033"},"geometry":{"type":"Polygon","coordinates":[[[-73.9822024791927,40.774687966499],[-73.982228397532,40.7738841727337],[-73.982340466426,40.7739314028496],[-73.9838646588377,40.7745820705466],[-73.9839271276193,40.774507010749],[-73.9841196048629,40.7742429226998],[-73.9838701517387,40.7741378781876],[-73.98408784432,40.7738319541969],[-73.9848809113182,40.7741639404695],[-73.9844134715033,40.774816346936],[-73.9839729552709,40.7754375431775],[-73.9823108653288,40.7747318375171],[-73.9822024791927,40.774687966499]]]}},{"type":"Feature","properties":{"e":"67034"},"geometry":{"type":"Polygon","coordinates":[[[-73.9810649058677,40.7817589969005],[-73.9813123615409,40.7810336564987],[-73.9814220240011,40.7810814462643],[-73.9830635102648,40.7817658871386],[-73.9832799514357,40.7814671141528],[-73.9835274601286,40.7811382815919],[-73.9850732894429,40.7817879521138],[-73.9847803373642,40.7824911967397],[-73.9844536493624,40.7832000011914],[-73.983616560479,40.7828409243916],[-73.9833971514731,40.7827468057477],[-73.9830321693788,40.7825902390427],[-73.9825914460227,40.7824011784434],[-73.9811696653041,40.7818033283719],[-73.9810649058677,40.7817589969005]]]}},{"type":"Feature","properties":{"e":"67035"},"geometry":{"type":"Polygon","coordinates":[[[-73.9813123615409,40.7810336564987],[-73.9815205582367,40.7802900279899],[-73.9817057326885,40.779634186891],[-73.9818500518599,40.77959275873],[-73.9828088934474,40.7800023693131],[-73.9839797253875,40.7804978459139],[-73.9835274601286,40.7811382815919],[-73.9832799514357,40.7814671141528],[-73.9830635102648,40.7817658871386],[-73.9814220240011,40.7810814462643],[-73.9813123615409,40.7810336564987]]]}},{"type":"Feature","properties":{"e":"67036"},"geometry":{"type":"Polygon","coordinates":[[[-73.9835274601286,40.7811382815919],[-73.9839797253875,40.7804978459139],[-73.9844775394698,40.7798163143641],[-73.9856808072747,40.7803209036686],[-73.9853709728192,40.7810866433595],[-73.9850732894429,40.7817879521138],[-73.9835274601286,40.7811382815919]]]}},{"type":"Feature","properties":{"e":"67037"},"geometry":{"type":"Polygon","coordinates":[[[-73.9818500518599,40.77959275873],[-73.982057413226,40.7788014386573],[-73.9821765081458,40.7780497018198],[-73.9821842064804,40.7779563275091],[-73.9827436331648,40.7781921159044],[-73.9849777253763,40.7791332453655],[-73.9848624940207,40.7792903170276],[-73.9844775394698,40.7798163143641],[-73.9839797253875,40.7804978459139],[-73.9828088934474,40.7800023693131],[-73.9818500518599,40.77959275873]]]}},{"type":"Feature","properties":{"e":"67038"},"geometry":{"type":"Polygon","coordinates":[[[-73.9827436331648,40.7781921159044],[-73.9828948843291,40.7781583924618],[-73.9830770297468,40.7779079949438],[-73.9830494334446,40.7778964038231],[-73.9832264846732,40.7776529143946],[-73.9831813515804,40.7775555048311],[-73.9825843065926,40.7773111075785],[-73.983048113226,40.7766909468425],[-73.9843794694653,40.7772507111009],[-73.9858855954886,40.7778870893424],[-73.9854495517094,40.7784839319499],[-73.9849777253763,40.7791332453655],[-73.9827436331648,40.7781921159044]]]}},{"type":"Feature","properties":{"e":"67039"},"geometry":{"type":"Polygon","coordinates":[[[-73.983048113226,40.7766909468425],[-73.9831660599161,40.7765238430555],[-73.983199638747,40.7764762690424],[-73.9834975935997,40.7760541314382],[-73.9835890380893,40.7762146858517],[-73.9839573781966,40.7763726247914],[-73.9841072195778,40.7761705654165],[-73.984884937581,40.776513040371],[-73.985213437345,40.7760264651618],[-73.9853084943586,40.7758980701972],[-73.985292844364,40.7758057428876],[-73.9869055489206,40.7764864946365],[-73.986772270098,40.7766693420239],[-73.9865437941292,40.7769827909195],[-73.9864849019695,40.7770645272442],[-73.9862715142498,40.7773606898949],[-73.9858855954886,40.7778870893424],[-73.9843794694653,40.7772507111009],[-73.983048113226,40.7766909468425]]]}},{"type":"Feature","properties":{"e":"67040"},"geometry":{"type":"Polygon","coordinates":[[[-73.9834975935997,40.7760541314382],[-73.9839729552709,40.7754375431775],[-73.9844134715033,40.774816346936],[-73.9848809113182,40.7741639404695],[-73.9864265970519,40.7748285110043],[-73.986554758865,40.7748836134455],[-73.986823170623,40.7749990145831],[-73.9869513330926,40.7750541155767],[-73.9877126846553,40.7753814417607],[-73.9872417829406,40.7760252050096],[-73.9869055489206,40.7764864946365],[-73.985292844364,40.7758057428876],[-73.9853084943586,40.7758980701972],[-73.985213437345,40.7760264651618],[-73.984884937581,40.776513040371],[-73.9841072195778,40.7761705654165],[-73.9839573781966,40.7763726247914],[-73.9835890380893,40.7762146858517],[-73.9834975935997,40.7760541314382]]]}},{"type":"Feature","properties":{"e":"67041"},"geometry":{"type":"Polygon","coordinates":[[[-73.9856808072747,40.7803209036686],[-73.9844775394698,40.7798163143641],[-73.9848624940207,40.7792903170276],[-73.9849777253763,40.7791332453655],[-73.9868011142748,40.779899279165],[-73.98690131397,40.7799402106841],[-73.9872276288371,40.7792294797328],[-73.9874176709489,40.7793097106304],[-73.9879955274083,40.7795536612814],[-73.9884137777904,40.7797477531129],[-73.9884590841391,40.7797654436498],[-73.9885220312942,40.7797874775151],[-73.9885678939566,40.7797999849961],[-73.9888875912162,40.7798871686689],[-73.9889411038274,40.7799644485898],[-73.9889275506538,40.7800675626863],[-73.9889131273853,40.780104307827],[-73.9889131077959,40.7801306364505],[-73.9889207085994,40.7802343645466],[-73.9883824972071,40.7809893444154],[-73.9882338608191,40.7812414146396],[-73.9882118677963,40.7812337529654],[-73.988145628306,40.7813739417803],[-73.9881393286955,40.78138755173],[-73.9881289086357,40.7814100674057],[-73.9879950784663,40.7813510883041],[-73.9874636452881,40.7811168800224],[-73.9874157736059,40.781095782022],[-73.9873650871764,40.7810710755318],[-73.9873091752074,40.7810495737068],[-73.9870728218979,40.7809146519933],[-73.9865452365754,40.780666251162],[-73.9864899796563,40.7806441759103],[-73.9856808072747,40.7803209036686]]]}},{"type":"Feature","properties":{"e":"67042"},"geometry":{"type":"Polygon","coordinates":[[[-73.9849777253763,40.7791332453655],[-73.9854495517094,40.7784839319499],[-73.9858855954886,40.7778870893424],[-73.9874136641417,40.778532042946],[-73.9875973957956,40.7786056338339],[-73.9872276288371,40.7792294797328],[-73.98690131397,40.7799402106841],[-73.9868011142748,40.779899279165],[-73.9849777253763,40.7791332453655]]]}},{"type":"Feature","properties":{"e":"67043"},"geometry":{"type":"Polygon","coordinates":[[[-73.9872276288371,40.7792294797328],[-73.9875973957956,40.7786056338339],[-73.9879135028632,40.7779229965641],[-73.9880737466282,40.7779803101421],[-73.9883773314627,40.7780888894343],[-73.9886143863201,40.7781736739322],[-73.9888440868628,40.7774610424617],[-73.9891327536157,40.7768381832172],[-73.9896154017618,40.7761427610831],[-73.9906483514268,40.7765762660966],[-73.9907349141978,40.7765965275879],[-73.9908176503898,40.7766444238798],[-73.9908584326516,40.7766612557259],[-73.9914309796339,40.7768878300053],[-73.9909286217623,40.7775751483751],[-73.990731860944,40.7775688198604],[-73.9903976074801,40.7775933353134],[-73.9901027133508,40.7780047272418],[-73.9896503201958,40.7786358298736],[-73.9892024060264,40.7792606686541],[-73.9892021280612,40.7792610567844],[-73.9891772255942,40.7792957940261],[-73.9890866419203,40.779415867699],[-73.9888700644824,40.7797011930118],[-73.9888733215844,40.7797220083574],[-73.9892204700754,40.7797061658011],[-73.9892793062596,40.7797317093631],[-73.9894105014383,40.7797459765622],[-73.9895000622132,40.7797333144743],[-73.9895979407041,40.7797064167592],[-73.9896812602438,40.779685838727],[-73.9897541503021,40.7796795147793],[-73.9898436952,40.7796890227345],[-73.9899457496987,40.7797048628319],[-73.9900415495791,40.7797159472578],[-73.9901394250143,40.7797080397619],[-73.9902248159721,40.7796906317645],[-73.9903372878827,40.7796700644378],[-73.9904320462781,40.779673242593],[-73.990509093761,40.7796764091619],[-73.9906236470399,40.7796843344473],[-73.9907465171876,40.7796795987169],[-73.9908735620035,40.7796542776648],[-73.990963119974,40.7796479542708],[-73.9910589206106,40.7796606226414],[-73.9911588773112,40.7796780456219],[-73.991244265246,40.7796796375999],[-73.9912567661341,40.7796590530274],[-73.9912963349759,40.7796384792118],[-73.9913234155145,40.7796400660437],[-73.9913609034433,40.7795941528268],[-73.991552507162,40.7795830909179],[-73.9914212737631,40.7797635503101],[-73.9888875912162,40.7798871686689],[-73.9885678939566,40.7797999849961],[-73.9885220312942,40.7797874775151],[-73.9884590841391,40.7797654436498],[-73.9884137777904,40.7797477531129],[-73.9879955274083,40.7795536612814],[-73.9874176709489,40.7793097106304],[-73.9872276288371,40.7792294797328]]]}},{"type":"Feature","properties":{"e":"67044"},"geometry":{"type":"Polygon","coordinates":[[[-73.9858855954886,40.7778870893424],[-73.9862715142498,40.7773606898949],[-73.9864849019695,40.7770645272442],[-73.9865437941292,40.7769827909195],[-73.986772270098,40.7766693420239],[-73.9869055489206,40.7764864946365],[-73.9872417829406,40.7760252050096],[-73.9884312235843,40.7765391970491],[-73.9886215501482,40.7766168064274],[-73.9887047008599,40.7766507115442],[-73.988287330265,40.7772751453712],[-73.9879135028632,40.7779229965641],[-73.9875973957956,40.7786056338339],[-73.9874136641417,40.778532042946],[-73.9858855954886,40.7778870893424]]]}},{"type":"Feature","properties":{"e":"67045"},"geometry":{"type":"Polygon","coordinates":[[[-73.9879135028632,40.7779229965641],[-73.988287330265,40.7772751453712],[-73.9887047008599,40.7766507115442],[-73.9886215501482,40.7766168064274],[-73.9884312235843,40.7765391970491],[-73.9872417829406,40.7760252050096],[-73.9877126846553,40.7753814417607],[-73.9891617060785,40.7759612471538],[-73.9893691344759,40.7760442354846],[-73.9896154017618,40.7761427610831],[-73.9891327536157,40.7768381832172],[-73.9888440868628,40.7774610424617],[-73.9886143863201,40.7781736739322],[-73.9883773314627,40.7780888894343],[-73.9880737466282,40.7779803101421],[-73.9879135028632,40.7779229965641]]]}},{"type":"Feature","properties":{"e":"67046"},"geometry":{"type":"Polygon","coordinates":[[[-73.9717745671983,40.792135634099],[-73.972234114919,40.7915064760545],[-73.9735461921742,40.7920588449974],[-73.9736505246959,40.7921023997855],[-73.9731880096232,40.7927293187281],[-73.973084640527,40.7926864120728],[-73.9720309553689,40.7922434569384],[-73.9719491329664,40.7922090471715],[-73.9718659550541,40.7921740672626],[-73.9717745671983,40.792135634099]]]}},{"type":"Feature","properties":{"e":"67047"},"geometry":{"type":"Polygon","coordinates":[[[-73.9896154017618,40.7761427610831],[-73.9901452373186,40.7755813242822],[-73.9896154984667,40.7753613452578],[-73.9895714556346,40.7753430558716],[-73.9895967274394,40.7753046004962],[-73.9897898232634,40.7747564281927],[-73.9898022465109,40.7746180577292],[-73.9898519743997,40.77427762125],[-73.9899082858511,40.7742477922427],[-73.9899628110166,40.7742161032921],[-73.9900154436777,40.7741826161319],[-73.9900660813032,40.7741473959984],[-73.9901146252004,40.7741105116047],[-73.9901609808588,40.7740720347067],[-73.9902050579771,40.7740320402611],[-73.9902467706929,40.7739906061808],[-73.9902807652512,40.7739097335712],[-73.9903091030447,40.7738276107555],[-73.9903317057012,40.7737444662953],[-73.9903485099043,40.7736605314473],[-73.9903598571182,40.773610708239],[-73.9903760121136,40.7735616579157],[-73.990396886697,40.7735136482221],[-73.9904223669132,40.7734669412218],[-73.990452313785,40.7734217919314],[-73.9904865637319,40.7733784467501],[-73.99052492979,40.7733371422805],[-73.9905672025285,40.7732981039855],[-73.9910538605898,40.7726806358249],[-73.9927698835995,40.7733163291593],[-73.9929344215569,40.7733772796336],[-73.9930239684636,40.7734088567874],[-73.9934119026583,40.7728871639533],[-73.9934919122925,40.7729371738767],[-73.9936296761061,40.7730019189814],[-73.9936978424263,40.7730431008485],[-73.9939383907933,40.7731877796149],[-73.9938644015833,40.7732777977405],[-73.9938247933395,40.7733900355742],[-73.9937693622666,40.7734922632213],[-73.9937007575353,40.7735704208867],[-73.9936242434503,40.77364055896],[-73.9935292758529,40.7737227152356],[-73.9934448673599,40.7737788184593],[-73.9934132048949,40.7738108812122],[-73.9933603896779,40.7739351489692],[-73.9926241118636,40.7749823250822],[-73.9925792907488,40.7749642854027],[-73.992529191921,40.775010379494],[-73.9924711937676,40.7750324286122],[-73.9924052851226,40.7750264094523],[-73.9922685369283,40.7751243029441],[-73.9920605327866,40.7755058678623],[-73.9921268202663,40.7755173442208],[-73.9922283156993,40.7754904801847],[-73.9923307945431,40.7754771701109],[-73.9923632047478,40.7755101689244],[-73.9923874909181,40.7755654490897],[-73.9920891326009,40.775992240083],[-73.9920202277822,40.776081610017],[-73.9914309796339,40.7768878300053],[-73.9908584326516,40.7766612557259],[-73.9908176503898,40.7766444238798],[-73.9907349141978,40.7765965275879],[-73.9906483514268,40.7765762660966],[-73.9896154017618,40.7761427610831]]]}},{"type":"Feature","properties":{"e":"67048"},"geometry":{"type":"Polygon","coordinates":[[[-73.9877126846553,40.7753814417607],[-73.9881786365241,40.774743223626],[-73.9885175386456,40.77427610607],[-73.9886277678212,40.7741241726735],[-73.9889335890771,40.7737057110596],[-73.9890852192111,40.773498213958],[-73.9897238727972,40.7737621205618],[-73.9899031756358,40.7738350506485],[-73.9898519743997,40.77427762125],[-73.9898022465109,40.7746180577292],[-73.9897898232634,40.7747564281927],[-73.9895967274394,40.7753046004962],[-73.9895714556346,40.7753430558716],[-73.9896154984667,40.7753613452578],[-73.9901452373186,40.7755813242822],[-73.9896154017618,40.7761427610831],[-73.9893691344759,40.7760442354846],[-73.9891617060785,40.7759612471538],[-73.9877126846553,40.7753814417607]]]}},{"type":"Feature","properties":{"e":"67049"},"geometry":{"type":"Polygon","coordinates":[[[-73.9890852192111,40.773498213958],[-73.989241881484,40.773289348604],[-73.9895393063893,40.7728719379473],[-73.9899960228455,40.7722492691532],[-73.9903605529923,40.7717495753847],[-73.9904547016255,40.7716205168044],[-73.9905179940657,40.7716473874401],[-73.9917593859948,40.7721744130413],[-73.9910538605898,40.7726806358249],[-73.9905672025285,40.7732981039855],[-73.99052492979,40.7733371422805],[-73.9904865637319,40.7733784467501],[-73.990452313785,40.7734217919314],[-73.9904223669132,40.7734669412218],[-73.990396886697,40.7735136482221],[-73.9903760121136,40.7735616579157],[-73.9903598571182,40.773610708239],[-73.9903485099043,40.7736605314473],[-73.9903317057012,40.7737444662953],[-73.9903091030447,40.7738276107555],[-73.9902807652512,40.7739097335712],[-73.9902467706929,40.7739906061808],[-73.9902050579771,40.7740320402611],[-73.9901609808588,40.7740720347067],[-73.9901146252004,40.7741105116047],[-73.9900660813032,40.7741473959984],[-73.9900154436777,40.7741826161319],[-73.9899628110166,40.7742161032921],[-73.9899082858511,40.7742477922427],[-73.9898519743997,40.77427762125],[-73.9899031756358,40.7738350506485],[-73.9897238727972,40.7737621205618],[-73.9890852192111,40.773498213958]]]}},{"type":"Feature","properties":{"e":"67050"},"geometry":{"type":"Polygon","coordinates":[[[-73.9848809113182,40.7741639404695],[-73.98408784432,40.7738319541969],[-73.9823178989728,40.7730910042316],[-73.9821980633011,40.7730405215517],[-73.9820807838041,40.7729989814918],[-73.9821949867899,40.772804915955],[-73.9823056017252,40.7726262987902],[-73.9825423656309,40.7722991587693],[-73.9829595679384,40.771739026505],[-73.9834223205236,40.7710962260223],[-73.9857344704792,40.772090409918],[-73.9862394350807,40.7723075258524],[-73.9861859250964,40.7723803006077],[-73.9861348275176,40.7724497924612],[-73.9860220808192,40.7726031284107],[-73.9859660778078,40.7726792919684],[-73.9858232939057,40.7728734768434],[-73.9864453303465,40.7731574257745],[-73.9864913737053,40.7732085191076],[-73.9869868640182,40.7734184804592],[-73.9873250169609,40.7735617699212],[-73.9874258598199,40.7736045006548],[-73.9875114464688,40.7736407663443],[-73.9875629538898,40.7736630712408],[-73.9875936148323,40.7736763486003],[-73.9876403729639,40.7736965977473],[-73.9877395251171,40.7737395344156],[-73.9880034130799,40.7738538080788],[-73.9881435137926,40.7739144763746],[-73.9884633421543,40.7740529715454],[-73.9885673908612,40.7740980280247],[-73.9886277678212,40.7741241726735],[-73.9885175386456,40.77427610607],[-73.9881786365241,40.774743223626],[-73.9877126846553,40.7753814417607],[-73.9869513330926,40.7750541155767],[-73.986823170623,40.7749990145831],[-73.986554758865,40.7748836134455],[-73.9864265970519,40.7748285110043],[-73.9848809113182,40.7741639404695]]]}},{"type":"Feature","properties":{"e":"67051"},"geometry":{"type":"Polygon","coordinates":[[[-73.9862394350807,40.7723075258524],[-73.9864559647652,40.7720089151873],[-73.9864922005017,40.7719589432039],[-73.9866562373171,40.7717327221725],[-73.9866970395947,40.7716764520236],[-73.9869473964212,40.7717818539207],[-73.9870692728985,40.7718331646692],[-73.9874850929325,40.7720082255728],[-73.9878998403238,40.7721828315341],[-73.9880205744709,40.7722336596847],[-73.9889077710441,40.7726071548107],[-73.9895393063893,40.7728719379473],[-73.989241881484,40.773289348604],[-73.9890852192111,40.773498213958],[-73.9889335890771,40.7737057110596],[-73.9886277678212,40.7741241726735],[-73.9885673908612,40.7740980280247],[-73.9884633421543,40.7740529715454],[-73.9881435137926,40.7739144763746],[-73.9880034130799,40.7738538080788],[-73.9877395251171,40.7737395344156],[-73.9876403729639,40.7736965977473],[-73.9875936148323,40.7736763486003],[-73.9875629538898,40.7736630712408],[-73.9875114464688,40.7736407663443],[-73.9874258598199,40.7736045006548],[-73.9873250169609,40.7735617699212],[-73.9869868640182,40.7734184804592],[-73.9864913737053,40.7732085191076],[-73.9864453303465,40.7731574257745],[-73.9858232939057,40.7728734768434],[-73.9859660778078,40.7726792919684],[-73.9860220808192,40.7726031284107],[-73.9861348275176,40.7724497924612],[-73.9861859250964,40.7723803006077],[-73.9862394350807,40.7723075258524]]]}},{"type":"Feature","properties":{"e":"67052"},"geometry":{"type":"Polygon","coordinates":[[[-73.9866970395947,40.7716764520236],[-73.9871469682142,40.7710623061046],[-73.9876165675411,40.770423711462],[-73.9880643423694,40.7697990684791],[-73.9885604327162,40.7691240855337],[-73.9890522185727,40.7684483600155],[-73.9898565841761,40.7687877061265],[-73.9899736966437,40.7688371129956],[-73.9907638899066,40.7691705738801],[-73.9909187326015,40.7692359153316],[-73.9910727958242,40.7693009524548],[-73.9918937887428,40.7696475245365],[-73.9914019516757,40.7703216601766],[-73.9909145227384,40.7709960273608],[-73.9905529663398,40.7714870629452],[-73.9904547016255,40.7716205168044],[-73.9903605529923,40.7717495753847],[-73.9899960228455,40.7722492691532],[-73.9895393063893,40.7728719379473],[-73.9889077710441,40.7726071548107],[-73.9880205744709,40.7722336596847],[-73.9878998403238,40.7721828315341],[-73.9874850929325,40.7720082255728],[-73.9870692728985,40.7718331646692],[-73.9869473964212,40.7717818539207],[-73.9866970395947,40.7716764520236]]]}},{"type":"Feature","properties":{"e":"67053"},"geometry":{"type":"Polygon","coordinates":[[[-73.9910538605898,40.7726806358249],[-73.9917593859948,40.7721744130413],[-73.9905179940657,40.7716473874401],[-73.9904547016255,40.7716205168044],[-73.9905529663398,40.7714870629452],[-73.9909145227384,40.7709960273608],[-73.9914019516757,40.7703216601766],[-73.9923462241271,40.7707172323216],[-73.9935984463363,40.7712417905145],[-73.9938187103824,40.7713385979984],[-73.9942089737621,40.7715136870508],[-73.994348403763,40.7714731991784],[-73.9941518012044,40.7718789409073],[-73.9938758994936,40.7722464368568],[-73.9935040699533,40.77275990168],[-73.9934119026583,40.7728871639533],[-73.9930239684636,40.7734088567874],[-73.9929344215569,40.7733772796336],[-73.9927698835995,40.7733163291593],[-73.9910538605898,40.7726806358249]]]}},{"type":"Feature","properties":{"e":"67054"},"geometry":{"type":"Polygon","coordinates":[[[-73.9939383907933,40.7731877796149],[-73.9936978424263,40.7730431008485],[-73.9936296761061,40.7730019189814],[-73.9934919122925,40.7729371738767],[-73.9934119026583,40.7728871639533],[-73.9935040699533,40.77275990168],[-73.9938758994936,40.7722464368568],[-73.9941518012044,40.7718789409073],[-73.994348403763,40.7714731991784],[-73.9942089737621,40.7715136870508],[-73.9938187103824,40.7713385979984],[-73.9935984463363,40.7712417905145],[-73.9923462241271,40.7707172323216],[-73.9914019516757,40.7703216601766],[-73.9918937887428,40.7696475245365],[-73.9910727958242,40.7693009524548],[-73.9909187326015,40.7692359153316],[-73.9910856325224,40.7684840521921],[-73.9912405430803,40.7677319452391],[-73.9913688916933,40.7677859110983],[-73.9928073515148,40.7683907075742],[-73.9948505832184,40.7692650711429],[-73.9949388809401,40.7693028509178],[-73.9950566826956,40.7693524469762],[-73.9952851323552,40.769330969537],[-73.9952287222855,40.7694006528656],[-73.9952225786968,40.7694204273309],[-73.9952221267037,40.769440743032],[-73.9952273871317,40.7694606641512],[-73.9952381176705,40.7694792730461],[-73.9952637478385,40.7695112349821],[-73.9963147197478,40.7698071042394],[-73.9958814922806,40.7704088475508],[-73.9960183807728,40.770463116928],[-73.9959022230336,40.7706213915777],[-73.9957687815731,40.7705628640239],[-73.9954261930192,40.7710398833434],[-73.9957579308993,40.7711689366548],[-73.9957100394584,40.7712340807364],[-73.9957991889955,40.7712908309755],[-73.9958183245859,40.7712647846212],[-73.9959142848672,40.7713061238341],[-73.995929485539,40.771283371043],[-73.9960032063483,40.7713157335397],[-73.9959013498432,40.7714585668228],[-73.9958940577802,40.7714553552649],[-73.9958558213503,40.7715074490003],[-73.9957926262883,40.7714837870698],[-73.9958295076715,40.77142993546],[-73.9957313819191,40.7713870870264],[-73.9957526829087,40.7713625505043],[-73.9956312711428,40.7713335608537],[-73.9956245177819,40.7713452257411],[-73.9953071122816,40.7712042731213],[-73.9951254041542,40.7714590065351],[-73.9949915933626,40.7714489780772],[-73.9949587820688,40.7714574589712],[-73.9949364651159,40.7714764143535],[-73.9949253064675,40.7714938742193],[-73.9949272697322,40.7715243106932],[-73.9950106029453,40.7716156082468],[-73.9949797562625,40.7716535177845],[-73.9949783334982,40.7716670432372],[-73.9970747309693,40.7725511373152],[-73.9968743637201,40.7728257497026],[-73.9947755278106,40.7719378159042],[-73.994446461358,40.7723853950614],[-73.9954565987295,40.77281094355],[-73.9962311690609,40.7731372436029],[-73.9961223289622,40.773283659683],[-73.9943433683163,40.7725330504491],[-73.9942512406572,40.7725347536473],[-73.9941647329036,40.7724954595258],[-73.9938325302921,40.7729400564539],[-73.9938889933053,40.7729640127698],[-73.9938927007189,40.7729634634824],[-73.9939640338186,40.7729529225101],[-73.9940140731215,40.7728911147166],[-73.9941235064363,40.7729323271149],[-73.9941381009458,40.7729101387609],[-73.9943027908053,40.7729782972581],[-73.9942829835437,40.7730020701663],[-73.9943780011934,40.7730478197065],[-73.994320083116,40.7731297088934],[-73.9942954782469,40.7731645126227],[-73.9950247245372,40.773489465245],[-73.9950725366573,40.7734224073199],[-73.9950908405849,40.7733967436875],[-73.9950154123828,40.7733663035694],[-73.9950517333731,40.7733054218218],[-73.996242100984,40.7737980600841],[-73.9961972865456,40.7738606248843],[-73.9961099178529,40.7738245847114],[-73.9961092304743,40.7738256462976],[-73.996064617116,40.7738951553218],[-73.9961284267936,40.7739216233355],[-73.9961299538847,40.7739222536178],[-73.9961278104585,40.7739249823695],[-73.9961002564193,40.7739600740223],[-73.9961198000842,40.7739685926855],[-73.9961809090514,40.7739952230787],[-73.9960966942828,40.7740944556898],[-73.9960527017948,40.7740771645509],[-73.9955737140371,40.7738790006227],[-73.9939383907933,40.7731877796149]]]}},{"type":"Feature","properties":{"e":"67055"},"geometry":{"type":"Polygon","coordinates":[[[-73.9890522185727,40.7684483600155],[-73.9895064289299,40.7678236503759],[-73.9899652736438,40.7671957422312],[-73.9911183062369,40.7676805505572],[-73.9912405430803,40.7677319452391],[-73.9910856325224,40.7684840521921],[-73.9909187326015,40.7692359153316],[-73.9907638899066,40.7691705738801],[-73.9899736966437,40.7688371129956],[-73.9898565841761,40.7687877061265],[-73.9890522185727,40.7684483600155]]]}},{"type":"Feature","properties":{"e":"67056"},"geometry":{"type":"Polygon","coordinates":[[[-73.9834223205236,40.7710962260223],[-73.983856611966,40.7704878665934],[-73.9843163580967,40.7698564515474],[-73.9847651377637,40.769234669403],[-73.984987268871,40.7693289694358],[-73.9876165675411,40.770423711462],[-73.9871469682142,40.7710623061046],[-73.9866970395947,40.7716764520236],[-73.9866562373171,40.7717327221725],[-73.9864922005017,40.7719589432039],[-73.9864559647652,40.7720089151873],[-73.9862394350807,40.7723075258524],[-73.9857344704792,40.772090409918],[-73.9834223205236,40.7710962260223]]]}},{"type":"Feature","properties":{"e":"67057"},"geometry":{"type":"Polygon","coordinates":[[[-73.9847651377637,40.769234669403],[-73.9852186485111,40.7686028985148],[-73.9857175594575,40.7679254764779],[-73.9885604327162,40.7691240855337],[-73.9880643423694,40.7697990684791],[-73.9876165675411,40.770423711462],[-73.984987268871,40.7693289694358],[-73.9847651377637,40.769234669403]]]}},{"type":"Feature","properties":{"e":"67058"},"geometry":{"type":"Polygon","coordinates":[[[-73.9857175594575,40.7679254764779],[-73.9862053265643,40.7672512221418],[-73.9866612020799,40.7666242533287],[-73.9895064289299,40.7678236503759],[-73.9890522185727,40.7684483600155],[-73.9885604327162,40.7691240855337],[-73.9857175594575,40.7679254764779]]]}},{"type":"Feature","properties":{"e":"67059"},"geometry":{"type":"Polygon","coordinates":[[[-73.9963147197478,40.7698071042394],[-73.9952637478385,40.7695112349821],[-73.9952381176705,40.7694792730461],[-73.9952273871317,40.7694606641512],[-73.9952221267037,40.769440743032],[-73.9952225786968,40.7694204273309],[-73.9952287222855,40.7694006528656],[-73.9952851323552,40.769330969537],[-73.9950566826956,40.7693524469762],[-73.9949388809401,40.7693028509178],[-73.9948505832184,40.7692650711429],[-73.9928073515148,40.7683907075742],[-73.9913688916933,40.7677859110983],[-73.9912405430803,40.7677319452391],[-73.9911183062369,40.7676805505572],[-73.9899652736438,40.7671957422312],[-73.9904231269644,40.7665695261391],[-73.9908774417465,40.7659424883539],[-73.9914666706251,40.7661896853927],[-73.9916553016669,40.7662688190994],[-73.9918517428528,40.7663517540403],[-73.993724144934,40.7671422299447],[-73.9957464026597,40.7679982610629],[-73.9958503334221,40.7680422542502],[-73.9959730666325,40.7680896625105],[-73.9964276891377,40.7674599443613],[-73.9968794066768,40.7668392671521],[-73.9969709573421,40.7669373294352],[-73.9970554565661,40.7670278377296],[-73.9971123552486,40.7670887818421],[-73.9971573384657,40.7671369635236],[-73.9968174335284,40.7676088893143],[-73.9964586028591,40.7681070833609],[-73.999729641841,40.769481774353],[-73.999737352423,40.769514445057],[-73.9995566392093,40.7697590755197],[-73.9995169715059,40.7697758336222],[-73.999473987216,40.769772483257],[-73.9970732094372,40.7687409112446],[-73.9970277372441,40.7688037833054],[-73.9971518038477,40.7688556554008],[-73.9970121631808,40.7690370583814],[-73.9968945621256,40.7689878970443],[-73.9965727133216,40.7694328360945],[-73.9990282781045,40.7704715409197],[-73.9987635188559,40.770833324727],[-73.9963147197478,40.7698071042394]]]}},{"type":"Feature","properties":{"e":"67060"},"geometry":{"type":"Polygon","coordinates":[[[-73.9866612020799,40.7666242533287],[-73.9869211306636,40.7662716530077],[-73.9864824510993,40.7660308265117],[-73.9864132480088,40.7661216248657],[-73.986178502695,40.7660204976743],[-73.9862607276339,40.7659111503844],[-73.9859659837024,40.7657411643458],[-73.9858612660626,40.765889386204],[-73.9849556557067,40.7655087438126],[-73.9847365472813,40.7658121182148],[-73.9838233016322,40.7654267421818],[-73.9842837461753,40.7648000824473],[-73.987123286719,40.7659974200494],[-73.9875781850727,40.7653724489819],[-73.9904231269644,40.7665695261391],[-73.9899652736438,40.7671957422312],[-73.9895064289299,40.7678236503759],[-73.9866612020799,40.7666242533287]]]}},{"type":"Feature","properties":{"e":"67061"},"geometry":{"type":"Polygon","coordinates":[[[-73.9908774417465,40.7659424883539],[-73.9913340927414,40.7653175376065],[-73.9917897880051,40.7646921347821],[-73.9923002015178,40.7649070849781],[-73.9924930087824,40.7649882800172],[-73.9926862633369,40.7650696625575],[-73.9946323008076,40.7658891349173],[-73.9966688242156,40.7667479508614],[-73.9967648891818,40.7667881788689],[-73.9968794066768,40.7668392671521],[-73.9964276891377,40.7674599443613],[-73.9959730666325,40.7680896625105],[-73.9958503334221,40.7680422542502],[-73.9957464026597,40.7679982610629],[-73.993724144934,40.7671422299447],[-73.9918517428528,40.7663517540403],[-73.9916553016669,40.7662688190994],[-73.9914666706251,40.7661896853927],[-73.9908774417465,40.7659424883539]]]}},{"type":"Feature","properties":{"e":"67062"},"geometry":{"type":"Polygon","coordinates":[[[-73.9971573384657,40.7671369635236],[-73.9971123552486,40.7670887818421],[-73.9970554565661,40.7670278377296],[-73.9969709573421,40.7669373294352],[-73.9968794066768,40.7668392671521],[-73.9967648891818,40.7667881788689],[-73.9966688242156,40.7667479508614],[-73.9946323008076,40.7658891349173],[-73.9926862633369,40.7650696625575],[-73.9924930087824,40.7649882800172],[-73.9923002015178,40.7649070849781],[-73.9917897880051,40.7646921347821],[-73.9922454751272,40.7640650464633],[-73.9927028824763,40.7634390724504],[-73.9931662376338,40.7628189635038],[-73.9932909942056,40.7626393410984],[-73.9933811509728,40.7625073873872],[-73.9936107538093,40.7621917020944],[-73.9942026952095,40.762439087465],[-73.9943077260729,40.7624829806153],[-73.9944818527532,40.7625559668536],[-73.9964585195409,40.7633844771348],[-73.9983749052027,40.7642008092912],[-73.9984985260275,40.7642532081744],[-73.9985817941007,40.7642882177618],[-73.9987074056884,40.7643432409036],[-73.9988547009684,40.7644081891903],[-73.9988724088197,40.7644304334894],[-73.9988835464376,40.7644550174527],[-73.9988876128878,40.7644808343252],[-73.9988844249242,40.7645067224513],[-73.9988861811217,40.7645776443403],[-73.9985778346046,40.7650068741549],[-73.9986012363874,40.7650816071838],[-73.9986363280866,40.7650940616368],[-73.9986667540685,40.7651127476488],[-73.998687824115,40.7651456611751],[-73.9986971797211,40.7651830325939],[-73.9986901562935,40.7652168373711],[-73.9986690964567,40.7652453022705],[-73.9986351648941,40.7652684356745],[-73.9985906903716,40.7652844457448],[-73.9984842139742,40.7653058039303],[-73.9984397529889,40.765324480785],[-73.9984034744472,40.7653591760467],[-73.9983597465935,40.7654263157376],[-73.9982926477038,40.7655293397551],[-73.9982723523184,40.7655605004164],[-73.9982830563346,40.7655760419406],[-74.0015436290794,40.7669529696934],[-74.001574804232,40.7669854593767],[-74.0015632561316,40.7670047665385],[-74.0013958219324,40.7672383149548],[-74.0013657964587,40.7672576311977],[-74.0013161466732,40.7672593872787],[-74.0012953604559,40.7672497254691],[-73.998158233609,40.7659023024482],[-73.9981496356908,40.7659138741516],[-73.9980682082425,40.7658801482086],[-73.9977227973643,40.7663573877342],[-73.9973795335059,40.7668316531603],[-74.0006298241042,40.7682113784978],[-74.0006516180212,40.7682286412284],[-74.0006509554647,40.7682535035522],[-74.0004563434811,40.7685124631842],[-74.0004191040344,40.7685207479741],[-74.0003873149825,40.7685124634385],[-73.9971573384657,40.7671369635236]]]}},{"type":"Feature","properties":{"e":"67063"},"geometry":{"type":"Polygon","coordinates":[[[-73.9988861811217,40.7645776443403],[-73.9988844249242,40.7645067224513],[-73.9988876128878,40.7644808343252],[-73.9988835464376,40.7644550174527],[-73.9988724088197,40.7644304334894],[-73.9988547009684,40.7644081891903],[-73.9987074056884,40.7643432409036],[-73.9985817941007,40.7642882177618],[-73.9984985260275,40.7642532081744],[-73.9983749052027,40.7642008092912],[-73.9964585195409,40.7633844771348],[-73.9944818527532,40.7625559668536],[-73.9943077260729,40.7624829806153],[-73.9942026952095,40.762439087465],[-73.9936107538093,40.7621917020944],[-73.994069141444,40.7615634361472],[-73.9945273802949,40.7609353110435],[-73.9950674343786,40.7611614715533],[-73.9952038431836,40.7612185954209],[-73.9954315135209,40.7613139379417],[-73.9973886719813,40.7621335160834],[-73.9995540539814,40.7630834597753],[-73.9996525079551,40.763124181115],[-73.9997688452692,40.7631697551275],[-74.0005135890803,40.7626467687366],[-74.0012794133143,40.7620840913916],[-74.0014177369936,40.7621448183894],[-74.0017896910478,40.7623027863837],[-74.001534540773,40.7626528644471],[-74.0037588012496,40.7635905080654],[-74.0036135987797,40.7637853103779],[-74.0013874870546,40.7628583613668],[-74.0009745301911,40.7634285382167],[-74.0031512206135,40.7643411552803],[-74.0029495458335,40.7646251025871],[-74.0030630630563,40.7646740493148],[-74.0031360341002,40.7646578648624],[-74.003163396515,40.7646208771021],[-74.0032242066192,40.7646463043205],[-74.0031573213316,40.7647387765507],[-74.0031428693004,40.7647469712973],[-74.0031262022859,40.7647521968995],[-74.003108353867,40.7647541292995],[-74.003090430886,40.7647526486626],[-74.0010650922335,40.7638964748423],[-74.0007325024511,40.7637635529265],[-73.9999285733124,40.7634147950044],[-73.9996399851062,40.7635773375578],[-73.9996240841287,40.7635673477761],[-73.9995191204904,40.7637145457784],[-73.9994478716785,40.7638144611986],[-73.9994347567485,40.7638321768211],[-73.9991524303141,40.7642135262913],[-74.0022758169394,40.7655334479568],[-74.0022894742371,40.7655698106591],[-74.0020585887831,40.7658856573524],[-74.0020259944224,40.7659015335084],[-73.9992014219483,40.7647101817866],[-73.9991097757556,40.7646707666571],[-73.9988861811217,40.7645776443403]]]}},{"type":"Feature","properties":{"e":"67064"},"geometry":{"type":"Polygon","coordinates":[[[-73.9945273802949,40.7609353110435],[-73.994985029206,40.7603084279136],[-73.995566960699,40.760554430855],[-73.9956960916598,40.7606090176905],[-73.99621317269,40.7599456597935],[-73.9964878762359,40.760061367065],[-73.9983135616894,40.7608303350973],[-73.9978223078069,40.7615077999591],[-73.9973886719813,40.7621335160834],[-73.9954315135209,40.7613139379417],[-73.9952038431836,40.7612185954209],[-73.9950674343786,40.7611614715533],[-73.9945273802949,40.7609353110435]]]}},{"type":"Feature","properties":{"e":"67065"},"geometry":{"type":"Polygon","coordinates":[[[-73.9973886719813,40.7621335160834],[-73.9978223078069,40.7615077999591],[-73.9983135616894,40.7608303350973],[-73.9993946592175,40.7612853425643],[-73.99987234793,40.7606167503359],[-74.0016230851485,40.7613552544471],[-74.0015386356407,40.7614947791841],[-74.0014890804977,40.7615621799536],[-74.0014355380115,40.7616277939575],[-74.0013781193786,40.7616914849152],[-74.0013169438473,40.7617531205399],[-74.0012521384498,40.761812572707],[-74.0011838378053,40.7618697180387],[-74.0011121837673,40.7619244378426],[-74.0010373251556,40.7619766184639],[-74.0011519917728,40.7620340785688],[-74.0012794133143,40.7620840913916],[-74.0005135890803,40.7626467687366],[-73.9997688452692,40.7631697551275],[-73.9996525079551,40.763124181115],[-73.9995540539814,40.7630834597753],[-73.9973886719813,40.7621335160834]]]}},{"type":"Feature","properties":{"e":"67066"},"geometry":{"type":"Polygon","coordinates":[[[-73.9983135616894,40.7608303350973],[-73.9987990050347,40.7601640150183],[-73.99987234793,40.7606167503359],[-73.9993946592175,40.7612853425643],[-73.9983135616894,40.7608303350973]]]}},{"type":"Feature","properties":{"e":"67067"},"geometry":{"type":"Polygon","coordinates":[[[-73.9842837461753,40.7648000824473],[-73.9847353826107,40.7641773720852],[-73.985192967178,40.7635519417171],[-73.985648222938,40.7629231419158],[-73.9872711513695,40.7636054002404],[-73.9884973637121,40.764121144428],[-73.9880342007181,40.7647454673757],[-73.9875781850727,40.7653724489819],[-73.987123286719,40.7659974200494],[-73.9842837461753,40.7648000824473]]]}}]}