{"type":"FeatureCollection","ad":68,"features":[{"type":"Feature","properties":{"e":"68001"},"geometry":{"type":"Polygon","coordinates":[[[-73.9358092339026,40.80950591605],[-73.9358640661044,40.8094384806986],[-73.9362607923531,40.8088638863767],[-73.9367197067843,40.8082287562375],[-73.9369606753084,40.8079044991175],[-73.9371815502051,40.8076072782336],[-73.9376358265661,40.8069828846594],[-73.9380881015969,40.8063612895111],[-73.9385455118329,40.8057379298925],[-73.9386957374525,40.8057993061772],[-73.9401593705368,40.8064173666794],[-73.9397026193914,40.8070431560501],[-73.9392492430412,40.8076631995687],[-73.9387938862364,40.8082883277527],[-73.9384777497618,40.8087219313205],[-73.9383391024428,40.8089120940859],[-73.9378814687763,40.8095332468297],[-73.9374087690492,40.8101838892701],[-73.9358092339026,40.80950591605]]]}},{"type":"Feature","properties":{"e":"68002"},"geometry":{"type":"Polygon","coordinates":[[[-73.9332605263365,40.8072455226464],[-73.9334873266306,40.8071493819457],[-73.9335563413037,40.8071201261894],[-73.9336294019096,40.8070892587876],[-73.9336677784143,40.8070719715491],[-73.9337506350689,40.8070346481098],[-73.9338214886545,40.8071167621835],[-73.9339345113735,40.8072708159015],[-73.9342515168651,40.8077028944403],[-73.934536969931,40.8081445650556],[-73.9346657115313,40.8081834051423],[-73.9351067176635,40.8075481274621],[-73.9355635242302,40.8069253920724],[-73.9360178196981,40.8063040031684],[-73.9370994290214,40.8067567836542],[-73.9371641997104,40.8067838968346],[-73.9375142469937,40.8069304281502],[-73.9376358265661,40.8069828846594],[-73.9371815502051,40.8076072782336],[-73.9369606753084,40.8079044991175],[-73.9367197067843,40.8082287562375],[-73.9362607923531,40.8088638863767],[-73.9358640661044,40.8094384806986],[-73.9358092339026,40.80950591605],[-73.9353643061324,40.810073539864],[-73.9352169196475,40.8102181578944],[-73.935024210225,40.8103878117183],[-73.9349614247771,40.810430666478],[-73.9348695496587,40.8105030505914],[-73.9347347599793,40.8106107734559],[-73.9346665892791,40.8106441079308],[-73.9345826693081,40.8106851427463],[-73.9342837101577,40.8108313286141],[-73.934305605449,40.8104899441527],[-73.9343158371967,40.8103305429177],[-73.9343422411614,40.8099358606775],[-73.9343400772707,40.8095704921905],[-73.9342153415225,40.8090674520578],[-73.9341978233032,40.8090401298428],[-73.934136757549,40.8087446682164],[-73.9341221661419,40.8086647296645],[-73.9335626241702,40.8076089548869],[-73.9333299552436,40.8073272239167],[-73.9332605263365,40.8072455226464]]]}},{"type":"Feature","properties":{"e":"68003"},"geometry":{"type":"Polygon","coordinates":[[[-73.9360178196981,40.8063040031684],[-73.9360766825177,40.8062230900406],[-73.9364728584436,40.8056784990883],[-73.9369291778728,40.8050546851848],[-73.9374199604127,40.8043829552655],[-73.9379152752016,40.8037074983713],[-73.9393888759644,40.8043310219975],[-73.9395251671656,40.8043874477407],[-73.9390364151729,40.8050647335921],[-73.9385455118329,40.8057379298925],[-73.9380881015969,40.8063612895111],[-73.9376358265661,40.8069828846594],[-73.9375142469937,40.8069304281502],[-73.9371641997104,40.8067838968346],[-73.9370994290214,40.8067567836542],[-73.9360178196981,40.8063040031684]]]}},{"type":"Feature","properties":{"e":"68004"},"geometry":{"type":"Polygon","coordinates":[[[-73.9401593705368,40.8064173666794],[-73.9386957374525,40.8057993061772],[-73.9385455118329,40.8057379298925],[-73.9390364151729,40.8050647335921],[-73.9395251671656,40.8043874477407],[-73.9399838571902,40.8037610115036],[-73.9404387860132,40.8031302419284],[-73.9408980761086,40.8025027570594],[-73.9413547279674,40.8018742266203],[-73.9414924963957,40.8019311535549],[-73.9429946022769,40.8025698202994],[-73.9435037765462,40.8027801869688],[-73.9444647011078,40.8031771856474],[-73.9443771022511,40.8032995641863],[-73.9443854714836,40.8035277554479],[-73.9442861418134,40.8036625383216],[-73.9439530208353,40.804117236171],[-73.9433410421901,40.8049525469667],[-73.9429096044708,40.8055414170382],[-73.9427551061708,40.8057522896094],[-73.9422645453221,40.806424015211],[-73.9417728353561,40.8070972774619],[-73.9401593705368,40.8064173666794]]]}},{"type":"Feature","properties":{"e":"68005"},"geometry":{"type":"Polygon","coordinates":[[[-73.9427551061708,40.8057522896094],[-73.9429096044708,40.8055414170382],[-73.9433410421901,40.8049525469667],[-73.9439530208353,40.804117236171],[-73.9442861418134,40.8036625383216],[-73.9443854714836,40.8035277554479],[-73.9443771022511,40.8032995641863],[-73.9444647011078,40.8031771856474],[-73.9446005872896,40.8032333246002],[-73.9447106954923,40.8032802041648],[-73.9456197993221,40.8036672538586],[-73.9462018932325,40.8039147987669],[-73.9477259152495,40.8045575726429],[-73.9478144225692,40.804594902584],[-73.9473533708716,40.8052214493624],[-73.9469014838338,40.8058471603331],[-73.9464394517547,40.8064773765368],[-73.9459790951992,40.8071064212865],[-73.9458957978052,40.8070712628478],[-73.9443573055522,40.8064218642988],[-73.9437762027062,40.8061788695172],[-73.9431591378846,40.8059210820729],[-73.9428569361315,40.8057948317755],[-73.9427551061708,40.8057522896094]]]}},{"type":"Feature","properties":{"e":"68006"},"geometry":{"type":"Polygon","coordinates":[[[-73.9379152752016,40.8037074983713],[-73.9383729345755,40.8030797449718],[-73.9388304540554,40.8024525660758],[-73.9392883207359,40.8018246552478],[-73.940781098246,40.8024525756056],[-73.9408980761086,40.8025027570594],[-73.9404387860132,40.8031302419284],[-73.9399838571902,40.8037610115036],[-73.9395251671656,40.8043874477407],[-73.9393888759644,40.8043310219975],[-73.9379152752016,40.8037074983713]]]}},{"type":"Feature","properties":{"e":"68007"},"geometry":{"type":"Polygon","coordinates":[[[-73.9392883207359,40.8018246552478],[-73.9393339690268,40.8017620161016],[-73.9397481142529,40.8011937101772],[-73.9400619545682,40.8007644837159],[-73.940105795684,40.8007045237128],[-73.9402075642985,40.8005653370556],[-73.9406669331035,40.799938241558],[-73.9421492543002,40.8005644004462],[-73.9422731846321,40.8006164757006],[-73.9418157209333,40.8012447675795],[-73.9413547279674,40.8018742266203],[-73.9408980761086,40.8025027570594],[-73.940781098246,40.8024525756056],[-73.9392883207359,40.8018246552478]]]}},{"type":"Feature","properties":{"e":"68008"},"geometry":{"type":"Polygon","coordinates":[[[-73.9444647011078,40.8031771856474],[-73.9435037765462,40.8027801869688],[-73.9429946022769,40.8025698202994],[-73.9414924963957,40.8019311535549],[-73.9413547279674,40.8018742266203],[-73.9418157209333,40.8012447675795],[-73.9422731846321,40.8006164757006],[-73.9427352383276,40.7999866182053],[-73.942879991702,40.8000483921251],[-73.9443550981166,40.8006717731496],[-73.9448429886623,40.8008769696261],[-73.9454761204354,40.8011432453751],[-73.9459693321453,40.8013506710136],[-73.9455100737241,40.8019785077223],[-73.9450527142793,40.8026068748365],[-73.944761199828,40.8030113177014],[-73.9446005872896,40.8032333246002],[-73.9444647011078,40.8031771856474]]]}},{"type":"Feature","properties":{"e":"68009"},"geometry":{"type":"Polygon","coordinates":[[[-73.9448492032048,40.7999946633847],[-73.9453604979805,40.7992951383825],[-73.945401049658,40.7992396185613],[-73.9454428947655,40.7991823301067],[-73.9455047941875,40.7990975840667],[-73.9455482223838,40.7990381268733],[-73.9455923264896,40.7989777450769],[-73.9456340845357,40.7989205744472],[-73.9459948662809,40.7984266275538],[-73.9460438574329,40.798359552399],[-73.946246470403,40.7980821516947],[-73.9463110912908,40.7979936773714],[-73.9468654956416,40.7982014489183],[-73.946286205311,40.7990379098867],[-73.945940243109,40.7995374473632],[-73.9469751029599,40.7999699789487],[-73.9464627732889,40.8006735815737],[-73.9459490618828,40.8004574392961],[-73.9452979876729,40.800183496017],[-73.9448492032048,40.7999946633847]]]}},{"type":"Feature","properties":{"e":"68010"},"geometry":{"type":"Polygon","coordinates":[[[-73.9463110912908,40.7979936773714],[-73.9464616407523,40.7977875551603],[-73.946514819369,40.7977147456891],[-73.9466313041626,40.7975552612979],[-73.9467017443633,40.7974588187722],[-73.9472266437405,40.7976799615401],[-73.9483126897512,40.7981374926973],[-73.9482078505626,40.7982811262606],[-73.9481552784184,40.7983531517566],[-73.9481025254227,40.7984254240782],[-73.9480527371756,40.7984936350636],[-73.9478482262856,40.7987738184747],[-73.9478180656182,40.7988151382524],[-73.9477585997644,40.7988966073393],[-73.947711994858,40.798960455926],[-73.9474213973479,40.7993585706963],[-73.9473774334324,40.7994188001345],[-73.9473291501199,40.7994849469072],[-73.947281617937,40.7995500647295],[-73.9469751029599,40.7999699789487],[-73.945940243109,40.7995374473632],[-73.946286205311,40.7990379098867],[-73.9468654956416,40.7982014489183],[-73.9463110912908,40.7979936773714]]]}},{"type":"Feature","properties":{"e":"68011"},"geometry":{"type":"Polygon","coordinates":[[[-73.9467017443633,40.7974588187722],[-73.9471771942674,40.796805424852],[-73.9476467169885,40.7961645937738],[-73.9488470250018,40.7967126985041],[-73.9492347062515,40.7968802747577],[-73.9490666139756,40.797108769009],[-73.9487884634322,40.7974911139925],[-73.9483126897512,40.7981374926973],[-73.9472266437405,40.7976799615401],[-73.9467017443633,40.7974588187722]]]}},{"type":"Feature","properties":{"e":"68012"},"geometry":{"type":"Polygon","coordinates":[[[-73.9476467169885,40.7961645937738],[-73.947817946647,40.7959304141641],[-73.9478873393161,40.7958355093014],[-73.948086600275,40.7955446923607],[-73.948556932606,40.7949184504234],[-73.9501596479148,40.795596006073],[-73.9496882654971,40.7962252600891],[-73.9494243136274,40.7966146589544],[-73.9492347062515,40.7968802747577],[-73.9488470250018,40.7967126985041],[-73.9476467169885,40.7961645937738]]]}},{"type":"Feature","properties":{"e":"68013"},"geometry":{"type":"Polygon","coordinates":[[[-73.9490148464066,40.7942899158078],[-73.949509791109,40.7936139846072],[-73.9511124599259,40.7942933096024],[-73.9506302905149,40.7949678658056],[-73.9501596479148,40.795596006073],[-73.948556932606,40.7949184504234],[-73.9486342469431,40.7948123291452],[-73.9488465651238,40.7945209008426],[-73.948927013746,40.7944104753589],[-73.9489650764361,40.7943582304335],[-73.9490148464066,40.7942899158078]]]}},{"type":"Feature","properties":{"e":"68014"},"geometry":{"type":"Polygon","coordinates":[[[-73.9487884634322,40.7974911139925],[-73.9490666139756,40.797108769009],[-73.9492347062515,40.7968802747577],[-73.9497491664493,40.7971052764795],[-73.9509437195136,40.7976113926061],[-73.9523756271421,40.7982180462515],[-73.9524623650583,40.7982507690177],[-73.9523982857622,40.7983152458754],[-73.9520170123442,40.7988408093558],[-73.9519264838339,40.7988027526936],[-73.9487884634322,40.7974911139925]]]}},{"type":"Feature","properties":{"e":"68015"},"geometry":{"type":"Polygon","coordinates":[[[-73.9302276987385,40.7997768525664],[-73.9301875492994,40.7996714498833],[-73.93002102654,40.7992342756789],[-73.9299781526042,40.7991217184467],[-73.9298629000851,40.7988191375183],[-73.9298420793556,40.798764475192],[-73.9298177935651,40.7987007178321],[-73.9297281989655,40.7984655030989],[-73.9297053647212,40.7983964005403],[-73.9296570418821,40.7982501631429],[-73.929650359071,40.7982299381305],[-73.9296374401464,40.7981754539723],[-73.9295948838936,40.7979959737263],[-73.929593484579,40.7979900739821],[-73.9295812765314,40.7979063462516],[-73.929558121996,40.7977475566165],[-73.9295445162227,40.7975040534116],[-73.9295526171839,40.7972612469657],[-73.9295630869085,40.7972105730311],[-73.92959027493,40.7971603056724],[-73.9296339998326,40.7971151991265],[-73.9296909855921,40.7970796556091],[-73.9297556250655,40.7970563901118],[-73.9298216613001,40.7970457950095],[-73.931072935404,40.7975672356156],[-73.931138003319,40.7975943507307],[-73.93126876576,40.7976488408876],[-73.9315843922627,40.7977825849254],[-73.9316715614789,40.7978195214409],[-73.9318155103923,40.7978805170847],[-73.9318949431998,40.7979141760862],[-73.9320165123263,40.7979656884015],[-73.9316028615098,40.7985360953951],[-73.9313479306556,40.7985385837094],[-73.931426772768,40.7989752281448],[-73.9314199008562,40.7990069741049],[-73.9314059591506,40.7990373522058],[-73.9313853616237,40.7990654604077],[-73.9313587198858,40.7990904640718],[-73.9313268251935,40.7991116208213],[-73.9312906244358,40.7991283023762],[-73.9312511925508,40.7991400133966],[-73.9312097004236,40.7991464061365],[-73.9305958064645,40.7991373685765],[-73.9305442318662,40.7997818580495],[-73.9302276987385,40.7997768525664]]]}},{"type":"Feature","properties":{"e":"68016"},"geometry":{"type":"Polygon","coordinates":[[[-73.9302276987385,40.7997768525664],[-73.9305442318662,40.7997818580495],[-73.9305958064645,40.7991373685765],[-73.9312097004236,40.7991464061365],[-73.9312511925508,40.7991400133966],[-73.9312906244357,40.7991283023762],[-73.9313268251935,40.7991116208213],[-73.9313587198858,40.7990904640718],[-73.9313853616237,40.7990654604077],[-73.9314059591506,40.7990373522058],[-73.9314199008562,40.7990069741049],[-73.931426772768,40.7989752281448],[-73.9313479306556,40.7985385837094],[-73.9316028615098,40.7985360953951],[-73.9320165123263,40.7979656884015],[-73.9320839125055,40.7979942475836],[-73.9321538690156,40.7980238906096],[-73.9322304343158,40.7980563328001],[-73.9335246678325,40.7985925699159],[-73.9334677402294,40.7986705976717],[-73.9331496477793,40.7991056238582],[-73.9330870611594,40.79919121658],[-73.932985415284,40.7993302273568],[-73.9329206467554,40.7994188043463],[-73.9328580595456,40.7995043979447],[-73.9327930621963,40.7995932881661],[-73.9327059677331,40.799712397001],[-73.9326477463024,40.7997920194261],[-73.932559374683,40.7999128741829],[-73.9325060806444,40.7999857572088],[-73.9324231155345,40.8000992184629],[-73.9323716947738,40.8001695395592],[-73.9323011049622,40.8002660752337],[-73.9322384106343,40.8003518145038],[-73.9321541101148,40.8004671011298],[-73.9319700237754,40.8007190244786],[-73.9316038099864,40.8005565197027],[-73.9315847334102,40.8005480540707],[-73.9315376659165,40.8005271689411],[-73.9312481660448,40.8003987003735],[-73.9311678340921,40.8003630522185],[-73.9308982914624,40.8002434393283],[-73.9308253180391,40.8002110565519],[-73.930518208173,40.8000747695829],[-73.9304238031108,40.8000147124188],[-73.9303419123296,40.7999432889696],[-73.930275837138,40.7998629695707],[-73.9302276987385,40.7997768525664]]]}},{"type":"Feature","properties":{"e":"68017"},"geometry":{"type":"Polygon","coordinates":[[[-73.9358175633873,40.8037081776121],[-73.9335778789058,40.8027604567894],[-73.9340803635975,40.8021135846428],[-73.9340573735638,40.8020223379564],[-73.9340988852876,40.8019493436366],[-73.9341262006534,40.8019054479655],[-73.9343238937161,40.8016334616743],[-73.934352968,40.8015922952596],[-73.9344315220367,40.8014686213368],[-73.9344560999838,40.8014274556881],[-73.9345475590834,40.8014389960061],[-73.9368137260383,40.8017644186841],[-73.9372289543184,40.8017772938232],[-73.9388304540554,40.8024525660758],[-73.9383729345755,40.8030797449718],[-73.9379152752016,40.8037074983713],[-73.9374199604127,40.8043829552655],[-73.9358175633873,40.8037081776121]]]}},{"type":"Feature","properties":{"e":"68018"},"geometry":{"type":"Polygon","coordinates":[[[-73.9427352383276,40.7999866182053],[-73.9429662238478,40.799676602059],[-73.9432352976661,40.7993154621888],[-73.9433741517553,40.7993740722323],[-73.9448492032048,40.7999946633847],[-73.9452979876729,40.800183496017],[-73.9459490618828,40.8004574392961],[-73.9464627732889,40.8006735815737],[-73.9459693321453,40.8013506710136],[-73.9454761204354,40.8011432453751],[-73.9448429886623,40.8008769696261],[-73.9443550981166,40.8006717731496],[-73.942879991702,40.8000483921251],[-73.9427352383276,40.7999866182053]]]}},{"type":"Feature","properties":{"e":"68019"},"geometry":{"type":"Polygon","coordinates":[[[-73.9344560999838,40.8014274556881],[-73.934476432736,40.8013997981676],[-73.934819017883,40.8009337877103],[-73.9348509839755,40.8008903045913],[-73.9349177104752,40.800799537926],[-73.9352147965305,40.8003910086726],[-73.935244906519,40.8003496038844],[-73.9353749876427,40.8001707244283],[-73.9354516912212,40.8002031809609],[-73.9376874365734,40.8011491926067],[-73.9381460076129,40.8005180089408],[-73.9385852594267,40.7999001232907],[-73.9402075642985,40.8005653370556],[-73.940105795684,40.8007045237128],[-73.9400619545682,40.8007644837159],[-73.9397481142529,40.8011937101772],[-73.9393339690268,40.8017620161016],[-73.9392883207359,40.8018246552478],[-73.9388304540554,40.8024525660758],[-73.9372289543184,40.8017772938232],[-73.9368137260383,40.8017644186841],[-73.9345475590834,40.8014389960061],[-73.9344560999838,40.8014274556881]]]}},{"type":"Feature","properties":{"e":"68020"},"geometry":{"type":"MultiPolygon","coordinates":[[[[-73.92133895124,40.8008603839206],[-73.9211373733396,40.8004837365014],[-73.9210346031865,40.8002735579675],[-73.9208404131914,40.8000208742409],[-73.9205802081049,40.7996764252116],[-73.9203562257754,40.7994311294257],[-73.9203160818945,40.7993837353937],[-73.9192392835324,40.7988893437133],[-73.9191471637119,40.7988472636136],[-73.9190670287808,40.7988110739204],[-73.9189963946068,40.7987801191503],[-73.9189886711736,40.7987779885429],[-73.9189121863639,40.798748414578],[-73.9179813455314,40.7983884790655],[-73.9179042234955,40.7983709292525],[-73.9166312775204,40.7978664164148],[-73.9163999545389,40.7976931178377],[-73.9154561339028,40.7970717417442],[-73.9144396972769,40.7956737935297],[-73.9138057075619,40.7945201222729],[-73.9137852779657,40.7938445613457],[-73.9145935088777,40.7927848774795],[-73.9151427680056,40.7920207579414],[-73.9153584133915,40.791851324265],[-73.9155226028442,40.7917915253887],[-73.9163071723253,40.7911257549493],[-73.9161723042779,40.7910225684835],[-73.9168668302543,40.7903703379153],[-73.9170806595813,40.7904649491094],[-73.9171076480659,40.7904768920572],[-73.9178421446779,40.7901795943237],[-73.9181247338412,40.7900485149526],[-73.918434810526,40.789812239786],[-73.9185644233914,40.7897036085266],[-73.9185914398374,40.7894823780683],[-73.91851019476,40.7894333649055],[-73.9218939075069,40.7857115433662],[-73.9219968185616,40.7857643518468],[-73.9221924064369,40.7855189460538],[-73.9224365471956,40.7847911107559],[-73.9228534601001,40.7835639668507],[-73.923066158672,40.7833511583185],[-73.9240128847074,40.7826689627206],[-73.9240150739298,40.7826659168648],[-73.9240635143943,40.7825985516122],[-73.9241225669772,40.782531347312],[-73.9242376461495,40.7825051877934],[-73.92424897584,40.7825026117004],[-73.9243122069345,40.7824642297192],[-73.9244819491069,40.782328764171],[-73.9246747229382,40.7822531337858],[-73.9248853745365,40.7822308559776],[-73.9250623062702,40.782224567692],[-73.9251416429272,40.7822520404446],[-73.925154946433,40.7822566479499],[-73.9252433799715,40.7822823219335],[-73.9253908179817,40.7822824174787],[-73.925719514321,40.7821848307697],[-73.9271389684369,40.7812025415879],[-73.9273256537135,40.7810989017905],[-73.9275455355009,40.7810589075561],[-73.9276053832187,40.781048021174],[-73.9276979332696,40.7810230579189],[-73.9277888934019,40.7809981314142],[-73.9281026170188,40.780928592667],[-73.9284941233907,40.7810166262246],[-73.9291749563101,40.7814188507704],[-73.9303113098721,40.7820856080832],[-73.930639625246,40.7822696859812],[-73.9310549570592,40.7824048664355],[-73.9326722353548,40.7827019121961],[-73.9350248808481,40.7830146553087],[-73.9354070925154,40.7834027721826],[-73.935814427989,40.7837183537256],[-73.935983690941,40.7839506404724],[-73.9360720764826,40.7842254884702],[-73.9360547580295,40.7845206408339],[-73.9360041429839,40.7846836440789],[-73.9359196689376,40.78481515324],[-73.9357948836139,40.7852630545657],[-73.9357652786417,40.7854543127236],[-73.9357140908679,40.7856887621973],[-73.9331298643032,40.7887184533623],[-73.9326974910984,40.7891864974229],[-73.9324028846469,40.789728564456],[-73.9322421623491,40.7897031236794],[-73.9321067185731,40.7898422263196],[-73.9314773827123,40.7904874338697],[-73.9308432165625,40.790999703987],[-73.9307308336768,40.7909633886392],[-73.9297858587498,40.7913497494775],[-73.9297254365936,40.7913744530145],[-73.9296675337108,40.7913640610362],[-73.9287209173021,40.7909518065336],[-73.9285960273141,40.7909751989871],[-73.9280741645399,40.7908316651455],[-73.9273746974374,40.7908190994874],[-73.9269240106403,40.7907969675746],[-73.9268096643705,40.7907727138688],[-73.9266685709643,40.7907427878892],[-73.926419767736,40.7907016502273],[-73.926255742223,40.7907028079012],[-73.9261055298673,40.7907398816749],[-73.9260638082024,40.790836122975],[-73.9260670062429,40.7909447920784],[-73.9260873047551,40.7910120833233],[-73.9260905424064,40.7911000553353],[-73.9260461264437,40.7911853853275],[-73.92604936405,40.7912733564378],[-73.9260880336479,40.7913619509073],[-73.926113765773,40.7914209015862],[-73.9261543608535,40.7915554840436],[-73.9261610317448,40.7916279354121],[-73.9261608497451,40.791723663938],[-73.9262731131028,40.7917651831537],[-73.9264432509724,40.7918041790841],[-73.9265487250321,40.7918353397393],[-73.9265690915046,40.7918664091882],[-73.9265145491818,40.7919051589973],[-73.9262796917959,40.7918867936937],[-73.9261469852254,40.7918556000383],[-73.9259290587334,40.7918838223713],[-73.9257656894331,40.791865531655],[-73.9256369970382,40.7918304327244],[-73.925588726567,40.791829105751],[-73.9255818393552,40.7918627413138],[-73.9256089877305,40.7919041818764],[-73.9261708260986,40.7919074976661],[-73.9264294868543,40.791964765614],[-73.9266304121294,40.7919546721029],[-73.9266680510412,40.7919484654907],[-73.9267394169386,40.7919366981035],[-73.9267021735252,40.7918408962592],[-73.9266409743566,40.7917994099736],[-73.9265796757993,40.7918019184603],[-73.9265082156277,40.7917811244794],[-73.9263688537773,40.7916696633947],[-73.9263317508633,40.7915117503697],[-73.9263459431616,40.7912555633369],[-73.9264279705624,40.7911185090587],[-73.9264894575772,40.7910305990664],[-73.9265672762119,40.7909877758218],[-73.9267041501176,40.7909764337856],[-73.9267402833737,40.7909823955613],[-73.9268301734948,40.7909972262791],[-73.9269459891186,40.7910076564045],[-73.9270209346108,40.7910077038819],[-73.9271163050392,40.7910232987694],[-73.9271674243997,40.7910052076013],[-73.9272423710742,40.7910052549354],[-73.9273173064426,40.791015658875],[-73.9273820440455,40.7910053430189],[-73.9274399958664,40.7909691316521],[-73.9275115361046,40.7909691766668],[-73.9275626339648,40.7909717986322],[-73.9276546193945,40.7909666776246],[-73.9277855274268,40.7909498780264],[-73.927870321124,40.7909631126539],[-73.9278947157376,40.7909871208642],[-73.927903455897,40.7910180936578],[-73.9279119644335,40.7910474210905],[-73.9278951735379,40.7910993856993],[-73.9276612561525,40.791356608586],[-73.927579730851,40.7914687489932],[-73.9273220850145,40.7917514350372],[-73.9272780723165,40.7917756019327],[-73.9272342884001,40.7917996428857],[-73.9271370651338,40.7919375814144],[-73.9278028433361,40.7920057540432],[-73.928001964601,40.792141915446],[-73.9282686313793,40.7923367978862],[-73.9283391604664,40.792864824224],[-73.9283443396756,40.7929263325389],[-73.9283435553097,40.7929879650168],[-73.928336811268,40.7930493857733],[-73.9283241446212,40.7931102643467],[-73.9282967387721,40.7931694435104],[-73.9282666382279,40.7932211495366],[-73.9273547492495,40.7944701696872],[-73.9272620014033,40.794738108226],[-73.9272451953456,40.7947874513447],[-73.9270992559017,40.7951118805611],[-73.9270526567303,40.7951867682063],[-73.9270130151201,40.7952639349013],[-73.9269805210861,40.7953430079665],[-73.9269553350339,40.7954236047969],[-73.9269375759057,40.795505337357],[-73.9269273294759,40.7955878103848],[-73.9269246471622,40.7956706240929],[-73.9269063557001,40.7959921271043],[-73.9268920983241,40.7962427993107],[-73.9268911062932,40.7962602872957],[-73.9269533521853,40.7967167074407],[-73.9270398853591,40.7969970717171],[-73.9271194983796,40.7972121371827],[-73.9271865760035,40.7973581722418],[-73.9273562826762,40.7973248563563],[-73.927348350505,40.7973021776668],[-73.927672654468,40.7972252898003],[-73.9277083701176,40.7973069389311],[-73.9273840641489,40.7973853388356],[-73.9273681844727,40.7973550963437],[-73.927204424865,40.7973950238716],[-73.9272183213892,40.7974237090698],[-73.9272786309787,40.7974157290809],[-73.9274406504837,40.7977188143102],[-73.927477314028,40.7981311754078],[-73.9272643613441,40.7989269210226],[-73.9269213851249,40.7998458667016],[-73.9269024833961,40.799896513227],[-73.9268840464557,40.7999490447896],[-73.9268555303021,40.799995835572],[-73.9268075050043,40.800044177229],[-73.9266971543909,40.800155253981],[-73.9272491371479,40.8004012338389],[-73.9271160711256,40.8005720321876],[-73.9270683950266,40.8005512887433],[-73.927170758852,40.8004141308306],[-73.9266670836274,40.8001909900939],[-73.9265549444802,40.8003234488334],[-73.9267440670038,40.8004117758099],[-73.9267382683092,40.8004197478497],[-73.9267266918296,40.8004156153033],[-73.926722341232,40.8004224869518],[-73.9265398932667,40.8003421750379],[-73.9265039305983,40.8003831941857],[-73.9266861350417,40.8004630341392],[-73.9265538463569,40.800613101932],[-73.9268467134069,40.8007479236436],[-73.92683305618,40.8007738052386],[-73.9268705156982,40.8007919533626],[-73.9269967422719,40.8006444522983],[-73.9270478321678,40.8006600191594],[-73.9268874888152,40.800848925227],[-73.9265109768325,40.800665308088],[-73.9258818915116,40.8015600189482],[-73.9258263751778,40.8016507670913],[-73.9257769467414,40.8017388779615],[-73.9256996906305,40.8018191482388],[-73.9254943642264,40.80196444547],[-73.9252917331999,40.8020038633629],[-73.9252766385396,40.8020067991131],[-73.9243618688512,40.8019938305745],[-73.9226352137902,40.8018770155841],[-73.9221568167321,40.801634746443],[-73.9219123492918,40.8015109425264],[-73.92133895124,40.8008603839206]]],[[[-73.9353194859881,40.8043754397812],[-73.9330835133171,40.8034334914891],[-73.9326644701679,40.8040733780607],[-73.9323434281059,40.8039278306422],[-73.9312447726062,40.803462883305],[-73.9307468086226,40.8032507067968],[-73.9305984671037,40.8029394329867],[-73.9308234229714,40.8026046167018],[-73.9308950223994,40.8024980504377],[-73.9308096747123,40.8024706573852],[-73.93069827974,40.8024275321999],[-73.9306361064003,40.8024994825199],[-73.9305692190558,40.8025689481907],[-73.930537803462,40.8026065845423],[-73.9305014833308,40.8026415803663],[-73.930460640627,40.8026735675842],[-73.9304157035009,40.8027022105634],[-73.9303394330638,40.802764383595],[-73.9303136667862,40.8027834973276],[-73.9302508603847,40.802830088095],[-73.9301508236063,40.8028921997928],[-73.9299843133403,40.8029930294364],[-73.9299115155929,40.8028728279883],[-73.9298909104747,40.8028386343096],[-73.9297881101099,40.8026690257486],[-73.9296939412958,40.8024485621562],[-73.9295783672657,40.8021883022456],[-73.9295218696641,40.802061756568],[-73.9294550939215,40.8019156457247],[-73.929437970064,40.8018699880313],[-73.9293557902155,40.8016795271059],[-73.929332699836,40.8016071308118],[-73.9293036328161,40.8015040787474],[-73.9292763073157,40.8013814670936],[-73.9292096055499,40.8011557970092],[-73.9291198169456,40.8011212797217],[-73.9290363325024,40.801089180484],[-73.9290281427571,40.8009781366511],[-73.9290226654422,40.8009038492738],[-73.9290178760544,40.8008389923499],[-73.929009310242,40.8007806257011],[-73.9290013778275,40.8007183737858],[-73.9289876165703,40.8006103990163],[-73.9289549159361,40.8003176444667],[-73.9289390663009,40.8001791198485],[-73.9289029528584,40.7998634904688],[-73.9289208542376,40.7994664621914],[-73.9289453980644,40.7989198649672],[-73.9289726391339,40.7982671373374],[-73.9290378311201,40.796770869782],[-73.9290560404081,40.7967027095307],[-73.9290883440676,40.7967150131296],[-73.9292466906016,40.7967786335101],[-73.9293085121862,40.7968044518569],[-73.9293910157051,40.7968392356128],[-73.929633519761,40.7969565281573],[-73.9298216617853,40.7970457950614],[-73.9297556256213,40.7970563897445],[-73.9296909861359,40.7970796552773],[-73.9296340002103,40.7971151992618],[-73.929590275485,40.7971603056243],[-73.9295630870741,40.7972105729358],[-73.9295526165969,40.7972612466788],[-73.9295445164674,40.7975040534505],[-73.9295581215432,40.7977475569577],[-73.9295812770425,40.7979063463549],[-73.9295934847963,40.7979900741904],[-73.929594883919,40.7979959733195],[-73.9296374404357,40.7981754536266],[-73.929650359382,40.7982299381529],[-73.9296570413491,40.7982501629555],[-73.9297053649835,40.7983964002945],[-73.9297281986231,40.7984655032668],[-73.9298177937044,40.7987007179785],[-73.9298420788656,40.7987644755412],[-73.9298629004972,40.7988191377438],[-73.9299781527302,40.799121718103],[-73.9300210266407,40.7992342759896],[-73.9301875498066,40.7996714498002],[-73.9302276981504,40.7997768523796],[-73.9302758370825,40.7998629692732],[-73.9303419123493,40.7999432887626],[-73.9304238025403,40.8000147127186],[-73.930518207668,40.8000747699487],[-73.9308253177895,40.8002110561575],[-73.9308982919399,40.8002434395662],[-73.9311678337905,40.8003630520948],[-73.9312481661337,40.8003987003833],[-73.9315376662671,40.8005271686514],[-73.9315847333165,40.8005480539649],[-73.9316038103024,40.8005565200755],[-73.9319700240062,40.8007190247993],[-73.9321541098171,40.8004671014812],[-73.9322384109807,40.8003518141822],[-73.9323011053397,40.8002660748321],[-73.9323716942971,40.8001695394866],[-73.932423115196,40.8000992181112],[-73.9325060804572,40.7999857569409],[-73.932559374772,40.7999128737778],[-73.9347907236763,40.8007517959718],[-73.9349177110658,40.8007995383764],[-73.9348509844355,40.8008903043504],[-73.9348190176709,40.800933787608],[-73.9344764331316,40.801399798156],[-73.9344560994014,40.801427455341],[-73.9344315218243,40.8014686212013],[-73.9343529680624,40.8015922952034],[-73.9343238931939,40.8016334620807],[-73.9341262002436,40.8019054477666],[-73.9340988857207,40.8019493432035],[-73.9340573741126,40.8020223382532],[-73.9340803634149,40.8021135845875],[-73.9335778792167,40.8027604570581],[-73.9358175636418,40.8037081773409],[-73.9353194859881,40.8043754397812]]]]}},{"type":"Feature","properties":{"e":"68021"},"geometry":{"type":"Polygon","coordinates":[[[-73.9349177104752,40.800799537926],[-73.9347907240535,40.800751796284],[-73.932559374683,40.7999128741829],[-73.9326477463024,40.7997920194261],[-73.9327059677331,40.799712397001],[-73.9327930621963,40.7995932881661],[-73.9328580595456,40.7995043979447],[-73.9329206467554,40.7994188043463],[-73.932985415284,40.7993302273568],[-73.9330870611594,40.79919121658],[-73.9331496477793,40.7991056238582],[-73.9334677402294,40.7986705976717],[-73.9335246678325,40.7985925699159],[-73.9322304343158,40.7980563328001],[-73.9321538690156,40.7980238906096],[-73.9320839125055,40.7979942475836],[-73.9320165123263,40.7979656884015],[-73.9318949431998,40.7979141760862],[-73.9318155103923,40.7978805170847],[-73.9316715614789,40.7978195214409],[-73.9315843922627,40.7977825849254],[-73.93126876576,40.7976488408876],[-73.931138003319,40.7975943507307],[-73.931072935404,40.7975672356156],[-73.9298216613001,40.7970457950095],[-73.9296335196693,40.7969565281965],[-73.92939101627,40.7968392353645],[-73.9293085120573,40.7968044520043],[-73.9292466904866,40.7967786338183],[-73.9290883435506,40.7967150130415],[-73.9290560398977,40.7967027093929],[-73.9292807963816,40.7958614148733],[-73.9293094142291,40.7958798940211],[-73.9294582997967,40.7959825777292],[-73.9295060322633,40.7960123873526],[-73.9295703940793,40.7960493745087],[-73.9297788540763,40.7961648555705],[-73.9317445774936,40.7969957022591],[-73.9339914207078,40.7979407178937],[-73.9347123830373,40.7982454591983],[-73.9350911266655,40.7984057220782],[-73.9359283007676,40.7987599617609],[-73.9359705040479,40.798777819414],[-73.936362612086,40.7989437302748],[-73.9385852594267,40.7999001232907],[-73.9381460076129,40.8005180089408],[-73.9376874365734,40.8011491926067],[-73.9354516912212,40.8002031809609],[-73.9353749876427,40.8001707244283],[-73.935244906519,40.8003496038844],[-73.9352147965305,40.8003910086726],[-73.9349177104752,40.800799537926]]]}},{"type":"Feature","properties":{"e":"68022"},"geometry":{"type":"Polygon","coordinates":[[[-73.9406669331035,40.799938241558],[-73.9411276474473,40.7993079302232],[-73.9413490429469,40.7990043558949],[-73.9416206597153,40.7986319144525],[-73.9431016929398,40.7992581237373],[-73.9436095554395,40.7985690956341],[-73.9437434226118,40.7986233530156],[-73.9438745413671,40.7986777350492],[-73.9442836368829,40.7988477136635],[-73.9443392719026,40.7988708303346],[-73.9453604979805,40.7992951383825],[-73.9448492032048,40.7999946633847],[-73.9433741517553,40.7993740722323],[-73.9432352976661,40.7993154621888],[-73.9429662238478,40.799676602059],[-73.9427352383276,40.7999866182053],[-73.9422731846321,40.8006164757006],[-73.9421492543002,40.8005644004462],[-73.9406669331035,40.799938241558]]]}},{"type":"Feature","properties":{"e":"68023"},"geometry":{"type":"Polygon","coordinates":[[[-73.9437434226118,40.7986233530156],[-73.9439127349999,40.7983918533912],[-73.9439682641695,40.7983159282696],[-73.9441717028248,40.7980377658509],[-73.9443243386333,40.79782906454],[-73.9444307908215,40.7976835102432],[-73.9446330170975,40.7974069948457],[-73.9446955392682,40.7973215040298],[-73.9447630091998,40.7972292487134],[-73.9448621071391,40.7970937433202],[-73.9449290897662,40.7970021524095],[-73.9450975811123,40.79677175844],[-73.9452284229952,40.7968284082798],[-73.9455665020648,40.7969730701144],[-73.9456682814326,40.7970166193437],[-73.9467017443633,40.7974588187722],[-73.9466313041626,40.7975552612979],[-73.946514819369,40.7977147456891],[-73.9464616407523,40.7977875551603],[-73.9463110912908,40.7979936773714],[-73.946246470403,40.7980821516947],[-73.9460438574329,40.798359552399],[-73.9459948662809,40.7984266275538],[-73.9456340845357,40.7989205744472],[-73.9455923264896,40.7989777450769],[-73.9455482223838,40.7990381268733],[-73.9455047941875,40.7990975840667],[-73.9454428947655,40.7991823301067],[-73.945401049658,40.7992396185613],[-73.9453604979805,40.7992951383825],[-73.9443392719026,40.7988708303346],[-73.9442836368829,40.7988477136635],[-73.9438745413671,40.7986777350492],[-73.9437434226118,40.7986233530156]]]}},{"type":"Feature","properties":{"e":"68024"},"geometry":{"type":"Polygon","coordinates":[[[-73.9480401287064,40.7829505416233],[-73.948514502434,40.7823303054425],[-73.9498276560458,40.7828846267558],[-73.9507405731613,40.7832699829138],[-73.9502839841826,40.7838987422686],[-73.9480401287064,40.7829505416233]]]}},{"type":"Feature","properties":{"e":"68025"},"geometry":{"type":"Polygon","coordinates":[[[-73.9385852594267,40.7999001232907],[-73.9390514480829,40.799264192141],[-73.9395227505775,40.7986338317664],[-73.9398727358122,40.79815885411],[-73.9400231832557,40.7979546756661],[-73.9405197130484,40.797268976309],[-73.9407030302249,40.7970185587504],[-73.9407581027771,40.7969433266333],[-73.9408553510754,40.7968104811732],[-73.9409104087154,40.796735270249],[-73.9409818442628,40.7966376845018],[-73.9410362039674,40.7965634213498],[-73.9410992629063,40.7964772767179],[-73.9411576107185,40.7963975688042],[-73.941336850004,40.7961527128021],[-73.9418471971808,40.7963771686062],[-73.9421619232904,40.796259329375],[-73.9422560059556,40.7961382725477],[-73.9431802878657,40.7964990297237],[-73.943135910522,40.7965599365148],[-73.943041547624,40.7966894443766],[-73.9430019459666,40.7967437978861],[-73.9429556885955,40.7968072825558],[-73.942906510163,40.796874777983],[-73.9428629782652,40.7969345234662],[-73.9428382350285,40.796968482251],[-73.9427790523941,40.7970497061917],[-73.9427338358699,40.797111762298],[-73.9426873733955,40.7971755283642],[-73.942638373852,40.7972427756578],[-73.9425910736252,40.797307691326],[-73.9423999922699,40.7975699339161],[-73.9423470231957,40.7976426290207],[-73.942121545298,40.7979520731841],[-73.9416206597153,40.7986319144525],[-73.9413490429469,40.7990043558949],[-73.9411276474473,40.7993079302232],[-73.9406669331035,40.799938241558],[-73.9402075642985,40.8005653370556],[-73.9385852594267,40.7999001232907]]]}},{"type":"Feature","properties":{"e":"68026"},"geometry":{"type":"Polygon","coordinates":[[[-73.9416206597153,40.7986319144525],[-73.942121545298,40.7979520731841],[-73.9423470231957,40.7976426290207],[-73.9423999922699,40.7975699339161],[-73.9425910736252,40.797307691326],[-73.942638373852,40.7972427756578],[-73.9426873733955,40.7971755283642],[-73.9427338358699,40.797111762298],[-73.9427790523941,40.7970497061917],[-73.9428382350285,40.796968482251],[-73.9432989096898,40.7971753208481],[-73.9442980664856,40.797623922889],[-73.9443667517753,40.797654760717],[-73.9444052640014,40.7976720507864],[-73.9444307908215,40.7976835102432],[-73.9443243386333,40.79782906454],[-73.9441717028248,40.7980377658509],[-73.9439682641695,40.7983159282696],[-73.9439127349999,40.7983918533912],[-73.9437434226118,40.7986233530156],[-73.9436095554395,40.7985690956341],[-73.9431016929398,40.7992581237373],[-73.9416206597153,40.7986319144525]]]}},{"type":"Feature","properties":{"e":"68027"},"geometry":{"type":"Polygon","coordinates":[[[-73.9428382350285,40.796968482251],[-73.9428629782652,40.7969345234662],[-73.942906510163,40.796874777983],[-73.9429556885955,40.7968072825558],[-73.9430019459666,40.7967437978861],[-73.943041547624,40.7966894443766],[-73.943135910522,40.7965599365148],[-73.9431802878657,40.7964990297237],[-73.9422560059556,40.7961382725477],[-73.9421619232904,40.796259329375],[-73.9418471971808,40.7963771686062],[-73.941336850004,40.7961527128021],[-73.9413886348484,40.7960819685388],[-73.9414214501401,40.796037140114],[-73.9417040080979,40.7956511301518],[-73.9417623535801,40.7955714219211],[-73.9418774795882,40.795414143874],[-73.9423285418288,40.7956013776137],[-73.9424806649902,40.7956645231089],[-73.9427549134505,40.7957783595334],[-73.9428791948573,40.795829946354],[-73.9434846738148,40.7960812684701],[-73.9441526510871,40.7963675915497],[-73.944214572012,40.7963941328669],[-73.9449608634179,40.7967140165657],[-73.9450975811123,40.79677175844],[-73.9449290897662,40.7970021524095],[-73.9448621071391,40.7970937433202],[-73.9447630091998,40.7972292487134],[-73.9446955392682,40.7973215040298],[-73.9446330170975,40.7974069948457],[-73.9444307908215,40.7976835102432],[-73.9444052640014,40.7976720507864],[-73.9443667517753,40.797654760717],[-73.9442980664856,40.797623922889],[-73.9432989096898,40.7971753208481],[-73.9428382350285,40.796968482251]]]}},{"type":"Feature","properties":{"e":"68028"},"geometry":{"type":"Polygon","coordinates":[[[-73.9450975811123,40.79677175844],[-73.9449608634179,40.7967140165657],[-73.944214572012,40.7963941328669],[-73.9441526510871,40.7963675915497],[-73.9434846738148,40.7960812684701],[-73.9428791948573,40.795829946354],[-73.9427549134505,40.7957783595334],[-73.9424806649902,40.7956645231089],[-73.9423285418288,40.7956013776137],[-73.9418774795882,40.795414143874],[-73.9423513142499,40.7947635991547],[-73.9428115061863,40.7941397272068],[-73.9433461129492,40.7943662595963],[-73.9437503968341,40.7945377457602],[-73.9444080758244,40.7948167125839],[-73.945147655438,40.7951170477832],[-73.9452363001955,40.7951530448246],[-73.9459078564848,40.7954257500776],[-73.9460305661632,40.7954697693449],[-73.9461700763948,40.7955300698763],[-73.9464518066312,40.7956511338907],[-73.9465690462475,40.7957015134794],[-73.9476467169885,40.7961645937738],[-73.9471771942674,40.796805424852],[-73.9467017443633,40.7974588187722],[-73.9456682814326,40.7970166193437],[-73.9455665020648,40.7969730701144],[-73.9452284229952,40.7968284082798],[-73.9450975811123,40.79677175844]]]}},{"type":"Feature","properties":{"e":"68029"},"geometry":{"type":"Polygon","coordinates":[[[-73.936362612086,40.7989437302748],[-73.9368227423096,40.7983156150383],[-73.9372820815729,40.7976871823626],[-73.9377761632865,40.7970110209303],[-73.9382865158331,40.7963097511787],[-73.9391804770989,40.7966937441612],[-73.9393469044888,40.7967652293306],[-73.9397084426509,40.796920519835],[-73.9398913183034,40.7969990701423],[-73.940190246639,40.7971274665124],[-73.9402739489133,40.7971634175521],[-73.9405197130484,40.797268976309],[-73.9400231832557,40.7979546756661],[-73.9398727358122,40.79815885411],[-73.9395227505775,40.7986338317664],[-73.9390514480829,40.799264192141],[-73.9385852594267,40.7999001232907],[-73.936362612086,40.7989437302748]]]}},{"type":"Feature","properties":{"e":"68030"},"geometry":{"type":"Polygon","coordinates":[[[-73.9382865158331,40.7963097511787],[-73.9383278689804,40.7962534530776],[-73.9383682818028,40.7961984368624],[-73.938636912882,40.795832724136],[-73.938678271174,40.7957764193745],[-73.9387402486671,40.7956920441752],[-73.9388325185991,40.7955664246108],[-73.9388747031275,40.7955089942793],[-73.9389482679219,40.7954088407327],[-73.9389909967453,40.7953506685097],[-73.9391896778644,40.7950801754954],[-73.9397900171242,40.7953407701062],[-73.9398234196465,40.7953552687479],[-73.9400875649186,40.7954699274602],[-73.9401182292799,40.795483236673],[-73.9404893610729,40.7956443326448],[-73.9413103694828,40.7959903381011],[-73.9414214501401,40.796037140114],[-73.9413886348484,40.7960819685388],[-73.941336850004,40.7961527128021],[-73.9411576107185,40.7963975688042],[-73.9410992629063,40.7964772767179],[-73.9410362039674,40.7965634213498],[-73.9409818442628,40.7966376845018],[-73.9409104087154,40.796735270249],[-73.9408553510754,40.7968104811732],[-73.9407581027771,40.7969433266333],[-73.9407030302249,40.7970185587504],[-73.9405197130484,40.797268976309],[-73.9402739489133,40.7971634175521],[-73.940190246639,40.7971274665124],[-73.9398913183034,40.7969990701423],[-73.9397084426509,40.796920519835],[-73.9393469044888,40.7967652293306],[-73.9391804770989,40.7966937441612],[-73.9382865158331,40.7963097511787]]]}},{"type":"Feature","properties":{"e":"68031"},"geometry":{"type":"Polygon","coordinates":[[[-73.9391896778644,40.7950801754954],[-73.9393686885033,40.7948350808095],[-73.9394238975318,40.7947594908723],[-73.9395175720986,40.7946312337986],[-73.9395679311859,40.7945622829436],[-73.9396314032483,40.7944753790755],[-73.9401078897985,40.7938252774136],[-73.940564229548,40.7931961902452],[-73.9428115061863,40.7941397272068],[-73.9423513142499,40.7947635991547],[-73.9418774795882,40.795414143874],[-73.9417623535801,40.7955714219211],[-73.9417040080979,40.7956511301518],[-73.9414214501401,40.796037140114],[-73.9413103694828,40.7959903381011],[-73.9404893610729,40.7956443326448],[-73.9401182292799,40.795483236673],[-73.9400875649186,40.7954699274602],[-73.9398234196465,40.7953552687479],[-73.9397900171242,40.7953407701062],[-73.9391896778644,40.7950801754954]]]}},{"type":"Feature","properties":{"e":"68032"},"geometry":{"type":"Polygon","coordinates":[[[-73.9292807963816,40.7958614148733],[-73.9293091617344,40.7958185332989],[-73.9295320095979,40.7955160741281],[-73.9296843722375,40.7953045094957],[-73.929747375996,40.7952170239469],[-73.9298762868932,40.7950434319001],[-73.9298438772947,40.7950233135279],[-73.9298528737161,40.795009675595],[-73.9298109825869,40.7949914414606],[-73.9298339701783,40.7949573368002],[-73.9298888356302,40.794975567762],[-73.929902827659,40.794955100019],[-73.9299177903246,40.7949573877931],[-73.9299387831309,40.7949270614317],[-73.929921824129,40.7949179474757],[-73.9300702401696,40.7947091037054],[-73.9301091394471,40.7947212666669],[-73.9301980737776,40.7946014994267],[-73.9304212347125,40.7944791473913],[-73.9311155099046,40.7941047762886],[-73.9311445493032,40.7941259182166],[-73.9312394740674,40.7941950268758],[-73.9312924699496,40.794233609348],[-73.9313403963156,40.7942592297063],[-73.9316192122122,40.7944106432821],[-73.9324174787115,40.7947492676122],[-73.9331584027021,40.7950618468997],[-73.9329238607734,40.795382340694],[-73.932662151191,40.7957399549105],[-73.9349140028498,40.796688925699],[-73.9368009188177,40.7974843559002],[-73.9369041768419,40.7975278828533],[-73.9372820815729,40.7976871823626],[-73.9368227423096,40.7983156150383],[-73.936362612086,40.7989437302748],[-73.9359705040479,40.798777819414],[-73.9359283007676,40.7987599617609],[-73.9350911266655,40.7984057220782],[-73.9347123830373,40.7982454591983],[-73.9339914207078,40.7979407178937],[-73.9317445774936,40.7969957022591],[-73.9297788540763,40.7961648555705],[-73.9295703940793,40.7960493745087],[-73.9295060322633,40.7960123873526],[-73.9294582997967,40.7959825777292],[-73.9293094142291,40.7958798940211],[-73.9292807963816,40.7958614148733]]]}},{"type":"Feature","properties":{"e":"68033"},"geometry":{"type":"Polygon","coordinates":[[[-73.9331584027021,40.7950618468997],[-73.9336488448075,40.7943847785309],[-73.9341091384166,40.7937767179817],[-73.9346595907794,40.7940037158805],[-73.9363623616253,40.7947058874222],[-73.9362313311556,40.7948852715297],[-73.936197151855,40.7949320639731],[-73.9359780048721,40.7952320798322],[-73.935951099027,40.7952689145308],[-73.9359137006985,40.7953201131851],[-73.935412279744,40.7960137702432],[-73.9375559925723,40.7969181459626],[-73.9376396283202,40.7969534259333],[-73.9377761632865,40.7970110209303],[-73.9372820815729,40.7976871823626],[-73.9369041768419,40.7975278828533],[-73.9368009188177,40.7974843559002],[-73.9349140028498,40.796688925699],[-73.932662151191,40.7957399549105],[-73.9329238607734,40.795382340694],[-73.9331584027021,40.7950618468997]]]}},{"type":"Feature","properties":{"e":"68034"},"geometry":{"type":"Polygon","coordinates":[[[-73.9363623616253,40.7947058874222],[-73.9363992010405,40.7946554706514],[-73.9364315365787,40.7946112121186],[-73.9364719292886,40.7945559258221],[-73.9365309660075,40.7944751216396],[-73.9366107736804,40.7943658874504],[-73.9366708300085,40.7942836860931],[-73.9367111499242,40.7942284996827],[-73.9367806898418,40.7941333181025],[-73.9368130306528,40.7940906338629],[-73.9368829852005,40.7939951478859],[-73.9369548668403,40.7938970324403],[-73.9371020997927,40.7936960563134],[-73.9371586078176,40.793618921229],[-73.9372584824173,40.7934825899471],[-73.9381088252502,40.7938383683564],[-73.9382808487997,40.7939103400758],[-73.9386543809171,40.7940666197387],[-73.9388600945087,40.7941526851444],[-73.9396314032483,40.7944753790755],[-73.9395679311859,40.7945622829436],[-73.9395175720986,40.7946312337986],[-73.9394238975318,40.7947594908723],[-73.9393686885033,40.7948350808095],[-73.9391896778644,40.7950801754954],[-73.9389909967453,40.7953506685097],[-73.9389482679219,40.7954088407327],[-73.9388747031275,40.7955089942793],[-73.9388325185991,40.7955664246108],[-73.9387402486671,40.7956920441752],[-73.938678271174,40.7957764193745],[-73.938636912882,40.795832724136],[-73.9383682818028,40.7961984368624],[-73.9383278689804,40.7962534530776],[-73.9382865158331,40.7963097511787],[-73.9377761632865,40.7970110209303],[-73.9376396283202,40.7969534259333],[-73.9375559925723,40.7969181459626],[-73.935412279744,40.7960137702432],[-73.9359137006985,40.7953201131851],[-73.935951099027,40.7952689145308],[-73.9359780048721,40.7952320798322],[-73.936197151855,40.7949320639731],[-73.9362313311556,40.7948852715297],[-73.9363623616253,40.7947058874222]]]}},{"type":"Feature","properties":{"e":"68035"},"geometry":{"type":"Polygon","coordinates":[[[-73.9311155099046,40.7941047762886],[-73.9314290151211,40.7939362632836],[-73.9316596406652,40.7938100153071],[-73.9317943548495,40.7937362366399],[-73.9318764313874,40.7936901966806],[-73.9320114442805,40.7936137609871],[-73.9320802899459,40.7935747836411],[-73.9323527184966,40.7934221204217],[-73.9325106393488,40.7933401762908],[-73.9325399570707,40.793324956878],[-73.9326738218689,40.793256508],[-73.9328785571693,40.7931385265647],[-73.9331082621011,40.793003602869],[-73.9332473040086,40.7929225711704],[-73.9332727502812,40.7929077379866],[-73.9334863265773,40.7927824459355],[-73.9337293352341,40.7926097529317],[-73.9338892835609,40.7924977515506],[-73.9340714075587,40.792366568274],[-73.9342736474949,40.7922255907668],[-73.9343417582344,40.792176242509],[-73.9345118559019,40.792059569072],[-73.9347402463242,40.7919090430933],[-73.9350554911473,40.7916945056936],[-73.9351090761601,40.791657163026],[-73.9351732551166,40.7916130138825],[-73.9352695290714,40.7915363006],[-73.9352664391761,40.7915340377779],[-73.93519182356,40.7914794344173],[-73.9354690522198,40.7912719262958],[-73.9355403976601,40.791326967906],[-73.9358324993306,40.7911029795653],[-73.9358468933506,40.7911278685806],[-73.9358986451037,40.7912173526197],[-73.9359565586687,40.791243148003],[-73.9360144846134,40.7912689525778],[-73.9361063468541,40.7913036815772],[-73.9366507576364,40.7915318623397],[-73.9372436407382,40.7917803555558],[-73.9381949005501,40.7921964690692],[-73.940564229548,40.7931961902452],[-73.9401078897985,40.7938252774136],[-73.9396314032483,40.7944753790755],[-73.9388600945087,40.7941526851444],[-73.9386543809171,40.7940666197387],[-73.9382808487997,40.7939103400758],[-73.9381088252502,40.7938383683564],[-73.9372584824173,40.7934825899471],[-73.9371586078176,40.793618921229],[-73.9371020997927,40.7936960563134],[-73.9369548668403,40.7938970324403],[-73.9368829852005,40.7939951478859],[-73.9368130306528,40.7940906338629],[-73.9367806898418,40.7941333181025],[-73.9367111499242,40.7942284996827],[-73.9366708300085,40.7942836860931],[-73.9366107736804,40.7943658874504],[-73.9365309660075,40.7944751216396],[-73.9364719292886,40.7945559258221],[-73.9364315365787,40.7946112121186],[-73.9363992010405,40.7946554706514],[-73.9363623616253,40.7947058874222],[-73.9346595907794,40.7940037158805],[-73.9341091384166,40.7937767179817],[-73.9336488448075,40.7943847785309],[-73.9331584027021,40.7950618468997],[-73.9324174787115,40.7947492676122],[-73.9316192122122,40.7944106432821],[-73.9313403963156,40.7942592297063],[-73.9312924699496,40.794233609348],[-73.9312394740674,40.7941950268758],[-73.9311445493032,40.7941259182166],[-73.9311155099046,40.7941047762886]]]}},{"type":"Feature","properties":{"e":"68036"},"geometry":{"type":"Polygon","coordinates":[[[-73.9428115061863,40.7941397272068],[-73.943273945216,40.7934963778376],[-73.9437251929783,40.7928820262165],[-73.944184109887,40.792253410552],[-73.9457856983366,40.792929721956],[-73.9453255815339,40.7935607290813],[-73.9451809283721,40.7937583863653],[-73.945132273074,40.7938248703322],[-73.9450993095397,40.793869912681],[-73.9450696385032,40.7939104556933],[-73.944867320011,40.7941869066242],[-73.9460772978673,40.7946991341838],[-73.9461484526041,40.7947292551133],[-73.946345453753,40.7948126506501],[-73.9464810792545,40.7948691486979],[-73.9464023131752,40.7949741600145],[-73.9462803114234,40.79513681191],[-73.9460305661632,40.7954697693449],[-73.9459078564848,40.7954257500776],[-73.9452363001955,40.7951530448246],[-73.945147655438,40.7951170477832],[-73.9444080758244,40.7948167125839],[-73.9437503968341,40.7945377457602],[-73.9433461129492,40.7943662595963],[-73.9428115061863,40.7941397272068]]]}},{"type":"Feature","properties":{"e":"68037"},"geometry":{"type":"Polygon","coordinates":[[[-73.940564229548,40.7931961902452],[-73.9410364011505,40.7925549434718],[-73.9415054429499,40.7919148800316],[-73.9396789356322,40.7911440303027],[-73.9391334135344,40.7909132327669],[-73.9395906885932,40.7902865528148],[-73.9401581372612,40.7905554714029],[-73.9409453340228,40.7908722176787],[-73.9413930327948,40.791049378209],[-73.9415732801266,40.7907890654463],[-73.9416589457182,40.7907664307919],[-73.9416774221037,40.7907689892229],[-73.9416961946337,40.7907694058963],[-73.9417148359792,40.7907676713272],[-73.9417329217976,40.7907638250004],[-73.9417500407867,40.7907579542358],[-73.9417658027896,40.7907501928237],[-73.9417798489936,40.7907407174482],[-73.9417918596454,40.790729743811],[-73.9419951883698,40.7904469852834],[-73.9424360252551,40.7906345056148],[-73.9419666765324,40.7912801227466],[-73.9421954066364,40.7912484849687],[-73.943292731932,40.7917076719881],[-73.9437057843352,40.7918848783236],[-73.9436230311947,40.7920180672531],[-73.944184109887,40.792253410552],[-73.9437251929783,40.7928820262165],[-73.943273945216,40.7934963778376],[-73.9428115061863,40.7941397272068],[-73.940564229548,40.7931961902452]]]}},{"type":"Feature","properties":{"e":"68038"},"geometry":{"type":"Polygon","coordinates":[[[-73.9360144846134,40.7912689525778],[-73.9365257886654,40.790667500852],[-73.9366275031782,40.7907100549392],[-73.9370964844865,40.7909142656771],[-73.9386502647159,40.79156602899],[-73.9391334135344,40.7909132327669],[-73.9396789356322,40.7911440303027],[-73.9415054429499,40.7919148800316],[-73.9410364011505,40.7925549434718],[-73.940564229548,40.7931961902452],[-73.9381949005501,40.7921964690692],[-73.9372436407382,40.7917803555558],[-73.9366507576364,40.7915318623397],[-73.9361063468541,40.7913036815772],[-73.9360144846134,40.7912689525778]]]}},{"type":"Feature","properties":{"e":"68039"},"geometry":{"type":"Polygon","coordinates":[[[-73.9460305661632,40.7954697693449],[-73.9462803114234,40.79513681191],[-73.9464023131752,40.7949741600145],[-73.9464810792545,40.7948691486979],[-73.9467112556913,40.7945609809502],[-73.9468542507171,40.7943695333387],[-73.9469492010239,40.7942424088107],[-73.9473985063992,40.793604295824],[-73.9479030029106,40.7929408379953],[-73.9480215476196,40.7929885636247],[-73.9486523997922,40.7932536784033],[-73.9487328639832,40.7932874924686],[-73.9490468133385,40.7934194265013],[-73.9491224675005,40.7934512186524],[-73.949509791109,40.7936139846072],[-73.9490148464066,40.7942899158078],[-73.9489650764361,40.7943582304335],[-73.948927013746,40.7944104753589],[-73.9488465651238,40.7945209008426],[-73.9486342469431,40.7948123291452],[-73.948556932606,40.7949184504234],[-73.948086600275,40.7955446923607],[-73.9478873393161,40.7958355093014],[-73.947817946647,40.7959304141641],[-73.9476467169885,40.7961645937738],[-73.9465690462475,40.7957015134794],[-73.9464518066312,40.7956511338907],[-73.9461700763948,40.7955300698763],[-73.9460305661632,40.7954697693449]]]}},{"type":"Feature","properties":{"e":"68040"},"geometry":{"type":"Polygon","coordinates":[[[-73.9479030029106,40.7929408379953],[-73.9483874871377,40.7922642123507],[-73.948527492632,40.7920714334562],[-73.9485855042347,40.7919915547282],[-73.9486342526636,40.7919244320628],[-73.9486880774608,40.79185031763],[-73.9487461039035,40.7917704178845],[-73.9488476510571,40.7916305909125],[-73.9489770424406,40.7916852651366],[-73.9495685321134,40.7919344133252],[-73.9496182867638,40.7919553696917],[-73.9500140320712,40.7921220621174],[-73.950066756952,40.7921442711576],[-73.9501188441599,40.7921662098472],[-73.9504609763316,40.7923103190905],[-73.95091880661,40.7916826675322],[-73.9513726446192,40.7910573723398],[-73.9529788425107,40.7917279663789],[-73.9525236632545,40.7923558960774],[-73.9520727068859,40.7929894464776],[-73.9516040902979,40.7936160797447],[-73.9511124599259,40.7942933096024],[-73.949509791109,40.7936139846072],[-73.9491224675005,40.7934512186524],[-73.9490468133385,40.7934194265013],[-73.9487328639832,40.7932874924686],[-73.9486523997922,40.7932536784033],[-73.9480215476196,40.7929885636247],[-73.9479030029106,40.7929408379953]]]}},{"type":"Feature","properties":{"e":"68041"},"geometry":{"type":"Polygon","coordinates":[[[-73.9457856983366,40.792929721956],[-73.9462805598046,40.792253659017],[-73.9467734195897,40.7915777296628],[-73.9472308430327,40.7909477513173],[-73.9487100396955,40.7915741315904],[-73.9488476510571,40.7916305909125],[-73.9487461039035,40.7917704178845],[-73.9486880774608,40.79185031763],[-73.9486342526636,40.7919244320628],[-73.9485855042347,40.7919915547282],[-73.948527492632,40.7920714334562],[-73.9483874871377,40.7922642123507],[-73.9479030029106,40.7929408379953],[-73.9473985063992,40.793604295824],[-73.9469492010239,40.7942424088107],[-73.9468542507171,40.7943695333387],[-73.9467112556913,40.7945609809502],[-73.9464810792545,40.7948691486979],[-73.946345453753,40.7948126506501],[-73.9461484526041,40.7947292551133],[-73.9460772978673,40.7946991341838],[-73.944867320011,40.7941869066242],[-73.9450696385032,40.7939104556933],[-73.9450993095397,40.793869912681],[-73.945132273074,40.7938248703322],[-73.9451809283721,40.7937583863653],[-73.9453255815339,40.7935607290813],[-73.9457856983366,40.792929721956]]]}},{"type":"Feature","properties":{"e":"68042"},"geometry":{"type":"Polygon","coordinates":[[[-73.9488476510571,40.7916305909125],[-73.9487100396955,40.7915741315904],[-73.9472308430327,40.7909477513173],[-73.9476889284027,40.790322733159],[-73.949176880895,40.7909521016357],[-73.9493034148347,40.7910072957454],[-73.9497671589898,40.7903795699846],[-73.949896086044,40.7904336474341],[-73.9504744718241,40.7906779721637],[-73.950557580776,40.7907130794],[-73.9508257553029,40.790826360539],[-73.9508945225621,40.7908554082262],[-73.9512890075014,40.7910220441695],[-73.9513726446192,40.7910573723398],[-73.95091880661,40.7916826675322],[-73.9504609763316,40.7923103190905],[-73.9501188441599,40.7921662098472],[-73.950066756952,40.7921442711576],[-73.9500140320712,40.7921220621174],[-73.9496182867638,40.7919553696917],[-73.9495685321134,40.7919344133252],[-73.9489770424406,40.7916852651366],[-73.9488476510571,40.7916305909125]]]}},{"type":"Feature","properties":{"e":"68043"},"geometry":{"type":"Polygon","coordinates":[[[-73.9476889284027,40.790322733159],[-73.9460781209197,40.7896571332077],[-73.9464316029184,40.7891753664539],[-73.9464719454279,40.789120382322],[-73.9465569882053,40.7890044749217],[-73.9470038258233,40.7883906658767],[-73.948606112082,40.7890633635237],[-73.9500926708081,40.7896924134519],[-73.9502301798003,40.7897500826387],[-73.9497671589898,40.7903795699846],[-73.9493034148347,40.7910072957454],[-73.949176880895,40.7909521016357],[-73.9476889284027,40.790322733159]]]}},{"type":"Feature","properties":{"e":"68044"},"geometry":{"type":"Polygon","coordinates":[[[-73.944184109887,40.792253410552],[-73.9436230311947,40.7920180672531],[-73.9437057843352,40.7918848783236],[-73.943292731932,40.7917076719881],[-73.9421954066364,40.7912484849687],[-73.9419666765324,40.7912801227466],[-73.9424360252551,40.7906345056148],[-73.9436937589968,40.7911630277772],[-73.9446774529138,40.7915778137078],[-73.9451697315949,40.7909022867175],[-73.9456349581514,40.7902613826388],[-73.9459878386856,40.7897812088288],[-73.9460068018199,40.7897551477814],[-73.9460781209197,40.7896571332077],[-73.9476889284027,40.790322733159],[-73.9472308430327,40.7909477513173],[-73.9467734195897,40.7915777296628],[-73.9462805598046,40.792253659017],[-73.9457856983366,40.792929721956],[-73.944184109887,40.792253410552]]]}},{"type":"Feature","properties":{"e":"68045"},"geometry":{"type":"Polygon","coordinates":[[[-73.9424360252551,40.7906345056148],[-73.9429288991591,40.7899569583158],[-73.9432342953272,40.7895400327552],[-73.9432890609583,40.7894651664092],[-73.9433974088264,40.7893170518515],[-73.9436907723331,40.7889231809866],[-73.9437241437008,40.7888783757513],[-73.9438611094665,40.7886944839602],[-73.9441857234538,40.7882512425948],[-73.9442211911029,40.7882028124781],[-73.9443229004458,40.7880639331612],[-73.9452376050626,40.7884490265418],[-73.9453342359321,40.7884897081655],[-73.9455543199213,40.7885823619742],[-73.945636698854,40.7886170422232],[-73.9457301800897,40.7886566059751],[-73.945795707693,40.7886839831219],[-73.9461231010929,40.7888218135248],[-73.9462144850032,40.7888602846428],[-73.9465569882053,40.7890044749217],[-73.9464719454279,40.789120382322],[-73.9464316029184,40.7891753664539],[-73.9460781209197,40.7896571332077],[-73.9460068018199,40.7897551477814],[-73.9459878386856,40.7897812088288],[-73.9456349581514,40.7902613826388],[-73.9451697315949,40.7909022867175],[-73.9446774529138,40.7915778137078],[-73.9436937589968,40.7911630277772],[-73.9424360252551,40.7906345056148]]]}},{"type":"Feature","properties":{"e":"68046"},"geometry":{"type":"Polygon","coordinates":[[[-73.9395906885932,40.7902865528148],[-73.94006712364,40.7896336243994],[-73.9404767688262,40.789073092178],[-73.9405040845269,40.7890357153276],[-73.9405610700961,40.7889577389659],[-73.9410205595566,40.7883276870492],[-73.9433974088264,40.7893170518515],[-73.9432890609583,40.7894651664092],[-73.9432342953272,40.7895400327552],[-73.9429288991591,40.7899569583158],[-73.9424360252551,40.7906345056148],[-73.9419951883698,40.7904469852834],[-73.9417918596454,40.790729743811],[-73.9417798489936,40.7907407174482],[-73.9417658027896,40.7907501928237],[-73.9417500407867,40.7907579542358],[-73.9417329217976,40.7907638250004],[-73.9417148359792,40.7907676713272],[-73.9416961946337,40.7907694058963],[-73.9416774221037,40.7907689892229],[-73.9416589457182,40.7907664307919],[-73.9415732801266,40.7907890654463],[-73.9413930327948,40.791049378209],[-73.9409453340228,40.7908722176787],[-73.9401581372612,40.7905554714029],[-73.9395906885932,40.7902865528148]]]}},{"type":"Feature","properties":{"e":"68047"},"geometry":{"type":"Polygon","coordinates":[[[-73.9410205595566,40.7883276870492],[-73.940672443281,40.7881737039841],[-73.9404316541829,40.7882193257318],[-73.9403190941032,40.7878947599197],[-73.9401305772656,40.7879370874103],[-73.9399250016828,40.787321547005],[-73.9397229647437,40.787208814129],[-73.9398377112663,40.7871864287157],[-73.9397596581718,40.7869705651667],[-73.9404738633495,40.7868189685646],[-73.940322565801,40.786388792166],[-73.9403906683871,40.7864176213167],[-73.9406325237746,40.7865200012275],[-73.9410198011621,40.7866839382494],[-73.9410941983667,40.7867154298349],[-73.9411742189919,40.7867493029336],[-73.9413325177133,40.7868163111331],[-73.9414011402622,40.7868453578994],[-73.9417051649121,40.7869740506819],[-73.9417754151176,40.7870037864091],[-73.9418544147807,40.7870372264702],[-73.9419387977732,40.787072944517],[-73.9428520719375,40.7874525715741],[-73.9429226107091,40.7874818922849],[-73.9435303313194,40.7877345007223],[-73.9436024579679,40.7877644805026],[-73.9438054823398,40.7878488688133],[-73.9438835207919,40.7878813057113],[-73.9439543438217,40.7879107433618],[-73.9440221899786,40.7879389438568],[-73.9441694357084,40.7880001470733],[-73.944242923059,40.7880306920053],[-73.9443229004458,40.7880639331612],[-73.9442211911029,40.7882028124781],[-73.9441857234538,40.7882512425948],[-73.9438611094665,40.7886944839602],[-73.9437241437008,40.7888783757513],[-73.9436907723331,40.7889231809866],[-73.9433974088264,40.7893170518515],[-73.9410205595566,40.7883276870492]]]}},{"type":"Feature","properties":{"e":"68048"},"geometry":{"type":"Polygon","coordinates":[[[-73.9360144846134,40.7912689525778],[-73.9359565586687,40.791243148003],[-73.9358986451037,40.7912173526197],[-73.9358468933506,40.7911278685806],[-73.9358324993306,40.7911029795653],[-73.9360253490643,40.7908374022593],[-73.9363215402638,40.7904342321957],[-73.9366944537468,40.7899213230902],[-73.937063119205,40.789421864034],[-73.9370544768587,40.7894146905764],[-73.9370824755607,40.7893746695205],[-73.9370738936942,40.7893541161952],[-73.9370162285807,40.7893295554915],[-73.9361421638905,40.7889573476746],[-73.9361297930977,40.7889468043221],[-73.9361283235404,40.7889351422456],[-73.9362200294648,40.7888087718065],[-73.9362289437213,40.7888038871808],[-73.9362444640233,40.7888040483825],[-73.937151085697,40.7891767233311],[-73.9372303327738,40.7890045822723],[-73.9373993178871,40.7886299934972],[-73.9374181885719,40.7885880351612],[-73.937551323448,40.7882920181111],[-73.9376362609608,40.788102518357],[-73.9376881250398,40.7879818340955],[-73.9376970614105,40.7879655670335],[-73.9377426536189,40.7878621783449],[-73.9377750644142,40.7877916320417],[-73.9378056401006,40.7878038033384],[-73.9379643688813,40.7878669892718],[-73.938022144194,40.7878870195167],[-73.9380854202938,40.7879151595686],[-73.9377712727957,40.7886169202232],[-73.9377485827726,40.7886676071303],[-73.9374127938779,40.7894094955828],[-73.9375328407958,40.7894518345174],[-73.9395906885932,40.7902865528148],[-73.9391334135344,40.7909132327669],[-73.9386502647159,40.79156602899],[-73.9370964844865,40.7909142656771],[-73.9366275031782,40.7907100549392],[-73.9365257886654,40.790667500852],[-73.9360144846134,40.7912689525778]]]}},{"type":"Feature","properties":{"e":"68049"},"geometry":{"type":"Polygon","coordinates":[[[-73.9380854202938,40.7879151595686],[-73.9381853037657,40.7879595708475],[-73.9386326548831,40.7881475309677],[-73.9387307637197,40.7881887519843],[-73.9390534035069,40.7883243114],[-73.9391951038924,40.7883838459683],[-73.9392763748289,40.7884179920908],[-73.939429640229,40.7884823856676],[-73.93959940594,40.7885537126777],[-73.9396912152098,40.7885922863593],[-73.939766763591,40.7886240269962],[-73.9399322992456,40.7886935743633],[-73.9400958685741,40.7887622959108],[-73.9401762154854,40.7887960529277],[-73.9402526148076,40.7888281498451],[-73.9403265491363,40.7888592119725],[-73.9404044237231,40.7888919282233],[-73.9405610700961,40.7889577389659],[-73.9405040845269,40.7890357153276],[-73.9404767688262,40.789073092178],[-73.94006712364,40.7896336243994],[-73.9395906885932,40.7902865528148],[-73.9375328407958,40.7894518345174],[-73.9374127938779,40.7894094955828],[-73.9377485827726,40.7886676071303],[-73.9377712727957,40.7886169202232],[-73.9380854202938,40.7879151595686]]]}},{"type":"Feature","properties":{"e":"68050"},"geometry":{"type":"Polygon","coordinates":[[[-73.9380854202938,40.7879151595686],[-73.938022144194,40.7878870195167],[-73.9379643688813,40.7878669892718],[-73.9378056401006,40.7878038033384],[-73.9377750644142,40.7877916320417],[-73.9378186581397,40.7876967421369],[-73.9379491210094,40.7874855728394],[-73.9379473397512,40.787477432164],[-73.9379607389939,40.7874645533357],[-73.937973249258,40.7874401472855],[-73.9381171328341,40.7871930361038],[-73.9381349932101,40.7871740637412],[-73.9381957282099,40.7871056036273],[-73.9382466308225,40.7870493414225],[-73.9385408046992,40.7867190502396],[-73.9392678586721,40.7858970261206],[-73.939295716284,40.7859158455096],[-73.9393512467308,40.7859424909935],[-73.9394284863797,40.7859883224704],[-73.9394824740556,40.7860152662801],[-73.9395368414419,40.7860423101086],[-73.9396593671158,40.7861080475809],[-73.9399319182855,40.7862234253953],[-73.9401546637331,40.7863177169427],[-73.940322565801,40.786388792166],[-73.9404738633495,40.7868189685646],[-73.9397596581718,40.7869705651667],[-73.9398377112663,40.7871864287157],[-73.9397229647437,40.787208814129],[-73.9399250016828,40.787321547005],[-73.9401305772656,40.7879370874103],[-73.9403190941032,40.7878947599197],[-73.9404316541829,40.7882193257318],[-73.940672443281,40.7881737039841],[-73.9410205595566,40.7883276870492],[-73.9405610700961,40.7889577389659],[-73.9404044237231,40.7888919282233],[-73.9403265491363,40.7888592119725],[-73.9402526148076,40.7888281498451],[-73.9401762154854,40.7887960529277],[-73.9400958685741,40.7887622959108],[-73.9399322992456,40.7886935743633],[-73.939766763591,40.7886240269962],[-73.9396912152098,40.7885922863593],[-73.93959940594,40.7885537126777],[-73.939429640229,40.7884823856676],[-73.9392763748289,40.7884179920908],[-73.9391951038924,40.7883838459683],[-73.9390534035069,40.7883243114],[-73.9387307637197,40.7881887519843],[-73.9386326548831,40.7881475309677],[-73.9381853037657,40.7879595708475],[-73.9380854202938,40.7879151595686]]]}},{"type":"Feature","properties":{"e":"68051"},"geometry":{"type":"Polygon","coordinates":[[[-73.9513726446192,40.7910573723398],[-73.9512890075014,40.7910220441695],[-73.9508945225621,40.7908554082262],[-73.9508257553029,40.790826360539],[-73.950557580776,40.7907130794],[-73.9504744718241,40.7906779721637],[-73.949896086044,40.7904336474341],[-73.9497671589898,40.7903795699846],[-73.9502301798003,40.7897500826387],[-73.9504191837372,40.7894763485601],[-73.9504686301994,40.7894078525255],[-73.9505136769396,40.7893454499837],[-73.9505636088409,40.7892762821719],[-73.9506776346543,40.7891183256273],[-73.9511328594471,40.7884876915286],[-73.9516065090589,40.7878648880791],[-73.951733235675,40.7879180577684],[-73.9527882841837,40.7883628061265],[-73.9532115001888,40.7885412057495],[-73.9548186749167,40.7892130175267],[-73.9544006285638,40.7897831819505],[-73.953890607339,40.7904787724936],[-73.9534382750337,40.7910934149446],[-73.953161886305,40.7914751555437],[-73.9530997124101,40.7915610265888],[-73.9529788425107,40.7917279663789],[-73.9513726446192,40.7910573723398]]]}},{"type":"Feature","properties":{"e":"68052"},"geometry":{"type":"Polygon","coordinates":[[[-73.9532115001888,40.7885412057495],[-73.9536700841148,40.7879079944514],[-73.9537736070904,40.7877723144609],[-73.9538241642989,40.7877032305752],[-73.9541662063461,40.7872358363691],[-73.9557787961027,40.7879221973414],[-73.9552837716701,40.7885927285071],[-73.9551056069642,40.7888303448247],[-73.9548186749167,40.7892130175267],[-73.9532115001888,40.7885412057495]]]}},{"type":"Feature","properties":{"e":"68053"},"geometry":{"type":"Polygon","coordinates":[[[-73.9516065090589,40.7878648880791],[-73.9518344522019,40.7875484702911],[-73.9520593108191,40.7872301342661],[-73.9522934350649,40.7869107735208],[-73.9525528912145,40.7865568533788],[-73.9526628031824,40.7866032928486],[-73.9534179037273,40.7869208438967],[-73.9537148868709,40.7870458582981],[-73.9541662063461,40.7872358363691],[-73.9538241642989,40.7877032305752],[-73.9537736070904,40.7877723144609],[-73.9536700841148,40.7879079944514],[-73.9532115001888,40.7885412057495],[-73.9527882841837,40.7883628061265],[-73.951733235675,40.7879180577684],[-73.9516065090589,40.7878648880791]]]}},{"type":"Feature","properties":{"e":"68054"},"geometry":{"type":"Polygon","coordinates":[[[-73.954657534935,40.7865606456781],[-73.9531481653015,40.7859251438896],[-73.9530461419166,40.7858821840733],[-73.9535040445242,40.7852553775636],[-73.9539618703767,40.7846247872632],[-73.954070525148,40.7846706303556],[-73.9555713218256,40.7853057024329],[-73.9567678906256,40.7858187662148],[-73.9571638712124,40.785987910703],[-73.956720067845,40.786609066405],[-73.9562627462891,40.787231148998],[-73.954657534935,40.7865606456781]]]}},{"type":"Feature","properties":{"e":"68055"},"geometry":{"type":"Polygon","coordinates":[[[-73.9525528912145,40.7865568533788],[-73.9524657375,40.7865187041328],[-73.9522309117828,40.7864198229327],[-73.9512981446208,40.7860283475225],[-73.9509295631834,40.7858736533149],[-73.9514272605474,40.7852000314121],[-73.9518843926443,40.7845734834033],[-73.9533961235049,40.7852099398168],[-73.9535040445242,40.7852553775636],[-73.9530461419166,40.7858821840733],[-73.9531481653015,40.7859251438896],[-73.954657534935,40.7865606456781],[-73.9541662063461,40.7872358363691],[-73.9537148868709,40.7870458582981],[-73.9534179037273,40.7869208438967],[-73.9526628031824,40.7866032928486],[-73.9525528912145,40.7865568533788]]]}},{"type":"Feature","properties":{"e":"68056"},"geometry":{"type":"Polygon","coordinates":[[[-73.9479258431862,40.7871288980111],[-73.9480689516558,40.7869281326522],[-73.9482578264539,40.7866631603272],[-73.9482941745726,40.7866121673786],[-73.9483337098788,40.7865567030901],[-73.9483966122262,40.786468457859],[-73.9486938169155,40.7866020373085],[-73.9488710716528,40.7866817034715],[-73.9499819770934,40.7871809847763],[-73.9510337158151,40.7876243776318],[-73.951099089278,40.7876519373196],[-73.9514551488874,40.7878020314531],[-73.9516065090589,40.7878648880791],[-73.9511328594471,40.7884876915286],[-73.9506776346543,40.7891183256273],[-73.9505578043443,40.7890697913253],[-73.9490645158196,40.7884378173573],[-73.9474623738131,40.7877614437071],[-73.9479258431862,40.7871288980111]]]}},{"type":"Feature","properties":{"e":"68057"},"geometry":{"type":"Polygon","coordinates":[[[-73.9465569882053,40.7890044749217],[-73.9462144850032,40.7888602846428],[-73.9461231010929,40.7888218135248],[-73.945795707693,40.7886839831219],[-73.9459945703353,40.7877881352222],[-73.9461309487393,40.7872637683472],[-73.9463426863015,40.7864559119471],[-73.9471728354448,40.7868088076038],[-73.9472305158159,40.786833326386],[-73.9472844144255,40.7868562383501],[-73.9473312729741,40.7868761569139],[-73.9474650893814,40.78693304054],[-73.9475122014218,40.7869530671993],[-73.947719417972,40.7870411515014],[-73.9477849721907,40.7870690172126],[-73.9479258431862,40.7871288980111],[-73.9474623738131,40.7877614437071],[-73.9490645158196,40.7884378173573],[-73.9505578043443,40.7890697913253],[-73.9506776346543,40.7891183256273],[-73.9505636088409,40.7892762821719],[-73.9505136769396,40.7893454499837],[-73.9504686301994,40.7894078525255],[-73.9504191837372,40.7894763485601],[-73.9502301798003,40.7897500826387],[-73.9500926708081,40.7896924134519],[-73.948606112082,40.7890633635237],[-73.9470038258233,40.7883906658767],[-73.9465569882053,40.7890044749217]]]}},{"type":"Feature","properties":{"e":"68058"},"geometry":{"type":"Polygon","coordinates":[[[-73.9443229004458,40.7880639331612],[-73.9447709362678,40.7874502776625],[-73.9449880931664,40.7871518686316],[-73.9450404374215,40.7870799398373],[-73.9452313972982,40.7868175255466],[-73.9447634568342,40.786620348991],[-73.9446791871192,40.7865848399584],[-73.9446081079516,40.7865548888237],[-73.9445353602954,40.7865242340736],[-73.9444592476206,40.7864921630725],[-73.9443749506898,40.7864566412391],[-73.9442974229999,40.786423973393],[-73.944221000774,40.786391770242],[-73.944145722344,40.7863600502348],[-73.9440707420904,40.7863284544591],[-73.9428483098412,40.7858134570241],[-73.9433203268217,40.7851815706463],[-73.9456966625504,40.786181280895],[-73.9462832355667,40.7864306398729],[-73.9463426863015,40.7864559119471],[-73.9461309487393,40.7872637683472],[-73.9459945703353,40.7877881352222],[-73.945795707693,40.7886839831219],[-73.9457301800897,40.7886566059751],[-73.945636698854,40.7886170422232],[-73.9455543199213,40.7885823619742],[-73.9453342359321,40.7884897081655],[-73.9452376050626,40.7884490265418],[-73.9443229004458,40.7880639331612]]]}},{"type":"Feature","properties":{"e":"68059"},"geometry":{"type":"Polygon","coordinates":[[[-73.9419387977732,40.787072944517],[-73.9423820912704,40.78643426754],[-73.9428483098412,40.7858134570241],[-73.9440707420904,40.7863284544591],[-73.944145722344,40.7863600502348],[-73.944221000774,40.786391770242],[-73.9442974229999,40.786423973393],[-73.9443749506898,40.7864566412391],[-73.9444592476206,40.7864921630725],[-73.9445353602954,40.7865242340736],[-73.9446081079516,40.7865548888237],[-73.9446791871192,40.7865848399584],[-73.9447634568342,40.786620348991],[-73.9452313972982,40.7868175255466],[-73.9450404374215,40.7870799398373],[-73.9449880931664,40.7871518686316],[-73.9447709362678,40.7874502776625],[-73.9443229004458,40.7880639331612],[-73.944242923059,40.7880306920053],[-73.9441694357084,40.7880001470733],[-73.9440221899786,40.7879389438568],[-73.9439543438217,40.7879107433618],[-73.9438835207919,40.7878813057113],[-73.9438054823398,40.7878488688133],[-73.9436024579679,40.7877644805026],[-73.9435303313194,40.7877345007223],[-73.9429226107091,40.7874818922849],[-73.9428520719375,40.7874525715741],[-73.9419387977732,40.787072944517]]]}},{"type":"Feature","properties":{"e":"68060"},"geometry":{"type":"Polygon","coordinates":[[[-73.940322565801,40.786388792166],[-73.9401546637331,40.7863177169427],[-73.9399319182855,40.7862234253953],[-73.9396593671158,40.7861080475809],[-73.9395368414419,40.7860423101086],[-73.9394824740556,40.7860152662801],[-73.9394284863797,40.7859883224704],[-73.9393512467308,40.7859424909935],[-73.939295716284,40.7859158455096],[-73.9392678586721,40.7858970261206],[-73.9398276286714,40.7852648253253],[-73.9398359716885,40.7852622452682],[-73.9398442556208,40.7852596832723],[-73.9398541077483,40.7852522045566],[-73.9398818879905,40.7852406484137],[-73.9398899523417,40.7852318007508],[-73.9399114645556,40.7852202396562],[-73.939931176392,40.7852100389297],[-73.9399562685373,40.7851977956867],[-73.9399912119439,40.78517875068],[-73.9400145156274,40.7851651471927],[-73.9400261642894,40.7851617493085],[-73.9400512588471,40.7851467871103],[-73.9400655890657,40.7851393029996],[-73.940115775028,40.7851120980171],[-73.9401509052235,40.7850955287478],[-73.9401865611208,40.7850744749207],[-73.9402037336283,40.7850674599984],[-73.9402261853243,40.7850534241459],[-73.9402393901692,40.7850454080394],[-73.9402684417889,40.785030374302],[-73.9403635253745,40.7849802569176],[-73.9404546393723,40.7849311459061],[-73.9405352038927,40.784887044417],[-73.940552369993,40.7848750144017],[-73.9405827339333,40.7848619815138],[-73.9405919816105,40.784854961945],[-73.9406250031737,40.784837923713],[-73.9406751759724,40.7848118707182],[-73.9407187587266,40.7847888138525],[-73.9407227155798,40.7847888158877],[-73.9407504491776,40.7847757914865],[-73.9407689402375,40.7847657679005],[-73.940790112706,40.784755722068],[-73.9408323134224,40.7847356973274],[-73.941026429372,40.7846434952326],[-73.9410871698383,40.7846174397586],[-73.941112260467,40.7846054214162],[-73.9411386688782,40.7845913867367],[-73.9411743206442,40.78457434969],[-73.9414475523647,40.7844397470458],[-73.9415272009619,40.7843991736511],[-73.9416759741993,40.7843221032925],[-73.9418559188766,40.7842290198164],[-73.9420157498705,40.7841458580142],[-73.9421806183432,40.7840596359864],[-73.9423153211697,40.7839894383395],[-73.9423927183193,40.783948999248],[-73.9424359444932,40.7839261028791],[-73.9424711369186,40.7839047340006],[-73.9425736877486,40.7838329966888],[-73.9426058604056,40.7838101034589],[-73.9426752307104,40.7837620161657],[-73.9427828078916,40.7836864625939],[-73.9428692711699,40.7836269282856],[-73.9429366379121,40.7835803785609],[-73.9430180639923,40.7835231384183],[-73.9431165947638,40.78345444307],[-73.9431628517685,40.7834201029267],[-73.9432070880446,40.7833781154099],[-73.9432412907419,40.78333612461],[-73.9432714630476,40.7832964270807],[-73.9433117071819,40.7832414533385],[-73.9433489263727,40.7831903058816],[-73.9433982234935,40.783117775211],[-73.9434424879953,40.7830574544793],[-73.9435528711523,40.7829117808072],[-73.9435456398787,40.7828887966398],[-73.9436496681638,40.7826644336003],[-73.9436750156339,40.7827248960089],[-73.9437614862259,40.7828372045169],[-73.9438339996053,40.7828673617755],[-73.9438946789255,40.7828959996363],[-73.9439560345186,40.7829237924609],[-73.9440558273859,40.7829726303593],[-73.9440197820499,40.7830234825989],[-73.943912040099,40.7831853399439],[-73.9437924661949,40.7833426538232],[-73.9436615944839,40.7834946845019],[-73.9435200410837,40.7836407301451],[-73.9433458568967,40.7837905242047],[-73.9431603521681,40.7839327116237],[-73.9429645006404,40.7840664838501],[-73.9429643936861,40.784066555163],[-73.9429642988603,40.7840666187757],[-73.9427796121383,40.7841788829437],[-73.9419715214411,40.7845984727422],[-73.9433203268217,40.7851815706463],[-73.9428483098412,40.7858134570241],[-73.9423820912704,40.78643426754],[-73.9419387977732,40.787072944517],[-73.9418544147807,40.7870372264702],[-73.9417754151176,40.7870037864091],[-73.9417051649121,40.7869740506819],[-73.9414011402622,40.7868453578994],[-73.9413325177133,40.7868163111331],[-73.9411742189919,40.7867493029336],[-73.9410941983667,40.7867154298349],[-73.9410198011621,40.7866839382494],[-73.9406325237746,40.7865200012275],[-73.9403906683871,40.7864176213167],[-73.940322565801,40.786388792166]]]}},{"type":"Feature","properties":{"e":"68061"},"geometry":{"type":"Polygon","coordinates":[[[-73.9463426863015,40.7864559119471],[-73.9462832355667,40.7864306398729],[-73.9456966625504,40.786181280895],[-73.9433203268217,40.7851815706463],[-73.9442247823143,40.7839415801312],[-73.9447240784231,40.7832558449865],[-73.9459232935058,40.7837610712592],[-73.9464464065822,40.7839814505023],[-73.94709095314,40.7842531782521],[-73.9465896120673,40.7849496495702],[-73.9471168532353,40.7851710106757],[-73.9482956642599,40.7856659166725],[-73.948386804573,40.7857041795878],[-73.9488281062826,40.7858894477358],[-73.9486562131124,40.7861201133865],[-73.948618865135,40.7861702298501],[-73.9483966122262,40.786468457859],[-73.9483337098788,40.7865567030901],[-73.9482941745726,40.7866121673786],[-73.9482578264539,40.7866631603272],[-73.9480689516558,40.7869281326522],[-73.9479258431862,40.7871288980111],[-73.9477849721907,40.7870690172126],[-73.947719417972,40.7870411515014],[-73.9475122014218,40.7869530671993],[-73.9474650893814,40.78693304054],[-73.9473312729741,40.7868761569139],[-73.9472844144255,40.7868562383501],[-73.9472305158159,40.786833326386],[-73.9471728354448,40.7868088076038],[-73.9463426863015,40.7864559119471]]]}},{"type":"Feature","properties":{"e":"68062"},"geometry":{"type":"Polygon","coordinates":[[[-73.9483966122262,40.786468457859],[-73.948618865135,40.7861702298501],[-73.9486562131124,40.7861201133865],[-73.9488281062826,40.7858894477358],[-73.9494910386085,40.7861611351188],[-73.9497338271247,40.7858359463981],[-73.9500945463405,40.7859865847386],[-73.9503394764009,40.785625422625],[-73.9509295631834,40.7858736533149],[-73.9512981446208,40.7860283475225],[-73.9522309117828,40.7864198229327],[-73.9524657375,40.7865187041328],[-73.9525528912145,40.7865568533788],[-73.9522934350649,40.7869107735208],[-73.9520593108191,40.7872301342661],[-73.9518344522019,40.7875484702911],[-73.9516065090589,40.7878648880791],[-73.9514551488874,40.7878020314531],[-73.951099089278,40.7876519373196],[-73.9510337158151,40.7876243776318],[-73.9499819770934,40.7871809847763],[-73.9488710716528,40.7866817034715],[-73.9486938169155,40.7866020373085],[-73.9483966122262,40.786468457859]]]}},{"type":"Feature","properties":{"e":"68063"},"geometry":{"type":"Polygon","coordinates":[[[-73.9488281062826,40.7858894477358],[-73.948386804573,40.7857041795878],[-73.9482956642599,40.7856659166725],[-73.9471168532353,40.7851710106757],[-73.9465896120673,40.7849496495702],[-73.94709095314,40.7842531782521],[-73.9478448946031,40.7845720285616],[-73.9487776974523,40.7849665084647],[-73.9493331410196,40.785201399122],[-73.9503394764009,40.785625422625],[-73.9500945463405,40.7859865847386],[-73.9497338271247,40.7858359463981],[-73.9494910386085,40.7861611351188],[-73.9488281062826,40.7858894477358]]]}},{"type":"Feature","properties":{"e":"68064"},"geometry":{"type":"Polygon","coordinates":[[[-73.9502839841826,40.7838987422686],[-73.9507405731613,40.7832699829138],[-73.9513077889961,40.7835091328366],[-73.9515195655897,40.7835984209768],[-73.951693557968,40.7836717784924],[-73.9517818031313,40.7837089829495],[-73.9523423929264,40.7839453303311],[-73.9518843926443,40.7845734834033],[-73.9502839841826,40.7838987422686]]]}},{"type":"Feature","properties":{"e":"68065"},"geometry":{"type":"Polygon","coordinates":[[[-73.94709095314,40.7842531782521],[-73.9475790672943,40.7835761780107],[-73.9483393637234,40.7838969428257],[-73.949266497007,40.7842880825211],[-73.9498253382947,40.7845238429571],[-73.9493331410196,40.785201399122],[-73.9487776974523,40.7849665084647],[-73.9478448946031,40.7845720285616],[-73.94709095314,40.7842531782521]]]}},{"type":"Feature","properties":{"e":"68066"},"geometry":{"type":"Polygon","coordinates":[[[-73.9498253382947,40.7845238429571],[-73.949266497007,40.7842880825211],[-73.9483393637234,40.7838969428257],[-73.9475790672943,40.7835761780107],[-73.9480401287064,40.7829505416233],[-73.9502839841826,40.7838987422686],[-73.9518843926443,40.7845734834033],[-73.9514272605474,40.7852000314121],[-73.9498253382947,40.7845238429571]]]}},{"type":"Feature","properties":{"e":"68067"},"geometry":{"type":"Polygon","coordinates":[[[-73.948514502434,40.7823303054425],[-73.9489632052511,40.7816971490633],[-73.9500298276705,40.7821474083654],[-73.9502910064272,40.7822576598594],[-73.9512007085825,40.7826416644564],[-73.9507405731613,40.7832699829138],[-73.9498276560458,40.7828846267558],[-73.948514502434,40.7823303054425]]]}},{"type":"Feature","properties":{"e":"68068"},"geometry":{"type":"Polygon","coordinates":[[[-73.9452145193604,40.7825790187667],[-73.945251788514,40.7825281359073],[-73.9453670850532,40.7823707234821],[-73.945671249832,40.7819554482469],[-73.9480401287064,40.7829505416233],[-73.9475790672943,40.7835761780107],[-73.9452145193604,40.7825790187667]]]}},{"type":"Feature","properties":{"e":"68069"},"geometry":{"type":"Polygon","coordinates":[[[-73.9444397027511,40.7822492262924],[-73.9444719435612,40.7820435453019],[-73.9444880422226,40.7818358365005],[-73.9444877299683,40.7816272056006],[-73.944475769656,40.7814788710191],[-73.9442473542546,40.7805153303725],[-73.9445343485783,40.7806536580567],[-73.9452199434843,40.7809509785434],[-73.9458829949858,40.7812222395132],[-73.9459472439173,40.7812485230724],[-73.9460121816056,40.7812750907064],[-73.9460703959575,40.7812989055633],[-73.9461323500011,40.7813242503054],[-73.9458823783291,40.7816664379815],[-73.9457392864915,40.7818623140782],[-73.945671249832,40.7819554482469],[-73.9453670850532,40.7823707234821],[-73.945251788514,40.7825281359073],[-73.9452145193604,40.7825790187667],[-73.9444397027511,40.7822492262924]]]}},{"type":"Feature","properties":{"e":"68070"},"geometry":{"type":"Polygon","coordinates":[[[-73.9461323500011,40.7813242503054],[-73.9461986205757,40.7812342901404],[-73.9463077503714,40.7810861484068],[-73.9464258665624,40.7809258058492],[-73.9464790760253,40.780853574857],[-73.9465920254,40.780700245353],[-73.9489632052511,40.7816971490633],[-73.948514502434,40.7823303054425],[-73.9470516431306,40.7817125091577],[-73.946696314037,40.7815624411334],[-73.9461323500011,40.7813242503054]]]}},{"type":"Feature","properties":{"e":"68071"},"geometry":{"type":"Polygon","coordinates":[[[-73.9442473542546,40.7805153303725],[-73.9441963630011,40.7801360621538],[-73.9443593276832,40.7797693639629],[-73.9450952356975,40.7800762666752],[-73.9454534547913,40.7802256034293],[-73.9455235518695,40.7802548262151],[-73.9463749388456,40.7806097488386],[-73.946447715741,40.7806400873562],[-73.9465920254,40.780700245353],[-73.9464790760253,40.780853574857],[-73.9464258665624,40.7809258058492],[-73.9463077503714,40.7810861484068],[-73.9461986205757,40.7812342901404],[-73.9461323500011,40.7813242503054],[-73.9460703959575,40.7812989055633],[-73.9460121816056,40.7812750907064],[-73.9459472439173,40.7812485230724],[-73.9458829949858,40.7812222395132],[-73.9452199434843,40.7809509785434],[-73.9445343485783,40.7806536580567],[-73.9442473542546,40.7805153303725]]]}},{"type":"Feature","properties":{"e":"68072"},"geometry":{"type":"Polygon","coordinates":[[[-73.9332605263365,40.8072455226464],[-73.9331853879671,40.807164475224],[-73.9331755662987,40.8071536683747],[-73.9330861490259,40.8070351926098],[-73.9329343147641,40.8068792995138],[-73.9326323133694,40.8065612112348],[-73.932391602454,40.8063074182557],[-73.9315456046186,40.8054060604668],[-73.9314974728426,40.805359431342],[-73.9314769261732,40.805336370067],[-73.9314685021284,40.8053142469305],[-73.9314503451783,40.805305922886],[-73.9314334161124,40.805290235012],[-73.9314104729941,40.8052551909273],[-73.9313923312371,40.8052413467734],[-73.9313065453848,40.8051398835564],[-73.9312709025738,40.8050988313048],[-73.931160929999,40.8049752173318],[-73.9311283177059,40.8049309550592],[-73.9311155193544,40.8049126275716],[-73.9310993385441,40.8048894550869],[-73.9310751839842,40.8048553280772],[-73.9310353310137,40.804802759757],[-73.9310293081497,40.8047907715976],[-73.930977975375,40.8047239100413],[-73.930976783016,40.8047137764225],[-73.9309598628135,40.8046953223132],[-73.9309357216225,40.8046611962864],[-73.9309107958539,40.8046276710306],[-73.9308294432345,40.8045182437974],[-73.9308077111277,40.8044822847916],[-73.9307177331116,40.8043637742979],[-73.9307117176314,40.8043490216311],[-73.9306972058583,40.8043342650294],[-73.93068876336,40.8043185896833],[-73.9306404587466,40.8042540299074],[-73.9306332255213,40.8042383564573],[-73.9306114709102,40.8042152926215],[-73.9305740419777,40.8041608811468],[-73.930574067459,40.8041516693077],[-73.9305438629435,40.8041156952634],[-73.9304442319657,40.8039824269997],[-73.9304068001271,40.803928942549],[-73.9303548803277,40.8038560816221],[-73.9303343504467,40.8038274904883],[-73.9303101943691,40.8037942922364],[-73.9302800354429,40.8037426565875],[-73.930263143711,40.8037140709911],[-73.9301931849965,40.8035914420235],[-73.9301847242533,40.8035822245421],[-73.9300616372753,40.8033699254574],[-73.9300140426858,40.8032957752099],[-73.9299751658241,40.8032047447388],[-73.9299800514088,40.8031985221483],[-73.9300460387049,40.8031143890178],[-73.9300107405445,40.8030484118901],[-73.929984313906,40.8029930292172],[-73.9301508239378,40.8028922000247],[-73.9302508598025,40.8028300881016],[-73.9303136668536,40.802783497051],[-73.9303394326577,40.8027643839658],[-73.9304157039427,40.8027022104616],[-73.9304606406042,40.8026735674359],[-73.9305014834524,40.8026415800146],[-73.9305378035227,40.8026065845692],[-73.9305692194541,40.8025689482134],[-73.9306361067672,40.8024994825835],[-73.9306982800233,40.802427532367],[-73.9308096748933,40.8024706570206],[-73.9308950219763,40.8024980506155],[-73.9308234230762,40.802604616638],[-73.9305984675993,40.8029394326239],[-73.9307468084706,40.8032507069302],[-73.9312447730546,40.8034628830342],[-73.9323434285381,40.8039278304355],[-73.9326644700196,40.8040733780046],[-73.9330835128294,40.803433491907],[-73.9353194856129,40.8043754396982],[-73.9358175633873,40.8037081776121],[-73.9374199604127,40.8043829552655],[-73.9369291778728,40.8050546851848],[-73.9364728584436,40.8056784990883],[-73.9360766825177,40.8062230900406],[-73.9360178196981,40.8063040031684],[-73.9355635242302,40.8069253920724],[-73.9351067176635,40.8075481274621],[-73.9346657115313,40.8081834051423],[-73.934536969931,40.8081445650556],[-73.9342515168651,40.8077028944403],[-73.9339345113735,40.8072708159015],[-73.9338214886545,40.8071167621835],[-73.9337506350689,40.8070346481098],[-73.9336677784143,40.8070719715491],[-73.9336294019096,40.8070892587876],[-73.9335563413037,40.8071201261894],[-73.9334873266306,40.8071493819457],[-73.9332605263365,40.8072455226464]]]}},{"type":"Feature","properties":{"e":"68073"},"geometry":{"type":"Polygon","coordinates":[[[-73.9483126897512,40.7981374926973],[-73.9487884634322,40.7974911139925],[-73.9519264838339,40.7988027526936],[-73.9520170123442,40.7988408093558],[-73.9515306930608,40.7994670016775],[-73.951465656947,40.7994401302899],[-73.9507463996335,40.799142985645],[-73.9506447476787,40.7991009900746],[-73.9500837151887,40.79886920594],[-73.9499850870059,40.7988284594907],[-73.9492998472887,40.7985453537685],[-73.9491935394987,40.798501431847],[-73.9489154424775,40.7983865337529],[-73.9484248023652,40.7981838163187],[-73.9483126897512,40.7981374926973]]]}},{"type":"Feature","properties":{"e":"68074"},"geometry":{"type":"Polygon","coordinates":[[[-73.9440558273859,40.7829726303593],[-73.9440982366365,40.7829190620912],[-73.9441818623522,40.7828082779023],[-73.9441925719569,40.7827940906758],[-73.9442236762241,40.782744578035],[-73.9442615178533,40.7826843076527],[-73.9442745902902,40.7826635034719],[-73.9443242866134,40.7825660206957],[-73.9443330916669,40.7825487452107],[-73.9443434748895,40.7825283804819],[-73.9443986304516,40.7823898830629],[-73.9444397027511,40.7822492262924],[-73.9452145193604,40.7825790187667],[-73.9475790672943,40.7835761780107],[-73.94709095314,40.7842531782521],[-73.9464464065822,40.7839814505023],[-73.9459232935058,40.7837610712592],[-73.9447240784231,40.7832558449865],[-73.9442247823143,40.7839415801312],[-73.9433203268217,40.7851815706463],[-73.9419715214411,40.7845984727422],[-73.9427796121383,40.7841788829437],[-73.9429642988603,40.7840666187757],[-73.9429643936861,40.784066555163],[-73.9429645006404,40.7840664838501],[-73.9431603521681,40.7839327116237],[-73.9433458568967,40.7837905242047],[-73.9435200410837,40.7836407301451],[-73.9436615944839,40.7834946845019],[-73.9437924661949,40.7833426538232],[-73.943912040099,40.7831853399439],[-73.9440197820499,40.7830234825989],[-73.9440558273859,40.7829726303593]]]}},{"type":"Feature","properties":{"e":"68075"},"geometry":{"type":"Polygon","coordinates":[[[-73.9541662063461,40.7872358363691],[-73.954657534935,40.7865606456781],[-73.9562627462891,40.787231148998],[-73.9557787961027,40.7879221973414],[-73.9541662063461,40.7872358363691]]]}},{"type":"Feature","properties":{"e":"68077"},"geometry":{"type":"Polygon","coordinates":[[[-73.945671249832,40.7819554482469],[-73.9457392864915,40.7818623140782],[-73.9458823783291,40.7816664379815],[-73.9461323500011,40.7813242503054],[-73.946696314037,40.7815624411334],[-73.9470516431306,40.7817125091577],[-73.948514502434,40.7823303054425],[-73.9480401287064,40.7829505416233],[-73.945671249832,40.7819554482469]]]}}]}