{"type":"FeatureCollection","ad":73,"features":[{"type":"Feature","properties":{"e":"73001"},"geometry":{"type":"Polygon","coordinates":[[[-73.9792397050225,40.7470759062485],[-73.9797249071629,40.7464111402439],[-73.9812606415261,40.7470539692344],[-73.9813120364117,40.7470747570321],[-73.9813421299674,40.7470869276636],[-73.9818350936269,40.7464248543863],[-73.9822801701381,40.7458058266635],[-73.9823536606872,40.745836743353],[-73.9838982913354,40.7464865321371],[-73.9834468154531,40.7471066383047],[-73.9829583534625,40.7477726177496],[-73.9824735636059,40.7484397661253],[-73.9809439430788,40.7477983355389],[-73.980851987399,40.7477586345081],[-73.9807524782292,40.7477190859308],[-73.9792397050225,40.7470759062485]]]}},{"type":"Feature","properties":{"e":"73002"},"geometry":{"type":"Polygon","coordinates":[[[-73.9797249071629,40.7464111402439],[-73.9802111550294,40.7457416261279],[-73.9817639084498,40.7463949067052],[-73.9818350936269,40.7464248543863],[-73.9813421299674,40.7470869276636],[-73.9813120364117,40.7470747570321],[-73.9812606415261,40.7470539692344],[-73.9797249071629,40.7464111402439]]]}},{"type":"Feature","properties":{"e":"73003"},"geometry":{"type":"Polygon","coordinates":[[[-73.9776379201663,40.74639992109],[-73.9767917498187,40.7460441251753],[-73.9773613317366,40.7454124799701],[-73.9781252236528,40.7457354370768],[-73.9786085750557,40.7450660942909],[-73.9790599373635,40.7444518153537],[-73.9806598685918,40.7451240890093],[-73.9802111550294,40.7457416261279],[-73.9797249071629,40.7464111402439],[-73.9792397050225,40.7470759062485],[-73.9776379201663,40.74639992109]]]}},{"type":"Feature","properties":{"e":"73004"},"geometry":{"type":"Polygon","coordinates":[[[-73.9753944767776,40.7454510224557],[-73.9758826176206,40.7447874885093],[-73.9763652141974,40.744106944698],[-73.9767621200074,40.743480761252],[-73.9770697007859,40.7436130577649],[-73.9772267945557,40.7436780841068],[-73.9790599373635,40.7444518153537],[-73.9786085750557,40.7450660942909],[-73.9781252236528,40.7457354370768],[-73.9773613317366,40.7454124799701],[-73.9767917498187,40.7460441251753],[-73.9753944767776,40.7454510224557]]]}},{"type":"Feature","properties":{"e":"73005"},"geometry":{"type":"Polygon","coordinates":[[[-73.9815741396519,40.7496763539981],[-73.9820260881046,40.749057804749],[-73.9824735636059,40.7484397661253],[-73.9829583534625,40.7477726177496],[-73.9834468154531,40.7471066383047],[-73.9838982913354,40.7464865321371],[-73.9854974667165,40.7471605937984],[-73.9850472207032,40.7477812821206],[-73.9845622145488,40.7484471069197],[-73.9840778046432,40.7491103896653],[-73.9836230280462,40.7497320360725],[-73.9831756064166,40.750350474249],[-73.9815741396519,40.7496763539981]]]}},{"type":"Feature","properties":{"e":"73006"},"geometry":{"type":"Polygon","coordinates":[[[-73.9783396597327,40.7483109468574],[-73.9787889884126,40.7476926264718],[-73.9792397050225,40.7470759062485],[-73.9807524782292,40.7477190859308],[-73.980851987399,40.7477586345081],[-73.9809439430788,40.7477983355389],[-73.9824735636059,40.7484397661253],[-73.9820260881046,40.749057804749],[-73.9815741396519,40.7496763539981],[-73.9800476142236,40.7490318413656],[-73.9799567577372,40.7489941643713],[-73.9798531405178,40.7489502939772],[-73.9783396597327,40.7483109468574]]]}},{"type":"Feature","properties":{"e":"73007"},"geometry":{"type":"Polygon","coordinates":[[[-73.9771092530118,40.7518916711324],[-73.9768529653535,40.7517847592124],[-73.9765173135506,40.7516447371287],[-73.9760496905496,40.7514496588992],[-73.9765362952501,40.7507837718651],[-73.9769871487656,40.7501652244949],[-73.9774365023028,40.7495481594623],[-73.9778896243066,40.7489296001863],[-73.9783396597327,40.7483109468574],[-73.9798531405178,40.7489502939772],[-73.9799567577372,40.7489941643713],[-73.9800476142236,40.7490318413656],[-73.9815741396519,40.7496763539981],[-73.981124671466,40.7502907238925],[-73.9806748952001,40.7509133662111],[-73.9802223423016,40.7515302445171],[-73.979770088849,40.7521490385481],[-73.9793178125036,40.752768383414],[-73.9792883046828,40.7528087621156],[-73.9787730058335,40.7525943332813],[-73.9783502124691,40.7524183952718],[-73.9777929632262,40.7521758610287],[-73.9776780472577,40.7521272024775],[-73.9775442923259,40.7520718215066],[-73.9771092530118,40.7518916711324]]]}},{"type":"Feature","properties":{"e":"73008"},"geometry":{"type":"Polygon","coordinates":[[[-73.9726141548062,40.7590675751174],[-73.9730699602776,40.7584397606904],[-73.9735256369568,40.7578167071376],[-73.9739832729096,40.7571880248053],[-73.9744401048896,40.7565645729277],[-73.9748887130255,40.7559320570828],[-73.9753452208316,40.755307960983],[-73.9758088356412,40.7546855402748],[-73.9761411319291,40.7542517990627],[-73.9761811555351,40.7541920317079],[-73.9762291899731,40.7541293445053],[-73.9762797014132,40.7540634238695],[-73.9757976960896,40.7538608997165],[-73.9757030005255,40.7538200422935],[-73.9771092530118,40.7518916711324],[-73.9775442923259,40.7520718215066],[-73.9776780472577,40.7521272024775],[-73.9777929632262,40.7521758610287],[-73.9783502124691,40.7524183952718],[-73.9787730058335,40.7525943332813],[-73.9792883046828,40.7528087621156],[-73.9793178125036,40.752768383414],[-73.979770088849,40.7521490385481],[-73.9802223423016,40.7515302445171],[-73.9806748952001,40.7509133662111],[-73.981124671466,40.7502907238925],[-73.9815741396519,40.7496763539981],[-73.9831756064166,40.750350474249],[-73.9827253182326,40.7509672096464],[-73.9822763476513,40.7515855632427],[-73.9818238866024,40.7522053923998],[-73.9813729470681,40.7528221177237],[-73.9809421068679,40.7534154731627],[-73.9808885418764,40.7534892539891],[-73.9806164269238,40.7538623130003],[-73.9803970448133,40.7541630742526],[-73.9801721673001,40.7544705346674],[-73.9799379150933,40.7547908094088],[-73.9794845811507,40.7554132314619],[-73.9792999153344,40.7556653548904],[-73.9790254106829,40.7560401337769],[-73.9785666957015,40.756663108822],[-73.9781175137851,40.7572926937012],[-73.9776562694429,40.7579196900113],[-73.9772017072956,40.7585461999162],[-73.9767461179728,40.7591730047879],[-73.976290142834,40.7597950158117],[-73.9758315615886,40.7604267870005],[-73.9742247778207,40.75974806205],[-73.9727103598994,40.7591082196314],[-73.9726141548062,40.7590675751174]]]}},{"type":"Feature","properties":{"e":"73009"},"geometry":{"type":"Polygon","coordinates":[[[-73.9677284979757,40.7628599203672],[-73.9681883174322,40.7622350887342],[-73.9686437007028,40.7616082279457],[-73.969133913886,40.7609374577286],[-73.9696264410039,40.7602597070108],[-73.970082448123,40.7596331737342],[-73.9705356159244,40.7590089170614],[-73.970995146705,40.7583815976115],[-73.971451920608,40.7577574984545],[-73.9719082003626,40.7571329401328],[-73.9723642002519,40.756505991799],[-73.9728211149472,40.7558788180061],[-73.9732770386426,40.7552518039461],[-73.9737355464701,40.7546270393279],[-73.9741908125626,40.7540017768968],[-73.974649421691,40.7533753885776],[-73.9751041026898,40.7527496448495],[-73.9755594499218,40.7521244482289],[-73.9760496905496,40.7514496588992],[-73.9765173135506,40.7516447371287],[-73.9768529653535,40.7517847592124],[-73.9771092530118,40.7518916711324],[-73.9757030005255,40.7538200422935],[-73.9757976960896,40.7538608997165],[-73.9762797014132,40.7540634238695],[-73.9762291899731,40.7541293445053],[-73.9761811555351,40.7541920317079],[-73.9761411319291,40.7542517990627],[-73.9758088356412,40.7546855402748],[-73.9753452208316,40.755307960983],[-73.9748887130255,40.7559320570828],[-73.9744401048896,40.7565645729277],[-73.9739832729096,40.7571880248053],[-73.9735256369568,40.7578167071376],[-73.9730699602776,40.7584397606904],[-73.9726141548062,40.7590675751174],[-73.9721573953935,40.759689507128],[-73.9716975325529,40.7603209283602],[-73.971244213368,40.7609446855275],[-73.9707520792281,40.7616169689477],[-73.9702595873144,40.7622970199581],[-73.969801728872,40.7629217801165],[-73.9693394279032,40.7635556481093],[-73.96923028849,40.7635085137704],[-73.9689314259001,40.7633794443845],[-73.9679057439635,40.7629364707159],[-73.9677284979757,40.7628599203672]]]}},{"type":"Feature","properties":{"e":"73010"},"geometry":{"type":"Polygon","coordinates":[[[-73.9693394279032,40.7635556481093],[-73.969801728872,40.7629217801165],[-73.9702595873144,40.7622970199581],[-73.9707520792281,40.7616169689477],[-73.971244213368,40.7609446855275],[-73.9716975325529,40.7603209283602],[-73.9721573953935,40.759689507128],[-73.9726141548062,40.7590675751174],[-73.9727103598994,40.7591082196314],[-73.9742247778207,40.75974806205],[-73.9758315615886,40.7604267870005],[-73.9753750482728,40.7610481745005],[-73.9749162037337,40.7616755371194],[-73.9744587475721,40.7623013507263],[-73.9739694302504,40.7629748550638],[-73.9737484082109,40.7632793028709],[-73.9734666757721,40.7636673723649],[-73.9730163134895,40.7642871470859],[-73.9725549639147,40.7649059995012],[-73.9720999652925,40.7655255191426],[-73.9716491840854,40.7661507370286],[-73.9700437600848,40.7654755833037],[-73.968539150162,40.7648413532115],[-73.9684328034378,40.7647961906674],[-73.9686940347631,40.764437999998],[-73.9688900609177,40.7641692132209],[-73.9693394279032,40.7635556481093]]]}},{"type":"Feature","properties":{"e":"73011"},"geometry":{"type":"Polygon","coordinates":[[[-73.9670655640195,40.7666747908373],[-73.9669526304016,40.7666280226731],[-73.9654457864813,40.7659922124231],[-73.9659017779474,40.7653655512871],[-73.9663607087505,40.7647400698706],[-73.9668148114559,40.7641135592521],[-73.9672727060388,40.76348850534],[-73.9677284979757,40.7628599203672],[-73.9679057439635,40.7629364707159],[-73.9689314259001,40.7633794443845],[-73.96923028849,40.7635085137704],[-73.9693394279032,40.7635556481093],[-73.9688900609177,40.7641692132209],[-73.9686940347631,40.764437999998],[-73.9684328034378,40.7647961906674],[-73.968539150162,40.7648413532115],[-73.9700437600848,40.7654755833037],[-73.9716491840854,40.7661507370286],[-73.9711866504283,40.7667785583648],[-73.9707292146694,40.7674019912492],[-73.9702830954415,40.7680333014019],[-73.9686733794277,40.7673500135634],[-73.9671753637532,40.7667106525746],[-73.9670655640195,40.7666747908373]]]}},{"type":"Feature","properties":{"e":"73012"},"geometry":{"type":"Polygon","coordinates":[[[-73.9745173673166,40.7491252760581],[-73.9749714478083,40.7485101144707],[-73.9754230944977,40.7478899785118],[-73.9740455064462,40.7473034922968],[-73.9744973172447,40.7466908252017],[-73.9745825883117,40.7465768303914],[-73.9746204374953,40.7465262315768],[-73.9746687601905,40.7464600361835],[-73.9747646398478,40.7463334474375],[-73.9749377724979,40.7460860602133],[-73.9753944767776,40.7454510224557],[-73.9767917498187,40.7460441251753],[-73.9776379201663,40.74639992109],[-73.9771887791082,40.7470184447018],[-73.9767363855213,40.7476361560308],[-73.9765127491085,40.747944920732],[-73.9765123085567,40.7479455289298],[-73.976440704126,40.7480443889353],[-73.9762891106223,40.7482536861581],[-73.9758428196104,40.7488942193957],[-73.97538439995,40.7494913231315],[-73.9745173673166,40.7491252760581]]]}},{"type":"Feature","properties":{"e":"73013"},"geometry":{"type":"Polygon","coordinates":[[[-73.9762891106223,40.7482536861581],[-73.976440704126,40.7480443889353],[-73.9765123085567,40.7479455289298],[-73.9765127491085,40.747944920732],[-73.9767363855213,40.7476361560308],[-73.9771887791082,40.7470184447018],[-73.9776379201663,40.74639992109],[-73.9792397050225,40.7470759062485],[-73.9787889884126,40.7476926264718],[-73.9783396597327,40.7483109468574],[-73.9778896243066,40.7489296001863],[-73.9767941272419,40.7484669658993],[-73.9762891106223,40.7482536861581]]]}},{"type":"Feature","properties":{"e":"73014"},"geometry":{"type":"Polygon","coordinates":[[[-73.9725901906107,40.7533261538799],[-73.9730464661575,40.7526998882569],[-73.9735039993144,40.7520731973877],[-73.9739605878631,40.7514492863716],[-73.9744459569622,40.7507729579397],[-73.9749361534126,40.7501078924046],[-73.97538439995,40.7494913231315],[-73.9758428196104,40.7488942193957],[-73.9762891106223,40.7482536861581],[-73.9767941272419,40.7484669658993],[-73.9778896243066,40.7489296001863],[-73.9774365023028,40.7495481594623],[-73.9769871487656,40.7501652244949],[-73.9765362952501,40.7507837718651],[-73.9760496905496,40.7514496588992],[-73.9755594499218,40.7521244482289],[-73.9751041026898,40.7527496448495],[-73.974649421691,40.7533753885776],[-73.9741908125626,40.7540017768968],[-73.9725901906107,40.7533261538799]]]}},{"type":"Feature","properties":{"e":"73015"},"geometry":{"type":"Polygon","coordinates":[[[-73.9712637842001,40.7511305059233],[-73.9717142797442,40.7505020727992],[-73.9722051614219,40.7498312698605],[-73.9726939598257,40.7491644364868],[-73.9727995808636,40.7490208402877],[-73.973147384547,40.748547982434],[-73.9734217788119,40.7486652688282],[-73.9734837195789,40.7486904458696],[-73.9745173673166,40.7491252760581],[-73.97538439995,40.7494913231315],[-73.9749361534126,40.7501078924046],[-73.9744459569622,40.7507729579397],[-73.9739605878631,40.7514492863716],[-73.9735039993144,40.7520731973877],[-73.9712637842001,40.7511305059233]]]}},{"type":"Feature","properties":{"e":"73016"},"geometry":{"type":"Polygon","coordinates":[[[-73.969887337703,40.7530071142122],[-73.9703428871421,40.7523870545237],[-73.9708050522519,40.7517564669818],[-73.9712637842001,40.7511305059233],[-73.9735039993144,40.7520731973877],[-73.9730464661575,40.7526998882569],[-73.9725901906107,40.7533261538799],[-73.9721376138342,40.7539515006603],[-73.969887337703,40.7530071142122]]]}},{"type":"Feature","properties":{"e":"73017"},"geometry":{"type":"Polygon","coordinates":[[[-73.9685219094567,40.7548844569151],[-73.9687170807213,40.7546175900137],[-73.9688409743507,40.7544481844053],[-73.9689794765796,40.7542588012604],[-73.9694324647796,40.7536317746687],[-73.9672279891312,40.7526964889148],[-73.9673777075436,40.7524903064636],[-73.9676650236696,40.7520966907647],[-73.9676997853545,40.7520490681564],[-73.9686752366464,40.7524762791205],[-73.9690209425067,40.7526276823339],[-73.969887337703,40.7530071142122],[-73.9721376138342,40.7539515006603],[-73.9716784323086,40.7545778968857],[-73.9712184852519,40.7552015901803],[-73.97076063402,40.7558331173072],[-73.9685219094567,40.7548844569151]]]}},{"type":"Feature","properties":{"e":"73018"},"geometry":{"type":"Polygon","coordinates":[[[-73.9655824686945,40.7529640604844],[-73.9652019046826,40.7528069805845],[-73.9651487659629,40.7526361297963],[-73.9648254166367,40.7525117077281],[-73.9647970177286,40.7524490506614],[-73.9647848065719,40.7523866417848],[-73.9648032245865,40.7523121302996],[-73.9651547257827,40.751965245043],[-73.965238020188,40.7519517984292],[-73.9651522542511,40.7519321163436],[-73.9652319455579,40.7518654112581],[-73.9652168091731,40.7518167262829],[-73.965291917525,40.7518198466624],[-73.9653355120007,40.751830278405],[-73.9653791064901,40.7518407099635],[-73.9655136245552,40.7518862264466],[-73.9669181472961,40.7524981350736],[-73.9671024371748,40.7524964774081],[-73.9670199884683,40.752609008245],[-73.9670687777591,40.7526289413891],[-73.9671058102919,40.752644647991],[-73.9672279891312,40.7526964889148],[-73.966995990948,40.7528130831542],[-73.9668354347831,40.7530439350535],[-73.9667121824261,40.7532211640356],[-73.9666707964272,40.7532745188391],[-73.9666172559992,40.753251691144],[-73.9665407191218,40.7533555741358],[-73.9664921526446,40.753339528445],[-73.9655824686945,40.7529640604844]]]}},{"type":"Feature","properties":{"e":"73019"},"geometry":{"type":"Polygon","coordinates":[[[-73.9655824686945,40.7529640604844],[-73.9664921526446,40.753339528445],[-73.9665407191218,40.7533555741358],[-73.9666172559992,40.753251691144],[-73.9666707964272,40.7532745188391],[-73.9667121824261,40.7532211640356],[-73.9668354347831,40.7530439350535],[-73.966995990948,40.7528130831542],[-73.9672279891312,40.7526964889148],[-73.9694324647796,40.7536317746687],[-73.9689794765796,40.7542588012604],[-73.9688409743507,40.7544481844053],[-73.9683606821697,40.7542551899793],[-73.9682754619716,40.7543738729839],[-73.9663622619964,40.7535825094293],[-73.9662109586802,40.7535397903984],[-73.9661365804042,40.7535076137734],[-73.9661207823952,40.7535289457505],[-73.9660632626684,40.7535040614186],[-73.9660790606899,40.7534827294494],[-73.9654164530111,40.7531960725747],[-73.9655630249691,40.7529981723644],[-73.9655824686945,40.7529640604844]]]}},{"type":"Feature","properties":{"e":"73020"},"geometry":{"type":"Polygon","coordinates":[[[-73.9634070281934,40.7535278109614],[-73.9634682222752,40.7535557181126],[-73.96414186238,40.7529136172152],[-73.9644236998373,40.753149467398],[-73.9644426346372,40.7531653131693],[-73.9648130638077,40.753322644936],[-73.9661582724554,40.7538861169678],[-73.9656976371317,40.7545133364605],[-73.9652423823055,40.7551381952386],[-73.9631108476958,40.7542276527646],[-73.9628813601136,40.7541302613242],[-73.9631777273546,40.7537904343422],[-73.9633011562156,40.7536489041555],[-73.9634070281934,40.7535278109614]]]}},{"type":"Feature","properties":{"e":"73021"},"geometry":{"type":"Polygon","coordinates":[[[-73.9676076471897,40.7561402547283],[-73.9680671276021,40.7555124707387],[-73.9685219094567,40.7548844569151],[-73.97076063402,40.7558331173072],[-73.9712184852519,40.7552015901803],[-73.9716784323086,40.7545778968857],[-73.9721376138342,40.7539515006603],[-73.9725901906107,40.7533261538799],[-73.9741908125626,40.7540017768968],[-73.9737355464701,40.7546270393279],[-73.9732770386426,40.7552518039461],[-73.9728211149472,40.7558788180061],[-73.9723642002519,40.756505991799],[-73.9719082003626,40.7571329401328],[-73.971451920608,40.7577574984545],[-73.9698500388306,40.7570842243446],[-73.9676076471897,40.7561402547283]]]}},{"type":"Feature","properties":{"e":"73022"},"geometry":{"type":"Polygon","coordinates":[[[-73.9616237362226,40.7560671703313],[-73.9612759549871,40.7559065554943],[-73.9610941010003,40.7558194160447],[-73.9610373708642,40.7557837805066],[-73.9611600396013,40.7556708728749],[-73.9611063485025,40.7556490807342],[-73.9610293460337,40.7556188514459],[-73.9616307122152,40.7551606510149],[-73.9616771964929,40.7552147056934],[-73.9617228356876,40.7552550899481],[-73.9618780063983,40.7552049383743],[-73.9619907962535,40.7551735181083],[-73.9622823871886,40.7549218043976],[-73.9624028592643,40.7548410493224],[-73.9624435068527,40.7548274579593],[-73.9625038483604,40.7548184243409],[-73.9625510356208,40.7548211933154],[-73.9647877698791,40.7557639982116],[-73.9643268732531,40.7563897973905],[-73.9632426609184,40.7559380408274],[-73.962101329813,40.7554624670566],[-73.9616237362226,40.7560671703313]]]}},{"type":"Feature","properties":{"e":"73023"},"geometry":{"type":"Polygon","coordinates":[[[-73.9616237362226,40.7560671703313],[-73.962101329813,40.7554624670566],[-73.9632426609184,40.7559380408274],[-73.9643268732531,40.7563897973905],[-73.9638723139966,40.7570163449971],[-73.9629806823444,40.7566399758133],[-73.9627883606085,40.7565587927418],[-73.9616237362226,40.7560671703313]]]}},{"type":"Feature","properties":{"e":"73024"},"geometry":{"type":"Polygon","coordinates":[[[-73.9652423823055,40.7551381952386],[-73.9656976371317,40.7545133364605],[-73.9661582724554,40.7538861169678],[-73.9648130638077,40.753322644936],[-73.9644426346372,40.7531653131693],[-73.9644236998373,40.753149467398],[-73.96414186238,40.7529136172152],[-73.9634682222752,40.7535557181126],[-73.9634070281934,40.7535278109614],[-73.9633496664089,40.7535023868956],[-73.9632698405038,40.7534670189997],[-73.9631621777486,40.7534204736896],[-73.9637371602292,40.7527920414926],[-73.964710966056,40.7517276805688],[-73.9647695276654,40.7517997124389],[-73.9648230675998,40.7519076791048],[-73.9648636871437,40.7520193670818],[-73.9650569246248,40.7518208466149],[-73.9652168091731,40.7518167262829],[-73.9652319455579,40.7518654112581],[-73.9651522542511,40.7519321163436],[-73.965238020188,40.7519517984292],[-73.9651547257827,40.751965245043],[-73.9648032245865,40.7523121302996],[-73.9647848065719,40.7523866417848],[-73.9647970177286,40.7524490506614],[-73.9648254166367,40.7525117077281],[-73.9651487659629,40.7526361297963],[-73.9652019046826,40.7528069805845],[-73.9655824686945,40.7529640604844],[-73.9655630249691,40.7529981723644],[-73.9654164530111,40.7531960725747],[-73.9660790606899,40.7534827294494],[-73.9660632626684,40.7535040614186],[-73.9661207823952,40.7535289457505],[-73.9661365804042,40.7535076137734],[-73.9662109586802,40.7535397903984],[-73.9663622619964,40.7535825094293],[-73.9682754619716,40.7543738729839],[-73.9683606821697,40.7542551899793],[-73.9688409743507,40.7544481844053],[-73.9687170807213,40.7546175900137],[-73.9685219094567,40.7548844569151],[-73.9680671276021,40.7555124707387],[-73.9676076471897,40.7561402547283],[-73.9652423823055,40.7551381952386]]]}},{"type":"Feature","properties":{"e":"73025"},"geometry":{"type":"Polygon","coordinates":[[[-73.9647877698791,40.7557639982116],[-73.9625510356208,40.7548211933154],[-73.9625038483604,40.7548184243409],[-73.9624435068527,40.7548274579593],[-73.9624028592643,40.7548410493224],[-73.9622823871886,40.7549218043976],[-73.9619907962535,40.7551735181083],[-73.9618780063983,40.7552049383743],[-73.9617228356876,40.7552550899481],[-73.9616771964929,40.7552147056934],[-73.9616307122152,40.7551606510149],[-73.9617637112407,40.7550085199509],[-73.9621370275743,40.7545814975954],[-73.962195255392,40.7545125812598],[-73.9622326893375,40.7545303970334],[-73.9626884682618,40.7540126392782],[-73.9628987292139,40.7537737830316],[-73.9628704048703,40.7537507750906],[-73.9631621777486,40.7534204736896],[-73.9632698405038,40.7534670189997],[-73.9633496664089,40.7535023868956],[-73.9634070281934,40.7535278109614],[-73.9633011562156,40.7536489041555],[-73.9631777273546,40.7537904343422],[-73.9628813601136,40.7541302613242],[-73.9631108476958,40.7542276527646],[-73.9652423823055,40.7551381952386],[-73.9676076471897,40.7561402547283],[-73.9671539821481,40.7567734616397],[-73.9647877698791,40.7557639982116]]]}},{"type":"Feature","properties":{"e":"73026"},"geometry":{"type":"Polygon","coordinates":[[[-73.9662405043164,40.7580165068066],[-73.9667033137145,40.7573890703117],[-73.9671539821481,40.7567734616397],[-73.9676076471897,40.7561402547283],[-73.9698500388306,40.7570842243446],[-73.971451920608,40.7577574984545],[-73.970995146705,40.7583815976115],[-73.9705356159244,40.7590089170614],[-73.970082448123,40.7596331737342],[-73.9684812355042,40.7589583948344],[-73.9662405043164,40.7580165068066]]]}},{"type":"Feature","properties":{"e":"73027"},"geometry":{"type":"Polygon","coordinates":[[[-73.9652945134216,40.759316104544],[-73.9657853848796,40.7586408992225],[-73.9662405043164,40.7580165068066],[-73.9684812355042,40.7589583948344],[-73.970082448123,40.7596331737342],[-73.9696264410039,40.7602597070108],[-73.969133913886,40.7609374577286],[-73.9675752406813,40.7602806799253],[-73.9675221793562,40.7602571518822],[-73.967427323992,40.7602158726887],[-73.9652945134216,40.759316104544]]]}},{"type":"Feature","properties":{"e":"73028"},"geometry":{"type":"Polygon","coordinates":[[[-73.966584823064,40.7615592029087],[-73.9670379359095,40.7609312635163],[-73.9648022341252,40.7599904064934],[-73.9652945134216,40.759316104544],[-73.967427323992,40.7602158726887],[-73.9675221793562,40.7602571518822],[-73.9675752406813,40.7602806799253],[-73.969133913886,40.7609374577286],[-73.9686437007028,40.7616082279457],[-73.9681883174322,40.7622350887342],[-73.966584823064,40.7615592029087]]]}},{"type":"Feature","properties":{"e":"73029"},"geometry":{"type":"Polygon","coordinates":[[[-73.958935921994,40.7583434224195],[-73.9588650248697,40.7583143374053],[-73.9588255391257,40.7582981386176],[-73.958779344369,40.7582791878125],[-73.9590571834271,40.7579381397073],[-73.9591726215619,40.7578723754715],[-73.9591824691068,40.7578643779209],[-73.9596591451288,40.7572684123609],[-73.9596654393624,40.7572196794147],[-73.9600404463581,40.7567336173584],[-73.9603659885981,40.7562776776499],[-73.9606578184061,40.7559314159885],[-73.96079853645,40.755813039151],[-73.9607986671596,40.7558129222624],[-73.9610293460337,40.7556188514459],[-73.9611063485025,40.7556490807342],[-73.9611600396013,40.7556708728749],[-73.9610373708642,40.7557837805066],[-73.9610941010003,40.7558194160447],[-73.9612759549871,40.7559065554943],[-73.9616237362226,40.7560671703313],[-73.9611587792929,40.7566958638834],[-73.9625276623872,40.7572727039845],[-73.9634125583723,40.7576455804102],[-73.9629259230976,40.7583172561947],[-73.960672741105,40.7573724285736],[-73.9602809297791,40.7572055657697],[-73.9599694530344,40.7570866356357],[-73.9596642864613,40.7574176437879],[-73.9593900875426,40.7577150581708],[-73.9594888756594,40.7577557409493],[-73.9590382469772,40.7583920495815],[-73.958935921994,40.7583434224195]]]}},{"type":"Feature","properties":{"e":"73030"},"geometry":{"type":"Polygon","coordinates":[[[-73.9624342219974,40.7589889188277],[-73.9601830482021,40.75804492889],[-73.9594888756594,40.7577557409493],[-73.9593900875426,40.7577150581708],[-73.9596642864613,40.7574176437879],[-73.9599694530344,40.7570866356357],[-73.9602809297791,40.7572055657697],[-73.960672741105,40.7573724285736],[-73.9629259230976,40.7583172561947],[-73.9645043678933,40.7589828303083],[-73.9640057588621,40.7596575050444],[-73.9624342219974,40.7589889188277]]]}},{"type":"Feature","properties":{"e":"73031"},"geometry":{"type":"Polygon","coordinates":[[[-73.9634125583723,40.7576455804102],[-73.9625276623872,40.7572727039845],[-73.9611587792929,40.7566958638834],[-73.9616237362226,40.7560671703313],[-73.9627883606085,40.7565587927418],[-73.9629806823444,40.7566399758133],[-73.9638723139966,40.7570163449971],[-73.9662405043164,40.7580165068066],[-73.9657853848796,40.7586408992225],[-73.9634125583723,40.7576455804102]]]}},{"type":"Feature","properties":{"e":"73032"},"geometry":{"type":"Polygon","coordinates":[[[-73.9638723139966,40.7570163449971],[-73.9643268732531,40.7563897973905],[-73.9647877698791,40.7557639982116],[-73.9671539821481,40.7567734616397],[-73.9667033137145,40.7573890703117],[-73.9662405043164,40.7580165068066],[-73.9638723139966,40.7570163449971]]]}},{"type":"Feature","properties":{"e":"73033"},"geometry":{"type":"Polygon","coordinates":[[[-73.9640057588621,40.7596575050444],[-73.9645043678933,40.7589828303083],[-73.9629259230976,40.7583172561947],[-73.9634125583723,40.7576455804102],[-73.9657853848796,40.7586408992225],[-73.9652945134216,40.759316104544],[-73.9648022341252,40.7599904064934],[-73.9640057588621,40.7596575050444]]]}},{"type":"Feature","properties":{"e":"73034"},"geometry":{"type":"Polygon","coordinates":[[[-73.9590382469772,40.7583920495815],[-73.9594888756594,40.7577557409493],[-73.9601830482021,40.75804492889],[-73.9624342219974,40.7589889188277],[-73.9619671740222,40.7596277279017],[-73.9597232406546,40.758671330689],[-73.9590382469772,40.7583920495815]]]}},{"type":"Feature","properties":{"e":"73035"},"geometry":{"type":"Polygon","coordinates":[[[-73.9610689815688,40.7608663605185],[-73.9606160354066,40.7606767406532],[-73.9588109909973,40.7599210532981],[-73.9581642129581,40.759648058068],[-73.9581083189512,40.7596265051483],[-73.9580094889438,40.7595883973961],[-73.9580928213024,40.7594795447667],[-73.9585035920255,40.7589429680098],[-73.9585726669754,40.7588488009072],[-73.9586154273728,40.7587897119508],[-73.9586657676157,40.7587217459851],[-73.9586714496591,40.7587140748328],[-73.9586931172634,40.7586833305362],[-73.9587205184149,40.7586484996517],[-73.9587581346068,40.7585969695784],[-73.958935921994,40.7583434224195],[-73.9590382469772,40.7583920495815],[-73.9597232406546,40.758671330689],[-73.9619671740222,40.7596277279017],[-73.9630821735793,40.7600914309082],[-73.9635576271162,40.7602890857719],[-73.9643149743698,40.7606074985761],[-73.9640174138972,40.7610458333357],[-73.9638845423032,40.7612415534577],[-73.9637672705031,40.7611936005503],[-73.9634883704887,40.7610817712327],[-73.9631933176361,40.7614846843003],[-73.9630327327857,40.761418777126],[-73.9631028558526,40.7613231788506],[-73.9626547468941,40.7611329817224],[-73.9617581531133,40.7607548187318],[-73.961891031783,40.7605736722839],[-73.9614238934915,40.760376218553],[-73.9610689815688,40.7608663605185]]]}},{"type":"Feature","properties":{"e":"73036"},"geometry":{"type":"Polygon","coordinates":[[[-73.9642993422288,40.7646902551432],[-73.9647568875481,40.7640653384866],[-73.9652147190567,40.7634396268094],[-73.965671038125,40.7628128237215],[-73.9661289116908,40.7621875671668],[-73.966584823064,40.7615592029087],[-73.9681883174322,40.7622350887342],[-73.9677284979757,40.7628599203672],[-73.9672727060388,40.76348850534],[-73.9668148114559,40.7641135592521],[-73.9663607087505,40.7647400698706],[-73.9659017779474,40.7653655512871],[-73.9642993422288,40.7646902551432]]]}},{"type":"Feature","properties":{"e":"73037"},"geometry":{"type":"Polygon","coordinates":[[[-73.9625166781738,40.7631210019074],[-73.9629760398403,40.7624953445972],[-73.963425351802,40.7618668550442],[-73.9638845423032,40.7612415534577],[-73.9640174138972,40.7610458333357],[-73.9643149743698,40.7606074985761],[-73.966584823064,40.7615592029087],[-73.9661289116908,40.7621875671668],[-73.965671038125,40.7628128237215],[-73.9652147190567,40.7634396268094],[-73.9647568875481,40.7640653384866],[-73.9625166781738,40.7631210019074]]]}},{"type":"Feature","properties":{"e":"73038"},"geometry":{"type":"Polygon","coordinates":[[[-73.9611500666769,40.7649957141714],[-73.9616089778777,40.7643744297225],[-73.9620653639774,40.7637425527505],[-73.9625166781738,40.7631210019074],[-73.9647568875481,40.7640653384866],[-73.9642993422288,40.7646902551432],[-73.9638443491025,40.7653179543368],[-73.9634029795842,40.765919459835],[-73.9632698136567,40.7658648558279],[-73.9630391470163,40.7657702837962],[-73.9615402598263,40.7651557109135],[-73.9612727619503,40.7650460215892],[-73.9611500666769,40.7649957141714]]]}},{"type":"Feature","properties":{"e":"73039"},"geometry":{"type":"Polygon","coordinates":[[[-73.9620155689545,40.7678205777136],[-73.9624714278084,40.7671932023673],[-73.9629300962928,40.7665668963876],[-73.9634029795842,40.765919459835],[-73.9638443491025,40.7653179543368],[-73.9642993422288,40.7646902551432],[-73.9659017779474,40.7653655512871],[-73.9654457864813,40.7659922124231],[-73.9649899895503,40.7666172671963],[-73.9645326439213,40.7672426347501],[-73.9643016895645,40.767560396247],[-73.9640777405407,40.7678685149956],[-73.9636197020493,40.7684949062009],[-73.9620155689545,40.7678205777136]]]}},{"type":"Feature","properties":{"e":"73040"},"geometry":{"type":"Polygon","coordinates":[[[-73.9652389053926,40.7691767276699],[-73.96569481272,40.7685520497813],[-73.9661516833639,40.7679253447628],[-73.9666062951757,40.7672983830854],[-73.9670655640195,40.7666747908373],[-73.9671753637532,40.7667106525746],[-73.9686733794277,40.7673500135634],[-73.9702830954415,40.7680333014019],[-73.9698259931885,40.7686542774281],[-73.9695174920112,40.7690734691246],[-73.9693662863276,40.7692789255687],[-73.9689059871949,40.7699091011788],[-73.9684429993146,40.7705245958949],[-73.9668485383414,40.7698549388371],[-73.9656606440933,40.7693552463562],[-73.9653404020393,40.769220531364],[-73.9652389053926,40.7691767276699]]]}},{"type":"Feature","properties":{"e":"73041"},"geometry":{"type":"Polygon","coordinates":[[[-73.9622124906264,40.770431742318],[-73.9627053641412,40.7697470523076],[-73.9631632308442,40.769120557745],[-73.9636197020493,40.7684949062009],[-73.9640777405407,40.7678685149956],[-73.9643016895645,40.767560396247],[-73.9645326439213,40.7672426347501],[-73.9649899895503,40.7666172671963],[-73.9654457864813,40.7659922124231],[-73.9669526304016,40.7666280226731],[-73.9670655640195,40.7666747908373],[-73.9666062951757,40.7672983830854],[-73.9661516833639,40.7679253447628],[-73.96569481272,40.7685520497813],[-73.9652389053926,40.7691767276699],[-73.9647831542669,40.7698040330619],[-73.9643208450556,40.7704312265104],[-73.9638260541067,40.771112249756],[-73.9637140749898,40.7710652882731],[-73.9622124906264,40.770431742318]]]}},{"type":"Feature","properties":{"e":"73042"},"geometry":{"type":"Polygon","coordinates":[[[-73.9638260541067,40.771112249756],[-73.9643208450556,40.7704312265104],[-73.9647831542669,40.7698040330619],[-73.9652389053926,40.7691767276699],[-73.9653404020393,40.769220531364],[-73.9656606440933,40.7693552463562],[-73.9668485383414,40.7698549388371],[-73.9684429993146,40.7705245958949],[-73.9679947176456,40.7711555001137],[-73.9675354242102,40.7717844532843],[-73.9670409154491,40.7724694882681],[-73.965437092957,40.7717900208509],[-73.9639229930475,40.7711530367879],[-73.9638260541067,40.771112249756]]]}},{"type":"Feature","properties":{"e":"73043"},"geometry":{"type":"Polygon","coordinates":[[[-73.9601109892717,40.7704404802631],[-73.9606032437976,40.7697574563557],[-73.9611114081236,40.7690726773001],[-73.9615492934868,40.7684398507052],[-73.9620155689545,40.7678205777136],[-73.9636197020493,40.7684949062009],[-73.9631632308442,40.769120557745],[-73.9627053641412,40.7697470523076],[-73.9622124906264,40.770431742318],[-73.9617097651794,40.7711138523459],[-73.9601109892717,40.7704404802631]]]}},{"type":"Feature","properties":{"e":"73044"},"geometry":{"type":"Polygon","coordinates":[[[-73.958718511393,40.7723399443721],[-73.9591832374693,40.7717050935337],[-73.9596458449347,40.7710725357928],[-73.9601109892717,40.7704404802631],[-73.9617097651794,40.7711138523459],[-73.9612461703067,40.7717466436876],[-73.9607844487463,40.7723812524023],[-73.960321262316,40.7730153537829],[-73.958718511393,40.7723399443721]]]}},{"type":"Feature","properties":{"e":"73045"},"geometry":{"type":"Polygon","coordinates":[[[-73.9572955370761,40.7742918252254],[-73.9577952414588,40.7736081674556],[-73.958256786238,40.7729736069446],[-73.9585719633211,40.7725410652333],[-73.958718511393,40.7723399443721],[-73.960321262316,40.7730153537829],[-73.960092006318,40.7733301114727],[-73.9598582554019,40.773651038601],[-73.9593953935398,40.7742862350577],[-73.9588973484342,40.7749684329286],[-73.9572955370761,40.7742918252254]]]}},{"type":"Feature","properties":{"e":"73046"},"geometry":{"type":"Polygon","coordinates":[[[-73.962403884151,40.7730623288507],[-73.9628662937719,40.7724276963466],[-73.963328113525,40.7717946103482],[-73.9638260541067,40.771112249756],[-73.9639229930475,40.7711530367879],[-73.965437092957,40.7717900208509],[-73.9670409154491,40.7724694882681],[-73.9665376096614,40.773148638695],[-73.9660759298302,40.7737812588424],[-73.9656111255249,40.774415471328],[-73.9640132619092,40.7737410748358],[-73.9625073743739,40.7731059748394],[-73.962403884151,40.7730623288507]]]}},{"type":"Feature","properties":{"e":"73047"},"geometry":{"type":"Polygon","coordinates":[[[-73.960321262316,40.7730153537829],[-73.9607844487463,40.7723812524023],[-73.9612461703067,40.7717466436876],[-73.9617097651794,40.7711138523459],[-73.9622124906264,40.770431742318],[-73.9637140749898,40.7710652882731],[-73.9638260541067,40.771112249756],[-73.963328113525,40.7717946103482],[-73.9628662937719,40.7724276963466],[-73.962403884151,40.7730623288507],[-73.9619406838272,40.7736977969756],[-73.9618258950562,40.7736494384335],[-73.960321262316,40.7730153537829]]]}},{"type":"Feature","properties":{"e":"73048"},"geometry":{"type":"Polygon","coordinates":[[[-73.9605119946275,40.7756489669035],[-73.9610099232588,40.7749635925053],[-73.9614772497965,40.7743322814026],[-73.9619406838272,40.7736977969756],[-73.962403884151,40.7730623288507],[-73.9625073743739,40.7731059748394],[-73.9640132619092,40.7737410748358],[-73.9656111255249,40.774415471328],[-73.9651488929478,40.7750525026158],[-73.9646887975088,40.7756853518788],[-73.9642296407231,40.7763185794861],[-73.962624175178,40.7756462859664],[-73.9621259753891,40.7763284426455],[-73.9606219899863,40.7756943086366],[-73.9605119946275,40.7756489669035]]]}},{"type":"Feature","properties":{"e":"73049"},"geometry":{"type":"Polygon","coordinates":[[[-73.9581759120531,40.7759578084495],[-73.9584005130603,40.7756503314915],[-73.9588973484342,40.7749684329286],[-73.9593953935398,40.7742862350577],[-73.9598582554019,40.773651038601],[-73.960092006318,40.7733301114727],[-73.960321262316,40.7730153537829],[-73.9618258950562,40.7736494384335],[-73.9619406838272,40.7736977969756],[-73.9614772497965,40.7743322814026],[-73.9610099232588,40.7749635925053],[-73.9605119946275,40.7756489669035],[-73.9600128153223,40.7763283770859],[-73.959696152505,40.7767634707073],[-73.9595893081764,40.7767204129107],[-73.9591795292318,40.7765536606933],[-73.9592610878568,40.7764399206425],[-73.9581759120531,40.7759578084495]]]}},{"type":"Feature","properties":{"e":"73050"},"geometry":{"type":"Polygon","coordinates":[[[-73.9602395510657,40.7789136373985],[-73.9607026845475,40.7782798960544],[-73.9611675760146,40.7776438207586],[-73.9596602514274,40.7770118168615],[-73.9595491654284,40.7769654291481],[-73.959696152505,40.7767634707073],[-73.9600128153223,40.7763283770859],[-73.9605119946275,40.7756489669035],[-73.9606219899863,40.7756943086366],[-73.9621259753891,40.7763284426455],[-73.962624175178,40.7756462859664],[-73.9642296407231,40.7763185794861],[-73.963762677384,40.7769592403801],[-73.9637274656056,40.7770139883571],[-73.9632313578562,40.7776853179678],[-73.9631360374199,40.7778163219134],[-73.9627685942327,40.7783213116354],[-73.9623050533245,40.7789553120918],[-73.9618398074739,40.7795924637268],[-73.9602395510657,40.7789136373985]]]}},{"type":"Feature","properties":{"e":"73051"},"geometry":{"type":"Polygon","coordinates":[[[-73.957011109659,40.7775536106398],[-73.9574727244884,40.7769190980555],[-73.9579376836777,40.7762839371312],[-73.9581759120531,40.7759578084495],[-73.9592610878568,40.7764399206425],[-73.9591795292318,40.7765536606933],[-73.9595893081764,40.7767204129107],[-73.959696152505,40.7767634707073],[-73.9595491654284,40.7769654291481],[-73.9596602514274,40.7770118168615],[-73.9611675760146,40.7776438207586],[-73.9607026845475,40.7782798960544],[-73.9602395510657,40.7789136373985],[-73.9587344105498,40.7782802076882],[-73.9586285941508,40.7782348107241],[-73.9585185613035,40.7781884855614],[-73.957011109659,40.7775536106398]]]}},{"type":"Feature","properties":{"e":"73052"},"geometry":{"type":"Polygon","coordinates":[[[-73.9560836231046,40.7788224021384],[-73.9565479447589,40.7781883725235],[-73.957011109659,40.7775536106398],[-73.9585185613035,40.7781884855614],[-73.9586285941508,40.7782348107241],[-73.9587344105498,40.7782802076882],[-73.9602395510657,40.7789136373985],[-73.9597752109098,40.7795496897605],[-73.9593124865997,40.7801820759775],[-73.9578141366428,40.7795512216912],[-73.9577013083332,40.7795011662889],[-73.9575909655011,40.7794562262416],[-73.9560836231046,40.7788224021384]]]}},{"type":"Feature","properties":{"e":"73053"},"geometry":{"type":"Polygon","coordinates":[[[-73.9588158288815,40.7808663527161],[-73.9593124865997,40.7801820759775],[-73.9597752109098,40.7795496897605],[-73.9602395510657,40.7789136373985],[-73.9618398074739,40.7795924637268],[-73.9613701652539,40.7802380202184],[-73.9609115995787,40.7808653073365],[-73.9604157446168,40.7815325392624],[-73.9588158288815,40.7808663527161]]]}},{"type":"Feature","properties":{"e":"73054"},"geometry":{"type":"Polygon","coordinates":[[[-73.9567100015906,40.780863654228],[-73.9566026416339,40.7808187510527],[-73.9550945106458,40.7801803295216],[-73.9555858414945,40.7795050705062],[-73.9560836231046,40.7788224021384],[-73.9575909655011,40.7794562262416],[-73.9577013083332,40.7795011662889],[-73.9578141366428,40.7795512216912],[-73.9593124865997,40.7801820759775],[-73.9588158288815,40.7808663527161],[-73.9573079700232,40.7802314099462],[-73.9572003623367,40.7801857771557],[-73.9567100015906,40.780863654228]]]}},{"type":"Feature","properties":{"e":"73055"},"geometry":{"type":"Polygon","coordinates":[[[-73.9557915714715,40.7821172908072],[-73.9562480621689,40.7814876810352],[-73.956357883965,40.7815357555508],[-73.957864460822,40.7821699542749],[-73.959470497769,40.7828415934113],[-73.9590132045587,40.7834695565208],[-73.9585695384176,40.784091716063],[-73.9569467091009,40.7834255713263],[-73.9573538584894,40.7828698485251],[-73.9574054302642,40.7827982954111],[-73.9558995600975,40.7821623655099],[-73.9557915714715,40.7821172908072]]]}},{"type":"Feature","properties":{"e":"73056"},"geometry":{"type":"Polygon","coordinates":[[[-73.957864460822,40.7821699542749],[-73.9583248668122,40.7815436495289],[-73.9585550848589,40.7812260585354],[-73.9588158288815,40.7808663527161],[-73.9604157446168,40.7815325392624],[-73.959922380823,40.7822212151119],[-73.959470497769,40.7828415934113],[-73.957864460822,40.7821699542749]]]}},{"type":"Feature","properties":{"e":"73057"},"geometry":{"type":"Polygon","coordinates":[[[-73.9562480621689,40.7814876810352],[-73.9567100015906,40.780863654228],[-73.9572003623367,40.7801857771557],[-73.9573079700232,40.7802314099462],[-73.9588158288815,40.7808663527161],[-73.9585550848589,40.7812260585354],[-73.9583248668122,40.7815436495289],[-73.957864460822,40.7821699542749],[-73.956357883965,40.7815357555508],[-73.9562480621689,40.7814876810352]]]}},{"type":"Feature","properties":{"e":"73058"},"geometry":{"type":"Polygon","coordinates":[[[-73.9541782020445,40.7814373308499],[-73.9546327123657,40.7808086811793],[-73.9550945106458,40.7801803295216],[-73.9566026416339,40.7808187510527],[-73.9567100015906,40.780863654228],[-73.9562480621689,40.7814876810352],[-73.9557915714715,40.7821172908072],[-73.9556831682448,40.782072170109],[-73.9541782020445,40.7814373308499]]]}},{"type":"Feature","properties":{"e":"73059"},"geometry":{"type":"Polygon","coordinates":[[[-73.9500298276705,40.7821474083654],[-73.9504655154394,40.7815117790314],[-73.9494229923255,40.7810672087139],[-73.9496152884103,40.7808060670776],[-73.9496800607847,40.7807182462304],[-73.9498822430087,40.7804441165214],[-73.9521234681288,40.7813949819423],[-73.9516606427921,40.7820159460246],[-73.9512007085825,40.7826416644564],[-73.9502910064272,40.7822576598594],[-73.9500298276705,40.7821474083654]]]}},{"type":"Feature","properties":{"e":"73060"},"geometry":{"type":"Polygon","coordinates":[[[-73.9489632052511,40.7816971490633],[-73.9494229923255,40.7810672087139],[-73.9504655154394,40.7815117790314],[-73.9500298276705,40.7821474083654],[-73.9489632052511,40.7816971490633]]]}},{"type":"Feature","properties":{"e":"73061"},"geometry":{"type":"Polygon","coordinates":[[[-73.9507405731613,40.7832699829138],[-73.9512007085825,40.7826416644564],[-73.9516606427921,40.7820159460246],[-73.9521234681288,40.7813949819423],[-73.9537193131487,40.7820638523559],[-73.9532607123113,40.7826906230478],[-73.9528024462064,40.7833170956426],[-73.9523423929264,40.7839453303311],[-73.9517818031313,40.7837089829495],[-73.951693557968,40.7836717784924],[-73.9515195655897,40.7835984209768],[-73.9513077889961,40.7835091328366],[-73.9507405731613,40.7832699829138]]]}},{"type":"Feature","properties":{"e":"73062"},"geometry":{"type":"Polygon","coordinates":[[[-73.9521234681288,40.7813949819423],[-73.952575654901,40.7807613056046],[-73.9530351151445,40.7801337264814],[-73.9534935595684,40.7795048939798],[-73.9550945106458,40.7801803295216],[-73.9546327123657,40.7808086811793],[-73.9541782020445,40.7814373308499],[-73.9537193131487,40.7820638523559],[-73.9521234681288,40.7813949819423]]]}},{"type":"Feature","properties":{"e":"73063"},"geometry":{"type":"Polygon","coordinates":[[[-73.9555713218256,40.7853057024329],[-73.9560319689085,40.7846781935051],[-73.9564884483158,40.7840528242565],[-73.9549884904528,40.7834143416103],[-73.9548784260501,40.7833712105545],[-73.9553375737032,40.7827447922108],[-73.9557915714715,40.7821172908072],[-73.9558995600975,40.7821623655099],[-73.9574054302642,40.7827982954111],[-73.9573538584894,40.7828698485251],[-73.9569467091009,40.7834255713263],[-73.9585695384176,40.784091716063],[-73.9581049719725,40.7847212768938],[-73.9576374313169,40.7853517306261],[-73.9571638712124,40.785987910703],[-73.9567678906256,40.7858187662148],[-73.9555713218256,40.7853057024329]]]}},{"type":"Feature","properties":{"e":"73064"},"geometry":{"type":"Polygon","coordinates":[[[-73.9535040445242,40.7852553775636],[-73.9533961235049,40.7852099398168],[-73.9518843926443,40.7845734834033],[-73.9523423929264,40.7839453303311],[-73.9528024462064,40.7833170956426],[-73.9532607123113,40.7826906230478],[-73.95371732689,40.7828820611266],[-73.9537491912748,40.782895419825],[-73.9547685086583,40.7833227635372],[-73.9548784260501,40.7833712105545],[-73.9549884904528,40.7834143416103],[-73.9564884483158,40.7840528242565],[-73.9560319689085,40.7846781935051],[-73.9555713218256,40.7853057024329],[-73.954070525148,40.7846706303556],[-73.9539618703767,40.7846247872632],[-73.9535040445242,40.7852553775636]]]}},{"type":"Feature","properties":{"e":"73065"},"geometry":{"type":"Polygon","coordinates":[[[-73.9532607123113,40.7826906230478],[-73.9537193131487,40.7820638523559],[-73.9541782020445,40.7814373308499],[-73.9556831682448,40.782072170109],[-73.9557915714715,40.7821172908072],[-73.9553375737032,40.7827447922108],[-73.9548784260501,40.7833712105545],[-73.9547685086583,40.7833227635372],[-73.9537491912748,40.782895419825],[-73.95371732689,40.7828820611266],[-73.9532607123113,40.7826906230478]]]}},{"type":"Feature","properties":{"e":"73066"},"geometry":{"type":"Polygon","coordinates":[[[-73.9554087338061,40.7768767511215],[-73.9558707731213,40.7762444969275],[-73.9563363596655,40.7756090538221],[-73.9565853101116,40.7752675871169],[-73.9567989273445,40.7749745809693],[-73.9572955370761,40.7742918252254],[-73.9588973484342,40.7749684329286],[-73.9584005130603,40.7756503314915],[-73.9581759120531,40.7759578084495],[-73.9579376836777,40.7762839371312],[-73.9574727244884,40.7769190980555],[-73.957011109659,40.7775536106398],[-73.9554087338061,40.7768767511215]]]}},{"type":"Feature","properties":{"e":"73067"},"geometry":{"type":"Polygon","coordinates":[[[-73.9544836771206,40.7781469360248],[-73.9549466368221,40.7775122180295],[-73.9554087338061,40.7768767511215],[-73.957011109659,40.7775536106398],[-73.9565479447589,40.7781883725235],[-73.9560836231046,40.7788224021384],[-73.9544836771206,40.7781469360248]]]}},{"type":"Feature","properties":{"e":"73068"},"geometry":{"type":"Polygon","coordinates":[[[-73.9534935595684,40.7795048939798],[-73.9537153693389,40.7792005431634],[-73.953759722535,40.7791396844025],[-73.9539851380667,40.7788303812727],[-73.9544836771206,40.7781469360248],[-73.9560836231046,40.7788224021384],[-73.9555858414945,40.7795050705062],[-73.9550945106458,40.7801803295216],[-73.9534935595684,40.7795048939798]]]}},{"type":"Feature","properties":{"e":"73069"},"geometry":{"type":"Polygon","coordinates":[[[-73.9498822430087,40.7804441165214],[-73.9503377331459,40.7798182399005],[-73.9507937266036,40.7791879754871],[-73.9524620143737,40.7798919151604],[-73.9530351151445,40.7801337264814],[-73.952575654901,40.7807613056046],[-73.9521234681288,40.7813949819423],[-73.9498822430087,40.7804441165214]]]}},{"type":"Feature","properties":{"e":"73071"},"geometry":{"type":"Polygon","coordinates":[[[-73.973147384547,40.748547982434],[-73.9736088201387,40.7479337192869],[-73.9740455064462,40.7473034922968],[-73.9754230944977,40.7478899785118],[-73.9749714478083,40.7485101144707],[-73.9745173673166,40.7491252760581],[-73.9734837195789,40.7486904458696],[-73.9734217788119,40.7486652688282],[-73.973147384547,40.748547982434]]]}},{"type":"Feature","properties":{"e":"73072"},"geometry":{"type":"Polygon","coordinates":[[[-73.9643149743698,40.7606074985761],[-73.9635576271162,40.7602890857719],[-73.9630821735793,40.7600914309082],[-73.9619671740222,40.7596277279017],[-73.9624342219974,40.7589889188277],[-73.9640057588621,40.7596575050444],[-73.9648022341252,40.7599904064934],[-73.9670379359095,40.7609312635163],[-73.966584823064,40.7615592029087],[-73.9643149743698,40.7606074985761]]]}}]}