{"type":"FeatureCollection","ad":74,"features":[{"type":"Feature","properties":{"e":"74001"},"geometry":{"type":"Polygon","coordinates":[[[-73.9676997853545,40.7520490681564],[-73.9677984625541,40.7517253187545],[-73.9677784946805,40.7516342364302],[-73.9679752546435,40.7513739914036],[-73.9684282512481,40.750771933584],[-73.9689094112189,40.7501207087615],[-73.9689576008224,40.7501395084744],[-73.9712637842001,40.7511305059233],[-73.9708050522519,40.7517564669818],[-73.9703428871421,40.7523870545237],[-73.969887337703,40.7530071142122],[-73.9690209425067,40.7526276823339],[-73.9686752366464,40.7524762791205],[-73.9676997853545,40.7520490681564]]]}},{"type":"Feature","properties":{"e":"74002"},"geometry":{"type":"Polygon","coordinates":[[[-73.9652168091731,40.7518167262829],[-73.9650569246248,40.7518208466149],[-73.9650194130502,40.7516792140196],[-73.9649938423586,40.7515470614881],[-73.9647695276654,40.7517997124389],[-73.964710966056,40.7517276805688],[-73.9649458852592,40.7514709086315],[-73.9653254943267,40.7510559835922],[-73.9679141683876,40.7479792002689],[-73.9681203724877,40.7477340943214],[-73.9681751995196,40.7476750182998],[-73.9682371860588,40.7475994829336],[-73.9683666317975,40.7474417591258],[-73.9685044547139,40.7473953842586],[-73.9685700135631,40.7474252628745],[-73.9686480638479,40.7474572340728],[-73.9687964785525,40.7475229491687],[-73.9696370213478,40.7478825920461],[-73.9697564104823,40.7479342950664],[-73.9698745231587,40.7479848167366],[-73.970190954261,40.7481164367706],[-73.9702717882804,40.7481478756897],[-73.9703192260656,40.7481663216669],[-73.9703656093025,40.7481849836295],[-73.9704531676063,40.7482202157709],[-73.9706834398837,40.7483128681725],[-73.9709225072298,40.7484111748338],[-73.9726939598257,40.7491644364868],[-73.9722051614219,40.7498312698605],[-73.9717142797442,40.7505020727992],[-73.9712637842001,40.7511305059233],[-73.9689576008224,40.7501395084744],[-73.9689094112189,40.7501207087615],[-73.9684282512481,40.750771933584],[-73.9679752546435,40.7513739914036],[-73.9677784946805,40.7516342364302],[-73.9677984625541,40.7517253187545],[-73.9676997853545,40.7520490681564],[-73.9676650236696,40.7520966907647],[-73.9673777075436,40.7524903064636],[-73.9672279891312,40.7526964889148],[-73.9671058102919,40.752644647991],[-73.9670687777591,40.7526289413891],[-73.9670199884683,40.752609008245],[-73.9671024371748,40.7524964774081],[-73.9669181472961,40.7524981350736],[-73.9655136245552,40.7518862264466],[-73.9653791064901,40.7518407099635],[-73.9653355120007,40.751830278405],[-73.965291917525,40.7518198466624],[-73.9652168091731,40.7518167262829]]]}},{"type":"Feature","properties":{"e":"74003"},"geometry":{"type":"Polygon","coordinates":[[[-73.9703192260656,40.7481663216669],[-73.9703670433202,40.7481027760487],[-73.9707817564463,40.7475517363763],[-73.9713935335965,40.7478099935269],[-73.9722840676044,40.7481858751565],[-73.973147384547,40.748547982434],[-73.9727995808636,40.7490208402877],[-73.9726939598257,40.7491644364868],[-73.9709225072298,40.7484111748338],[-73.9706834398837,40.7483128681725],[-73.9704531676063,40.7482202157709],[-73.9703656093025,40.7481849836295],[-73.9703192260656,40.7481663216669]]]}},{"type":"Feature","properties":{"e":"74004"},"geometry":{"type":"Polygon","coordinates":[[[-73.9703192260656,40.7481663216669],[-73.9702717882804,40.7481478756897],[-73.970190954261,40.7481164367706],[-73.9698745231587,40.7479848167366],[-73.9697564104823,40.7479342950664],[-73.9696370213478,40.7478825920461],[-73.9687964785525,40.7475229491687],[-73.9686480638479,40.7474572340728],[-73.9685700135631,40.7474252628745],[-73.9685044547139,40.7473953842586],[-73.9683666317975,40.7474417591258],[-73.9682331556672,40.7473767409868],[-73.968297659658,40.7473039158481],[-73.9682995537016,40.7472916594816],[-73.9683033485851,40.7472815637211],[-73.9683175756884,40.7472822888354],[-73.9683275428668,40.7472602985677],[-73.9683484051126,40.7472494827788],[-73.9683626276504,40.7472264094475],[-73.9684015223533,40.7471752189192],[-73.9684328301467,40.747137721064],[-73.9684650754738,40.7471023934239],[-73.9684783579993,40.7470807652367],[-73.9685020789344,40.7470526489319],[-73.9685162981299,40.74704110842],[-73.9685362285919,40.7470086621944],[-73.9685457172482,40.7469964072274],[-73.9685902908435,40.7469517079826],[-73.9685931342939,40.74694161145],[-73.968601673323,40.7469293557168],[-73.9686111592388,40.7469228680013],[-73.9686187473739,40.7469077196675],[-73.9686405639177,40.7468875385318],[-73.9686652365826,40.7468550841927],[-73.9686718728311,40.7468442743579],[-73.9686936911888,40.7468168728322],[-73.9687060195239,40.746808947166],[-73.9687122040719,40.7467965282843],[-73.968754151042,40.7467509795735],[-73.9689444497787,40.7465266000027],[-73.9689681440691,40.7465387646045],[-73.9689751071911,40.7465372711411],[-73.9689904310166,40.7465140557969],[-73.9690012546572,40.7465101995759],[-73.9690044668041,40.746499072678],[-73.9690178562474,40.7464894163826],[-73.9690210498666,40.7464807031971],[-73.969073372053,40.7464212472873],[-73.9691323999236,40.7463489795715],[-73.9692127979678,40.746252779547],[-73.9692357604843,40.7462305482494],[-73.9692485146061,40.7462160462283],[-73.9692517275816,40.746204435675],[-73.9693273531571,40.746112351922],[-73.9693337190507,40.7461099365484],[-73.9693406833785,40.7461009202973],[-73.9693843452452,40.7460442132213],[-73.9694016620807,40.7460291074582],[-73.9694023053228,40.7460222913213],[-73.9694189728016,40.7460052305194],[-73.9694343627086,40.7459852529117],[-73.9694635392002,40.7459528418092],[-73.9695219000832,40.7458773052753],[-73.9695520354255,40.7458470918454],[-73.9695988414624,40.745791048251],[-73.969625144691,40.7457549809256],[-73.969633480662,40.7457515697762],[-73.9696963166506,40.745675061004],[-73.9696982273341,40.745665264404],[-73.9698770529499,40.7454530532009],[-73.9699071915824,40.7454664692099],[-73.9699137186891,40.7454600234995],[-73.9699328350878,40.7454712659847],[-73.9699284885277,40.745476056101],[-73.9699752092166,40.7455040115004],[-73.9700490280208,40.7454111253483],[-73.9700926707398,40.7453593931883],[-73.9701310647617,40.7453136306214],[-73.9702174618999,40.7452088430363],[-73.9703407506563,40.7450578959921],[-73.970327152253,40.745045213432],[-73.9703271583489,40.7450315253651],[-73.9703795584555,40.7449605695324],[-73.970546688014,40.7450132993997],[-73.9706486488232,40.7450433327307],[-73.9707188782076,40.7450852953283],[-73.9707736500367,40.7451142246067],[-73.9708284340319,40.7451431456532],[-73.9709299184232,40.7451910320551],[-73.970423111035,40.7457770527712],[-73.9711977976077,40.7461079063506],[-73.9713078836591,40.7461480509976],[-73.9714183936378,40.7461943818857],[-73.9716588456658,40.7463119577687],[-73.9731940402153,40.746948813006],[-73.9740455064462,40.7473034922968],[-73.9736088201387,40.7479337192869],[-73.973147384547,40.748547982434],[-73.9722840676044,40.7481858751565],[-73.9713935335965,40.7478099935269],[-73.9707817564463,40.7475517363763],[-73.9703670433202,40.7481027760487],[-73.9703192260656,40.7481663216669]]]}},{"type":"Feature","properties":{"e":"74005"},"geometry":{"type":"Polygon","coordinates":[[[-73.9709299184232,40.7451910320551],[-73.9721261819713,40.7456896020911],[-73.9725774231492,40.7450761181854],[-73.973028143885,40.7444583049672],[-73.9747495927563,40.7451825770338],[-73.9753944767776,40.7454510224557],[-73.9749377724979,40.7460860602133],[-73.9747646398478,40.7463334474375],[-73.9746687601905,40.7464600361835],[-73.9746204374953,40.7465262315768],[-73.9745825883117,40.7465768303914],[-73.9744973172447,40.7466908252017],[-73.9740455064462,40.7473034922968],[-73.9731940402153,40.746948813006],[-73.9716588456658,40.7463119577687],[-73.9714183936378,40.7461943818857],[-73.9713078836591,40.7461480509976],[-73.9711977976077,40.7461079063506],[-73.970423111035,40.7457770527712],[-73.9709299184232,40.7451910320551]]]}},{"type":"Feature","properties":{"e":"74006"},"geometry":{"type":"Polygon","coordinates":[[[-73.9709299184232,40.7451910320551],[-73.9708284340319,40.7451431456532],[-73.9707736500367,40.7451142246067],[-73.9707188782076,40.7450852953283],[-73.9706486488232,40.7450433327307],[-73.970546688014,40.7450132993997],[-73.9703795584555,40.7449605695324],[-73.9704439939559,40.744878640443],[-73.9704620761075,40.7448730078224],[-73.9704738448395,40.7448745061793],[-73.97050703941,40.7448320281788],[-73.970570211389,40.7447401292054],[-73.9706252542177,40.7446646900927],[-73.9707897869149,40.7444144820207],[-73.9708584835156,40.7444409017304],[-73.970878321518,40.7444538372634],[-73.9708910729508,40.7444559935343],[-73.9708988598636,40.7444630006132],[-73.9709109005121,40.7444646159275],[-73.9709186883086,40.744471624178],[-73.9709300195207,40.7444716270383],[-73.9709420694662,40.7444797083634],[-73.9709836663345,40.7444158985412],[-73.9710153631788,40.7443668786157],[-73.9711158204806,40.7442126247094],[-73.9707842010725,40.7440555111473],[-73.9707790162844,40.7440548889797],[-73.9707597793144,40.7440474541395],[-73.9707522893261,40.7440380684204],[-73.9707196747038,40.7440251916024],[-73.970707226306,40.7440108257385],[-73.9707046144129,40.7439987591607],[-73.9707242145104,40.7439777799686],[-73.9707440124872,40.7439565889026],[-73.9707520529288,40.7439568978527],[-73.9707626750196,40.7439503718823],[-73.9707935360695,40.7439642741747],[-73.9708003696782,40.7439610612452],[-73.9708373138397,40.7439779359789],[-73.9708373940026,40.7439779673267],[-73.970875017664,40.7439959385123],[-73.9709610891086,40.7440339607344],[-73.9709644411161,40.7440319365217],[-73.9711749067856,40.7441157987641],[-73.9711833750172,40.7441114964626],[-73.9712076042917,40.7440742935932],[-73.9712750639005,40.743973012148],[-73.9713589687153,40.7438467190562],[-73.9712356790689,40.7437929098807],[-73.9712069022635,40.7437797739902],[-73.9712824575776,40.7436602057142],[-73.9713570733696,40.7435479129877],[-73.971495652014,40.7433429380583],[-73.9716391617468,40.7431254645303],[-73.9716806513603,40.7430627275916],[-73.9719180309562,40.7431456574574],[-73.9719902422594,40.7431711599797],[-73.9720630925352,40.7431962943888],[-73.9721104158094,40.7432137547271],[-73.972231725239,40.7432572906178],[-73.9723844616697,40.7430136274871],[-73.9725182894642,40.7427625663644],[-73.9725460377814,40.7427000968892],[-73.9726332310822,40.7425072171112],[-73.9727281970619,40.7422476547451],[-73.972802420558,40.7419847092267],[-73.9728556966008,40.7417198142379],[-73.9731132531086,40.7404426505213],[-73.9731347775713,40.7403543557433],[-73.9732024736242,40.7402695520722],[-73.973312797944,40.7396662109818],[-73.9733725776307,40.7394360316598],[-73.9735467803493,40.7390447656472],[-73.9741228194923,40.7382077908074],[-73.9741337487348,40.7381705548746],[-73.9741470157775,40.7381337610201],[-73.9741625900154,40.7380974941103],[-73.9741804355222,40.7380618377961],[-73.9742005111523,40.7380268741425],[-73.9742227705892,40.7379926839719],[-73.9742471624879,40.7379593461449],[-73.9742736305847,40.7379269375557],[-73.9743182624868,40.7378902596698],[-73.974369165345,40.7378586582311],[-73.974425350301,40.7378327471361],[-73.9744857258891,40.737813029739],[-73.9745491194469,40.737799888902],[-73.974614299305,40.737793580093],[-73.9746799992692,40.737794225868],[-73.9747449430416,40.7378018136819],[-73.9752504290776,40.7380231306721],[-73.9771490889594,40.7388037228571],[-73.9767014994863,40.7394179960567],[-73.976252708893,40.7400315894061],[-73.976147143809,40.7401785396569],[-73.9757996750433,40.7406528800784],[-73.9753440760612,40.7412829427271],[-73.9749013697724,40.7418899691129],[-73.9748697654417,40.7419333304345],[-73.9748692795293,40.7419339704467],[-73.9748691891766,40.7419340938938],[-73.974175288866,40.7428985403977],[-73.9740119885533,40.7431067715411],[-73.973509789565,40.7437902972933],[-73.973028143885,40.7444583049672],[-73.9725774231492,40.7450761181854],[-73.9721261819713,40.7456896020911],[-73.9709299184232,40.7451910320551]]]}},{"type":"Feature","properties":{"e":"74007"},"geometry":{"type":"Polygon","coordinates":[[[-73.9716806513603,40.7430627275916],[-73.9718903285299,40.7427330833129],[-73.9717640526262,40.7426809349888],[-73.9717420365063,40.7426718434647],[-73.9717764518366,40.7426241755872],[-73.971960997961,40.7423461849254],[-73.972050702567,40.7418960170666],[-73.9720709362283,40.7417971692051],[-73.9721030792075,40.7416314652977],[-73.9721540751245,40.7413968507902],[-73.9721994875404,40.7411529318314],[-73.9722876218911,40.7407465366333],[-73.9722913603984,40.7407293020852],[-73.9722142653747,40.7407199266626],[-73.9721971121284,40.7407178425159],[-73.972184125072,40.740714542964],[-73.9721699232444,40.7407013833528],[-73.97216621305,40.7406839851781],[-73.9721669369717,40.7406804280982],[-73.9722166936235,40.7404348265178],[-73.9722265955104,40.7404249599273],[-73.9722364825417,40.7404216663971],[-73.9722371014798,40.7404136782187],[-73.9721978558349,40.7404108422472],[-73.9722182935811,40.7403158880366],[-73.9722689757957,40.7403220062516],[-73.9722714527165,40.7403168373191],[-73.9722547625606,40.7403083685271],[-73.9722498174033,40.7402994348294],[-73.9723012352765,40.7400432256617],[-73.9723117437611,40.74002677559],[-73.9723328565938,40.7400191711126],[-73.9724403292258,40.7400300128846],[-73.9726588774635,40.7392310170241],[-73.9726567291187,40.7391865312185],[-73.9726520432178,40.7390665284307],[-73.9726457500407,40.7390257250427],[-73.9726465666327,40.7389669310068],[-73.9726481877143,40.7388541341861],[-73.9726340039506,40.7387977322133],[-73.9726324493819,40.7387485276617],[-73.9726293139679,40.7387173241172],[-73.9726277448233,40.7386741267236],[-73.9726293612837,40.7386021317935],[-73.9726222870425,40.7385289281044],[-73.9726207359372,40.7384713306456],[-73.9726289788989,40.7384086485745],[-73.9726402873786,40.7384035723629],[-73.9726397726886,40.7383879485592],[-73.9726295126593,40.7383762298261],[-73.9726259654483,40.7382516260134],[-73.9726341858067,40.7382406868162],[-73.9726347104385,40.7382320958508],[-73.9726239865417,40.7382253307632],[-73.9726209080097,40.7380525407626],[-73.9726161795202,40.738038131863],[-73.9726075393138,40.7379469347862],[-73.9726201688159,40.7379229392929],[-73.9726138659031,40.7379061350609],[-73.9726060124082,40.7378305355503],[-73.9726154815893,40.7378065388029],[-73.9726076512887,40.7376745400145],[-73.9725918215098,40.7367779171113],[-73.9725843638202,40.7367529468579],[-73.97258123724,40.7366989513306],[-73.972576697961,40.7366547711769],[-73.972557665343,40.7364697477374],[-73.9725647760779,40.7364541438386],[-73.9724913809197,40.7358115421909],[-73.972511607038,40.735795391939],[-73.9728708310765,40.7357791233492],[-73.9744152979908,40.7364226559945],[-73.9744611905376,40.7363022818286],[-73.9744182133661,40.7362859882154],[-73.9744129832829,40.7362935411571],[-73.9744009632462,40.7362923456976],[-73.9740283607271,40.736134029338],[-73.9740482322337,40.7361081915188],[-73.9744307634899,40.7362688955963],[-73.9744291945652,40.7362744611473],[-73.974467910307,40.7362867189369],[-73.9745051999654,40.7360728505079],[-73.9744761573767,40.7360706427774],[-73.9744422690527,40.7360587412177],[-73.9744351686096,40.7360619784311],[-73.9741420598941,40.73596391872],[-73.9741527160601,40.7359420547186],[-73.9744486631808,40.7360417350137],[-73.974449725942,40.7360460544171],[-73.9744797216545,40.7360524475118],[-73.9745063226916,40.7360505430987],[-73.9745160375523,40.7359028604414],[-73.9745093791998,40.7358052077836],[-73.9744899806074,40.7358839422737],[-73.9744522169825,40.7358773919941],[-73.9744637731602,40.7358394065878],[-73.9742512644193,40.7358054440404],[-73.9742477463165,40.735788372473],[-73.9742601074916,40.7357745301779],[-73.974471844885,40.7358061342679],[-73.9744710600427,40.7357961300827],[-73.9744791941199,40.7357961236766],[-73.9744729892191,40.7357354857568],[-73.9744668174704,40.735675148051],[-73.9743936789553,40.7356757965582],[-73.9743932947055,40.7356802101255],[-73.9742651985755,40.7356797362885],[-73.9742661877275,40.7356841386028],[-73.9741937767945,40.7356883887975],[-73.9741909997099,40.7356681747649],[-73.9741589140028,40.735666103979],[-73.9741476049295,40.7356798835097],[-73.9740943190554,40.735648987024],[-73.9740915196219,40.7356529162306],[-73.9734201352689,40.7353759992655],[-73.9734402574667,40.7353494797735],[-73.9732817423032,40.7352816273798],[-73.9730584264365,40.7351857153563],[-73.9728080563614,40.7355321805385],[-73.9729381790399,40.7356075113273],[-73.9729317585661,40.7356158764262],[-73.9727645230452,40.7355133494888],[-73.9729983913222,40.7351947688358],[-73.9729653919666,40.7351773281197],[-73.9729332953754,40.7352135743196],[-73.9728865678304,40.7351884658492],[-73.9728654704179,40.7352205289696],[-73.9728388986816,40.7352079786573],[-73.9729466468602,40.7350734319938],[-73.9729686371392,40.7350866926914],[-73.9729466295941,40.7351159624442],[-73.9729970416592,40.7351361999164],[-73.9729722756432,40.7351654789111],[-73.973004351291,40.735180821977],[-73.9730382864437,40.7351362095793],[-73.9733003898588,40.7352506170221],[-73.9733233139839,40.7352101806011],[-73.9733178228517,40.7352046047174],[-73.9733004161179,40.7351850778158],[-73.9732802557261,40.7351557893414],[-73.9732738508221,40.7351271957732],[-73.9732784478953,40.7350874577122],[-73.973297713014,40.7350491185482],[-73.9733307298289,40.7350191397929],[-73.9733701488312,40.7349975366557],[-73.9734196519027,40.7349794200488],[-73.9734608985825,40.7349766387369],[-73.9735241477959,40.7349836227318],[-73.9735461682975,40.734952588482],[-73.9744420905935,40.7353250338201],[-73.9746733711211,40.735406565106],[-73.9747504457794,40.7354334504301],[-73.9748276257177,40.7353899360693],[-73.974894491329,40.7353834588454],[-73.9749613697015,40.7353769804129],[-73.9750750582691,40.7353778904506],[-73.9752216319819,40.7354215247001],[-73.9758923771926,40.73568146076],[-73.9763651738107,40.7358762397683],[-73.9771258527657,40.7362050600255],[-73.977999569335,40.7365827288421],[-73.9783396474075,40.7367297331025],[-73.9785423876547,40.7368959214439],[-73.978053706036,40.7375622158873],[-73.977604142998,40.7381800584574],[-73.9771490889594,40.7388037228571],[-73.9752504290776,40.7380231306721],[-73.9747449430416,40.7378018136819],[-73.9746799992692,40.737794225868],[-73.974614299305,40.737793580093],[-73.9745491194469,40.737799888902],[-73.9744857258891,40.737813029739],[-73.974425350301,40.7378327471361],[-73.974369165345,40.7378586582311],[-73.9743182624868,40.7378902596698],[-73.9742736305847,40.7379269375557],[-73.9742471624879,40.7379593461449],[-73.9742227705892,40.7379926839719],[-73.9742005111523,40.7380268741425],[-73.9741804355222,40.7380618377961],[-73.9741625900154,40.7380974941103],[-73.9741470157775,40.7381337610201],[-73.9741337487348,40.7381705548746],[-73.9741228194923,40.7382077908074],[-73.9735467803493,40.7390447656472],[-73.9733725776307,40.7394360316598],[-73.973312797944,40.7396662109818],[-73.9732024736242,40.7402695520722],[-73.9731347775713,40.7403543557433],[-73.9731132531086,40.7404426505213],[-73.9728556966008,40.7417198142379],[-73.972802420558,40.7419847092267],[-73.9727281970619,40.7422476547451],[-73.9726332310822,40.7425072171112],[-73.9725460377814,40.7427000968892],[-73.9725182894642,40.7427625663644],[-73.9723844616697,40.7430136274871],[-73.972231725239,40.7432572906178],[-73.9721104158094,40.7432137547271],[-73.9720630925352,40.7431962943888],[-73.9719902422594,40.7431711599797],[-73.9719180309562,40.7431456574574],[-73.9716806513603,40.7430627275916]]]}},{"type":"Feature","properties":{"e":"74008"},"geometry":{"type":"Polygon","coordinates":[[[-73.973028143885,40.7444583049672],[-73.973509789565,40.7437902972933],[-73.9740119885533,40.7431067715411],[-73.974175288866,40.7428985403977],[-73.9748691891766,40.7419340938938],[-73.9763771624465,40.7425328621425],[-73.9759755063474,40.743076361081],[-73.976611694371,40.7433340204872],[-73.9767621200074,40.743480761252],[-73.9763652141974,40.744106944698],[-73.9758826176206,40.7447874885093],[-73.9753944767776,40.7454510224557],[-73.9747495927563,40.7451825770338],[-73.973028143885,40.7444583049672]]]}},{"type":"Feature","properties":{"e":"74009"},"geometry":{"type":"Polygon","coordinates":[[[-73.9767621200074,40.743480761252],[-73.9772073334255,40.7428624829762],[-73.9776843148548,40.7422638507103],[-73.978169594631,40.7416507760498],[-73.9804114228594,40.7425954235096],[-73.9799604395236,40.7432134644085],[-73.9795093518426,40.7438334643655],[-73.9790599373635,40.7444518153537],[-73.9772267945557,40.7436780841068],[-73.9770697007859,40.7436130577649],[-73.9767621200074,40.743480761252]]]}},{"type":"Feature","properties":{"e":"74010"},"geometry":{"type":"Polygon","coordinates":[[[-73.9790599373635,40.7444518153537],[-73.9795093518426,40.7438334643655],[-73.9799604395236,40.7432134644085],[-73.9804114228594,40.7425954235096],[-73.9820101964137,40.7432728841046],[-73.981561413419,40.743890147197],[-73.9811100412596,40.7445065432929],[-73.9806598685918,40.7451240890093],[-73.9790599373635,40.7444518153537]]]}},{"type":"Feature","properties":{"e":"74011"},"geometry":{"type":"Polygon","coordinates":[[[-73.9748691891766,40.7419340938938],[-73.9748692795293,40.7419339704467],[-73.9748697654417,40.7419333304345],[-73.9749013697724,40.7418899691129],[-73.9753440760612,40.7412829427271],[-73.9757996750433,40.7406528800784],[-73.976147143809,40.7401785396569],[-73.976252708893,40.7400315894061],[-73.9768955553254,40.7402887463217],[-73.9770332339039,40.7403434504442],[-73.9773157018701,40.7404564178547],[-73.9776223883316,40.7405913241754],[-73.9778789453715,40.7407042545059],[-73.9786179232691,40.7410301219237],[-73.978169594631,40.7416507760498],[-73.9776843148548,40.7422638507103],[-73.9772073334255,40.7428624829762],[-73.9767621200074,40.743480761252],[-73.976611694371,40.7433340204872],[-73.9759755063474,40.743076361081],[-73.9763771624465,40.7425328621425],[-73.9748691891766,40.7419340938938]]]}},{"type":"Feature","properties":{"e":"74012"},"geometry":{"type":"Polygon","coordinates":[[[-73.9804114228594,40.7425954235096],[-73.978169594631,40.7416507760498],[-73.9786179232691,40.7410301219237],[-73.9793942465418,40.7413611251154],[-73.9795959211929,40.7414459447607],[-73.9796733544007,40.7414785106629],[-73.9797519903568,40.7415115828214],[-73.9799459961902,40.7415931759563],[-73.9808610963508,40.7419780310794],[-73.9813132468551,40.7413591869674],[-73.9818425535697,40.7415824956156],[-73.9829132439011,40.7420342028641],[-73.9824566507436,40.742655223159],[-73.9820101964137,40.7432728841046],[-73.9804114228594,40.7425954235096]]]}},{"type":"Feature","properties":{"e":"74013"},"geometry":{"type":"Polygon","coordinates":[[[-73.9783159196788,40.7400989818994],[-73.9787598337694,40.7394760294696],[-73.9795040543288,40.7397902084336],[-73.9799688396275,40.7391765537515],[-73.9822127877598,40.7401227977233],[-73.981762950454,40.7407413752831],[-73.9814618896009,40.7406139284505],[-73.981364442416,40.7407452634453],[-73.9810024422026,40.7406002626778],[-73.9808794419161,40.7407722630847],[-73.9800122544486,40.740408508771],[-73.97984117496,40.7406528243702],[-73.9798587621852,40.7407362728306],[-73.9796834460232,40.7406611885553],[-73.9794986552757,40.7405820448378],[-73.979078306338,40.740402013434],[-73.9783159196788,40.7400989818994]]]}},{"type":"Feature","properties":{"e":"74014"},"geometry":{"type":"Polygon","coordinates":[[[-73.9786179232691,40.7410301219237],[-73.9778789453715,40.7407042545059],[-73.9783159196788,40.7400989818994],[-73.979078306338,40.740402013434],[-73.9794986552757,40.7405820448378],[-73.9796834460232,40.7406611885553],[-73.9798587621852,40.7407362728306],[-73.97984117496,40.7406528243702],[-73.9800122544486,40.740408508771],[-73.9808794419161,40.7407722630847],[-73.9810024422026,40.7406002626778],[-73.981364442416,40.7407452634453],[-73.9814618896009,40.7406139284505],[-73.981762950454,40.7407413752831],[-73.982289790257,40.7409636654578],[-73.9820662205449,40.7412730155164],[-73.9818425535697,40.7415824956156],[-73.9813132468551,40.7413591869674],[-73.9808610963508,40.7419780310794],[-73.9799459961902,40.7415931759563],[-73.9797519903568,40.7415115828214],[-73.9796733544007,40.7414785106629],[-73.9795959211929,40.7414459447607],[-73.9793942465418,40.7413611251154],[-73.9786179232691,40.7410301219237]]]}},{"type":"Feature","properties":{"e":"74015"},"geometry":{"type":"Polygon","coordinates":[[[-73.9744420905935,40.7353250338201],[-73.9744276015996,40.7352424810875],[-73.974412706891,40.7351865078479],[-73.9743920705522,40.7351003948104],[-73.9743756191973,40.7350388982053],[-73.9743519896962,40.7349505744832],[-73.9743170370751,40.7348119390169],[-73.9742729189401,40.7346388707725],[-73.9742568743415,40.7345751476424],[-73.9742133619046,40.734414130692],[-73.9741846124434,40.7343092186461],[-73.9741706194043,40.7342479740132],[-73.9741525480085,40.73417222787],[-73.9741073567224,40.7340018052196],[-73.9740616017178,40.7338193340803],[-73.9740231854158,40.7336721555449],[-73.9739938104146,40.7335628363464],[-73.9739604897956,40.7334294271036],[-73.9739446587417,40.7334113504254],[-73.9739367530574,40.7333743383391],[-73.9739084664294,40.7333579781612],[-73.973902816588,40.7333355988538],[-73.9738926432925,40.7333175234501],[-73.9738677581181,40.7333192376336],[-73.9738643690459,40.7332994439391],[-73.9738541913925,40.7332908329427],[-73.9738462780013,40.7332736226524],[-73.973866647482,40.7332546895738],[-73.9738587398184,40.7332245651671],[-73.9738428990752,40.7332280018954],[-73.9738508132647,40.7332409166383],[-73.9738327079138,40.7332538266443],[-73.9738112079058,40.7332572609096],[-73.9737851972644,40.7332357427414],[-73.9738044279102,40.7332202490694],[-73.9737852081007,40.7332081958523],[-73.9737659659182,40.733221104919],[-73.9737422084095,40.7332176504684],[-73.9737286264897,40.7332279758847],[-73.9737093911013,40.7332219467382],[-73.9736912892261,40.7332271121384],[-73.9736777151554,40.7332141954209],[-73.9736958203861,40.7332038705412],[-73.9736935679961,40.7331823577761],[-73.9737173285479,40.7331780582716],[-73.9737275129716,40.7331677320815],[-73.9737388370339,40.7331513808908],[-73.9737591997442,40.7331479463799],[-73.9737795786491,40.7331324529735],[-73.9738067369837,40.7331290194986],[-73.9738203111525,40.7331075091616],[-73.9738418074118,40.733111817803],[-73.973873501191,40.7331032163109],[-73.9738695472099,40.7330739486943],[-73.9737717476554,40.732696707605],[-73.9736784673334,40.7323184921062],[-73.9739985427262,40.7324447225345],[-73.9740781810324,40.7324780117642],[-73.9741620357821,40.7325099005251],[-73.9746037195491,40.7342853424688],[-73.9746715621359,40.7342608906641],[-73.9747734423085,40.7342291786446],[-73.9748217087231,40.7342249842912],[-73.9748736933098,40.7342161788914],[-73.9749752366321,40.734198992509],[-73.9750735659044,40.7341968800475],[-73.975172375344,40.7342075987965],[-73.9752673335251,40.7342309617026],[-73.9753544736807,40.73426569439],[-73.9754306481743,40.7343096465044],[-73.9755528899642,40.7341795288741],[-73.9758225797728,40.7340574936521],[-73.976169421796,40.7339033612976],[-73.9764291180704,40.7342240926633],[-73.9767892502728,40.7340469188973],[-73.9772153859932,40.7345530290477],[-73.977230895036,40.7345678450775],[-73.9772443055505,40.7345838022259],[-73.9772554735823,40.7346007292035],[-73.9772642792483,40.7346184443106],[-73.9772706280235,40.7346367573872],[-73.977274451756,40.7346554718543],[-73.9772757093983,40.7346743868241],[-73.9772743874482,40.7346932992564],[-73.9772705003446,40.7347120059173],[-73.9772640896244,40.7347303062481],[-73.9772552240988,40.7347480038111],[-73.9772439989296,40.7347649086385],[-73.9772305346075,40.7347808392716],[-73.9772149756588,40.7347956247089],[-73.9771974890942,40.7348091062413],[-73.9771782626161,40.7348211391561],[-73.9768539277048,40.7349774661138],[-73.9768354376866,40.7349960244786],[-73.9768203454707,40.7350162837088],[-73.976808917514,40.7350378861269],[-73.9768013555815,40.7350604503406],[-73.9767977932201,40.7350835781428],[-73.9767982933716,40.735106861041],[-73.9768028472097,40.7351298879627],[-73.9768113743381,40.7351522523541],[-73.9768208805806,40.7351677672004],[-73.976828041819,40.7351839945149],[-73.9768327678775,40.7352007299639],[-73.9768349992437,40.7352177628149],[-73.976834707961,40.7352348787573],[-73.9768318975409,40.7352518621149],[-73.9768266033702,40.7352684990352],[-73.9768188921106,40.735284580028],[-73.9768707320172,40.7352973238574],[-73.9769206665032,40.7353138952711],[-73.9769682085051,40.7353341326314],[-73.9770128942947,40.7353578385423],[-73.9770542878591,40.7353847817929],[-73.9770919855915,40.7354146995408],[-73.9771256197831,40.7354472999685],[-73.9771548623594,40.735482265091],[-73.9771867619155,40.7355020865265],[-73.9772211066122,40.7355193830267],[-73.9772575523767,40.7355339813103],[-73.9772957340859,40.7355457351276],[-73.9773352692252,40.7355545267255],[-73.9773757617201,40.735560268027],[-73.977416805905,40.7355629015141],[-73.9774579905867,40.7355624008038],[-73.9774989032887,40.7355587707007],[-73.9775391339809,40.7355520477626],[-73.9775782796176,40.7355422993423],[-73.977615948024,40.7355296231031],[-73.9776517618252,40.7355141460402],[-73.9776853622274,40.7354960232082],[-73.9777164126119,40.7354754361679],[-73.977744601908,40.7354525911673],[-73.9782765658523,40.7352579827266],[-73.9785237430155,40.7355736488162],[-73.9784020664864,40.7356359127442],[-73.9784858198947,40.735743237339],[-73.9787926708777,40.7359509749794],[-73.9788508527841,40.7361369514534],[-73.9789106148693,40.736172387894],[-73.9785759387273,40.7366855439475],[-73.9785423876547,40.7368959214439],[-73.9783396474075,40.7367297331025],[-73.977999569335,40.7365827288421],[-73.9771258527657,40.7362050600255],[-73.9763651738107,40.7358762397683],[-73.9758923771926,40.73568146076],[-73.9752216319819,40.7354215247001],[-73.9750750582691,40.7353778904506],[-73.9749613697015,40.7353769804129],[-73.974894491329,40.7353834588454],[-73.9748276257177,40.7353899360693],[-73.9747504457794,40.7354334504301],[-73.9746733711211,40.735406565106],[-73.9744420905935,40.7353250338201]]]}},{"type":"Feature","properties":{"e":"74016"},"geometry":{"type":"Polygon","coordinates":[[[-73.9741620357821,40.7325099005251],[-73.9742446870473,40.7325446880026],[-73.9743617151364,40.73258056329],[-73.9744133318135,40.7326004583286],[-73.974493582139,40.732630733771],[-73.9746503141592,40.7326996025241],[-73.9754218333791,40.7330137049631],[-73.9761332342009,40.7333133231883],[-73.9770572365743,40.7337024702145],[-73.9777604630204,40.7339986243403],[-73.9784208762982,40.7342690561858],[-73.9788041360097,40.7344562668676],[-73.9794236300801,40.7347107499497],[-73.9796275627194,40.7348079323084],[-73.9797481778718,40.7348654062908],[-73.9797904813553,40.7349700789165],[-73.9795294675236,40.7353145899183],[-73.979464614804,40.7354001889317],[-73.9793496368548,40.7355613744192],[-73.9789106148693,40.736172387894],[-73.9788508527841,40.7361369514534],[-73.9787926708777,40.7359509749794],[-73.9784858198947,40.735743237339],[-73.9784020664864,40.7356359127442],[-73.9785237430155,40.7355736488162],[-73.9782765658523,40.7352579827266],[-73.977744601908,40.7354525911673],[-73.9777164126119,40.7354754361679],[-73.9776853622274,40.7354960232082],[-73.9776517618252,40.7355141460402],[-73.977615948024,40.7355296231031],[-73.9775782796176,40.7355422993423],[-73.9775391339809,40.7355520477626],[-73.9774989032887,40.7355587707007],[-73.9774579905867,40.7355624008038],[-73.977416805905,40.7355629015141],[-73.9773757617201,40.735560268027],[-73.9773352692252,40.7355545267255],[-73.9772957340859,40.7355457351276],[-73.9772575523767,40.7355339813103],[-73.9772211066122,40.7355193830267],[-73.9771867619155,40.7355020865265],[-73.9771548623594,40.735482265091],[-73.9771256197831,40.7354472999685],[-73.9770919855915,40.7354146995408],[-73.9770542878591,40.7353847817929],[-73.9770128942947,40.7353578385423],[-73.9769682085051,40.7353341326314],[-73.9769206665032,40.7353138952711],[-73.9768707320172,40.7352973238574],[-73.9768188921106,40.735284580028],[-73.9768266033702,40.7352684990352],[-73.9768318975409,40.7352518621149],[-73.976834707961,40.7352348787573],[-73.9768349992437,40.7352177628149],[-73.9768327678775,40.7352007299639],[-73.976828041819,40.7351839945149],[-73.9768208805806,40.7351677672004],[-73.9768113743381,40.7351522523541],[-73.9768028472097,40.7351298879627],[-73.9767982933716,40.735106861041],[-73.9767977932201,40.7350835781428],[-73.9768013555815,40.7350604503406],[-73.976808917514,40.7350378861269],[-73.9768203454707,40.7350162837088],[-73.9768354376866,40.7349960244786],[-73.9768539277048,40.7349774661138],[-73.9771782626161,40.7348211391561],[-73.9771974890942,40.7348091062413],[-73.9772149756588,40.7347956247089],[-73.9772305346075,40.7347808392716],[-73.9772439989296,40.7347649086385],[-73.9772552240988,40.7347480038111],[-73.9772640896244,40.7347303062481],[-73.9772705003446,40.7347120059173],[-73.9772743874482,40.7346932992564],[-73.9772757093983,40.7346743868241],[-73.977274451756,40.7346554718543],[-73.9772706280235,40.7346367573872],[-73.9772642792483,40.7346184443106],[-73.9772554735823,40.7346007292035],[-73.9772443055505,40.7345838022259],[-73.977230895036,40.7345678450775],[-73.9772153859932,40.7345530290477],[-73.9767892502728,40.7340469188973],[-73.9764291180704,40.7342240926633],[-73.976169421796,40.7339033612976],[-73.9758225797728,40.7340574936521],[-73.9755528899642,40.7341795288741],[-73.9754306481743,40.7343096465044],[-73.9753544736807,40.73426569439],[-73.9752673335251,40.7342309617026],[-73.975172375344,40.7342075987965],[-73.9750735659044,40.7341968800475],[-73.9749752366321,40.734198992509],[-73.9748736933098,40.7342161788914],[-73.9748217087231,40.7342249842912],[-73.9747734423085,40.7342291786446],[-73.9746715621359,40.7342608906641],[-73.9746037195491,40.7342853424688],[-73.9741620357821,40.7325099005251]]]}},{"type":"Feature","properties":{"e":"74017"},"geometry":{"type":"Polygon","coordinates":[[[-73.9736784673334,40.7323184921062],[-73.9736487969894,40.732183754596],[-73.9736288033252,40.7321157069272],[-73.9736097727691,40.7320509510371],[-73.9735411321608,40.7317725940787],[-73.9735228183963,40.7316984260226],[-73.9734146565027,40.7312906775939],[-73.9733832532827,40.7312442850767],[-73.9733673491822,40.7312282811031],[-73.9733420860517,40.7311913028103],[-73.9733185934196,40.7311661883174],[-73.9732846502535,40.7311209370451],[-73.9732376933031,40.7310651878683],[-73.9732015682639,40.7310248935108],[-73.973147367005,40.7309691421078],[-73.9731000205557,40.7309219409948],[-73.9730544875918,40.7308755643496],[-73.9730074987895,40.7308313935027],[-73.9729207300056,40.730758502581],[-73.9728335946001,40.730689741875],[-73.9727475553712,40.730614093003],[-73.9726441438255,40.730531798851],[-73.9725613389438,40.7304663546518],[-73.9724811393719,40.7304090683882],[-73.9724608035533,40.7303945904009],[-73.9723342131835,40.7303048334782],[-73.9722416245424,40.7302387586389],[-73.9722351399614,40.7302339388428],[-73.9720906246019,40.7301266180253],[-73.9720552908361,40.7300949114112],[-73.9720116990044,40.7300534324597],[-73.9719648416646,40.7300086381824],[-73.9719038237564,40.7299389695979],[-73.9718575281006,40.7298838112115],[-73.9718313670167,40.7298539529122],[-73.9717496621377,40.7297502754665],[-73.9717463864668,40.7297428095091],[-73.9717017289289,40.7296739633626],[-73.9716287385032,40.7295661450361],[-73.9715786329145,40.7294773970097],[-73.9715202647506,40.7293596225935],[-73.9715095987811,40.7293322273408],[-73.9714813875241,40.7292578380307],[-73.9714585996627,40.7291776683779],[-73.9714412540968,40.7291041106706],[-73.9714336565674,40.7290718798442],[-73.9714228305,40.7290041047594],[-73.9714137895055,40.7288881167864],[-73.9714080351214,40.728802732054],[-73.9714076174812,40.7287270249845],[-73.9714209021839,40.7285770882476],[-73.9714286228241,40.728494086572],[-73.9714541339847,40.728349693971],[-73.9714580602175,40.7283274986677],[-73.9714748765866,40.7282175165593],[-73.9715119228655,40.7280110239935],[-73.9715569735319,40.7277113691273],[-73.9715707548572,40.7277020277253],[-73.9715742259858,40.7276541802851],[-73.9715910898893,40.7276482942089],[-73.9716201654693,40.7276588187025],[-73.9716372999262,40.7276562346369],[-73.9716530391653,40.7276514730487],[-73.9716865870717,40.727414147103],[-73.9715874794368,40.7274051935208],[-73.9715625820246,40.7274029487162],[-73.971538304285,40.7274012255699],[-73.9715222062483,40.7273944262054],[-73.9715142601613,40.7273825685448],[-73.9714940389246,40.7273813838181],[-73.9714918292686,40.7273583580697],[-73.9716284110572,40.7266367138156],[-73.9717974589297,40.7267219399837],[-73.9718581514593,40.7267669457999],[-73.97191388062,40.7267992696081],[-73.9719782890638,40.7268386165451],[-73.9720515919626,40.7268892071481],[-73.9732994066446,40.727436269274],[-73.9756692658776,40.7284707930432],[-73.9758138887892,40.7285280281625],[-73.9761977641789,40.7286702375836],[-73.9769058038881,40.7289660848655],[-73.9775398787409,40.7292345090376],[-73.978028420068,40.7294413202512],[-73.9779228599189,40.7295660382094],[-73.9775730817694,40.7300223280392],[-73.9763089913576,40.7294079253587],[-73.9758653039896,40.7298995134751],[-73.9757838157435,40.7302149473038],[-73.975821599125,40.7302351142322],[-73.9758569964404,40.7302576476401],[-73.9758897522971,40.7302823849502],[-73.9759196303598,40.7303091476837],[-73.9759464150556,40.7303377427482],[-73.9759699131293,40.7303679638309],[-73.9759899550381,40.7303995928869],[-73.9760063961746,40.7304324017128],[-73.9760191178878,40.7304661534365],[-73.9760280284245,40.7305006046925],[-73.976033063489,40.730535506914],[-73.976034186747,40.7305706082801],[-73.976031390088,40.7306056555325],[-73.9760246936839,40.7306403958029],[-73.9760141458438,40.7306745784378],[-73.9759998226653,40.7307079568064],[-73.9757099905382,40.731156041568],[-73.9756827080166,40.7311880355706],[-73.9756527790873,40.7312186297091],[-73.9756203274753,40.7312476975048],[-73.9755854873351,40.731275118789],[-73.9755484026961,40.7313007801997],[-73.9755092268673,40.7313245756501],[-73.9754681218033,40.7313464067676],[-73.9754252574348,40.7313661833001],[-73.975380811015,40.7313838234188],[-73.9753349662465,40.7313992542703],[-73.9752879126559,40.7314124120616],[-73.9752398447677,40.7314232423968],[-73.9751909612997,40.731431700502],[-73.9751414643419,40.7314377514105],[-73.9750915585206,40.7314413701071],[-73.9750414501526,40.7314425416316],[-73.9740510261534,40.7310033342168],[-73.9739898953897,40.7309762236703],[-73.9739376805811,40.7310342184503],[-73.9737822289883,40.7312127135704],[-73.9736985984803,40.7312349462197],[-73.9737981215752,40.731406678629],[-73.973897645184,40.7315784087703],[-73.9741620357821,40.7325099005251],[-73.9740781810324,40.7324780117642],[-73.9739985427262,40.7324447225345],[-73.9736784673334,40.7323184921062]]]}},{"type":"Feature","properties":{"e":"74018"},"geometry":{"type":"Polygon","coordinates":[[[-73.9758870181409,40.7319315309863],[-73.9758876846112,40.731639185028],[-73.9755383355738,40.7315529710311],[-73.9757099905382,40.731156041568],[-73.9759998226653,40.7307079568064],[-73.9760141458438,40.7306745784378],[-73.976024693684,40.7306403958029],[-73.976031390088,40.7306056555325],[-73.976034186747,40.7305706082801],[-73.976033063489,40.730535506914],[-73.9760280284245,40.7305006046925],[-73.9760191178878,40.7304661534365],[-73.9760063961746,40.7304324017128],[-73.9759899550381,40.7303995928869],[-73.9759699131293,40.7303679638309],[-73.9759464150556,40.7303377427482],[-73.9759196303598,40.7303091476837],[-73.9758897522971,40.7302823849502],[-73.9758569964404,40.7302576476401],[-73.975821599125,40.7302351142322],[-73.9757838157435,40.7302149473038],[-73.9758653039896,40.7298995134751],[-73.9763089913576,40.7294079253587],[-73.9775730817694,40.7300223280392],[-73.9779228599189,40.7295660382094],[-73.977841498511,40.7296828460997],[-73.9777794272368,40.7298111563463],[-73.9777403177448,40.7299481160412],[-73.9777267754974,40.7300900243781],[-73.9777400099616,40.7302326949423],[-73.9777796193219,40.7303717590556],[-73.9777825911485,40.7303778612829],[-73.9778777079819,40.7305225967786],[-73.9780010104041,40.7306590249105],[-73.978142425426,40.7307775522771],[-73.977960185785,40.7311049526218],[-73.9779402305346,40.7311359978826],[-73.9779151057508,40.7311647893828],[-73.9778852436401,40.7311908318326],[-73.977851157905,40.7312136772323],[-73.9778134350024,40.731232932402],[-73.9777727238022,40.7312482662864],[-73.9777297246457,40.731259415101],[-73.9776851772349,40.7312661870559],[-73.977646759468,40.7312591813068],[-73.9776078536154,40.7312539620535],[-73.9775686030977,40.731250548536],[-73.9775291526061,40.7312489533376],[-73.9774896475687,40.7312491823389],[-73.977450233615,40.7312512346956],[-73.9774110560386,40.7312551028422],[-73.9773722592617,40.7312607725191],[-73.9773339863968,40.7312682229343],[-73.9772963784462,40.7312774265105],[-73.9772595740465,40.7312883493201],[-73.9772237088721,40.7313009510978],[-73.9771889151354,40.7313151853888],[-73.9771553210992,40.7313309997205],[-73.9771230506043,40.7313483357955],[-73.9770922226125,40.7313671297068],[-73.9770522975965,40.7314255856311],[-73.9769937324709,40.7315113321984],[-73.9769944748136,40.7315462592855],[-73.9769977609717,40.7315811013759],[-73.9770035808451,40.7316157513401],[-73.9770119165434,40.7316501026386],[-73.9770227424403,40.7316840496506],[-73.9770360252529,40.7317174879979],[-73.9770517241434,40.7317503148663],[-73.9770697908456,40.7317824293214],[-73.9770901698825,40.7318137326035],[-73.9771127985259,40.7318441284753],[-73.9771376072012,40.7318735234769],[-73.9771645196304,40.7319018272254],[-73.9771934530667,40.7319289526936],[-73.9772243185486,40.7319548164767],[-73.977257021174,40.7319793390495],[-73.9772914603914,40.7320024450103],[-73.976887440138,40.7317992609528],[-73.9758870181409,40.7319315309863]]]}},{"type":"Feature","properties":{"e":"74019"},"geometry":{"type":"Polygon","coordinates":[[[-73.9777604630204,40.7339986243403],[-73.9777950095854,40.7339550647294],[-73.9778132824366,40.7339274806535],[-73.9778786886115,40.7337815546822],[-73.9779203967522,40.7336288444989],[-73.9779368770338,40.733472768885],[-73.9779277505152,40.7333169517123],[-73.9778937982339,40.733164946195],[-73.977836897613,40.7330199946464],[-73.9783803345131,40.733020207171],[-73.9790142841852,40.7330204517522],[-73.9793624244653,40.7330205850241],[-73.9796188281473,40.7329091151333],[-73.9795772861328,40.7330779150571],[-73.9795667943167,40.7331204202444],[-73.9795650062922,40.7331636468291],[-73.9795719644795,40.7332065696849],[-73.9795875038802,40.7332481708864],[-73.9796112559887,40.7332874638499],[-73.9796426575303,40.7333235167305],[-73.979680963818,40.7333554745215],[-73.9797252664124,40.7333825793312],[-73.9805897347799,40.7337563415771],[-73.9806464305827,40.7337875809103],[-73.9803816434243,40.7341526318477],[-73.9802064038508,40.734393584229],[-73.9800919469622,40.7345526322609],[-73.9797904813553,40.7349700789165],[-73.9797481778718,40.7348654062908],[-73.9796275627194,40.7348079323084],[-73.9794236300801,40.7347107499497],[-73.9788041360097,40.7344562668676],[-73.9784208762982,40.7342690561858],[-73.9777604630204,40.7339986243403]]]}},{"type":"Feature","properties":{"e":"74020"},"geometry":{"type":"Polygon","coordinates":[[[-73.9772914603914,40.7320024450103],[-73.977257021174,40.7319793390495],[-73.9772243185486,40.7319548164767],[-73.9771934530667,40.7319289526936],[-73.9771645196304,40.7319018272254],[-73.9771376072012,40.7318735234769],[-73.9771127985259,40.7318441284753],[-73.9770901698825,40.7318137326035],[-73.9770697908456,40.7317824293214],[-73.9770517241434,40.7317503148663],[-73.9770360252529,40.7317174879979],[-73.9770227424403,40.7316840496506],[-73.9770119165434,40.7316501026386],[-73.9770035808452,40.7316157513401],[-73.9769977609717,40.7315811013759],[-73.9769944748136,40.7315462592855],[-73.9769937324709,40.7315113321984],[-73.9770522975965,40.7314255856311],[-73.9770922226125,40.7313671297068],[-73.9771230506043,40.7313483357955],[-73.9771553210992,40.7313309997205],[-73.9771889151354,40.7313151853888],[-73.9772237088721,40.7313009510978],[-73.9772595740465,40.7312883493201],[-73.9772963784462,40.7312774265105],[-73.9773339863968,40.7312682229343],[-73.9773722592617,40.7312607725191],[-73.9774110560386,40.7312551028422],[-73.977450233615,40.7312512346956],[-73.9774896475687,40.7312491823389],[-73.9775291526061,40.7312489533376],[-73.9775686030977,40.731250548536],[-73.9776078536154,40.7312539620535],[-73.977646759468,40.7312591813068],[-73.9776851772349,40.7312661870559],[-73.9777297246457,40.731259415101],[-73.9777727238022,40.7312482662864],[-73.9778134350024,40.731232932402],[-73.977851157905,40.7312136772323],[-73.9778852436401,40.7311908318326],[-73.9779151057508,40.7311647893828],[-73.9779402305346,40.7311359978826],[-73.977960185785,40.7311049526218],[-73.978142425426,40.7307775522771],[-73.9780010104041,40.7306590249105],[-73.9778777079819,40.7305225967786],[-73.9777825911485,40.7303778612829],[-73.9777796193219,40.7303717590556],[-73.9777400099616,40.7302326949423],[-73.9777267754974,40.7300900243781],[-73.9777403177448,40.7299481160412],[-73.9777794272368,40.7298111563463],[-73.977841498511,40.7296828460997],[-73.9779228599189,40.7295660382094],[-73.978028420068,40.7294413202512],[-73.9791094798813,40.7299188196775],[-73.97992254164,40.7302704659461],[-73.9803415170246,40.7304507221344],[-73.980274487499,40.7305473798872],[-73.9799515717913,40.7309584841426],[-73.9797243925875,40.7312759752663],[-73.9795070425267,40.7316198557936],[-73.9787808635945,40.7317734113217],[-73.9786600781401,40.7320567268556],[-73.9785785112116,40.7321579701285],[-73.9784949718013,40.7321853227611],[-73.9784087002933,40.7322072248998],[-73.9783203103675,40.73222352059],[-73.9782304300307,40.732234094263],[-73.9781400564033,40.7322413375291],[-73.9780492203367,40.7322433311221],[-73.977958448008,40.7322400633988],[-73.9778682653265,40.7322315533807],[-73.9772914603914,40.7320024450103]]]}},{"type":"Feature","properties":{"e":"74021"},"geometry":{"type":"Polygon","coordinates":[[[-73.9741620357821,40.7325099005251],[-73.973897645184,40.7315784087703],[-73.9737981215752,40.731406678629],[-73.9736985984803,40.7312349462197],[-73.9737822289883,40.7312127135704],[-73.9739376805811,40.7310342184503],[-73.9739898953897,40.7309762236703],[-73.9740510261534,40.7310033342168],[-73.9750414501526,40.7314425416316],[-73.9750915585206,40.7314413701071],[-73.9751414643419,40.7314377514105],[-73.9751909612997,40.731431700502],[-73.9752398447677,40.7314232423968],[-73.9752879126559,40.7314124120616],[-73.9753349662465,40.7313992542703],[-73.975380811015,40.7313838234188],[-73.9754252574348,40.7313661833001],[-73.9754681218033,40.7313464067676],[-73.9755092268673,40.7313245756501],[-73.9755484026961,40.7313007801997],[-73.9755854873351,40.731275118789],[-73.9756203274753,40.7312476975048],[-73.9756527790873,40.7312186297091],[-73.9756827080166,40.7311880355706],[-73.9757099905382,40.731156041568],[-73.9755383355738,40.7315529710311],[-73.9758876846112,40.731639185028],[-73.9758870181409,40.7319315309863],[-73.9761498165764,40.732142563977],[-73.97648175664,40.7324389587494],[-73.976287458403,40.7324768256442],[-73.9760971659914,40.7325346694115],[-73.9759161384744,40.7326119870831],[-73.9757494069559,40.732707263144],[-73.9756013715695,40.7328179959085],[-73.9754753552254,40.7329409177128],[-73.9754508056504,40.7329701085062],[-73.9754218333791,40.7330137049631],[-73.9746503141592,40.7326996025241],[-73.974493582139,40.732630733771],[-73.9744133318135,40.7326004583286],[-73.9743617151364,40.73258056329],[-73.9742446870473,40.7325446880026],[-73.9741620357821,40.7325099005251]]]}},{"type":"Feature","properties":{"e":"74022"},"geometry":{"type":"Polygon","coordinates":[[[-73.9754218333791,40.7330137049631],[-73.9754508056504,40.7329701085062],[-73.9754753552254,40.7329409177128],[-73.9756013715695,40.7328179959085],[-73.9757494069559,40.732707263144],[-73.9759161384744,40.7326119870831],[-73.9760971659914,40.7325346694115],[-73.976287458403,40.7324768256442],[-73.97648175664,40.7324389587494],[-73.9761498165764,40.732142563977],[-73.9758870181409,40.7319315309863],[-73.976887440138,40.7317992609528],[-73.9772914603914,40.7320024450103],[-73.9778682653265,40.7322315533807],[-73.977958448008,40.7322400633988],[-73.9780492203367,40.7322433311221],[-73.9781400564033,40.7322413375291],[-73.9782304300307,40.732234094263],[-73.9783441533911,40.7325554733536],[-73.9784343091029,40.732708929682],[-73.9784560344895,40.7327346582432],[-73.9784693084186,40.7327635221051],[-73.9784734046107,40.7327939420134],[-73.9784680989342,40.7328242535739],[-73.978455237867,40.7328753588864],[-73.9784362056079,40.7329253375096],[-73.9784111659781,40.7329737592138],[-73.9783803345131,40.733020207171],[-73.977836897613,40.7330199946464],[-73.9778937982339,40.733164946195],[-73.9779277505152,40.7333169517123],[-73.9779368770338,40.733472768885],[-73.9779203967522,40.7336288444989],[-73.9778786886115,40.7337815546822],[-73.9778132824366,40.7339274806535],[-73.9777950095854,40.7339550647294],[-73.9777604630204,40.7339986243403],[-73.9770572365743,40.7337024702145],[-73.9761332342009,40.7333133231883],[-73.9754218333791,40.7330137049631]]]}},{"type":"Feature","properties":{"e":"74023"},"geometry":{"type":"Polygon","coordinates":[[[-73.9783803345131,40.733020207171],[-73.9784111659781,40.7329737592138],[-73.9784362056079,40.7329253375096],[-73.978455237867,40.7328753588864],[-73.9784680989342,40.7328242535739],[-73.9784734046107,40.7327939420134],[-73.9784693084186,40.7327635221051],[-73.9784560344895,40.7327346582432],[-73.9784343091029,40.732708929682],[-73.9783441533911,40.7325554733536],[-73.9782304300307,40.732234094263],[-73.9783203103675,40.73222352059],[-73.9784087002933,40.7322072248998],[-73.9784949718013,40.7321853227611],[-73.9785785112116,40.7321579701285],[-73.9786600781401,40.7320567268556],[-73.9787808635945,40.7317734113217],[-73.9795070425267,40.7316198557936],[-73.9803067473561,40.73198847319],[-73.9805108054831,40.7321882267045],[-73.9814315769339,40.732595551797],[-73.9815005456623,40.7326268580282],[-73.9812691548348,40.7329329914746],[-73.9810599126576,40.7332196759117],[-73.9808911990103,40.7334453317481],[-73.9806464305827,40.7337875809103],[-73.9805897347799,40.7337563415771],[-73.9797252664124,40.7333825793312],[-73.979680963818,40.7333554745215],[-73.9796426575303,40.7333235167305],[-73.9796112559887,40.7332874638499],[-73.9795875038802,40.7332481708864],[-73.9795719644795,40.7332065696849],[-73.9795650062922,40.7331636468291],[-73.9795667943167,40.7331204202444],[-73.9795772861328,40.7330779150571],[-73.9796188281473,40.7329091151333],[-73.9793624244653,40.7330205850241],[-73.9790142841852,40.7330204517522],[-73.9783803345131,40.733020207171]]]}},{"type":"Feature","properties":{"e":"74024"},"geometry":{"type":"Polygon","coordinates":[[[-73.9795070425267,40.7316198557936],[-73.9797243925875,40.7312759752663],[-73.9799515717913,40.7309584841426],[-73.980274487499,40.7305473798872],[-73.9803415170246,40.7304507221344],[-73.9816680121315,40.7310068084016],[-73.981910556965,40.7311033891422],[-73.9824702048971,40.7313231455874],[-73.9825577351044,40.7313583954126],[-73.9823877295937,40.7314195056842],[-73.9823242681704,40.7315061512615],[-73.9819692644464,40.731990822131],[-73.9818048351691,40.7322130594567],[-73.9815005456623,40.7326268580282],[-73.9814315769339,40.732595551797],[-73.9805108054831,40.7321882267045],[-73.9803067473561,40.73198847319],[-73.9795070425267,40.7316198557936]]]}},{"type":"Feature","properties":{"e":"74025"},"geometry":{"type":"Polygon","coordinates":[[[-73.9756692658776,40.7284707930432],[-73.9761813227376,40.7277569559278],[-73.9765000234595,40.7272989363117],[-73.976639992869,40.7270977784852],[-73.9773038810565,40.7273836519451],[-73.9775618724329,40.7274947421959],[-73.9776871213157,40.7275486741012],[-73.9778008699592,40.7275976532405],[-73.9790000613953,40.7281140072005],[-73.9785372703307,40.7287543460992],[-73.9780568699253,40.7293913469548],[-73.978028420068,40.7294413202512],[-73.9775398787409,40.7292345090376],[-73.9769058038881,40.7289660848655],[-73.9761977641789,40.7286702375836],[-73.9758138887892,40.7285280281625],[-73.9756692658776,40.7284707930432]]]}},{"type":"Feature","properties":{"e":"74026"},"geometry":{"type":"Polygon","coordinates":[[[-73.9803415170246,40.7304507221344],[-73.97992254164,40.7302704659461],[-73.9791094798813,40.7299188196775],[-73.978028420068,40.7294413202512],[-73.9780568699253,40.7293913469548],[-73.9785372703307,40.7287543460992],[-73.9790000613953,40.7281140072005],[-73.9813261559739,40.7290940175759],[-73.980855755237,40.7297318155525],[-73.9830709119685,40.7306634867713],[-73.9825577351044,40.7313583954126],[-73.9824702048971,40.7313231455874],[-73.981910556965,40.7311033891422],[-73.9816680121315,40.7310068084016],[-73.9803415170246,40.7304507221344]]]}},{"type":"Feature","properties":{"e":"74027"},"geometry":{"type":"Polygon","coordinates":[[[-73.9817908636975,40.7284540005133],[-73.9822295808265,40.7278541596199],[-73.9826586151005,40.7272687496476],[-73.9836275363498,40.7276722494525],[-73.983856718278,40.7277676890783],[-73.9844700371928,40.7280230917505],[-73.9845342362841,40.7280498249118],[-73.9848590737732,40.7281850940829],[-73.9844330569857,40.7287766986754],[-73.9839987809743,40.7293779450053],[-73.9817908636975,40.7284540005133]]]}},{"type":"Feature","properties":{"e":"74028"},"geometry":{"type":"Polygon","coordinates":[[[-73.9790000613953,40.7281140072005],[-73.9794705718376,40.7274759377499],[-73.9799079433651,40.7268740330748],[-73.980171125725,40.726512758306],[-73.9803344234568,40.7262885962231],[-73.9805295381479,40.726011736558],[-73.9806091236223,40.7258988064983],[-73.9807591880691,40.7256858692058],[-73.9812127373811,40.7250810599005],[-73.9835364504244,40.7260610442493],[-73.9830920838115,40.7266740736187],[-73.9826586151005,40.7272687496476],[-73.9822295808265,40.7278541596199],[-73.9817908636975,40.7284540005133],[-73.9813261559739,40.7290940175759],[-73.9790000613953,40.7281140072005]]]}},{"type":"Feature","properties":{"e":"74029"},"geometry":{"type":"Polygon","coordinates":[[[-73.9716284110572,40.7266367138156],[-73.9716711653513,40.7264005874227],[-73.9716973128547,40.7262500900429],[-73.971720381954,40.7261302534732],[-73.9717398714708,40.7260079277444],[-73.9717689924394,40.7258415631075],[-73.9717755486521,40.7258295414901],[-73.971792868619,40.7258224813001],[-73.9718179435685,40.7258232263999],[-73.9718607959996,40.7255912296359],[-73.9718758153034,40.7255113761668],[-73.971886347204,40.7254326651368],[-73.9719126463314,40.7252986307441],[-73.9719351833612,40.7251845503721],[-73.9719411929145,40.7251662986271],[-73.9719629861369,40.725048238804],[-73.9720065574255,40.7248497501638],[-73.9720381080224,40.7246923299409],[-73.9720673970295,40.724567418224],[-73.9720734079594,40.7245446107488],[-73.9720824198757,40.7245058278131],[-73.9720854389285,40.7244761654225],[-73.9720989512663,40.7244316751023],[-73.972157528378,40.7241784380941],[-73.9721672983278,40.7241402235839],[-73.9722183621277,40.7239383144135],[-73.9722348851355,40.7238550396762],[-73.9722664370504,40.7237227170565],[-73.9723265163485,40.723471758999],[-73.9723625958209,40.7233203201171],[-73.9724008958596,40.7231570759739],[-73.9725115501887,40.7227051455216],[-73.9728911517155,40.7210965564056],[-73.9729351226227,40.7211067448411],[-73.9743072355105,40.7214246729306],[-73.974544128584,40.7214795602528],[-73.9745950614285,40.7215028223796],[-73.9745668470788,40.7217120321697],[-73.9745564494676,40.721789113645],[-73.9745385040141,40.7218542345493],[-73.9744890093169,40.7220337940613],[-73.9744351984802,40.7222290486771],[-73.9743190063304,40.722497770301],[-73.9742710024169,40.7226088022009],[-73.9742249662194,40.722685128499],[-73.9741672826853,40.7227920958289],[-73.9739905529018,40.7230738159789],[-73.9737261707924,40.7235121778646],[-73.9733377345868,40.7241099101543],[-73.9732330363244,40.7242710229746],[-73.9728205387219,40.7249293427859],[-73.9728926717434,40.7249556182638],[-73.9742658316315,40.7253677996207],[-73.9739737111413,40.7257665153999],[-73.974441727363,40.7258819571731],[-73.9744037424655,40.7259342380098],[-73.9742708682249,40.7261171140549],[-73.9753397119648,40.7265529519992],[-73.976639992869,40.7270977784852],[-73.9765000234595,40.7272989363117],[-73.9761813227376,40.7277569559278],[-73.9756692658776,40.7284707930432],[-73.9732994066446,40.727436269274],[-73.9720515919626,40.7268892071481],[-73.9719782890638,40.7268386165451],[-73.97191388062,40.7267992696081],[-73.9718581514593,40.7267669457999],[-73.9717974589297,40.7267219399837],[-73.9716284110572,40.7266367138156]]]}},{"type":"Feature","properties":{"e":"74030"},"geometry":{"type":"Polygon","coordinates":[[[-73.9732330363244,40.7242710229746],[-73.9732828257074,40.7242868294616],[-73.9733773076214,40.7243260010045],[-73.9734239660962,40.724259393767],[-73.973487312587,40.7241689641969],[-73.974085856455,40.7244239017621],[-73.9741466243373,40.7244497842308],[-73.9741781801963,40.724419841048],[-73.9741783815334,40.7244196517879],[-73.9741785828391,40.7244195436108],[-73.9742288274219,40.7243922521958],[-73.9742289342403,40.724392197941],[-73.97422906483,40.7243921709985],[-73.9742993084459,40.7243763286161],[-73.9742997343526,40.7243762298704],[-73.9743000899671,40.7243762557489],[-73.9743822798568,40.7243822631441],[-73.9743825881277,40.7243822901844],[-73.9743828952561,40.7243824252793],[-73.9744580328999,40.7244145627102],[-73.9744583525801,40.7244146978076],[-73.9744585414366,40.7244148960337],[-73.9745079754035,40.7244651651778],[-73.9745082120302,40.7244653996001],[-73.9745083303642,40.7244657504273],[-73.9745270354629,40.7245196325064],[-73.9745270708813,40.7245197214709],[-73.9745270585188,40.7245198032212],[-73.97452251921,40.7245666651418],[-73.9745225076909,40.7245668447279],[-73.9745224122645,40.7245670516023],[-73.9745051648217,40.7246031496295],[-73.974568278634,40.7246301477874],[-73.9750620802361,40.7248413733118],[-73.9751656095404,40.7248856575886],[-73.9762125139636,40.7253336034991],[-73.9775367566577,40.7258849349871],[-73.9770928064501,40.7264734294733],[-73.976639992869,40.7270977784852],[-73.9753397119648,40.7265529519992],[-73.9742708682249,40.7261171140549],[-73.9744037424655,40.7259342380098],[-73.974441727363,40.7258819571731],[-73.9739737111413,40.7257665153999],[-73.9742658316315,40.7253677996207],[-73.9728926717434,40.7249556182638],[-73.9728205387219,40.7249293427859],[-73.9732330363244,40.7242710229746]]]}},{"type":"Feature","properties":{"e":"74031"},"geometry":{"type":"Polygon","coordinates":[[[-73.976639992869,40.7270977784852],[-73.9770928064501,40.7264734294733],[-73.9775367566577,40.7258849349871],[-73.9779784276057,40.725296483875],[-73.9803344234568,40.7262885962231],[-73.980171125725,40.726512758306],[-73.9799079433651,40.7268740330748],[-73.9794705718376,40.7274759377499],[-73.9790000613953,40.7281140072005],[-73.9778008699592,40.7275976532405],[-73.9776871213157,40.7275486741012],[-73.9775618724329,40.7274947421959],[-73.9773038810565,40.7273836519451],[-73.976639992869,40.7270977784852]]]}},{"type":"Feature","properties":{"e":"74032"},"geometry":{"type":"Polygon","coordinates":[[[-73.9732330363244,40.7242710229746],[-73.9733377345868,40.7241099101543],[-73.9737261707924,40.7235121778646],[-73.9739905529018,40.7230738159789],[-73.9741672826853,40.7227920958289],[-73.9742207950007,40.7228196366595],[-73.9743100953912,40.7228705081979],[-73.9744363646842,40.7226388144307],[-73.9744572492374,40.7225924809897],[-73.9751352662386,40.7228440964725],[-73.9754808193674,40.7229776399906],[-73.9757812347879,40.7232144247582],[-73.976263704207,40.7233838937774],[-73.9761914845967,40.7234833259376],[-73.976095349114,40.7236156856668],[-73.9760343085207,40.7236997268495],[-73.9759694481111,40.7237870740124],[-73.9759297683341,40.7238405111153],[-73.9755946660787,40.7242917908133],[-73.9755393480175,40.7243683589007],[-73.9754606953323,40.7244772251667],[-73.9751656095404,40.7248856575886],[-73.9750620802361,40.7248413733118],[-73.974568278634,40.7246301477874],[-73.9745051648217,40.7246031496295],[-73.9745224122645,40.7245670516023],[-73.9745225076909,40.7245668447279],[-73.97452251921,40.7245666651418],[-73.9745270585188,40.7245198032212],[-73.9745270708813,40.7245197214709],[-73.9745270354629,40.7245196325064],[-73.9745083303642,40.7244657504273],[-73.9745082120302,40.7244653996001],[-73.9745079754035,40.7244651651778],[-73.9744585414366,40.7244148960337],[-73.9744583525801,40.7244146978076],[-73.9744580328999,40.7244145627102],[-73.9743828952561,40.7243824252793],[-73.9743825881277,40.7243822901844],[-73.9743822798568,40.7243822631441],[-73.9743000899671,40.7243762557489],[-73.9742997343526,40.7243762298704],[-73.9742993084459,40.7243763286161],[-73.97422906483,40.7243921709985],[-73.9742289342403,40.724392197941],[-73.9742288274219,40.7243922521958],[-73.9741785828391,40.7244195436108],[-73.9741783815334,40.7244196517879],[-73.9741781801963,40.724419841048],[-73.9741466243373,40.7244497842308],[-73.974085856455,40.7244239017621],[-73.973487312587,40.7241689641969],[-73.9734239660962,40.724259393767],[-73.9733773076214,40.7243260010045],[-73.9732828257074,40.7242868294616],[-73.9732330363244,40.7242710229746]]]}},{"type":"Feature","properties":{"e":"74033"},"geometry":{"type":"Polygon","coordinates":[[[-73.9751656095404,40.7248856575886],[-73.9754606953323,40.7244772251667],[-73.9755393480175,40.7243683589007],[-73.9755946660787,40.7242917908133],[-73.9759297683341,40.7238405111153],[-73.9759694481111,40.7237870740124],[-73.9760343085207,40.7236997268495],[-73.976095349114,40.7236156856668],[-73.9761914845967,40.7234833259376],[-73.976263704207,40.7233838937774],[-73.9764235852304,40.7231637667994],[-73.976479679905,40.7230865353628],[-73.978859954223,40.724090074303],[-73.9784141957219,40.7247053225172],[-73.9779784276057,40.725296483875],[-73.9775367566577,40.7258849349871],[-73.9762125139636,40.7253336034991],[-73.9751656095404,40.7248856575886]]]}},{"type":"Feature","properties":{"e":"74034"},"geometry":{"type":"Polygon","coordinates":[[[-73.976263704207,40.7233838937774],[-73.9757812347879,40.7232144247582],[-73.9754808193674,40.7229776399906],[-73.9751352662386,40.7228440964725],[-73.9744572492374,40.7225924809897],[-73.9744363646842,40.7226388144307],[-73.9743100953912,40.7228705081979],[-73.9742207950007,40.7228196366595],[-73.9741672826853,40.7227920958289],[-73.9742249662194,40.722685128499],[-73.9742710024169,40.7226088022009],[-73.9743190063304,40.722497770301],[-73.9744351984802,40.7222290486771],[-73.9744890093169,40.7220337940613],[-73.9745385040141,40.7218542345493],[-73.9745564494676,40.721789113645],[-73.9745668470788,40.7217120321697],[-73.9745950614285,40.7215028223796],[-73.974649390545,40.7215278149459],[-73.9747644316171,40.7216039161488],[-73.9753085425101,40.7218343281801],[-73.9753690835593,40.7218599662129],[-73.975534222609,40.7219298956096],[-73.9756043515281,40.7219595923841],[-73.9757924017305,40.7220392228796],[-73.9759020884957,40.7220856707445],[-73.9760589871908,40.7221521090834],[-73.9761611245873,40.7221953602275],[-73.9762677586783,40.7222405143068],[-73.9763291040532,40.7222664902357],[-73.9764542710991,40.7223194913867],[-73.9765083339018,40.7223423832375],[-73.9767333199688,40.7224376518129],[-73.9768937431689,40.7225054977855],[-73.9772852773497,40.721977735963],[-73.9773472929876,40.7218940385576],[-73.9786817526968,40.7224572703092],[-73.9787355689341,40.7224799838246],[-73.9787894003996,40.7225027033486],[-73.9788474227488,40.7225271916949],[-73.9788996151582,40.7225492208233],[-73.9789499723019,40.7225704739434],[-73.9790005126555,40.7225918049749],[-73.9790466746029,40.7226112863618],[-73.9790946597716,40.722631538852],[-73.9791373625235,40.7226495609188],[-73.9791804325354,40.7226677390036],[-73.9792249426795,40.7226865239464],[-73.9792669262175,40.7227042434494],[-73.9793067050293,40.7227210325998],[-73.9794495860222,40.7227813336519],[-73.9794882502199,40.7227976526277],[-73.9795234545093,40.7228125091368],[-73.9795621614558,40.7228288456857],[-73.9796001057614,40.7228448599324],[-73.9796413407093,40.7228622628753],[-73.9797280469178,40.7228988564706],[-73.9796411531673,40.7230184862484],[-73.9795894970866,40.7230896026047],[-73.9795356699372,40.7231637087365],[-73.9794820459962,40.723237534774],[-73.9794323900385,40.7233058967714],[-73.9793838030529,40.7233727877183],[-73.9792815230734,40.7235136002307],[-73.9792178672761,40.7236006475584],[-73.9791006681919,40.723760911927],[-73.9790303923094,40.7238570102546],[-73.9789777831854,40.7239289500515],[-73.9789269021613,40.7239985275103],[-73.978859954223,40.724090074303],[-73.976479679905,40.7230865353628],[-73.9764235852304,40.7231637667994],[-73.976263704207,40.7233838937774]]]}},{"type":"Feature","properties":{"e":"74035"},"geometry":{"type":"Polygon","coordinates":[[[-73.9779784276057,40.725296483875],[-73.9784141957219,40.7247053225172],[-73.978859954223,40.724090074303],[-73.9789269021613,40.7239985275103],[-73.9789777831854,40.7239289500515],[-73.9790303923094,40.7238570102546],[-73.9791006681919,40.723760911927],[-73.9792178672761,40.7236006475584],[-73.9792815230734,40.7235136002307],[-73.9796693631651,40.7236762336386],[-73.9797247419978,40.7236994547372],[-73.9797850267138,40.7237247335638],[-73.9798415225539,40.7237484237095],[-73.9798957839179,40.7237711767953],[-73.9807695490962,40.724137561782],[-73.9808496599213,40.7241711655849],[-73.9816327941534,40.7244996556196],[-73.9812127373811,40.7250810599005],[-73.9807591880691,40.7256858692058],[-73.9806091236223,40.7258988064983],[-73.9805295381479,40.726011736558],[-73.9803344234568,40.7262885962231],[-73.9779784276057,40.725296483875]]]}},{"type":"Feature","properties":{"e":"74036"},"geometry":{"type":"Polygon","coordinates":[[[-73.9812127373811,40.7250810599005],[-73.9816327941534,40.7244996556196],[-73.9808496599213,40.7241711655849],[-73.9807695490962,40.724137561782],[-73.9798957839179,40.7237711767953],[-73.9798415225539,40.7237484237095],[-73.9797850267138,40.7237247335638],[-73.9797247419978,40.7236994547372],[-73.9796693631651,40.7236762336386],[-73.9792815230734,40.7235136002307],[-73.9793838030529,40.7233727877183],[-73.9794323900385,40.7233058967714],[-73.9794820459962,40.723237534774],[-73.9795356699372,40.7231637087365],[-73.9795894970866,40.7230896026047],[-73.9796411531673,40.7230184862484],[-73.9797280469178,40.7228988564706],[-73.9800765258882,40.7224192427236],[-73.9801699329216,40.7222856714802],[-73.980465068902,40.722416297162],[-73.9805565140846,40.7224548995856],[-73.9806982016626,40.7225147113859],[-73.980932662508,40.722613684728],[-73.9810242929539,40.7226523642071],[-73.9812032031798,40.7227278864771],[-73.9825259370656,40.7232862365296],[-73.9820838659751,40.723890303088],[-73.9844045317754,40.724871195694],[-73.983959317548,40.7254810318154],[-73.9835364504244,40.7260610442493],[-73.9812127373811,40.7250810599005]]]}},{"type":"Feature","properties":{"e":"74037"},"geometry":{"type":"Polygon","coordinates":[[[-73.976393744372,40.7149539191975],[-73.9764484727241,40.7149711280523],[-73.9765493713759,40.714997780407],[-73.9766087954186,40.7150161050337],[-73.9765886595688,40.7150555481773],[-73.9773419964938,40.7152986508289],[-73.9779775540832,40.7155010833687],[-73.9781547704386,40.7155534558951],[-73.9780845962302,40.715700662217],[-73.9781921888941,40.7157343652765],[-73.97829152538,40.7157654827436],[-73.9783630856087,40.7157878979151],[-73.9785107487965,40.7158341472555],[-73.9783433947499,40.7161699561293],[-73.9783132546422,40.716411785286],[-73.9782803063326,40.7166254983578],[-73.9780341433511,40.7167355285687],[-73.9782172561785,40.716959289347],[-73.9782519138253,40.7170265360835],[-73.9782788703427,40.7170957952092],[-73.978297928558,40.7171665575746],[-73.9783089470286,40.7172383022786],[-73.9782817571468,40.7173963152263],[-73.9782764747622,40.7174155314078],[-73.9782764386147,40.7174156488374],[-73.9782763786853,40.7174157746388],[-73.9782271244053,40.7175163250304],[-73.978227052137,40.7175164776338],[-73.9782269453032,40.7175166225244],[-73.9781616217907,40.717607119741],[-73.9757151924133,40.7168965321226],[-73.9756101085189,40.7168645065747],[-73.9755188446335,40.7168381474524],[-73.9754689426981,40.7168199824423],[-73.9757268649674,40.7162727871399],[-73.9757881911718,40.7161515645016],[-73.9763746135988,40.714992432568],[-73.976393744372,40.7149539191975]]]}},{"type":"Feature","properties":{"e":"74038"},"geometry":{"type":"Polygon","coordinates":[[[-73.9777758632852,40.7181563845195],[-73.977852527701,40.7180436374492],[-73.9780235229269,40.717802149381],[-73.9781616217907,40.717607119741],[-73.9782269453032,40.7175166225244],[-73.978227052137,40.7175164776338],[-73.9782271244053,40.7175163250304],[-73.9782763786853,40.7174157746388],[-73.9782764386147,40.7174156488374],[-73.9782764747622,40.7174155314078],[-73.9782817571468,40.7173963152263],[-73.9783089470286,40.7172383022786],[-73.978297928558,40.7171665575746],[-73.9782788703427,40.7170957952092],[-73.9782519138253,40.7170265360835],[-73.9782172561785,40.716959289347],[-73.9780341433511,40.7167355285687],[-73.9782803063326,40.7166254983578],[-73.9783132546422,40.716411785286],[-73.9783433947499,40.7161699561293],[-73.9785107487965,40.7158341472555],[-73.9783630856087,40.7157878979151],[-73.97829152538,40.7157654827436],[-73.9781921888941,40.7157343652765],[-73.9780845962302,40.715700662217],[-73.9781547704386,40.7155534558951],[-73.9782762418752,40.7155885114413],[-73.9789914480732,40.7158112415568],[-73.980665171333,40.7163236237205],[-73.9805787809798,40.7164638241871],[-73.9805506399923,40.7165159204759],[-73.9804402181951,40.7167203370425],[-73.9803916280371,40.7168102872113],[-73.9803030204054,40.71697432097],[-73.980254429877,40.7170642710778],[-73.9801979682984,40.7171646966081],[-73.9799908235153,40.7175482065948],[-73.9799670946251,40.71759891621],[-73.9799415245544,40.7176489279173],[-73.9799178510827,40.7176952300664],[-73.9798761688523,40.7177767542732],[-73.9798502928551,40.7178273653168],[-73.9797797447469,40.7179653485313],[-73.9797555894518,40.7180125903863],[-73.9797085371756,40.7181046188605],[-73.9796856589253,40.7181493659471],[-73.9796390180001,40.7182405869842],[-73.9796119380743,40.7182935538563],[-73.9795650671602,40.7183852254683],[-73.9795418690432,40.7184305949978],[-73.979496720572,40.7185188990936],[-73.9785517336469,40.7183094401431],[-73.9783932124457,40.7182605135979],[-73.9782899355446,40.7183032054842],[-73.9782142784281,40.7182139430923],[-73.9780006455929,40.718155896291],[-73.9777758632852,40.7181563845195]]]}},{"type":"Feature","properties":{"e":"74039"},"geometry":{"type":"Polygon","coordinates":[[[-73.9745950614285,40.7215028223796],[-73.974544128584,40.7214795602528],[-73.9743072355105,40.7214246729306],[-73.9729351226227,40.7211067448411],[-73.9728911517155,40.7210965564056],[-73.9731495217363,40.7199988322218],[-73.9735732950109,40.7186054880956],[-73.9736137817996,40.7186139122557],[-73.9746482057806,40.7188455016147],[-73.9747002125477,40.7188470725614],[-73.9747670493417,40.7188519713061],[-73.9748060125577,40.71885687045],[-73.9748606379542,40.718863738259],[-73.9749144277323,40.718870701853],[-73.9749776253094,40.7188793216269],[-73.9750366016289,40.718888928357],[-73.9750894815272,40.7188950431482],[-73.9754531138981,40.7189548176],[-73.9755115665193,40.7189668712074],[-73.9761034256681,40.7190889524379],[-73.9763566914542,40.7191411431012],[-73.9764832631661,40.7191678870429],[-73.976746395679,40.7192234922228],[-73.9772252314377,40.7193180340428],[-73.9772487047425,40.7192583165317],[-73.9773558549961,40.718985734094],[-73.9773695225574,40.7189509650728],[-73.9774283411695,40.7188013377688],[-73.9774425487867,40.7187651964638],[-73.9774589429193,40.7187234886672],[-73.9774744099271,40.7186841428155],[-73.9775348570472,40.7185303723282],[-73.9775530746276,40.7184840272261],[-73.9776841704809,40.7182912306141],[-73.9777758632852,40.7181563845195],[-73.9780006455929,40.718155896291],[-73.9782142784281,40.7182139430923],[-73.9782899355446,40.7183032054842],[-73.9783932124457,40.7182605135979],[-73.9785517336469,40.7183094401431],[-73.979496720572,40.7185188990936],[-73.9794489160875,40.7186123968673],[-73.97941754963,40.7186737437926],[-73.9790759663049,40.7193264049091],[-73.9787896612749,40.7198734342337],[-73.9787537900596,40.7199419653643],[-73.9780326659338,40.7196466063684],[-73.9779835510274,40.7197097324956],[-73.9774820924337,40.7203542473048],[-73.9764860899586,40.7199534982522],[-73.9761606078478,40.719859467864],[-73.9757098497622,40.7196767290207],[-73.9750425989986,40.719414570981],[-73.9749967064303,40.7197918546103],[-73.9749885071813,40.7198592575908],[-73.9749603994807,40.7200610889942],[-73.9749027545049,40.72057071301],[-73.9748809916161,40.7207521895731],[-73.9748703909741,40.7208406037294],[-73.9748094431189,40.721279662956],[-73.9747970425537,40.721368985706],[-73.9747644316171,40.7216039161488],[-73.974649390545,40.7215278149459],[-73.9745950614285,40.7215028223796]]]}},{"type":"Feature","properties":{"e":"74040"},"geometry":{"type":"Polygon","coordinates":[[[-73.9735732950109,40.7186054880956],[-73.9736496053912,40.7183525637063],[-73.9737287473055,40.7181001436047],[-73.9738107149675,40.7178482461435],[-73.9738955023858,40.7175968896371],[-73.9739831033639,40.7173460923604],[-73.9740735115014,40.7170958725473],[-73.9741667201935,40.7168462483897],[-73.9742627226325,40.7165972380358],[-73.9743615118075,40.7163488595892],[-73.9744630805054,40.7161011311073],[-73.9745674213112,40.7158540705998],[-73.9746745266086,40.7156076960279],[-73.9747843885807,40.7153620253027],[-73.9748969992104,40.7151170762839],[-73.9750123502809,40.7148728667786],[-73.9751304333767,40.7146294145397],[-73.9751689826094,40.7146409393335],[-73.9762101403244,40.7149522059698],[-73.9763153335616,40.7149836031102],[-73.9763390048314,40.7149379175135],[-73.976393744372,40.7149539191975],[-73.9763746135988,40.714992432568],[-73.9757881911718,40.7161515645016],[-73.9757268649674,40.7162727871399],[-73.9754689426981,40.7168199824423],[-73.9755188446335,40.7168381474524],[-73.9756101085189,40.7168645065747],[-73.9757151924133,40.7168965321226],[-73.9781616217907,40.717607119741],[-73.9780235229269,40.717802149381],[-73.977852527701,40.7180436374492],[-73.9777758632852,40.7181563845195],[-73.9776841704809,40.7182912306141],[-73.9775530746276,40.7184840272261],[-73.9775348570472,40.7185303723282],[-73.9774744099271,40.7186841428155],[-73.9774589429193,40.7187234886672],[-73.9774425487867,40.7187651964638],[-73.9774283411695,40.7188013377688],[-73.9773695225574,40.7189509650728],[-73.9773558549961,40.718985734094],[-73.9772487047425,40.7192583165317],[-73.9772252314377,40.7193180340428],[-73.976746395679,40.7192234922228],[-73.9764832631661,40.7191678870429],[-73.9763566914542,40.7191411431012],[-73.9761034256681,40.7190889524379],[-73.9755115665193,40.7189668712074],[-73.9754531138981,40.7189548176],[-73.9750894815272,40.7188950431482],[-73.9750366016289,40.718888928357],[-73.9749776253094,40.7188793216269],[-73.9749144277323,40.718870701853],[-73.9748606379542,40.718863738259],[-73.9748060125577,40.71885687045],[-73.9747670493417,40.7188519713061],[-73.9747002125477,40.7188470725614],[-73.9746482057806,40.7188455016147],[-73.9736137817996,40.7186139122557],[-73.9735732950109,40.7186054880956]]]}},{"type":"Feature","properties":{"e":"74041"},"geometry":{"type":"Polygon","coordinates":[[[-73.9848454181983,40.7242632171142],[-73.985287288102,40.7236573630047],[-73.9856972356862,40.7230950707042],[-73.9857536831406,40.7230176453213],[-73.9879720126845,40.7239231444627],[-73.9874924906847,40.7245820224556],[-73.987045434963,40.7251995611468],[-73.9848454181983,40.7242632171142]]]}},{"type":"Feature","properties":{"e":"74042"},"geometry":{"type":"Polygon","coordinates":[[[-73.983959317548,40.7254810318154],[-73.9844045317754,40.724871195694],[-73.9848454181983,40.7242632171142],[-73.987045434963,40.7251995611468],[-73.986604662689,40.7257863366911],[-73.986165023666,40.7264064916719],[-73.983959317548,40.7254810318154]]]}},{"type":"Feature","properties":{"e":"74043"},"geometry":{"type":"Polygon","coordinates":[[[-73.9826586151005,40.7272687496476],[-73.9830920838115,40.7266740736187],[-73.9835364504244,40.7260610442493],[-73.983959317548,40.7254810318154],[-73.986165023666,40.7264064916719],[-73.9857398624211,40.7269828202295],[-73.9852952722676,40.7276010992341],[-73.9848590737732,40.7281850940829],[-73.9845342362841,40.7280498249118],[-73.9844700371928,40.7280230917505],[-73.983856718278,40.7277676890783],[-73.9836275363498,40.7276722494525],[-73.9826586151005,40.7272687496476]]]}},{"type":"Feature","properties":{"e":"74044"},"geometry":{"type":"Polygon","coordinates":[[[-73.9827283084504,40.7451886784439],[-73.9831755621002,40.7445685743079],[-73.983626643516,40.7439513778522],[-73.983558179906,40.7439245513306],[-73.9820101964137,40.7432728841046],[-73.9824566507436,40.742655223159],[-73.9840099637839,40.74330728155],[-73.9840762959402,40.7433329815666],[-73.9845278105309,40.742715305091],[-73.9849791985619,40.7420972205246],[-73.9850393979664,40.7421195063449],[-73.9865986894303,40.7427799498482],[-73.986148531134,40.7433971950083],[-73.9856971573453,40.7440159048979],[-73.9852449934044,40.744634784076],[-73.9847945972014,40.74525224824],[-73.9843461109133,40.7458691343914],[-73.9827846143915,40.7452110916662],[-73.9827283084504,40.7451886784439]]]}},{"type":"Feature","properties":{"e":"74045"},"geometry":{"type":"Polygon","coordinates":[[[-73.9849791985619,40.7420972205246],[-73.9854291217697,40.7414786112689],[-73.9858805757201,40.7408612630364],[-73.9863628612344,40.7401930635034],[-73.9868506295447,40.739530084145],[-73.9870373719122,40.7392746408008],[-73.9873029927935,40.7389112882073],[-73.9873602781481,40.7389337631485],[-73.9895840320495,40.7398732414928],[-73.9893904067789,40.740600051218],[-73.9891272428298,40.7413659968666],[-73.9883217776915,40.7410241311076],[-73.9879838447786,40.7408809169394],[-73.9878095912894,40.7411357202844],[-73.9875308065661,40.7415367062964],[-73.9870576378089,40.742150593553],[-73.9865986894303,40.7427799498482],[-73.9850393979664,40.7421195063449],[-73.9849791985619,40.7420972205246]]]}},{"type":"Feature","properties":{"e":"74046"},"geometry":{"type":"Polygon","coordinates":[[[-73.976252708893,40.7400315894061],[-73.9767014994863,40.7394179960567],[-73.9771490889594,40.7388037228571],[-73.977604142998,40.7381800584574],[-73.9799688396275,40.7391765537515],[-73.9795040543288,40.7397902084336],[-73.9787598337694,40.7394760294696],[-73.9783159196788,40.7400989818994],[-73.9778789453715,40.7407042545059],[-73.9776223883316,40.7405913241754],[-73.9773157018701,40.7404564178547],[-73.9770332339039,40.7403434504442],[-73.9768955553254,40.7402887463217],[-73.976252708893,40.7400315894061]]]}},{"type":"Feature","properties":{"e":"74047"},"geometry":{"type":"Polygon","coordinates":[[[-73.977604142998,40.7381800584574],[-73.978053706036,40.7375622158873],[-73.9789171868444,40.7379259219366],[-73.9794920683662,40.7381680548429],[-73.9804250271547,40.7385613497476],[-73.9799688396275,40.7391765537515],[-73.977604142998,40.7381800584574]]]}},{"type":"Feature","properties":{"e":"74048"},"geometry":{"type":"Polygon","coordinates":[[[-73.9818425535697,40.7415824956156],[-73.9820662205449,40.7412730155164],[-73.982289790257,40.7409636654578],[-73.981762950454,40.7407413752831],[-73.9822127877598,40.7401227977233],[-73.9826690412269,40.7395067022282],[-73.9831479912778,40.738840075197],[-73.9836328935828,40.738173507771],[-73.9844786135483,40.7385301155244],[-73.9852336895503,40.7388484930262],[-73.9847437540071,40.7395186230464],[-73.9842591624694,40.7401768554358],[-73.983812799606,40.7407981433346],[-73.9833610657852,40.7414204289743],[-73.9832811020842,40.7415300256935],[-73.9829132439011,40.7420342028641],[-73.9818425535697,40.7415824956156]]]}},{"type":"Feature","properties":{"e":"74049"},"geometry":{"type":"Polygon","coordinates":[[[-73.978053706036,40.7375622158873],[-73.9785423876547,40.7368959214439],[-73.9792745518374,40.7367410675852],[-73.9803784164124,40.7372057142748],[-73.9813934876579,40.7372303812929],[-73.9809067827999,40.7378944265199],[-73.9804250271547,40.7385613497476],[-73.9794920683662,40.7381680548429],[-73.9789171868444,40.7379259219366],[-73.978053706036,40.7375622158873]]]}},{"type":"Feature","properties":{"e":"74050"},"geometry":{"type":"Polygon","coordinates":[[[-73.9799688396275,40.7391765537515],[-73.9804250271547,40.7385613497476],[-73.9809067827999,40.7378944265199],[-73.9831479912778,40.738840075197],[-73.9826690412269,40.7395067022282],[-73.9822127877598,40.7401227977233],[-73.9799688396275,40.7391765537515]]]}},{"type":"Feature","properties":{"e":"74051"},"geometry":{"type":"Polygon","coordinates":[[[-73.9809067827999,40.7378944265199],[-73.9813934876579,40.7372303812929],[-73.9818424415799,40.7366109396294],[-73.9822686115248,40.7360279995242],[-73.9838880097958,40.7367094363914],[-73.984509018482,40.7369707491001],[-73.9843755030951,40.737153719365],[-73.9843133238133,40.7372389289345],[-73.9840835723775,40.7375537787679],[-73.9836328935828,40.738173507771],[-73.9831479912778,40.738840075197],[-73.9809067827999,40.7378944265199]]]}},{"type":"Feature","properties":{"e":"74052"},"geometry":{"type":"Polygon","coordinates":[[[-73.9785423876547,40.7368959214439],[-73.9785759387273,40.7366855439475],[-73.9789106148693,40.736172387894],[-73.9793496368548,40.7355613744192],[-73.979464614804,40.7354001889317],[-73.9795294675236,40.7353145899183],[-73.9797904813553,40.7349700789165],[-73.9798807616648,40.7350025946953],[-73.9803893299423,40.7352335459813],[-73.9822686115248,40.7360279995242],[-73.9818424415799,40.7366109396294],[-73.9813934876579,40.7372303812929],[-73.9803784164124,40.7372057142748],[-73.9792745518374,40.7367410675852],[-73.9785423876547,40.7368959214439]]]}},{"type":"Feature","properties":{"e":"74053"},"geometry":{"type":"Polygon","coordinates":[[[-73.9797904813553,40.7349700789165],[-73.9800919469622,40.7345526322609],[-73.9802064038508,40.734393584229],[-73.9803816434243,40.7341526318477],[-73.9806464305827,40.7337875809103],[-73.9808911990103,40.7334453317481],[-73.9810599126576,40.7332196759117],[-73.9812691548348,40.7329329914746],[-73.9815005456623,40.7326268580282],[-73.9818048351691,40.7322130594567],[-73.9819692644464,40.731990822131],[-73.9823242681704,40.7315061512615],[-73.9823877295937,40.7314195056842],[-73.9825577351044,40.7313583954126],[-73.9829658489019,40.7315291034247],[-73.9832161144801,40.7316324291797],[-73.9834678845234,40.7317393415166],[-73.9835619636863,40.7317784858388],[-73.984946948952,40.732357933788],[-73.984442099761,40.7330415175761],[-73.983550108667,40.7342689851214],[-73.9831152494291,40.7348463093259],[-73.9827024999079,40.7354401073748],[-73.9822686115248,40.7360279995242],[-73.9803893299423,40.7352335459813],[-73.9798807616648,40.7350025946953],[-73.9797904813553,40.7349700789165]]]}},{"type":"Feature","properties":{"e":"74054"},"geometry":{"type":"Polygon","coordinates":[[[-73.983550108667,40.7342689851214],[-73.984442099761,40.7330415175761],[-73.984946948952,40.732357933788],[-73.9871819404304,40.7333004088379],[-73.9866807760815,40.7339863166357],[-73.9861581506528,40.7337660718937],[-73.9860094334639,40.7337033988381],[-73.9858958396919,40.7336555275142],[-73.9858223847269,40.7336245763465],[-73.9852434481841,40.7333806376055],[-73.9847737556354,40.7340205845827],[-73.9843611997638,40.7346116171092],[-73.9842702333815,40.734573197428],[-73.983550108667,40.7342689851214]]]}},{"type":"Feature","properties":{"e":"74055"},"geometry":{"type":"Polygon","coordinates":[[[-73.9822686115248,40.7360279995242],[-73.9827024999079,40.7354401073748],[-73.9831152494291,40.7348463093259],[-73.9853622452337,40.7357981922155],[-73.9849348366491,40.7363846471027],[-73.984509018482,40.7369707491001],[-73.9838880097958,40.7367094363914],[-73.9822686115248,40.7360279995242]]]}},{"type":"Feature","properties":{"e":"74056"},"geometry":{"type":"Polygon","coordinates":[[[-73.9836328935828,40.738173507771],[-73.9840835723775,40.7375537787679],[-73.9843133238133,40.7372389289345],[-73.9843755030951,40.737153719365],[-73.984509018482,40.7369707491001],[-73.9849348366491,40.7363846471027],[-73.9853622452337,40.7357981922155],[-73.9869625989395,40.7364726046267],[-73.9865364437658,40.737058272306],[-73.9861219884417,40.7376481193885],[-73.9856758226797,40.7382272712993],[-73.9852336895503,40.7388484930262],[-73.9844786135483,40.7385301155244],[-73.9836328935828,40.738173507771]]]}},{"type":"Feature","properties":{"e":"74057"},"geometry":{"type":"Polygon","coordinates":[[[-73.9853622452337,40.7357981922155],[-73.9857958425824,40.7352079443289],[-73.9862141154153,40.7346259524881],[-73.9866807760815,40.7339863166357],[-73.9871819404304,40.7333004088379],[-73.9875733965622,40.7334652517733],[-73.9887807611186,40.7339736608904],[-73.9882874478363,40.7346672638358],[-73.9878178949419,40.7353005425055],[-73.9873886289651,40.7358871944733],[-73.9869625989395,40.7364726046267],[-73.9853622452337,40.7357981922155]]]}},{"type":"Feature","properties":{"e":"74058"},"geometry":{"type":"Polygon","coordinates":[[[-73.9831152494291,40.7348463093259],[-73.983550108667,40.7342689851214],[-73.9842702333815,40.734573197428],[-73.9843611997638,40.7346116171092],[-73.9847737556354,40.7340205845827],[-73.9852434481841,40.7333806376055],[-73.9858223847269,40.7336245763465],[-73.9858958396919,40.7336555275142],[-73.9860094334639,40.7337033988381],[-73.9861581506528,40.7337660718937],[-73.9866807760815,40.7339863166357],[-73.9862141154153,40.7346259524881],[-73.9857958425824,40.7352079443289],[-73.9853622452337,40.7357981922155],[-73.9831152494291,40.7348463093259]]]}},{"type":"Feature","properties":{"e":"74059"},"geometry":{"type":"Polygon","coordinates":[[[-73.9824566507436,40.742655223159],[-73.9829132439011,40.7420342028641],[-73.9832811020842,40.7415300256935],[-73.9833610657852,40.7414204289743],[-73.983812799606,40.7407981433346],[-73.9842591624694,40.7401768554358],[-73.9847437540071,40.7395186230464],[-73.9852336895503,40.7388484930262],[-73.9856758226797,40.7382272712993],[-73.9861219884417,40.7376481193885],[-73.9868356455861,40.7379493860272],[-73.9871768168829,40.7380923959182],[-73.9872900815136,40.7381390484971],[-73.9876768784925,40.7382949683306],[-73.9877421895717,40.7383204503711],[-73.9873029927935,40.7389112882073],[-73.9870373719122,40.7392746408008],[-73.9868506295447,40.739530084145],[-73.9863628612344,40.7401930635034],[-73.9858805757201,40.7408612630364],[-73.9854291217697,40.7414786112689],[-73.9849791985619,40.7420972205246],[-73.9845278105309,40.742715305091],[-73.9840762959402,40.7433329815666],[-73.9840099637839,40.74330728155],[-73.9824566507436,40.742655223159]]]}},{"type":"Feature","properties":{"e":"74060"},"geometry":{"type":"Polygon","coordinates":[[[-73.9861219884417,40.7376481193885],[-73.9865364437658,40.737058272306],[-73.9869625989395,40.7364726046267],[-73.9873886289651,40.7358871944733],[-73.9878178949419,40.7353005425055],[-73.9882874478363,40.7346672638358],[-73.9898634340885,40.7353343610678],[-73.9898756584237,40.7354165203134],[-73.989456165872,40.7359955087933],[-73.9892109846439,40.7363153827338],[-73.9890170380318,40.7365684164714],[-73.9885944284974,40.7371508229835],[-73.9881805474509,40.7377390109689],[-73.9877421895717,40.7383204503711],[-73.9876768784925,40.7382949683306],[-73.9872900815136,40.7381390484971],[-73.9871768168829,40.7380923959182],[-73.9868356455861,40.7379493860272],[-73.9861219884417,40.7376481193885]]]}},{"type":"Feature","properties":{"e":"74061"},"geometry":{"type":"Polygon","coordinates":[[[-73.9873029927935,40.7389112882073],[-73.9877421895717,40.7383204503711],[-73.9881805474509,40.7377390109689],[-73.9885944284974,40.7371508229835],[-73.9890170380318,40.7365684164714],[-73.989080772275,40.7365995792684],[-73.9903321477519,40.7371401220348],[-73.990123628271,40.7378039229843],[-73.9899579011242,40.738485405458],[-73.9898858651335,40.7387441646335],[-73.9897663196756,40.7391853521041],[-73.9895840320495,40.7398732414928],[-73.9873602781481,40.7389337631485],[-73.9873029927935,40.7389112882073]]]}},{"type":"Feature","properties":{"e":"74062"},"geometry":{"type":"Polygon","coordinates":[[[-73.9806598685918,40.7451240890093],[-73.9811100412596,40.7445065432929],[-73.981561413419,40.743890147197],[-73.9820101964137,40.7432728841046],[-73.983558179906,40.7439245513306],[-73.983626643516,40.7439513778522],[-73.9831755621002,40.7445685743079],[-73.9827283084504,40.7451886784439],[-73.9822801701381,40.7458058266635],[-73.9822158236494,40.7457787540558],[-73.9806598685918,40.7451240890093]]]}},{"type":"Feature","properties":{"e":"74063"},"geometry":{"type":"Polygon","coordinates":[[[-73.9865986894303,40.7427799498482],[-73.9870576378089,40.742150593553],[-73.9875308065661,40.7415367062964],[-73.9878095912894,40.7411357202844],[-73.9879838447786,40.7408809169394],[-73.9883217776915,40.7410241311076],[-73.9891272428298,40.7413659968666],[-73.9893904067789,40.740600051218],[-73.9895840320495,40.7398732414928],[-73.9897663196756,40.7391853521041],[-73.9898858651335,40.7387441646335],[-73.9899579011242,40.738485405458],[-73.990123628271,40.7378039229843],[-73.9903321477519,40.7371401220348],[-73.9922262944282,40.737925246715],[-73.9919349457455,40.7383253913476],[-73.9919028382839,40.7383694879109],[-73.9917991338993,40.738511916221],[-73.9913755176486,40.739096450074],[-73.9909466609205,40.7396816384456],[-73.9905192877708,40.7402699504993],[-73.9900715036142,40.7408885073853],[-73.9895771028875,40.7415563430101],[-73.9893198773086,40.7419222041678],[-73.9890977283081,40.7422119605139],[-73.9889657861912,40.7423866326725],[-73.9886458962034,40.7428223775697],[-73.9881950551394,40.7434590002135],[-73.9865986894303,40.7427799498482]]]}},{"type":"Feature","properties":{"e":"74064"},"geometry":{"type":"Polygon","coordinates":[[[-73.9822801701381,40.7458058266635],[-73.9827283084504,40.7451886784439],[-73.9827846143915,40.7452110916662],[-73.9843461109133,40.7458691343914],[-73.9838982913354,40.7464865321371],[-73.9823536606872,40.745836743353],[-73.9822801701381,40.7458058266635]]]}},{"type":"Feature","properties":{"e":"74065"},"geometry":{"type":"Polygon","coordinates":[[[-73.9882874478363,40.7346672638358],[-73.9887807611186,40.7339736608904],[-73.9888407958601,40.7339987405836],[-73.9899044050273,40.7344430513414],[-73.9899481579869,40.7349751664039],[-73.9899520843078,40.7350212647854],[-73.9899518103878,40.7350674593442],[-73.9899473375299,40.7351135289072],[-73.9899386871409,40.7351592528991],[-73.989925900726,40.7352044122921],[-73.98990903941,40.7352487909792],[-73.9898881839153,40.7352921764798],[-73.9898634340885,40.7353343610678],[-73.9882874478363,40.7346672638358]]]}},{"type":"Feature","properties":{"e":"74066"},"geometry":{"type":"Polygon","coordinates":[[[-73.9813261559739,40.7290940175759],[-73.9817908636975,40.7284540005133],[-73.9839987809743,40.7293779450053],[-73.9835373675723,40.7300159890238],[-73.9830709119685,40.7306634867713],[-73.980855755237,40.7297318155525],[-73.9813261559739,40.7290940175759]]]}}]}