{"type":"FeatureCollection","ad":75,"features":[{"type":"Feature","properties":{"e":"75001"},"geometry":{"type":"Polygon","coordinates":[[[-73.9769131258851,40.7749173936113],[-73.9773722930006,40.7742892771616],[-73.9778278368275,40.7736644617313],[-73.9787175478541,40.7740398704676],[-73.9787583694114,40.7740570945998],[-73.9806612073177,40.7748599478144],[-73.980210524696,40.7754886550558],[-73.9797471030326,40.7761198000898],[-73.9769131258851,40.7749173936113]]]}},{"type":"Feature","properties":{"e":"75002"},"geometry":{"type":"Polygon","coordinates":[[[-73.9778278368275,40.7736644617313],[-73.9782836443093,40.7730401479069],[-73.9787239113112,40.7724271678211],[-73.9791935886214,40.7717895348934],[-73.9820807838041,40.7729989814918],[-73.9815741044879,40.773610343775],[-73.9811153852888,40.7742357487773],[-73.9806612073177,40.7748599478144],[-73.9787583694114,40.7740570945998],[-73.9787175478541,40.7740398704676],[-73.9778278368275,40.7736644617313]]]}},{"type":"Feature","properties":{"e":"75003"},"geometry":{"type":"Polygon","coordinates":[[[-73.9791935886214,40.7717895348934],[-73.9796537776335,40.771163596296],[-73.9801132593376,40.770536637293],[-73.9820418658067,40.7713518475401],[-73.9821599815696,40.7714013392155],[-73.9822757757233,40.7714512361594],[-73.9829595679384,40.771739026505],[-73.9825423656309,40.7722991587693],[-73.9823056017252,40.7726262987902],[-73.9821949867899,40.772804915955],[-73.9820807838041,40.7729989814918],[-73.9791935886214,40.7717895348934]]]}},{"type":"Feature","properties":{"e":"75004"},"geometry":{"type":"Polygon","coordinates":[[[-73.9801132593376,40.770536637293],[-73.9805651504956,40.7699135930428],[-73.9820216322991,40.7705279727924],[-73.9821429084684,40.7705790053829],[-73.9821599815696,40.7714013392155],[-73.9820418658067,40.7713518475401],[-73.9801132593376,40.770536637293]]]}},{"type":"Feature","properties":{"e":"75005"},"geometry":{"type":"Polygon","coordinates":[[[-73.9821599815696,40.7714013392155],[-73.9821429084684,40.7705790053829],[-73.9820216322991,40.7705279727924],[-73.9805651504956,40.7699135930428],[-73.9810243444392,40.7692811018966],[-73.9816808804865,40.7683983990773],[-73.9817249170803,40.768408915421],[-73.9817697951794,40.7684171217804],[-73.9818153054153,40.7684229798705],[-73.9818612354706,40.7684264623619],[-73.9819073712888,40.7684275530435],[-73.9819534974176,40.7684262467799],[-73.9819993986657,40.7684225496651],[-73.9820448608914,40.7684164789472],[-73.9820718088016,40.7685393903735],[-73.9820941566893,40.7689005671546],[-73.9822176394474,40.7689686914941],[-73.98320805944,40.7693876485504],[-73.9843163580967,40.7698564515474],[-73.983856611966,40.7704878665934],[-73.9834223205236,40.7710962260223],[-73.9829595679384,40.771739026505],[-73.9822757757233,40.7714512361594],[-73.9821599815696,40.7714013392155]]]}},{"type":"Feature","properties":{"e":"75006"},"geometry":{"type":"Polygon","coordinates":[[[-73.9816808804865,40.7683983990773],[-73.9819222783221,40.7680431798695],[-73.9815939329855,40.7679267152872],[-73.9814926589294,40.7678894666466],[-73.9815197947329,40.7678599156885],[-73.9815504235414,40.7678324088451],[-73.9815842805144,40.767807183958],[-73.9816210728995,40.7677844591377],[-73.9816604827019,40.7677644307753],[-73.9817021690334,40.7677472721594],[-73.9817457714469,40.7677331316538],[-73.9817909129287,40.767722131526],[-73.9818315317179,40.7677166968399],[-73.9818726122208,40.7677139163772],[-73.9819138549489,40.7677138104082],[-73.9819549592314,40.7677163797054],[-73.9819956253343,40.7677216051306],[-73.9820355569113,40.76772944898],[-73.982074462852,40.7677398540703],[-73.9821120595225,40.767752744546],[-73.9823649844703,40.7673963420943],[-73.9828785795875,40.7667238629122],[-73.9857175594575,40.7679254764779],[-73.9852186485111,40.7686028985148],[-73.9847651377637,40.769234669403],[-73.9843163580967,40.7698564515474],[-73.98320805944,40.7693876485504],[-73.9822176394474,40.7689686914941],[-73.9820941566893,40.7689005671546],[-73.9820718088016,40.7685393903735],[-73.9820448608914,40.7684164789472],[-73.9819993986657,40.7684225496651],[-73.9819534974176,40.7684262467799],[-73.9819073712888,40.7684275530435],[-73.9818612354706,40.7684264623619],[-73.9818153054153,40.7684229798705],[-73.9817697951794,40.7684171217804],[-73.9817249170803,40.768408915421],[-73.9816808804865,40.7683983990773]]]}},{"type":"Feature","properties":{"e":"75007"},"geometry":{"type":"Polygon","coordinates":[[[-73.9814349639604,40.7636026275785],[-73.9818957266236,40.7629767150525],[-73.9823521340965,40.7623513670353],[-73.9828087220602,40.7617267829413],[-73.9836301123291,40.7620730575429],[-73.985648222938,40.7629231419158],[-73.985192967178,40.7635519417171],[-73.9847353826107,40.7641773720852],[-73.9842837461753,40.7648000824473],[-73.9824711522937,40.7640417314292],[-73.9814349639604,40.7636026275785]]]}},{"type":"Feature","properties":{"e":"75008"},"geometry":{"type":"Polygon","coordinates":[[[-73.9833680234924,40.7660535094892],[-73.9838233016322,40.7654267421818],[-73.9847365472813,40.7658121182148],[-73.985950121788,40.7663242086349],[-73.9866612020799,40.7666242533287],[-73.9862053265643,40.7672512221418],[-73.9833680234924,40.7660535094892]]]}},{"type":"Feature","properties":{"e":"75009"},"geometry":{"type":"Polygon","coordinates":[[[-73.9847365472813,40.7658121182148],[-73.9849556557067,40.7655087438126],[-73.9858612660626,40.765889386204],[-73.9859659837024,40.7657411643458],[-73.9862607276339,40.7659111503844],[-73.986178502695,40.7660204976743],[-73.9864132480088,40.7661216248657],[-73.9864824510993,40.7660308265117],[-73.9869211306636,40.7662716530077],[-73.9866612020799,40.7666242533287],[-73.985950121788,40.7663242086349],[-73.9847365472813,40.7658121182148]]]}},{"type":"Feature","properties":{"e":"75010"},"geometry":{"type":"Polygon","coordinates":[[[-73.9790780309481,40.7668843540711],[-73.9794578616609,40.766333054844],[-73.9795456168854,40.7662056837125],[-73.9800372005241,40.7655293019412],[-73.980529331301,40.7648517653539],[-73.9809820919838,40.7642309252427],[-73.9814349639604,40.7636026275785],[-73.9824711522937,40.7640417314292],[-73.9842837461753,40.7648000824473],[-73.9838233016322,40.7654267421818],[-73.9833680234924,40.7660535094892],[-73.9831331125079,40.7663752507495],[-73.9828785795875,40.7667238629122],[-73.9823649844703,40.7673963420943],[-73.9821120595225,40.767752744546],[-73.982074462852,40.7677398540703],[-73.9820355569113,40.76772944898],[-73.9819956253343,40.7677216051306],[-73.9819549592314,40.7677163797054],[-73.9819138549489,40.7677138104082],[-73.9818726122208,40.7677139163772],[-73.9818315317179,40.7677166968399],[-73.9817909129287,40.767722131526],[-73.9817457714469,40.7677331316538],[-73.9817021690334,40.7677472721594],[-73.9816604827019,40.7677644307753],[-73.9816210728995,40.7677844591377],[-73.9815842805144,40.767807183958],[-73.9815504235414,40.7678324088451],[-73.9815197947329,40.7678599156885],[-73.9814926589294,40.7678894666466],[-73.9790780309481,40.7668843540711]]]}},{"type":"Feature","properties":{"e":"75011"},"geometry":{"type":"Polygon","coordinates":[[[-73.9762353301527,40.7656828992454],[-73.9767046781139,40.7650037181422],[-73.9771983292503,40.7643319599251],[-73.978984673719,40.7650786400069],[-73.9800372005241,40.7655293019412],[-73.9795456168854,40.7662056837125],[-73.9794578616609,40.766333054844],[-73.9790780309481,40.7668843540711],[-73.9783625726724,40.7665819792218],[-73.9762353301527,40.7656828992454]]]}},{"type":"Feature","properties":{"e":"75012"},"geometry":{"type":"Polygon","coordinates":[[[-73.9771983292503,40.7643319599251],[-73.9776874484578,40.7636526703756],[-73.9781407600898,40.7630322816819],[-73.9786031372129,40.7624043394282],[-73.9802922499261,40.763119101194],[-73.9803737043206,40.7631539755452],[-73.9814349639604,40.7636026275785],[-73.9809820919838,40.7642309252427],[-73.980529331301,40.7648517653539],[-73.9800372005241,40.7655293019412],[-73.978984673719,40.7650786400069],[-73.9771983292503,40.7643319599251]]]}},{"type":"Feature","properties":{"e":"75013"},"geometry":{"type":"Polygon","coordinates":[[[-73.9730163134895,40.7642871470859],[-73.9734666757721,40.7636673723649],[-73.9737484082109,40.7632793028709],[-73.9739694302504,40.7629748550638],[-73.9744587475721,40.7623013507263],[-73.9749162037337,40.7616755371194],[-73.9753750482728,40.7610481745005],[-73.9758315615886,40.7604267870005],[-73.9777945625458,40.7612493059171],[-73.9790587544988,40.7617789866641],[-73.9801233859286,40.7622311390412],[-73.9807499034166,40.7624948625705],[-73.9818957266236,40.7629767150525],[-73.9814349639604,40.7636026275785],[-73.9803737043206,40.7631539755452],[-73.9802922499261,40.763119101194],[-73.9786031372129,40.7624043394282],[-73.9781407600898,40.7630322816819],[-73.9776874484578,40.7636526703756],[-73.9771983292503,40.7643319599251],[-73.9767046781139,40.7650037181422],[-73.9762353301527,40.7656828992454],[-73.9741937316906,40.7648147960344],[-73.9736372882743,40.7645781814516],[-73.9730163134895,40.7642871470859]]]}},{"type":"Feature","properties":{"e":"75014"},"geometry":{"type":"Polygon","coordinates":[[[-73.9758315615886,40.7604267870005],[-73.976290142834,40.7597950158117],[-73.9767461179728,40.7591730047879],[-73.9772017072956,40.7585461999162],[-73.9776562694429,40.7579196900113],[-73.9781175137851,40.7572926937012],[-73.9785666957015,40.756663108822],[-73.9790254106829,40.7560401337769],[-73.9792999153344,40.7556653548904],[-73.9794845811507,40.7554132314619],[-73.9799379150933,40.7547908094088],[-73.9801721673001,40.7544705346674],[-73.9803970448133,40.7541630742526],[-73.9806164269238,40.7538623130003],[-73.9808885418764,40.7534892539891],[-73.9809421068679,40.7534154731627],[-73.9813729470681,40.7528221177237],[-73.9818238866024,40.7522053923998],[-73.9822763476513,40.7515855632427],[-73.9854896352314,40.7529434451384],[-73.9870900713605,40.7536149798545],[-73.9868670233126,40.7543260839328],[-73.986640570556,40.7550427880091],[-73.9864058119324,40.7558162947997],[-73.9861081019956,40.7565689937621],[-73.9858222692956,40.7572657317906],[-73.9855387106682,40.7579815508656],[-73.9850511453161,40.7585818922194],[-73.9846206967617,40.7592076774037],[-73.9841751318728,40.7598498592989],[-73.9837315984651,40.7604653553379],[-73.983264354374,40.7611018823968],[-73.9828087220602,40.7617267829413],[-73.9823521340965,40.7623513670353],[-73.9818957266236,40.7629767150525],[-73.9807499034166,40.7624948625705],[-73.9801233859286,40.7622311390412],[-73.9790587544988,40.7617789866641],[-73.9777945625458,40.7612493059171],[-73.9758315615886,40.7604267870005]]]}},{"type":"Feature","properties":{"e":"75015"},"geometry":{"type":"Polygon","coordinates":[[[-73.9822763476513,40.7515855632427],[-73.9827253182326,40.7509672096464],[-73.9831756064166,40.750350474249],[-73.9836230280462,40.7497320360725],[-73.9840778046432,40.7491103896653],[-73.9845622145488,40.7484471069197],[-73.9850472207032,40.7477812821206],[-73.9854974667165,40.7471605937984],[-73.9881785446988,40.7482970862051],[-73.988039544667,40.7490312641774],[-73.9879750219144,40.7494990427554],[-73.9879383203432,40.749863231378],[-73.9877805444428,40.7506689794268],[-73.987645982849,40.751427496511],[-73.9874924637605,40.7521671997949],[-73.9873117655045,40.7529006879391],[-73.9870900713605,40.7536149798545],[-73.9854896352314,40.7529434451384],[-73.9822763476513,40.7515855632427]]]}},{"type":"Feature","properties":{"e":"75016"},"geometry":{"type":"Polygon","coordinates":[[[-73.9854974667165,40.7471605937984],[-73.9859500114845,40.7465441175622],[-73.986394710443,40.7459294579034],[-73.9868468373397,40.7453089905283],[-73.9872994992001,40.7446897620831],[-73.9887305000878,40.7452946375271],[-73.9885927524644,40.7460446823419],[-73.9884541253404,40.7467968348066],[-73.9883067937162,40.7475437809344],[-73.9881785446988,40.7482970862051],[-73.9854974667165,40.7471605937984]]]}},{"type":"Feature","properties":{"e":"75017"},"geometry":{"type":"Polygon","coordinates":[[[-74.0007042036464,40.7422618741074],[-73.9978627320822,40.7410646310475],[-73.9982884704023,40.7404780841521],[-74.0011306232778,40.7416763598194],[-74.0015567633383,40.7410882879584],[-74.0044167607661,40.7422923812898],[-74.0039704394475,40.7428712704877],[-74.0037905467502,40.743117860027],[-74.0037098364876,40.7432284936745],[-74.0035434688311,40.7434565420763],[-74.0007042036464,40.7422618741074]]]}},{"type":"Feature","properties":{"e":"75018"},"geometry":{"type":"Polygon","coordinates":[[[-73.9843461109133,40.7458691343914],[-73.9847945972014,40.74525224824],[-73.9852449934044,40.744634784076],[-73.9856971573453,40.7440159048979],[-73.9872994992001,40.7446897620831],[-73.9868468373397,40.7453089905283],[-73.986394710443,40.7459294579034],[-73.9859500114845,40.7465441175622],[-73.9843461109133,40.7458691343914]]]}},{"type":"Feature","properties":{"e":"75019"},"geometry":{"type":"Polygon","coordinates":[[[-73.9996143122275,40.753918259091],[-73.9999260410809,40.7535245450171],[-74.0000167482265,40.7533998517108],[-74.0005281245574,40.7526968890165],[-74.0008542873693,40.7522352133282],[-74.0009827066778,40.7520672925305],[-74.0014311562635,40.7514539855131],[-74.0018841162409,40.7508361956331],[-74.0024521778635,40.7510754522564],[-74.0020138816431,40.751699052558],[-74.0042759301615,40.7526503174362],[-74.0038236081424,40.7532689268627],[-74.003711676615,40.7534227631698],[-74.0035558189694,40.7536333423056],[-74.0033908145616,40.7538637430079],[-74.0033631781414,40.7539032494751],[-74.0030068225525,40.7543901434387],[-74.0027474067772,40.7547469756689],[-74.002545986634,40.755024092627],[-74.002473991604,40.7551237438637],[-74.0010289476118,40.7545145633593],[-73.9996143122275,40.753918259091]]]}},{"type":"Feature","properties":{"e":"75020"},"geometry":{"type":"Polygon","coordinates":[[[-73.9872994992001,40.7446897620831],[-73.9856971573453,40.7440159048979],[-73.986148531134,40.7433971950083],[-73.9865986894303,40.7427799498482],[-73.9881950551394,40.7434590002135],[-73.9886458962034,40.7428223775697],[-73.9889657861912,40.7423866326725],[-73.9890977283081,40.7422119605139],[-73.9893198773086,40.7419222041678],[-73.9892700192893,40.7422805641448],[-73.9892358447671,40.7425468880994],[-73.9891561433367,40.7430382238988],[-73.9890125543333,40.7438039113368],[-73.9889633852821,40.7440588203243],[-73.9888703403619,40.7445411974151],[-73.9887305000878,40.7452946375271],[-73.9872994992001,40.7446897620831]]]}},{"type":"Feature","properties":{"e":"75021"},"geometry":{"type":"Polygon","coordinates":[[[-73.9881785446988,40.7482970862051],[-73.9883067937162,40.7475437809344],[-73.9884541253404,40.7467968348066],[-73.9885927524644,40.7460446823419],[-73.9887305000878,40.7452946375271],[-73.9888703403619,40.7445411974151],[-73.9889633852821,40.7440588203243],[-73.9890125543333,40.7438039113368],[-73.9907013333801,40.7445103265174],[-73.9914200313873,40.744810945678],[-73.99096977395,40.7454291541745],[-73.9905164807771,40.746048581371],[-73.9900689378825,40.7466675461933],[-73.9896184996007,40.7472844850778],[-73.9894909185678,40.7474597570121],[-73.9891679622918,40.7479036989864],[-73.9887154962124,40.7485215381802],[-73.9882390597668,40.7491384331092],[-73.9879750219144,40.7494990427554],[-73.988039544667,40.7490312641774],[-73.9881785446988,40.7482970862051]]]}},{"type":"Feature","properties":{"e":"75022"},"geometry":{"type":"Polygon","coordinates":[[[-73.9891561433367,40.7430382238988],[-73.9892358447671,40.7425468880994],[-73.9892700192893,40.7422805641448],[-73.9893198773086,40.7419222041678],[-73.9895771028875,40.7415563430101],[-73.9900715036142,40.7408885073853],[-73.9932911795232,40.7422425441629],[-73.9928048555991,40.7429182829659],[-73.9956463872718,40.7441067975749],[-73.9951553897893,40.7447681063566],[-73.9923232701025,40.7435763563302],[-73.9920679182466,40.7439244661944],[-73.9918724702233,40.7441938339913],[-73.9891561433367,40.7430382238988]]]}},{"type":"Feature","properties":{"e":"75023"},"geometry":{"type":"Polygon","coordinates":[[[-73.9870900713605,40.7536149798545],[-73.9873117655045,40.7529006879391],[-73.9874924637605,40.7521671997949],[-73.987645982849,40.751427496511],[-73.9877805444428,40.7506689794268],[-73.9879383203432,40.749863231378],[-73.9879750219144,40.7494990427554],[-73.9882390597668,40.7491384331092],[-73.9887154962124,40.7485215381802],[-73.9891679622918,40.7479036989864],[-73.9894909185678,40.7474597570121],[-73.9896184996007,40.7472844850778],[-73.9900689378825,40.7466675461933],[-73.9905164807771,40.746048581371],[-73.99096977395,40.7454291541745],[-73.9938141972002,40.7466257997729],[-73.9933604685171,40.7472434858755],[-73.9929107336639,40.7478632152072],[-73.9924638449579,40.7484779985472],[-73.9920069755414,40.7491097084287],[-73.9915644522392,40.7497141869558],[-73.9911115471111,40.7503273345856],[-73.9906236460613,40.7510000188324],[-73.9901352387938,40.7516670735358],[-73.9896947267369,40.7522885281241],[-73.9892448654095,40.7529037298704],[-73.9887879959001,40.7535250443278],[-73.9883371708558,40.754138558523],[-73.9878930746288,40.7547576562548],[-73.9874478675668,40.755381225881],[-73.9869501835542,40.7560441677993],[-73.9864596997897,40.7567183371146],[-73.986015968841,40.757347611998],[-73.9855387106682,40.7579815508656],[-73.9858222692956,40.7572657317906],[-73.9861081019956,40.7565689937621],[-73.9864058119324,40.7558162947997],[-73.986640570556,40.7550427880091],[-73.9868670233126,40.7543260839328],[-73.9870900713605,40.7536149798545]]]}},{"type":"Feature","properties":{"e":"75024"},"geometry":{"type":"Polygon","coordinates":[[[-73.99096977395,40.7454291541745],[-73.9914200313873,40.744810945678],[-73.9907013333801,40.7445103265174],[-73.9890125543333,40.7438039113368],[-73.9891561433367,40.7430382238988],[-73.9918724702233,40.7441938339913],[-73.9920679182466,40.7439244661944],[-73.9923232701025,40.7435763563302],[-73.9951553897893,40.7447681063566],[-73.9949453880809,40.7450685618791],[-73.9947101197351,40.7453907091576],[-73.9942640330503,40.7460122446751],[-73.9938141972002,40.7466257997729],[-73.99096977395,40.7454291541745]]]}},{"type":"Feature","properties":{"e":"75025"},"geometry":{"type":"Polygon","coordinates":[[[-73.9932911795232,40.7422425441629],[-73.9961304573383,40.74343891703],[-73.9956463872718,40.7441067975749],[-73.9928048555991,40.7429182829659],[-73.9932911795232,40.7422425441629]]]}},{"type":"Feature","properties":{"e":"75026"},"geometry":{"type":"Polygon","coordinates":[[[-73.9932911795232,40.7422425441629],[-73.9900715036142,40.7408885073853],[-73.9905192877708,40.7402699504993],[-73.9909466609205,40.7396816384456],[-73.9941622298018,40.74103708464],[-73.9959309808293,40.7417823650818],[-73.9959884829051,40.7418065939183],[-73.9970086394508,40.7422364244231],[-73.9965816244304,40.7428191759545],[-73.9961304573383,40.74343891703],[-73.9932911795232,40.7422425441629]]]}},{"type":"Feature","properties":{"e":"75027"},"geometry":{"type":"Polygon","coordinates":[[[-73.9909466609205,40.7396816384456],[-73.9913755176486,40.739096450074],[-73.9917991338993,40.738511916221],[-73.9919028382839,40.7383694879109],[-73.9919349457455,40.7383253913476],[-73.9922262944282,40.737925246715],[-73.9954487050661,40.7392766465366],[-73.9950194327185,40.7398682738401],[-73.9978627320822,40.7410646310475],[-73.9974350447048,40.7416508348588],[-73.9970086394508,40.7422364244231],[-73.9959884829051,40.7418065939183],[-73.9959309808293,40.7417823650818],[-73.9941622298018,40.74103708464],[-73.9909466609205,40.7396816384456]]]}},{"type":"Feature","properties":{"e":"75028"},"geometry":{"type":"Polygon","coordinates":[[[-73.9922262944282,40.737925246715],[-73.992655756013,40.7373387300156],[-73.9958755420864,40.7386942079956],[-73.9987141539185,40.7398891400069],[-73.9982884704023,40.7404780841521],[-73.9978627320822,40.7410646310475],[-73.9950194327185,40.7398682738401],[-73.9954487050661,40.7392766465366],[-73.9922262944282,40.737925246715]]]}},{"type":"Feature","properties":{"e":"75029"},"geometry":{"type":"Polygon","coordinates":[[[-73.985648222938,40.7629231419158],[-73.98610550665,40.7622982193962],[-73.9865628305812,40.761668389015],[-73.9889565781162,40.7626791640252],[-73.9890792176411,40.762730723578],[-73.9894135023104,40.7628657154213],[-73.9889487999523,40.7634943211303],[-73.9884973637121,40.764121144428],[-73.9872711513695,40.7636054002404],[-73.985648222938,40.7629231419158]]]}},{"type":"Feature","properties":{"e":"75030"},"geometry":{"type":"Polygon","coordinates":[[[-73.9828087220602,40.7617267829413],[-73.983264354374,40.7611018823968],[-73.9837315984651,40.7604653553379],[-73.9841751318728,40.7598498592989],[-73.9846206967617,40.7592076774037],[-73.9850511453161,40.7585818922194],[-73.9853401314007,40.7587020931867],[-73.9879278525099,40.7597985433964],[-73.9874766924598,40.7604130532607],[-73.9870165909085,40.7610456339926],[-73.9865628305812,40.761668389015],[-73.98610550665,40.7622982193962],[-73.985648222938,40.7629231419158],[-73.9836301123291,40.7620730575429],[-73.9828087220602,40.7617267829413]]]}},{"type":"Feature","properties":{"e":"75031"},"geometry":{"type":"Polygon","coordinates":[[[-73.9865628305812,40.761668389015],[-73.9870165909085,40.7610456339926],[-73.9874766924598,40.7604130532607],[-73.9879278525099,40.7597985433964],[-73.9907621830114,40.7610020237923],[-73.9903166233746,40.7616145822165],[-73.9898642861376,40.7622437714051],[-73.9897695022523,40.7623745445874],[-73.9894135023104,40.7628657154213],[-73.9890792176411,40.762730723578],[-73.9889565781162,40.7626791640252],[-73.9865628305812,40.761668389015]]]}},{"type":"Feature","properties":{"e":"75032"},"geometry":{"type":"Polygon","coordinates":[[[-73.9879278525099,40.7597985433964],[-73.9883918914336,40.7591724522775],[-73.9888439844751,40.7585417650186],[-73.989298721335,40.7579149034714],[-73.9921385660057,40.7591129881801],[-73.9916864665048,40.7597371816069],[-73.9912320710324,40.7603624138666],[-73.9907621830114,40.7610020237923],[-73.9879278525099,40.7597985433964]]]}},{"type":"Feature","properties":{"e":"75033"},"geometry":{"type":"Polygon","coordinates":[[[-73.989298721335,40.7579149034714],[-73.9897923000295,40.7572413975915],[-73.9902776602542,40.7565758310775],[-73.9907278096323,40.7559586709535],[-73.9911788279256,40.7553381143353],[-73.9940208950378,40.7565359415132],[-73.9935633946489,40.7571521237955],[-73.9933779739529,40.7574097087457],[-73.9933208587718,40.7574932526544],[-73.9932742853046,40.7575572371541],[-73.9932066885645,40.7576452193273],[-73.9930722099336,40.7578356955296],[-73.9926344590324,40.7584379526149],[-73.9921385660057,40.7591129881801],[-73.989298721335,40.7579149034714]]]}},{"type":"Feature","properties":{"e":"75034"},"geometry":{"type":"Polygon","coordinates":[[[-73.9911788279256,40.7553381143353],[-73.9916341595564,40.754715070123],[-73.9920804473271,40.7540993808426],[-73.9925300065809,40.7534821782358],[-73.9953556286172,40.7546958654377],[-73.9950998767258,40.7550538510819],[-73.9949228679135,40.7553006454208],[-73.9944696948191,40.7559171274539],[-73.9940208950378,40.7565359415132],[-73.9911788279256,40.7553381143353]]]}},{"type":"Feature","properties":{"e":"75035"},"geometry":{"type":"Polygon","coordinates":[[[-73.9925300065809,40.7534821782358],[-73.99298082521,40.7528616676023],[-73.9934656242462,40.7521983198241],[-73.9939497042577,40.7515304865713],[-73.9931009465393,40.7511706924875],[-73.9927687002871,40.7510298489975],[-73.9911115471111,40.7503273345856],[-73.9915644522392,40.7497141869558],[-73.9929451383121,40.7503144595719],[-73.9943809156645,40.7509386540805],[-73.9948450855189,40.7503015730995],[-73.9952996625887,40.749679946599],[-73.9981216442876,40.7509111630785],[-73.998033897485,40.7510271195061],[-73.9976825321132,40.751495905974],[-73.997592683563,40.7516168338531],[-73.9974996655387,40.7517446053672],[-73.9973806409947,40.7519130056488],[-73.9973170140211,40.7520018856551],[-73.9971764599946,40.7522016675426],[-73.9970780868847,40.7523322387728],[-73.9967909360081,40.7527317131469],[-73.9963044603498,40.7533968040182],[-73.995817951878,40.7540648901462],[-73.9953556286172,40.7546958654377],[-73.9925300065809,40.7534821782358]]]}},{"type":"Feature","properties":{"e":"75036"},"geometry":{"type":"Polygon","coordinates":[[[-73.9853401314007,40.7587020931867],[-73.9855387106682,40.7579815508656],[-73.986015968841,40.757347611998],[-73.9864596997897,40.7567183371146],[-73.9869501835542,40.7560441677993],[-73.9874478675668,40.755381225881],[-73.9878930746288,40.7547576562548],[-73.9883371708558,40.754138558523],[-73.9887879959001,40.7535250443278],[-73.9892448654095,40.7529037298704],[-73.9896947267369,40.7522885281241],[-73.9901352387938,40.7516670735358],[-73.9906236460613,40.7510000188324],[-73.9911115471111,40.7503273345856],[-73.9927687002871,40.7510298489975],[-73.9931009465393,40.7511706924875],[-73.9939497042577,40.7515304865713],[-73.9934656242462,40.7521983198241],[-73.99298082521,40.7528616676023],[-73.9925300065809,40.7534821782358],[-73.9920804473271,40.7540993808426],[-73.9916341595564,40.754715070123],[-73.9911788279256,40.7553381143353],[-73.9907278096323,40.7559586709535],[-73.9902776602542,40.7565758310775],[-73.9897923000295,40.7572413975915],[-73.989298721335,40.7579149034714],[-73.9888439844751,40.7585417650186],[-73.9883918914336,40.7591724522775],[-73.9879278525099,40.7597985433964],[-73.9853401314007,40.7587020931867]]]}},{"type":"Feature","properties":{"e":"75037"},"geometry":{"type":"Polygon","coordinates":[[[-73.9952996625887,40.749679946599],[-73.9957500031564,40.7490604600828],[-73.9961980022011,40.7484475914708],[-73.9963462928571,40.7485072094504],[-73.9964851454289,40.7485830644252],[-73.996610073374,40.7486736497343],[-73.9967172509868,40.7487765541093],[-73.9968038733243,40.7488886421017],[-73.9968683652446,40.7490064023665],[-73.9969670069865,40.7491086584483],[-73.9969670545659,40.7491086941326],[-73.997083765417,40.7492037993979],[-73.9972170436374,40.7492890726672],[-73.9972171381364,40.7492891353243],[-73.9972172449715,40.7492891896053],[-73.9973647915625,40.749362223753],[-73.9973648862826,40.7493622681496],[-73.9973649931187,40.7493623050078],[-73.997523801023,40.7494212102199],[-73.9975239316495,40.7494212552872],[-73.9975240739515,40.7494212914759],[-73.9976904965661,40.7494647074882],[-73.9976906741133,40.7494647530589],[-73.9976908510003,40.7494647805367],[-73.9978612306478,40.7494921324664],[-73.9980316454913,40.7495035081809],[-73.9981983659804,40.7494996561289],[-73.9983723558651,40.7494939809187],[-73.9983726424547,40.7494939710388],[-73.9983729275017,40.7494939891356],[-73.9985486083108,40.7495060573826],[-73.9985487151483,40.7495060662629],[-73.9985488103106,40.7495060838543],[-73.9987216352991,40.7495360409136],[-73.9987218613098,40.7495360765992],[-73.9987221000964,40.7495361484706],[-73.9988872698608,40.7495831715874],[-73.9988874251604,40.7495832166534],[-73.998887568124,40.7495832699281],[-73.9990412478656,40.7496457818448],[-73.9985957092179,40.7502490992158],[-73.9981216442876,40.7509111630785],[-73.9952996625887,40.749679946599]]]}},{"type":"Feature","properties":{"e":"75038"},"geometry":{"type":"Polygon","coordinates":[[[-73.9968683652446,40.7490064023665],[-73.9979633105626,40.7475764599775],[-73.9989879323523,40.7480076274597],[-73.9999384199299,40.7484075818586],[-73.9994489373533,40.7490800917475],[-73.9990412478656,40.7496457818448],[-73.998887568124,40.7495832699281],[-73.9988874251604,40.7495832166534],[-73.9988872698608,40.7495831715874],[-73.9987221000964,40.7495361484706],[-73.9987218613098,40.7495360765992],[-73.9987216352991,40.7495360409136],[-73.9985488103106,40.7495060838543],[-73.9985487151483,40.7495060662629],[-73.9985486083108,40.7495060573826],[-73.9983729275017,40.7494939891356],[-73.9983726424547,40.7494939710388],[-73.9983723558651,40.7494939809187],[-73.9981983659804,40.7494996561289],[-73.9980316454913,40.7495035081809],[-73.9978612306478,40.7494921324664],[-73.9976908510003,40.7494647805367],[-73.9976906741133,40.7494647530589],[-73.9976904965661,40.7494647074882],[-73.9975240739515,40.7494212914759],[-73.9975239316495,40.7494212552872],[-73.997523801023,40.7494212102199],[-73.9973649931187,40.7493623050078],[-73.9973648862826,40.7493622681496],[-73.9973647915625,40.749362223753],[-73.9972172449715,40.7492891896053],[-73.9972171381364,40.7492891353243],[-73.9972170436374,40.7492890726672],[-73.997083765417,40.7492037993979],[-73.9969670545659,40.7491086941326],[-73.9969670069865,40.7491086584483],[-73.9968683652446,40.7490064023665]]]}},{"type":"Feature","properties":{"e":"75039"},"geometry":{"type":"Polygon","coordinates":[[[-73.9961980022011,40.7484475914708],[-73.9966484920291,40.747830993175],[-73.9971004769494,40.7472133654951],[-73.997553093407,40.7465891634446],[-73.9988657627779,40.7471364934627],[-74.0003999574204,40.7477761560592],[-73.9999384199299,40.7484075818586],[-73.9989879323523,40.7480076274597],[-73.9979633105626,40.7475764599775],[-73.9968683652446,40.7490064023665],[-73.9968038733243,40.7488886421017],[-73.9967172509868,40.7487765541093],[-73.996610073374,40.7486736497343],[-73.9964851454289,40.7485830644252],[-73.9963462928571,40.7485072094504],[-73.9961980022011,40.7484475914708]]]}},{"type":"Feature","properties":{"e":"75040"},"geometry":{"type":"Polygon","coordinates":[[[-73.9915644522392,40.7497141869558],[-73.9920069755414,40.7491097084287],[-73.9924638449579,40.7484779985472],[-73.9929107336639,40.7478632152072],[-73.9933604685171,40.7472434858755],[-73.9938141972002,40.7466257997729],[-73.9942640330503,40.7460122446751],[-73.9950157783517,40.7463305905332],[-73.9971004769494,40.7472133654951],[-73.9966484920291,40.747830993175],[-73.9961980022011,40.7484475914708],[-73.9957500031564,40.7490604600828],[-73.9952996625887,40.749679946599],[-73.9948450855189,40.7503015730995],[-73.9943809156645,40.7509386540805],[-73.9929451383121,40.7503144595719],[-73.9915644522392,40.7497141869558]]]}},{"type":"Feature","properties":{"e":"75041"},"geometry":{"type":"Polygon","coordinates":[[[-73.9942640330503,40.7460122446751],[-73.9947101197351,40.7453907091576],[-73.9949453880809,40.7450685618791],[-73.9951553897893,40.7447681063566],[-73.9978371546299,40.745887603964],[-73.9980096677666,40.7459595651163],[-73.997553093407,40.7465891634446],[-73.9971004769494,40.7472133654951],[-73.9950157783517,40.7463305905332],[-73.9942640330503,40.7460122446751]]]}},{"type":"Feature","properties":{"e":"75042"},"geometry":{"type":"Polygon","coordinates":[[[-73.9951553897893,40.7447681063566],[-73.9956463872718,40.7441067975749],[-73.9961304573383,40.74343891703],[-73.9979854788549,40.7442214241941],[-73.9980410947993,40.7442448835213],[-73.9989738223817,40.7446383181312],[-73.9984879725843,40.7453024270764],[-73.9980096677666,40.7459595651163],[-73.9978371546299,40.745887603964],[-73.9951553897893,40.7447681063566]]]}},{"type":"Feature","properties":{"e":"75043"},"geometry":{"type":"Polygon","coordinates":[[[-73.997553093407,40.7465891634446],[-73.9980096677666,40.7459595651163],[-73.9984879725843,40.7453024270764],[-74.0013273307532,40.7465001118654],[-74.0010766283339,40.7468438745972],[-74.0008497171581,40.7471550371662],[-74.0006516994607,40.7474285016988],[-74.0003999574204,40.7477761560592],[-73.9988657627779,40.7471364934627],[-73.997553093407,40.7465891634446]]]}},{"type":"Feature","properties":{"e":"75044"},"geometry":{"type":"Polygon","coordinates":[[[-73.9984879725843,40.7453024270764],[-73.9989738223817,40.7446383181312],[-73.9994174920485,40.7440152678957],[-74.0022662059896,40.7452151101589],[-74.0018127552028,40.7458346225408],[-74.0013273307532,40.7465001118654],[-73.9984879725843,40.7453024270764]]]}},{"type":"Feature","properties":{"e":"75045"},"geometry":{"type":"Polygon","coordinates":[[[-73.9994174920485,40.7440152678957],[-73.9998496844117,40.7434332816023],[-74.0002766280727,40.7428470612674],[-74.0007042036464,40.7422618741074],[-74.0035434688311,40.7434565420763],[-74.003117829093,40.7440427568456],[-74.0026925479723,40.7446295293547],[-74.0024912396655,40.7449060279429],[-74.0024679381781,40.7449380323263],[-74.0022662059896,40.7452151101589],[-73.9994174920485,40.7440152678957]]]}},{"type":"Feature","properties":{"e":"75046"},"geometry":{"type":"Polygon","coordinates":[[[-73.9961304573383,40.74343891703],[-73.9965816244304,40.7428191759545],[-73.9970086394508,40.7422364244231],[-73.9971796783854,40.7423084828104],[-73.9972046303402,40.742318994187],[-73.9998496844117,40.7434332816023],[-73.9994174920485,40.7440152678957],[-73.9989738223817,40.7446383181312],[-73.9980410947993,40.7442448835213],[-73.9979854788549,40.7442214241941],[-73.9961304573383,40.74343891703]]]}},{"type":"Feature","properties":{"e":"75047"},"geometry":{"type":"Polygon","coordinates":[[[-73.9970086394508,40.7422364244231],[-73.9974350447048,40.7416508348588],[-73.9978627320822,40.7410646310475],[-74.0007042036464,40.7422618741074],[-74.0002766280727,40.7428470612674],[-73.9998496844117,40.7434332816023],[-73.9972046303402,40.742318994187],[-73.9971796783854,40.7423084828104],[-73.9970086394508,40.7422364244231]]]}},{"type":"Feature","properties":{"e":"75048"},"geometry":{"type":"Polygon","coordinates":[[[-73.9982884704023,40.7404780841521],[-73.9987141539185,40.7398891400069],[-74.0015567633383,40.7410882879584],[-74.0011306232778,40.7416763598194],[-73.9982884704023,40.7404780841521]]]}},{"type":"Feature","properties":{"e":"75049"},"geometry":{"type":"Polygon","coordinates":[[[-73.9884973637121,40.764121144428],[-73.9889487999523,40.7634943211303],[-73.9894135023104,40.7628657154213],[-73.9897695022523,40.7623745445874],[-73.9898642861376,40.7622437714051],[-73.9922877244112,40.7632642607112],[-73.9927028824763,40.7634390724504],[-73.9922454751272,40.7640650464633],[-73.9917897880051,40.7646921347821],[-73.9913340927414,40.7653175376065],[-73.9884973637121,40.764121144428]]]}},{"type":"Feature","properties":{"e":"75050"},"geometry":{"type":"Polygon","coordinates":[[[-73.9898642861376,40.7622437714051],[-73.9903166233746,40.7616145822165],[-73.9907621830114,40.7610020237923],[-73.9925257948319,40.7617361938709],[-73.9936107538093,40.7621917020944],[-73.9933811509728,40.7625073873872],[-73.9932909942056,40.7626393410984],[-73.9931662376338,40.7628189635038],[-73.9927028824763,40.7634390724504],[-73.9922877244112,40.7632642607112],[-73.9898642861376,40.7622437714051]]]}},{"type":"Feature","properties":{"e":"75051"},"geometry":{"type":"Polygon","coordinates":[[[-73.9907621830114,40.7610020237923],[-73.9912320710324,40.7603624138666],[-73.9916864665048,40.7597371816069],[-73.9921385660057,40.7591129881801],[-73.9925784721244,40.7592960007122],[-73.9926868712161,40.7593409231815],[-73.9933309081122,40.7596120650705],[-73.9944273178653,40.7600736432438],[-73.994985029206,40.7603084279136],[-73.9945273802949,40.7609353110435],[-73.994069141444,40.7615634361472],[-73.9936107538093,40.7621917020944],[-73.9925257948319,40.7617361938709],[-73.9907621830114,40.7610020237923]]]}},{"type":"Feature","properties":{"e":"75052"},"geometry":{"type":"Polygon","coordinates":[[[-73.9921385660057,40.7591129881801],[-73.9926344590324,40.7584379526149],[-73.9939379541455,40.7589875346967],[-73.9933309081122,40.7596120650705],[-73.9926868712161,40.7593409231815],[-73.9925784721244,40.7592960007122],[-73.9921385660057,40.7591129881801]]]}},{"type":"Feature","properties":{"e":"75053"},"geometry":{"type":"Polygon","coordinates":[[[-73.9933309081122,40.7596120650705],[-73.9939379541455,40.7589875346967],[-73.9950751841283,40.7594663799698],[-73.9954759503109,40.7596351229592],[-73.994985029206,40.7603084279136],[-73.9944273178653,40.7600736432438],[-73.9933309081122,40.7596120650705]]]}},{"type":"Feature","properties":{"e":"75054"},"geometry":{"type":"Polygon","coordinates":[[[-74.0017896910478,40.7623027863837],[-74.0014177369936,40.7621448183894],[-74.0012794133143,40.7620840913916],[-74.0011519917728,40.7620340785688],[-74.0010373251556,40.7619766184639],[-74.0011121837673,40.7619244378426],[-74.0011838378053,40.7618697180387],[-74.0012521384498,40.761812572707],[-74.0013169438473,40.7617531205399],[-74.0013781193786,40.7616914849152],[-74.0014355380115,40.7616277939575],[-74.0014890804977,40.7615621799536],[-74.0015386356407,40.7614947791841],[-74.0016230851485,40.7613552544471],[-73.99987234793,40.7606167503359],[-73.9987990050347,40.7601640150183],[-73.9983135616894,40.7608303350973],[-73.9964878762359,40.760061367065],[-73.99621317269,40.7599456597935],[-73.9956960916598,40.7606090176905],[-73.995566960699,40.760554430855],[-73.994985029206,40.7603084279136],[-73.9954759503109,40.7596351229592],[-73.9959329457457,40.7590047183776],[-73.9964108637426,40.7583474243312],[-73.9966367409133,40.7580211874447],[-73.9974699293639,40.7583557107938],[-73.997875061715,40.7585054432614],[-73.9983613443252,40.7586962339087],[-73.9986165867603,40.7587456481848],[-73.9992074005842,40.7588702025739],[-73.9996224016927,40.7590265958138],[-74.0023746687465,40.7603307003938],[-74.0024825475242,40.7603740941899],[-74.0025857721301,40.760416181455],[-74.0027096729049,40.7604658557247],[-74.0029777027819,40.7605733124319],[-74.0030247341525,40.7605921675835],[-74.0033863328789,40.7607371370884],[-74.0031348404346,40.7610866110531],[-74.0027883659267,40.760937235643],[-74.0023367315938,40.7615519930775],[-74.0045466608931,40.7625010681288],[-74.0045595946777,40.7625161422618],[-74.0045578666735,40.7625325312148],[-74.0044509663113,40.762672833421],[-74.0044285476245,40.7626839735803],[-74.0044012130582,40.7626796253229],[-74.0022022709941,40.7617366983432],[-74.0017896910478,40.7623027863837]]]}},{"type":"Feature","properties":{"e":"75055"},"geometry":{"type":"Polygon","coordinates":[[[-73.9939379541455,40.7589875346967],[-73.9926344590324,40.7584379526149],[-73.9930722099336,40.7578356955296],[-73.9932066885645,40.7576452193273],[-73.9932742853046,40.7575572371541],[-73.9933208587718,40.7574932526544],[-73.9933779739529,40.7574097087457],[-73.9935633946489,40.7571521237955],[-73.9940208950378,40.7565359415132],[-73.9944696948191,40.7559171274539],[-73.9950074636385,40.7561449796451],[-73.9951143117995,40.7561840397249],[-73.9957763297344,40.7564627805395],[-73.9973002136908,40.7571153061202],[-73.9972351862966,40.7572178081877],[-73.9969232276946,40.7576458476992],[-73.9968538977529,40.7577409749364],[-73.9968023453045,40.757797425742],[-73.9966367409133,40.7580211874447],[-73.9964108637426,40.7583474243312],[-73.9959329457457,40.7590047183776],[-73.9954759503109,40.7596351229592],[-73.9950751841283,40.7594663799698],[-73.9939379541455,40.7589875346967]]]}},{"type":"Feature","properties":{"e":"75056"},"geometry":{"type":"Polygon","coordinates":[[[-73.9944696948191,40.7559171274539],[-73.9949228679135,40.7553006454208],[-73.9950998767258,40.7550538510819],[-73.9953556286172,40.7546958654377],[-73.995817951878,40.7540648901462],[-73.9970382938689,40.7545911468262],[-73.9971285864384,40.7546301327514],[-73.9974836008669,40.7547664770738],[-73.9976084125734,40.7548167459124],[-73.9977073505692,40.7548578021832],[-73.9986621207443,40.7552600279019],[-73.9984362898385,40.7555723754572],[-73.998214850742,40.7558786452832],[-73.9977598141463,40.7564957945345],[-73.9973002136908,40.7571153061202],[-73.9957763297344,40.7564627805395],[-73.9951143117995,40.7561840397249],[-73.9950074636385,40.7561449796451],[-73.9944696948191,40.7559171274539]]]}},{"type":"Feature","properties":{"e":"75057"},"geometry":{"type":"Polygon","coordinates":[[[-73.9966367409133,40.7580211874447],[-73.9968023453045,40.757797425742],[-73.9968538977529,40.7577409749364],[-73.9969232276946,40.7576458476992],[-73.9972351862966,40.7572178081877],[-73.9973002136908,40.7571153061202],[-73.9977598141463,40.7564957945345],[-73.998214850742,40.7558786452832],[-73.9984362898385,40.7555723754572],[-73.9986621207443,40.7552600279019],[-73.999144369714,40.7545931985209],[-73.9996143122275,40.753918259091],[-74.0010289476118,40.7545145633593],[-74.002473991604,40.7551237438637],[-74.002545986634,40.755024092627],[-74.0027474067772,40.7547469756689],[-74.0030068225525,40.7543901434387],[-74.0033631781414,40.7539032494751],[-74.0033908145616,40.7538637430079],[-74.0035558189694,40.7536333423056],[-74.003711676615,40.7534227631698],[-74.0038236081424,40.7532689268627],[-74.0066479439209,40.754459167626],[-74.0067406462311,40.7544996949918],[-74.0068556239404,40.7545511967613],[-74.0069794406948,40.7546022887817],[-74.0072953979703,40.7547314495201],[-74.0072864509082,40.7547438327725],[-74.0074150718785,40.7547975672448],[-74.0072732632236,40.754993859154],[-74.0071461350418,40.7549407457863],[-74.0069606255545,40.7551890595174],[-74.0068078089884,40.755400040355],[-74.0067043697333,40.7555406322367],[-74.0065791278826,40.7557151362183],[-74.0064758070439,40.755857818271],[-74.0062069404691,40.7562291083665],[-74.0061056730015,40.7563687845496],[-74.0059683614458,40.7565664074053],[-74.0059252896178,40.7566285006204],[-74.0058108327997,40.7567976070042],[-74.0054203094345,40.7573314054906],[-74.0052133280104,40.7572402636708],[-74.0048053764589,40.757818108423],[-74.0049692217007,40.7578924297151],[-74.0052803990015,40.7580368202127],[-74.0050325023295,40.7583652818306],[-74.0069657391242,40.7591683230083],[-74.0069952043261,40.7591844130915],[-74.0070118346981,40.7592119858403],[-74.0070050406882,40.7592401358005],[-74.0065310514137,40.7598830168431],[-74.0065083279309,40.7599002979233],[-74.0064773352388,40.7599018668755],[-74.0064449805217,40.7598987260725],[-74.0063166108172,40.7598510876478],[-74.0045062817779,40.7590932620711],[-74.0042077420224,40.7595099732988],[-74.0039088709928,40.7593839577798],[-74.0038080289911,40.7595189970923],[-74.004081340304,40.759634310382],[-74.0042484220741,40.7597074798191],[-74.0042039251055,40.7597693375431],[-74.0041500889172,40.7598441798487],[-74.0042463266868,40.759894838851],[-74.0042611293754,40.7598835733603],[-74.0043203450801,40.75991895145],[-74.004270147323,40.7599675452138],[-74.0042120442521,40.7599328323031],[-74.0042241114687,40.7599213687341],[-74.0041331669944,40.7598699080796],[-74.0041130708399,40.7599012729976],[-74.0036703651442,40.7597142352459],[-74.0035739609872,40.7598548246734],[-74.0039300000456,40.7600112854388],[-74.0038270466369,40.7601414024143],[-74.0035894597402,40.7604599727694],[-74.0033863328789,40.7607371370884],[-74.0030247341525,40.7605921675835],[-74.0029777027819,40.7605733124319],[-74.0027096729049,40.7604658557247],[-74.0025857721301,40.760416181455],[-74.0024825475242,40.7603740941899],[-74.0023746687465,40.7603307003938],[-73.9996224016927,40.7590265958138],[-73.9992074005842,40.7588702025739],[-73.9986165867603,40.7587456481848],[-73.9983613443252,40.7586962339087],[-73.997875061715,40.7585054432614],[-73.9974699293639,40.7583557107938],[-73.9966367409133,40.7580211874447]]]}},{"type":"Feature","properties":{"e":"75058"},"geometry":{"type":"Polygon","coordinates":[[[-73.995817951878,40.7540648901462],[-73.9963044603498,40.7533968040182],[-73.9967909360081,40.7527317131469],[-73.9970780868847,40.7523322387728],[-73.9971764599946,40.7522016675426],[-73.9973170140211,40.7520018856551],[-73.9973806409947,40.7519130056488],[-73.9974996655387,40.7517446053672],[-73.997592683563,40.7516168338531],[-73.9976825321132,40.751495905974],[-73.998033897485,40.7510271195061],[-73.9981216442876,40.7509111630785],[-73.9985957092179,40.7502490992158],[-73.9990412478656,40.7496457818448],[-74.0018841162409,40.7508361956331],[-74.0014311562635,40.7514539855131],[-74.0009827066778,40.7520672925305],[-74.0008542873693,40.7522352133282],[-74.0005281245574,40.7526968890165],[-74.0000167482265,40.7533998517108],[-73.9999260410809,40.7535245450171],[-73.9996143122275,40.753918259091],[-73.999144369714,40.7545931985209],[-73.9986621207443,40.7552600279019],[-73.9977073505692,40.7548578021832],[-73.9976084125734,40.7548167459124],[-73.9974836008669,40.7547664770738],[-73.9971285864384,40.7546301327514],[-73.9970382938689,40.7545911468262],[-73.995817951878,40.7540648901462]]]}},{"type":"Feature","properties":{"e":"75059"},"geometry":{"type":"MultiPolygon","coordinates":[[[[-74.0084804080712,40.7520268359154],[-74.0084278161462,40.7521661142639],[-74.0088192500037,40.7523326098977],[-74.0088041888366,40.7523531180853],[-74.0088408684399,40.7523670805842],[-74.0088531874745,40.7523505458188],[-74.0098671217869,40.7527716772319],[-74.009847731393,40.7527937060571],[-74.0098906783813,40.7528119451279],[-74.0099077673818,40.7527886752929],[-74.0099920104124,40.7528244512477],[-74.0099215585161,40.7529203896343],[-74.0099720401859,40.7529418282754],[-74.0099206149584,40.753011855597],[-74.0097905833227,40.7529566342193],[-74.009889200865,40.7528223417551],[-74.009839998909,40.7528032320829],[-74.0098320213027,40.7528117283463],[-74.0088313968706,40.7523882800611],[-74.0088377789682,40.7523797851616],[-74.0087935527114,40.7523604024294],[-74.0086893739739,40.7525022627097],[-74.0083549800508,40.7523590034073],[-74.0080129740131,40.7532647163638],[-74.0079039077206,40.7535508758261],[-74.0077401762538,40.7539804222226],[-74.0076209476631,40.7542901062429],[-74.0077454998899,40.7543450664069],[-74.0075976414437,40.7545388152525],[-74.0074730314182,40.7544852844335],[-74.0072953979703,40.7547314495201],[-74.0069794406948,40.7546022887817],[-74.0068556239404,40.7545511967613],[-74.0067406462311,40.7544996949918],[-74.0066479439209,40.754459167626],[-74.0038236081424,40.7532689268627],[-74.0042759301615,40.7526503174362],[-74.0020138816431,40.751699052558],[-74.0024521778635,40.7510754522564],[-74.0047237090921,40.7520321302055],[-74.0072926198939,40.7531074073444],[-74.0074085541877,40.7531514618108],[-74.0076674351092,40.7524323365292],[-74.007928163707,40.7517590916729],[-74.0080177845624,40.7518022646482],[-74.0081423690473,40.7518627425423],[-74.0084804080712,40.7520268359154]]],[[[-74.0093294040381,40.7523817670814],[-74.0084804080712,40.7520268359154],[-74.0085340209416,40.7518918732716],[-74.008761502364,40.751956278179],[-74.0089553006873,40.7520324090716],[-74.0091422730991,40.7521058580869],[-74.0091280631282,40.752125159727],[-74.0087471289149,40.7519726593026],[-74.0086526111008,40.7519477765897],[-74.0086446341075,40.7519647660096],[-74.0089705771221,40.7520850554685],[-74.008958874788,40.7520984891237],[-74.0090404115679,40.7521334196466],[-74.0090505498335,40.7521266134381],[-74.0091090316426,40.752147976109],[-74.0091074200908,40.7521503889472],[-74.0090591919762,40.7522226152568],[-74.0089988009752,40.7521973699579],[-74.0090090799446,40.7521851062448],[-74.0089303283388,40.7521522658745],[-74.0089161760568,40.7521718924845],[-74.0086736894308,40.7520705139981],[-74.0085919827357,40.7520363694279],[-74.0085824093212,40.7520521464086],[-74.0086660173651,40.7520811318765],[-74.0093423444316,40.7523638735768],[-74.0093294040381,40.7523817670814]]]]}},{"type":"Feature","properties":{"e":"75060"},"geometry":{"type":"Polygon","coordinates":[[[-74.0024521778635,40.7510754522564],[-74.0018841162409,40.7508361956331],[-74.002333136521,40.7502165220083],[-74.0024329245803,40.7500810155914],[-74.0024601327068,40.7500440701393],[-74.0027867195029,40.7496005833057],[-74.0031295119571,40.7491301240371],[-74.0031626182943,40.7490846871901],[-74.0032370600302,40.7489825189568],[-74.0036909997881,40.7483654945222],[-74.0039043740355,40.7480619248518],[-74.0041697568232,40.7476975561381],[-74.0046522185988,40.7470303335676],[-74.0052224071595,40.7472694547809],[-74.0074161790814,40.748184602829],[-74.0074834822135,40.7482159654062],[-74.0075659525802,40.748251419948],[-74.0076250878254,40.7482766205281],[-74.0077220565516,40.7483162005016],[-74.0077269795786,40.7484869658004],[-74.0077595131504,40.7486599300287],[-74.0078155877742,40.7488275386794],[-74.00788538419,40.7489924878872],[-74.0079685391301,40.74915381622],[-74.008064528733,40.7493106071502],[-74.0081662968004,40.7494653329949],[-74.0082491443542,40.7496281301728],[-74.0083115545877,40.749796943623],[-74.0083170527061,40.7498200852873],[-74.0083212464983,40.7498377623427],[-74.0083525472479,40.7499695046428],[-74.0083717039969,40.7501434627262],[-74.0083692036808,40.7503164500564],[-74.0083140488218,40.7506099641803],[-74.0082421616893,40.7509018068836],[-74.0081537080652,40.7511911441784],[-74.0080489356933,40.7514771702089],[-74.007928163707,40.7517590916729],[-74.0076674351092,40.7524323365292],[-74.0074085541877,40.7531514618108],[-74.0072926198939,40.7531074073444],[-74.0047237090921,40.7520321302055],[-74.0024521778635,40.7510754522564]]]}},{"type":"Feature","properties":{"e":"75061"},"geometry":{"type":"Polygon","coordinates":[[[-73.9990412478656,40.7496457818448],[-73.9994489373533,40.7490800917475],[-73.9999384199299,40.7484075818586],[-74.0009046323061,40.7488261382474],[-74.0012994739786,40.7489776692461],[-74.0014113708602,40.7490245367208],[-74.0014589307062,40.7490444575004],[-74.0015114709957,40.7490664642307],[-74.0015695999448,40.7490908110337],[-74.0019142317961,40.7485676633162],[-74.0020543171447,40.7484796191953],[-74.0021510648287,40.7485207568292],[-74.0022360208291,40.7485568810555],[-74.0023372389663,40.7485999195325],[-74.0025851437602,40.7487053278937],[-74.0026720609901,40.7487422850285],[-74.0032370600302,40.7489825189568],[-74.0031626182943,40.7490846871901],[-74.0031295119571,40.7491301240371],[-74.0027867195029,40.7496005833057],[-74.0024601327068,40.7500440701393],[-74.0024329245803,40.7500810155914],[-74.002333136521,40.7502165220083],[-74.0018841162409,40.7508361956331],[-73.9990412478656,40.7496457818448]]]}},{"type":"Feature","properties":{"e":"75062"},"geometry":{"type":"Polygon","coordinates":[[[-73.9999384199299,40.7484075818586],[-74.0003999574204,40.7477761560592],[-74.0006516994607,40.7474285016988],[-74.0008497171581,40.7471550371662],[-74.0036909997881,40.7483654945222],[-74.0032370600302,40.7489825189568],[-74.0026720609901,40.7487422850285],[-74.0025851437602,40.7487053278937],[-74.0023372389663,40.7485999195325],[-74.0022360208291,40.7485568810555],[-74.0021510648287,40.7485207568292],[-74.0020543171447,40.7484796191953],[-74.0019142317961,40.7485676633162],[-74.0015695999448,40.7490908110337],[-74.0015114709957,40.7490664642307],[-74.0014589307062,40.7490444575004],[-74.0014113708602,40.7490245367208],[-74.0012994739786,40.7489776692461],[-74.0009046323061,40.7488261382474],[-73.9999384199299,40.7484075818586]]]}},{"type":"Feature","properties":{"e":"75063"},"geometry":{"type":"Polygon","coordinates":[[[-74.0008497171581,40.7471550371662],[-74.0010766283339,40.7468438745972],[-74.0013273307532,40.7465001118654],[-74.0041697568232,40.7476975561381],[-74.0039043740355,40.7480619248518],[-74.0036909997881,40.7483654945222],[-74.0008497171581,40.7471550371662]]]}},{"type":"Feature","properties":{"e":"75064"},"geometry":{"type":"Polygon","coordinates":[[[-74.0013273307532,40.7465001118654],[-74.0018127552028,40.7458346225408],[-74.0022662059896,40.7452151101589],[-74.0024679381781,40.7449380323263],[-74.0024912396655,40.7449060279429],[-74.0026925479723,40.7446295293547],[-74.003117829093,40.7440427568456],[-74.0032263036808,40.7440884051015],[-74.0035242228221,40.7442137743694],[-74.0036445040899,40.7442643898598],[-74.0037982563279,40.7443290890634],[-74.003904644326,40.7443738579046],[-74.0040544524227,40.7444368985564],[-74.0059612269388,40.7452392477971],[-74.0055354901175,40.7458238321139],[-74.0051085854035,40.7464110361428],[-74.0046522185988,40.7470303335676],[-74.0041697568232,40.7476975561381],[-74.0013273307532,40.7465001118654]]]}},{"type":"Feature","properties":{"e":"75065"},"geometry":{"type":"Polygon","coordinates":[[[-74.007928163707,40.7517590916729],[-74.0080489356933,40.7514771702089],[-74.0081537080652,40.7511911441784],[-74.0082421616893,40.7509018068836],[-74.0083140488218,40.7506099641803],[-74.0083692036808,40.7503164500564],[-74.0083717039969,40.7501434627262],[-74.0083525472479,40.7499695046428],[-74.0083212464983,40.7498377623427],[-74.0083170527061,40.7498200852873],[-74.0083115545877,40.749796943623],[-74.0082491443542,40.7496281301728],[-74.0081662968004,40.7494653329949],[-74.008064528733,40.7493106071502],[-74.0079685391301,40.74915381622],[-74.00788538419,40.7489924878872],[-74.0078155877742,40.7488275386794],[-74.0077595131504,40.7486599300287],[-74.0077269795786,40.7484869658004],[-74.0077220565516,40.7483162005016],[-74.0076250878254,40.7482766205281],[-74.0075659525802,40.748251419948],[-74.0074834822135,40.7482159654062],[-74.0074161790814,40.748184602829],[-74.0052224071595,40.7472694547809],[-74.0046522185988,40.7470303335676],[-74.0051085854035,40.7464110361428],[-74.0055354901175,40.7458238321139],[-74.0059612269388,40.7452392477971],[-74.0040544524227,40.7444368985564],[-74.003904644326,40.7443738579046],[-74.0037982563279,40.7443290890634],[-74.0036445040899,40.7442643898598],[-74.0035242228221,40.7442137743694],[-74.0032263036808,40.7440884051015],[-74.003117829093,40.7440427568456],[-74.0035434688311,40.7434565420763],[-74.003625875002,40.7434912611765],[-74.003945777824,40.7436260382865],[-74.0040243155872,40.7436591261974],[-74.0043259630692,40.743786210413],[-74.0044087531074,40.7438210897623],[-74.0063862223085,40.7446541655184],[-74.0068129510274,40.7440695861091],[-74.0069773373321,40.7441391534453],[-74.0082603601434,40.7446821059553],[-74.0083731903947,40.7439772442478],[-74.0085185311027,40.743182734123],[-74.00870047413,40.7423699860605],[-74.008792257085,40.7423834063227],[-74.0088948498741,40.7423924297865],[-74.0090197176852,40.7424457406838],[-74.0091549030144,40.7425044496636],[-74.0090930197859,40.7428944112584],[-74.0092415871226,40.7429077805934],[-74.0092421929745,40.7429214230495],[-74.0096216049864,40.74295951057],[-74.0095698856169,40.7432660469685],[-74.0095860949618,40.7432717827257],[-74.0121208526185,40.7435248743857],[-74.0121387217003,40.7435401892648],[-74.0121495841796,40.743567563758],[-74.012091535236,40.7439058999276],[-74.0120704872071,40.7439307558327],[-74.01202230239,40.7439480324983],[-74.0119790857407,40.7439438227111],[-74.0095134691803,40.7436843560862],[-74.0094901351426,40.7437039440127],[-74.0094394602095,40.7439795178594],[-74.0093957208078,40.7439769792256],[-74.009043526414,40.743942133648],[-74.0089017809538,40.7439261894908],[-74.0088042865647,40.7444476101245],[-74.008729251916,40.744866495495],[-74.0087313149235,40.7448898004191],[-74.008941209841,40.74491747992],[-74.0095758577356,40.7450011712444],[-74.0096137308631,40.7450061657318],[-74.0095597809168,40.7452970879388],[-74.009918059871,40.7453355176421],[-74.0099358185184,40.7453253407343],[-74.0099394135907,40.7453049640387],[-74.0099448699084,40.7452740323584],[-74.0099519394326,40.7452339529349],[-74.0099599777543,40.7451883822514],[-74.0099690513349,40.7451369437028],[-74.0099749585744,40.7451034567033],[-74.0099828091338,40.7450589449671],[-74.0099906244716,40.7450146468291],[-74.0099996777571,40.7449633218614],[-74.0099883095838,40.7449524267727],[-74.0098709364447,40.7449421802669],[-74.009873562552,40.7449247646819],[-74.0101693571474,40.7449505922604],[-74.0101661037675,40.744972187185],[-74.0100552083199,40.7449624974871],[-74.0100399355995,40.7449717206377],[-74.0100250642791,40.7450546078943],[-74.0100154949909,40.7451079392026],[-74.0100095920885,40.7451408393593],[-74.0100007534601,40.7451901023947],[-74.0099939569948,40.7452279816756],[-74.0099846530809,40.7452798357105],[-74.0099788881421,40.7453119662372],[-74.0099754019737,40.7453313977414],[-74.0099924055608,40.7453449488056],[-74.0104706520357,40.7453950286563],[-74.0104898078721,40.7453839777191],[-74.0104933260971,40.7453634296341],[-74.0104983863341,40.7453338780452],[-74.0105047797339,40.7452965335157],[-74.010513168475,40.7452475378553],[-74.0105222862847,40.745194283945],[-74.010528268574,40.7451593432852],[-74.0105311364795,40.7451425950884],[-74.0105518994792,40.7450213197587],[-74.0105333336014,40.7450112449217],[-74.010418458479,40.7450018452555],[-74.01042082397,40.7449850867198],[-74.0107656497952,40.745013294563],[-74.01076301245,40.7450319887294],[-74.01060766734,40.7450192790232],[-74.0105872439414,40.7450287091131],[-74.0105694628526,40.7451461954015],[-74.0105651604312,40.745174624834],[-74.0105520212232,40.7452614446761],[-74.0105412339891,40.745332718032],[-74.0105351872837,40.7453726700776],[-74.0105325173136,40.7453903130137],[-74.0105466558632,40.7454003976373],[-74.0111050501727,40.7454559328609],[-74.0111176937601,40.7454443872397],[-74.0111261144261,40.745386024805],[-74.0111315524164,40.7453514909211],[-74.0111403221946,40.7452958112162],[-74.0111469100803,40.7452539832945],[-74.0111577252838,40.7451853097182],[-74.0111625863083,40.7451544390169],[-74.0111732833215,40.7450865208255],[-74.0111547392152,40.7450769056112],[-74.0110442695632,40.7450692259669],[-74.0110460435889,40.7450544749424],[-74.0113891519339,40.7450813752162],[-74.0113871306456,40.7450962706781],[-74.0112318327142,40.7450840932024],[-74.011212305082,40.7451790667441],[-74.0112073766157,40.7452030331946],[-74.0111896208603,40.7452893886731],[-74.0111824817905,40.7453241120298],[-74.0111682029682,40.7453935605844],[-74.0111556439091,40.7454546406988],[-74.0111685519062,40.7454686151572],[-74.0117410378601,40.7455281807989],[-74.0117967287849,40.7451629295202],[-74.0117841873303,40.7451432186602],[-74.0116704608202,40.7451355937257],[-74.0116721281232,40.7451222398715],[-74.0118378810632,40.7451342262069],[-74.0117760402073,40.7455331090298],[-74.0117717099943,40.7455610466517],[-74.0117678068393,40.7455862426626],[-74.0117842106316,40.7456098348786],[-74.01172042766,40.7459481076895],[-74.0117126873151,40.7459695218479],[-74.0116803073963,40.7459877245168],[-74.0116359648434,40.7459866575083],[-74.0105567009964,40.745879367142],[-74.0105527867319,40.7459111467251],[-74.0101296657228,40.7458655016604],[-74.0101296634562,40.7458505981915],[-74.0099481363988,40.745827777176],[-74.0099495309136,40.7458084336385],[-74.0094653501768,40.7457584063932],[-74.0094538183833,40.7458257361357],[-74.0094431028795,40.7458882980127],[-74.0094370737363,40.7459235054856],[-74.0094258880876,40.7459888111433],[-74.0094204588927,40.7460205100638],[-74.009408908302,40.7460879584093],[-74.0094030096363,40.7461223994362],[-74.0093921289673,40.7461859187318],[-74.0093866880759,40.746217689687],[-74.0093818742221,40.7462457996401],[-74.0093778276057,40.7462694266961],[-74.0093650789628,40.7463438648291],[-74.0115352799773,40.7465760175334],[-74.0115692815673,40.7465877149912],[-74.0115926866903,40.7466097683017],[-74.0115899211425,40.7466363372332],[-74.0115345248207,40.7469750898473],[-74.0115132825305,40.746992866504],[-74.0114851832148,40.7469988516709],[-74.0114463648313,40.7469945479346],[-74.0092445981947,40.7467710536935],[-74.0091388142095,40.7473680258634],[-74.0095619313721,40.7474110626585],[-74.00956248651,40.7473959966462],[-74.0095691047534,40.747396140504],[-74.0095697180145,40.747379346454],[-74.0095518504156,40.7473789691608],[-74.0095530058953,40.7473476048097],[-74.0099653018448,40.7473860660474],[-74.0099598363309,40.7474199351245],[-74.0099081515599,40.747415112651],[-74.0099030409895,40.7474467473978],[-74.0113582057124,40.7476006813748],[-74.0113962285834,40.7476191651389],[-74.0114081917087,40.7476388131017],[-74.0113483839401,40.7479844690986],[-74.0113331967689,40.7480088384507],[-74.0113049822813,40.7480228350214],[-74.0112675648714,40.7480219822948],[-74.0090599306243,40.7477939084793],[-74.0089475166361,40.7484201564418],[-74.0089806356833,40.748420972899],[-74.008980633999,40.7484084826501],[-74.0090724609284,40.7484180304747],[-74.0090753593563,40.7484033249661],[-74.0094165681299,40.7484378501773],[-74.0094175284903,40.7484451982994],[-74.0095248192151,40.7484562200681],[-74.0095202754013,40.748481803701],[-74.0111683279538,40.7486533100069],[-74.0111961798594,40.7486650773559],[-74.0112170704901,40.748686255489],[-74.0112170736612,40.7487050844249],[-74.0111505951746,40.7490340105807],[-74.0111343517814,40.7490498971506],[-74.0111103641742,40.7490581392416],[-74.0110794229267,40.7490599064407],[-74.0099496313457,40.7489402513454],[-74.0095631993783,40.7499782387558],[-74.009254860986,40.7499934692922],[-74.0091059839399,40.7503793333814],[-74.0106788276521,40.7510309382003],[-74.0105660870724,40.7513297258871],[-74.0090024343609,40.7506564474916],[-74.008707638225,40.7514350688751],[-74.0087328300294,40.7514741588483],[-74.0086687424372,40.7516364611333],[-74.0086223500999,40.7516608418414],[-74.0085340209416,40.7518918732716],[-74.0084804080712,40.7520268359154],[-74.0081423690473,40.7518627425423],[-74.0080177845624,40.7518022646482],[-74.007928163707,40.7517590916729]]]}},{"type":"Feature","properties":{"e":"75066"},"geometry":{"type":"Polygon","coordinates":[[[-74.0035434688311,40.7434565420763],[-74.0037098364876,40.7432284936745],[-74.0037905467502,40.743117860027],[-74.0039704394475,40.7428712704877],[-74.0044167607661,40.7422923812898],[-74.0045493988396,40.7423481241923],[-74.0048871921123,40.7424900847119],[-74.0050070109388,40.7425404398156],[-74.0069917415873,40.7433749140723],[-74.0072346415127,40.7434776905186],[-74.0069329579735,40.7439031690597],[-74.0068129510274,40.7440695861091],[-74.0063862223085,40.7446541655184],[-74.0044087531074,40.7438210897623],[-74.0043259630692,40.743786210413],[-74.0040243155872,40.7436591261974],[-74.003945777824,40.7436260382865],[-74.003625875002,40.7434912611765],[-74.0035434688311,40.7434565420763]]]}},{"type":"Feature","properties":{"e":"75068"},"geometry":{"type":"Polygon","coordinates":[[[-73.9828785795875,40.7667238629122],[-73.9831331125079,40.7663752507495],[-73.9833680234924,40.7660535094892],[-73.9862053265643,40.7672512221418],[-73.9857175594575,40.7679254764779],[-73.9828785795875,40.7667238629122]]]}}]}