{"type":"FeatureCollection","ad":76,"features":[{"type":"Feature","properties":{"e":"76001"},"geometry":{"type":"Polygon","coordinates":[[[-73.9602345450323,40.7662484441823],[-73.960690894689,40.7656221205925],[-73.9611500666769,40.7649957141714],[-73.9612727619503,40.7650460215892],[-73.9615402598263,40.7651557109135],[-73.9630391470163,40.7657702837962],[-73.9632698136567,40.7658648558279],[-73.9634029795842,40.765919459835],[-73.9629300962928,40.7665668963876],[-73.9624714278084,40.7671932023673],[-73.9616242971496,40.7668354207368],[-73.9602345450323,40.7662484441823]]]}},{"type":"Feature","properties":{"e":"76002"},"geometry":{"type":"Polygon","coordinates":[[[-73.9597778423119,40.7668763693424],[-73.9602345450323,40.7662484441823],[-73.9616242971496,40.7668354207368],[-73.9624714278084,40.7671932023673],[-73.9620155689545,40.7678205777136],[-73.9611631484868,40.7674609074919],[-73.9597778423119,40.7668763693424]]]}},{"type":"Feature","properties":{"e":"76003"},"geometry":{"type":"Polygon","coordinates":[[[-73.9593211357959,40.7675025398136],[-73.9597778423119,40.7668763693424],[-73.9611631484868,40.7674609074919],[-73.9620155689545,40.7678205777136],[-73.9615492934868,40.7684398507052],[-73.9611114081236,40.7690726773001],[-73.9604303442168,40.7687921684165],[-73.9609007391886,40.7681608051856],[-73.9593211357959,40.7675025398136]]]}},{"type":"Feature","properties":{"e":"76004"},"geometry":{"type":"Polygon","coordinates":[[[-73.958366769172,40.7688060026128],[-73.9588633838518,40.7681281795022],[-73.9593211357959,40.7675025398136],[-73.9609007391886,40.7681608051856],[-73.9604303442168,40.7687921684165],[-73.9611114081236,40.7690726773001],[-73.9606032437976,40.7697574563557],[-73.958366769172,40.7688060026128]]]}},{"type":"Feature","properties":{"e":"76005"},"geometry":{"type":"Polygon","coordinates":[[[-73.9574058151471,40.7701285242781],[-73.957868229236,40.7694923173711],[-73.958366769172,40.7688060026128],[-73.9606032437976,40.7697574563557],[-73.9601109892717,40.7704404802631],[-73.9596458449347,40.7710725357928],[-73.9574058151471,40.7701285242781]]]}},{"type":"Feature","properties":{"e":"76006"},"geometry":{"type":"Polygon","coordinates":[[[-73.9560165123361,40.7720282258997],[-73.9562524861971,40.7717063879454],[-73.9564804547925,40.7713954656231],[-73.9569425653177,40.7707615312303],[-73.9574058151471,40.7701285242781],[-73.9596458449347,40.7710725357928],[-73.9591832374693,40.7717050935337],[-73.958718511393,40.7723399443721],[-73.9585719633211,40.7725410652333],[-73.958256786238,40.7729736069446],[-73.9560165123361,40.7720282258997]]]}},{"type":"Feature","properties":{"e":"76007"},"geometry":{"type":"Polygon","coordinates":[[[-73.9550562520926,40.7733451212194],[-73.955554680024,40.7726623453734],[-73.9560165123361,40.7720282258997],[-73.958256786238,40.7729736069446],[-73.9577952414588,40.7736081674556],[-73.9572955370761,40.7742918252254],[-73.9550562520926,40.7733451212194]]]}},{"type":"Feature","properties":{"e":"76008"},"geometry":{"type":"Polygon","coordinates":[[[-73.9601393138538,40.7621139205791],[-73.9606017135222,40.7614931220555],[-73.9610689815688,40.7608663605185],[-73.9614238934915,40.760376218553],[-73.961891031783,40.7605736722839],[-73.9617581531133,40.7607548187318],[-73.9626547468941,40.7611329817224],[-73.9631028558526,40.7613231788506],[-73.9630327327857,40.761418777126],[-73.9631933176361,40.7614846843003],[-73.9634883704887,40.7610817712327],[-73.9637672705031,40.7611936005503],[-73.9638845423032,40.7612415534577],[-73.963425351802,40.7618668550442],[-73.9629760398403,40.7624953445972],[-73.9625166781738,40.7631210019074],[-73.961558474294,40.7627166379907],[-73.9601393138538,40.7621139205791]]]}},{"type":"Feature","properties":{"e":"76009"},"geometry":{"type":"Polygon","coordinates":[[[-73.9592405246944,40.7633744260565],[-73.9596958345772,40.7627478377364],[-73.9601393138538,40.7621139205791],[-73.961558474294,40.7627166379907],[-73.9625166781738,40.7631210019074],[-73.9620653639774,40.7637425527505],[-73.9616089778777,40.7643744297225],[-73.9592405246944,40.7633744260565]]]}},{"type":"Feature","properties":{"e":"76010"},"geometry":{"type":"Polygon","coordinates":[[[-73.9563106118287,40.7605166350426],[-73.9563346251708,40.7604948530471],[-73.9569798529407,40.7599050212886],[-73.9573188116336,40.7596004795302],[-73.957600130282,40.7593505854727],[-73.9576391632605,40.7593150071049],[-73.9580064021051,40.7589802667574],[-73.9581874803095,40.7588199873438],[-73.9582468716677,40.7587672757377],[-73.9583349555075,40.75869214661],[-73.9583551858679,40.7586748922188],[-73.9584276379458,40.7586121395456],[-73.9584564534963,40.7585891692333],[-73.9584926314833,40.7585541708581],[-73.9585840547603,40.7585920136966],[-73.9587205184149,40.7586484996517],[-73.9586931172634,40.7586833305362],[-73.9586714496591,40.7587140748328],[-73.9586657676157,40.7587217459851],[-73.9586154273728,40.7587897119508],[-73.9585726669754,40.7588488009072],[-73.9585035920255,40.7589429680098],[-73.9580928213024,40.7594795447667],[-73.9580094889438,40.7595883973961],[-73.9581083189512,40.7596265051483],[-73.9581642129581,40.759648058068],[-73.9588109909973,40.7599210532981],[-73.9606160354066,40.7606767406532],[-73.9610689815688,40.7608663605185],[-73.9606017135222,40.7614931220555],[-73.9601393138538,40.7621139205791],[-73.9591502708038,40.7617070007717],[-73.9583433564234,40.7613715835373],[-73.957902772991,40.7611891647846],[-73.9578181363963,40.7611548628903],[-73.9573616202245,40.7609744234188],[-73.957081172463,40.7608635803167],[-73.9567069225792,40.7606889766464],[-73.9566414998946,40.7606610792523],[-73.9566015037597,40.7606434324274],[-73.956546276997,40.7606215382568],[-73.9563451222062,40.7605377424832],[-73.9563276763669,40.760529984783],[-73.9563106118287,40.7605166350426]]]}},{"type":"Feature","properties":{"e":"76011"},"geometry":{"type":"Polygon","coordinates":[[[-73.9523110662621,40.7645625570266],[-73.953367034353,40.7633764390631],[-73.9544196957687,40.7621923728338],[-73.9557376517377,40.7610326604571],[-73.9558736587615,40.7609129796969],[-73.9563106118287,40.7605166350426],[-73.9563276763669,40.760529984783],[-73.9563451222062,40.7605377424832],[-73.956546276997,40.7606215382568],[-73.9566015037597,40.7606434324274],[-73.9566414998946,40.7606610792523],[-73.9567069225792,40.7606889766464],[-73.957081172463,40.7608635803167],[-73.9573616202245,40.7609744234188],[-73.9578181363963,40.7611548628903],[-73.957902772991,40.7611891647846],[-73.9583433564234,40.7613715835373],[-73.9591502708038,40.7617070007717],[-73.9601393138538,40.7621139205791],[-73.9596958345772,40.7627478377364],[-73.959220233549,40.762547926633],[-73.9574422895543,40.7617972264464],[-73.9569849640569,40.7624253652016],[-73.9565274882232,40.7630518738461],[-73.9560838516051,40.7636746651467],[-73.9556177853192,40.7642985538952],[-73.9544971397856,40.7638374088753],[-73.9536100982329,40.7634777995165],[-73.9535654976402,40.7634576104346],[-73.9534332263943,40.7635988004226],[-73.9529213567346,40.7641545692259],[-73.9524980523209,40.7646141695632],[-73.9524419284658,40.7645927955818],[-73.9523717266975,40.7645765737063],[-73.9523110662621,40.7645625570266]]]}},{"type":"Feature","properties":{"e":"76012"},"geometry":{"type":"Polygon","coordinates":[[[-73.9565274882232,40.7630518738461],[-73.9569849640569,40.7624253652016],[-73.9574422895543,40.7617972264464],[-73.959220233549,40.762547926633],[-73.9596958345772,40.7627478377364],[-73.9592405246944,40.7633744260565],[-73.9587822479928,40.7639982853135],[-73.9565274882232,40.7630518738461]]]}},{"type":"Feature","properties":{"e":"76013"},"geometry":{"type":"Polygon","coordinates":[[[-73.9583227766868,40.7646248978928],[-73.9560838516051,40.7636746651467],[-73.9565274882232,40.7630518738461],[-73.9587822479928,40.7639982853135],[-73.9592405246944,40.7633744260565],[-73.9616089778777,40.7643744297225],[-73.9611500666769,40.7649957141714],[-73.960690894689,40.7656221205925],[-73.9583227766868,40.7646248978928]]]}},{"type":"Feature","properties":{"e":"76014"},"geometry":{"type":"Polygon","coordinates":[[[-73.9569575065979,40.7665017047074],[-73.9574134609708,40.765877022649],[-73.9578701775286,40.7652505933916],[-73.9583227766868,40.7646248978928],[-73.960690894689,40.7656221205925],[-73.9602345450323,40.7662484441823],[-73.9597778423119,40.7668763693424],[-73.9589228292788,40.7669292899548],[-73.9575766098525,40.7663590124037],[-73.9574439464146,40.7665399961668],[-73.9569575065979,40.7665017047074]]]}},{"type":"Feature","properties":{"e":"76015"},"geometry":{"type":"Polygon","coordinates":[[[-73.9524980523209,40.7646141695632],[-73.9529213567346,40.7641545692259],[-73.9534332263943,40.7635988004226],[-73.9535654976402,40.7634576104346],[-73.9536100982329,40.7634777995165],[-73.9544971397856,40.7638374088753],[-73.9556177853192,40.7642985538952],[-73.9560838516051,40.7636746651467],[-73.9583227766868,40.7646248978928],[-73.9578701775286,40.7652505933916],[-73.9574134609708,40.765877022649],[-73.9569575065979,40.7665017047074],[-73.9564970774723,40.7671271841577],[-73.9542495335342,40.7661736345731],[-73.9547022861137,40.7655536357353],[-73.9526411228551,40.7646820817714],[-73.9525743093204,40.7646533733688],[-73.9524980523209,40.7646141695632]]]}},{"type":"Feature","properties":{"e":"76016"},"geometry":{"type":"Polygon","coordinates":[[[-73.9500712275747,40.7670333573664],[-73.9506648855766,40.7663889801852],[-73.9512264108427,40.7657794676703],[-73.9517662433172,40.7651719804022],[-73.9523110662621,40.7645625570266],[-73.9523717266975,40.7645765737063],[-73.9524419284658,40.7645927955818],[-73.9524980523209,40.7646141695632],[-73.9525743093204,40.7646533733688],[-73.9526411228551,40.7646820817714],[-73.9547022861137,40.7655536357353],[-73.9542495335342,40.7661736345731],[-73.9564970774723,40.7671271841577],[-73.9555131293801,40.7671270027867],[-73.9544924206835,40.7666963263551],[-73.9537503913167,40.7668606539229],[-73.9518410977202,40.7660527528725],[-73.9517203765677,40.7660013505086],[-73.9515893868235,40.7659455756368],[-73.9515449272738,40.7659266456336],[-73.9514416455835,40.7658814236341],[-73.9513879170385,40.7658557097277],[-73.9508532631303,40.7664780007882],[-73.9504147466787,40.7670739197911],[-73.9503488333694,40.7671539467663],[-73.9502827139844,40.7671305226147],[-73.9502158035773,40.767099782234],[-73.9500712275747,40.7670333573664]]]}},{"type":"Feature","properties":{"e":"76017"},"geometry":{"type":"Polygon","coordinates":[[[-73.9564970774723,40.7671271841577],[-73.9569575065979,40.7665017047074],[-73.9574439464146,40.7665399961668],[-73.9575766098525,40.7663590124037],[-73.9589228292788,40.7669292899548],[-73.9597778423119,40.7668763693424],[-73.9593211357959,40.7675025398136],[-73.9588633838518,40.7681281795022],[-73.9564970774723,40.7671271841577]]]}},{"type":"Feature","properties":{"e":"76018"},"geometry":{"type":"Polygon","coordinates":[[[-73.956000522968,40.767812161604],[-73.9564970774723,40.7671271841577],[-73.9588633838518,40.7681281795022],[-73.958366769172,40.7688060026128],[-73.9579356395029,40.7686300634934],[-73.956000522968,40.767812161604]]]}},{"type":"Feature","properties":{"e":"76019"},"geometry":{"type":"Polygon","coordinates":[[[-73.9532519880299,40.7675438182523],[-73.9537503913167,40.7668606539229],[-73.9544924206835,40.7666963263551],[-73.9555131293801,40.7671270027867],[-73.9564970774723,40.7671271841577],[-73.956000522968,40.767812161604],[-73.9552167909952,40.7679548311335],[-73.9541155077363,40.767491525096],[-73.9532519880299,40.7675438182523]]]}},{"type":"Feature","properties":{"e":"76020"},"geometry":{"type":"Polygon","coordinates":[[[-73.9503488333694,40.7671539467663],[-73.9504147466787,40.7670739197911],[-73.9508532631303,40.7664780007882],[-73.9513879170385,40.7658557097277],[-73.9514416455835,40.7658814236341],[-73.9515449272738,40.7659266456336],[-73.9515893868235,40.7659455756368],[-73.9517203765677,40.7660013505086],[-73.9518410977202,40.7660527528725],[-73.9537503913167,40.7668606539229],[-73.9532519880299,40.7675438182523],[-73.9527889044334,40.7681786737205],[-73.952321939017,40.7688146696977],[-73.9518596555882,40.7694487019459],[-73.9495219243731,40.7684693940039],[-73.9493669895407,40.7684044722976],[-73.9493182557387,40.7683830188047],[-73.9494885518524,40.7681505469498],[-73.9496375509683,40.7679494308678],[-73.9498153856517,40.7677535767367],[-73.9503488333694,40.7671539467663]]]}},{"type":"Feature","properties":{"e":"76021"},"geometry":{"type":"Polygon","coordinates":[[[-73.9476668176708,40.7702015228168],[-73.9476159628459,40.7701786991294],[-73.9475240121357,40.7701379654718],[-73.9474911878075,40.7701234236971],[-73.9480877674616,40.7694830627506],[-73.948665598323,40.7688658932876],[-73.9490868013301,40.7682865400583],[-73.9493747550269,40.7678904602294],[-73.9495805544764,40.7676371992977],[-73.9500712275747,40.7670333573664],[-73.9502158035773,40.767099782234],[-73.9502827139844,40.7671305226147],[-73.9503488333694,40.7671539467663],[-73.9498153856517,40.7677535767367],[-73.9496375509683,40.7679494308678],[-73.9494885518524,40.7681505469498],[-73.9493182557387,40.7683830188047],[-73.9493669895407,40.7684044722976],[-73.9495219243731,40.7684693940039],[-73.9518596555882,40.7694487019459],[-73.9513997216414,40.7700808159426],[-73.9509340082431,40.7707169322975],[-73.9494560099231,40.7700935233355],[-73.9493601045709,40.7700526049626],[-73.9483999603288,40.7696429474331],[-73.9483037423372,40.7696036511938],[-73.9482536711809,40.7695778830359],[-73.9476668176708,40.7702015228168]]]}},{"type":"Feature","properties":{"e":"76022"},"geometry":{"type":"Polygon","coordinates":[[[-73.9555031437391,40.7684930117079],[-73.9532519880299,40.7675438182523],[-73.9541155077363,40.767491525096],[-73.9552167909952,40.7679548311335],[-73.956000522968,40.767812161604],[-73.9579356395029,40.7686300634934],[-73.958366769172,40.7688060026128],[-73.957868229236,40.7694923173711],[-73.9555031437391,40.7684930117079]]]}},{"type":"Feature","properties":{"e":"76023"},"geometry":{"type":"Polygon","coordinates":[[[-73.9545768442485,40.7697631260653],[-73.9550384408044,40.7691283360245],[-73.9555031437391,40.7684930117079],[-73.957868229236,40.7694923173711],[-73.9574058151471,40.7701285242781],[-73.9564501634211,40.7701389642494],[-73.9556802429468,40.7698008546743],[-73.9545768442485,40.7697631260653]]]}},{"type":"Feature","properties":{"e":"76024"},"geometry":{"type":"Polygon","coordinates":[[[-73.952321939017,40.7688146696977],[-73.9527889044334,40.7681786737205],[-73.9532519880299,40.7675438182523],[-73.9555031437391,40.7684930117079],[-73.9550384408044,40.7691283360245],[-73.9545768442485,40.7697631260653],[-73.952321939017,40.7688146696977]]]}},{"type":"Feature","properties":{"e":"76025"},"geometry":{"type":"Polygon","coordinates":[[[-73.9513997216414,40.7700808159426],[-73.9518596555882,40.7694487019459],[-73.952321939017,40.7688146696977],[-73.9545768442485,40.7697631260653],[-73.9541138882978,40.7703973482597],[-73.9538629810396,40.7707408505574],[-73.9536500355955,40.771032377828],[-73.9513997216414,40.7700808159426]]]}},{"type":"Feature","properties":{"e":"76026"},"geometry":{"type":"Polygon","coordinates":[[[-73.9545768442485,40.7697631260653],[-73.9556802429468,40.7698008546743],[-73.9564501634211,40.7701389642494],[-73.9574058151471,40.7701285242781],[-73.9569425653177,40.7707615312303],[-73.9564804547925,40.7713954656231],[-73.9552213792629,40.7708644512962],[-73.9554511270157,40.7705441973],[-73.9550453978276,40.7703829795527],[-73.9549069043704,40.7702987040903],[-73.9548383839763,40.7702570082623],[-73.9550473883563,40.769961716946],[-73.9545768442485,40.7697631260653]]]}},{"type":"Feature","properties":{"e":"76027"},"geometry":{"type":"Polygon","coordinates":[[[-73.9536500355955,40.771032377828],[-73.9538629810396,40.7707408505574],[-73.9541138882978,40.7703973482597],[-73.9545768442485,40.7697631260653],[-73.9550473883563,40.769961716946],[-73.9548383839763,40.7702570082623],[-73.9549069043704,40.7702987040903],[-73.9550453978276,40.7703829795527],[-73.9554511270157,40.7705441973],[-73.9552213792629,40.7708644512962],[-73.9564804547925,40.7713954656231],[-73.9562524861971,40.7717063879454],[-73.9560165123361,40.7720282258997],[-73.9536500355955,40.771032377828]]]}},{"type":"Feature","properties":{"e":"76028"},"geometry":{"type":"Polygon","coordinates":[[[-73.9531889115793,40.7716651635799],[-73.9524263013274,40.7717531984021],[-73.9511623207798,40.7712217034867],[-73.950433189839,40.7713980013622],[-73.9509340082431,40.7707169322975],[-73.9513997216414,40.7700808159426],[-73.9536500355955,40.771032377828],[-73.9560165123361,40.7720282258997],[-73.955554680024,40.7726623453734],[-73.9531889115793,40.7716651635799]]]}},{"type":"Feature","properties":{"e":"76029"},"geometry":{"type":"Polygon","coordinates":[[[-73.9526889596325,40.7723512909146],[-73.9531889115793,40.7716651635799],[-73.955554680024,40.7726623453734],[-73.9550562520926,40.7733451212194],[-73.9526889596325,40.7723512909146]]]}},{"type":"Feature","properties":{"e":"76030"},"geometry":{"type":"Polygon","coordinates":[[[-73.9499384865689,40.772081910066],[-73.950433189839,40.7713980013622],[-73.9511623207798,40.7712217034867],[-73.9524263013274,40.7717531984021],[-73.9531889115793,40.7716651635799],[-73.9526889596325,40.7723512909146],[-73.9521876545653,40.7730281145986],[-73.9517301444222,40.7728356493686],[-73.9499384865689,40.772081910066]]]}},{"type":"Feature","properties":{"e":"76031"},"geometry":{"type":"Polygon","coordinates":[[[-73.9521876545653,40.7730281145986],[-73.9526889596325,40.7723512909146],[-73.9550562520926,40.7733451212194],[-73.954558844178,40.7740294651276],[-73.9538275663328,40.773720679445],[-73.9532294690313,40.7734680968071],[-73.9531944934366,40.7734533257798],[-73.9521876545653,40.7730281145986]]]}},{"type":"Feature","properties":{"e":"76032"},"geometry":{"type":"Polygon","coordinates":[[[-73.954558844178,40.7740294651276],[-73.9550562520926,40.7733451212194],[-73.9572955370761,40.7742918252254],[-73.9567989273445,40.7749745809693],[-73.9565853101116,40.7752675871169],[-73.9561124360969,40.7750662703001],[-73.9560924361551,40.7750932709811],[-73.9548534357864,40.7745742705092],[-73.9546674739404,40.7741613892315],[-73.954558844178,40.7740294651276]]]}},{"type":"Feature","properties":{"e":"76033"},"geometry":{"type":"Polygon","coordinates":[[[-73.9536290610406,40.7752989435982],[-73.9540940922337,40.7746645281229],[-73.954558844178,40.7740294651276],[-73.9546674739404,40.7741613892315],[-73.9548534357864,40.7745742705092],[-73.9560924361551,40.7750932709811],[-73.9561124360969,40.7750662703001],[-73.9565853101116,40.7752675871169],[-73.9563363596655,40.7756090538221],[-73.9558707731213,40.7762444969275],[-73.9536290610406,40.7752989435982]]]}},{"type":"Feature","properties":{"e":"76034"},"geometry":{"type":"Polygon","coordinates":[[[-73.951263168931,40.7743002113904],[-73.9517248175226,40.7736648021414],[-73.9518190505558,40.7735351746038],[-73.9521876545653,40.7730281145986],[-73.9531944934366,40.7734533257798],[-73.9532294690313,40.7734680968071],[-73.9538275663328,40.773720679445],[-73.954558844178,40.7740294651276],[-73.9540940922337,40.7746645281229],[-73.9536290610406,40.7752989435982],[-73.951263168931,40.7743002113904]]]}},{"type":"Feature","properties":{"e":"76035"},"geometry":{"type":"Polygon","coordinates":[[[-73.9498226371067,40.7736923531315],[-73.9502786288779,40.7730542463032],[-73.9494776741737,40.7727160863913],[-73.9499384865689,40.772081910066],[-73.9517301444222,40.7728356493686],[-73.9521876545653,40.7730281145986],[-73.9518190505558,40.7735351746038],[-73.9517248175226,40.7736648021414],[-73.951263168931,40.7743002113904],[-73.9498226371067,40.7736923531315]]]}},{"type":"Feature","properties":{"e":"76036"},"geometry":{"type":"Polygon","coordinates":[[[-73.9531672670642,40.7759314684321],[-73.95079978199,40.7749360391498],[-73.951263168931,40.7743002113904],[-73.9536290610406,40.7752989435982],[-73.9558707731213,40.7762444969275],[-73.9554087338061,40.7768767511215],[-73.9531672670642,40.7759314684321]]]}},{"type":"Feature","properties":{"e":"76037"},"geometry":{"type":"Polygon","coordinates":[[[-73.9503399996778,40.7755714798929],[-73.948084640734,40.7746196179195],[-73.9485512836903,40.7739855388948],[-73.95079978199,40.7749360391498],[-73.9531672670642,40.7759314684321],[-73.9527056506754,40.7765696829428],[-73.9503399996778,40.7755714798929]]]}},{"type":"Feature","properties":{"e":"76038"},"geometry":{"type":"Polygon","coordinates":[[[-73.9476668176708,40.7702015228168],[-73.9482536711809,40.7695778830359],[-73.9483037423372,40.7696036511938],[-73.9483999603288,40.7696429474331],[-73.9493601045709,40.7700526049626],[-73.9494560099231,40.7700935233355],[-73.9509340082431,40.7707169322975],[-73.950433189839,40.7713980013622],[-73.9482261552761,40.7704663415807],[-73.948075312895,40.7704026643777],[-73.9477952882673,40.7702574217553],[-73.9477176842155,40.7702243382781],[-73.9476668176708,40.7702015228168]]]}},{"type":"Feature","properties":{"e":"76039"},"geometry":{"type":"Polygon","coordinates":[[[-73.9476668176708,40.7702015228168],[-73.9477176842155,40.7702243382781],[-73.9477952882673,40.7702574217553],[-73.948075312895,40.7704026643777],[-73.9482261552761,40.7704663415807],[-73.950433189839,40.7713980013622],[-73.9499384865689,40.772081910066],[-73.9475850079123,40.7710878781343],[-73.9472960423809,40.7709525996984],[-73.947216286638,40.7709142648166],[-73.9471151463806,40.7708668519029],[-73.9470609664057,40.7708391901487],[-73.9476668176708,40.7702015228168]]]}},{"type":"Feature","properties":{"e":"76040"},"geometry":{"type":"Polygon","coordinates":[[[-73.9482332820698,40.7730224393001],[-73.9484669596278,40.7727066926109],[-73.9486911274536,40.7723842056649],[-73.9471195616303,40.7717210619923],[-73.9482125374693,40.771769849335],[-73.9492419243066,40.7722042716169],[-73.9499384865689,40.772081910066],[-73.9494776741737,40.7727160863913],[-73.9502786288779,40.7730542463032],[-73.9498226371067,40.7736923531315],[-73.9490114635259,40.773350052037],[-73.9482332820698,40.7730224393001]]]}},{"type":"Feature","properties":{"e":"76041"},"geometry":{"type":"Polygon","coordinates":[[[-73.9474911878075,40.7701234236971],[-73.9475240121357,40.7701379654718],[-73.9476159628459,40.7701786991294],[-73.9476668176708,40.7702015228168],[-73.9470609664057,40.7708391901487],[-73.9471151463806,40.7708668519029],[-73.947216286638,40.7709142648166],[-73.9472960423809,40.7709525996984],[-73.9475850079123,40.7710878781343],[-73.9499384865689,40.772081910066],[-73.9492419243066,40.7722042716169],[-73.9482125374693,40.771769849335],[-73.9471195616303,40.7717210619923],[-73.9486911274536,40.7723842056649],[-73.9484669596278,40.7727066926109],[-73.9482332820698,40.7730224393001],[-73.9466577028434,40.7723590994621],[-73.945840194682,40.7720236127624],[-73.9457876800815,40.7720020578414],[-73.9457413936225,40.7719830616002],[-73.9456776176211,40.7720253290923],[-73.9450330435606,40.7724971664044],[-73.9444657157262,40.7730756474467],[-73.9443653674919,40.7731168096688],[-73.9448803285232,40.7725778322573],[-73.9456165728791,40.7719512966892],[-73.9464056221566,40.7712773155612],[-73.9469090744325,40.7707421815432],[-73.9474911878075,40.7701234236971]]]}},{"type":"Feature","properties":{"e":"76042"},"geometry":{"type":"Polygon","coordinates":[[[-73.9485512836903,40.7739855388948],[-73.9461961699215,40.7729933341872],[-73.9466577028434,40.7723590994621],[-73.9482332820698,40.7730224393001],[-73.9490114635259,40.773350052037],[-73.9498226371067,40.7736923531315],[-73.951263168931,40.7743002113904],[-73.95079978199,40.7749360391498],[-73.9485512836903,40.7739855388948]]]}},{"type":"Feature","properties":{"e":"76043"},"geometry":{"type":"Polygon","coordinates":[[[-73.9457297313791,40.773629342646],[-73.9445746183574,40.7731201849632],[-73.9445328563478,40.7731017586629],[-73.944492515488,40.7730872837883],[-73.9444657157262,40.7730756474467],[-73.9450330435606,40.7724971664044],[-73.9456776176211,40.7720253290923],[-73.9457413936225,40.7719830616002],[-73.9457876800815,40.7720020578414],[-73.945840194682,40.7720236127624],[-73.9466577028434,40.7723590994621],[-73.9461961699215,40.7729933341872],[-73.9485512836903,40.7739855388948],[-73.948084640734,40.7746196179195],[-73.9457297313791,40.773629342646]]]}},{"type":"Feature","properties":{"e":"76044"},"geometry":{"type":"Polygon","coordinates":[[[-73.9443653674919,40.7731168096688],[-73.9444657157262,40.7730756474467],[-73.944492515488,40.7730872837883],[-73.9445328563478,40.7731017586629],[-73.9445746183574,40.7731201849632],[-73.9457297313791,40.773629342646],[-73.9452682229016,40.7742598243305],[-73.9476248692657,40.7752545258648],[-73.9473979451592,40.7755636805113],[-73.9471231170393,40.7759380934034],[-73.9468004894165,40.7763789843246],[-73.9466299287869,40.7766123415383],[-73.9442795405166,40.7756155971828],[-73.9438195668038,40.7762455027042],[-73.9437145226071,40.7763958339112],[-73.9433804971711,40.7768760461674],[-73.9429143878418,40.7775016805875],[-73.9428242812457,40.7774679118617],[-73.9427412988176,40.7774564784236],[-73.9426692729261,40.7774447285607],[-73.9425517826017,40.7774285458881],[-73.9424588426432,40.7774157446296],[-73.9422964940034,40.7773402337558],[-73.9422819324612,40.7773557095048],[-73.9423211210723,40.7774607905624],[-73.9423647692035,40.7774552822169],[-73.942456889075,40.777756135682],[-73.9424299716245,40.7777610989175],[-73.9424263440395,40.7777505914144],[-73.9423914238049,40.7777555501398],[-73.9423608669236,40.7777621705446],[-73.9423637667749,40.7777732305198],[-73.9423368502683,40.7777770877308],[-73.942242545942,40.7774784454172],[-73.9422869258282,40.7774685141248],[-73.9422419373418,40.777342418096],[-73.9422572280484,40.7773247315483],[-73.9421212564966,40.7772638376755],[-73.942186802111,40.7771720800058],[-73.9423111391471,40.7772279911308],[-73.9422951153433,40.777251207503],[-73.9424354710153,40.7773087327478],[-73.9424310774144,40.7772972202111],[-73.9423393259411,40.7772571724325],[-73.9423861034555,40.77717936834],[-73.9423302612353,40.7771634874574],[-73.9422776592674,40.7771421506453],[-73.9422292151525,40.7771157301093],[-73.9421857739577,40.7770846867366],[-73.942148093475,40.7770495620555],[-73.9421168310016,40.7770109687892],[-73.942092531875,40.7769695801661],[-73.9420756199599,40.7769261181764],[-73.9420040990766,40.7761935884412],[-73.942083036439,40.7759652873281],[-73.9424024414441,40.7757351984809],[-73.9425891283895,40.7752272273769],[-73.9429318698735,40.7746845387664],[-73.9433403796671,40.7742194632159],[-73.9436657503921,40.7738490347182],[-73.943962276029,40.7735386905621],[-73.9443653674919,40.7731168096688]]]}},{"type":"Feature","properties":{"e":"76045"},"geometry":{"type":"Polygon","coordinates":[[[-73.9433804971711,40.7768760461674],[-73.9437145226071,40.7763958339112],[-73.9438195668038,40.7762455027042],[-73.9442795405166,40.7756155971828],[-73.9466299287869,40.7766123415383],[-73.946171984998,40.7772396536065],[-73.9457164189722,40.7778692253405],[-73.9445961928107,40.7773949708425],[-73.9435144778026,40.7769366475951],[-73.9433804971711,40.7768760461674]]]}},{"type":"Feature","properties":{"e":"76046"},"geometry":{"type":"Polygon","coordinates":[[[-73.9436496681638,40.7826644336003],[-73.9438821138045,40.7815403154033],[-73.9438721926477,40.7812812990627],[-73.9437161211772,40.7806380878996],[-73.943601907361,40.7801673712463],[-73.9434402005516,40.7797715141771],[-73.9424656857054,40.7800407718393],[-73.9424498737077,40.7800427858037],[-73.9424338491376,40.7800424042631],[-73.9424182339468,40.7800396420259],[-73.9424036341979,40.7800346063012],[-73.9423906165415,40.7800274925375],[-73.9423796862229,40.7800185768366],[-73.9423712674727,40.7800082052379],[-73.9423656870408,40.7799967802872],[-73.9421216548087,40.7794808280704],[-73.9421142597611,40.7794618725967],[-73.9421159071501,40.7794421408514],[-73.9421263953177,40.7794240481196],[-73.9421444404435,40.7794098090591],[-73.9427311662299,40.7792655197922],[-73.9427232870084,40.7792351562712],[-73.9427189947489,40.7792043801259],[-73.9427183235262,40.779173435714],[-73.9427212786645,40.7791425687289],[-73.9427278366958,40.7791120242485],[-73.9427379455455,40.7790820447903],[-73.9427515249468,40.779052868385],[-73.9427684670776,40.7790247266869],[-73.9427886374977,40.7789978430844],[-73.9428118759805,40.7789724310826],[-73.9428379980148,40.7789486924467],[-73.9428667961953,40.7789268156553],[-73.9428980418695,40.7789069744046],[-73.942931486953,40.7788893262287],[-73.9429668658995,40.7788740112492],[-73.9430038978088,40.7788611510629],[-73.9426567396103,40.7781332369893],[-73.9424588426432,40.7774157446296],[-73.9425517826017,40.7774285458881],[-73.9426692729261,40.7774447285607],[-73.9427412988176,40.7774564784236],[-73.9428242812457,40.7774679118617],[-73.9429143878418,40.7775016805875],[-73.9433804971711,40.7768760461674],[-73.9435144778026,40.7769366475951],[-73.9445961928107,40.7773949708425],[-73.9457164189722,40.7778692253405],[-73.9463472352271,40.7781341815277],[-73.9465223926643,40.7782077500018],[-73.9466819950198,40.7782747143624],[-73.9479691158225,40.7788147373466],[-73.9476700108948,40.7788199305627],[-73.9472822837507,40.7789338569387],[-73.9459656225514,40.778378909546],[-73.9457824664558,40.7786298044731],[-73.9452558348639,40.7784942520558],[-73.944776480065,40.779153344903],[-73.9443593276832,40.7797693639629],[-73.9441963630011,40.7801360621538],[-73.9442473542546,40.7805153303725],[-73.944475769656,40.7814788710191],[-73.9444877299683,40.7816272056006],[-73.9444880422226,40.7818358365005],[-73.9444719435612,40.7820435453019],[-73.9444397027511,40.7822492262924],[-73.9443986304516,40.7823898830629],[-73.9443434748895,40.7825283804819],[-73.9443330916669,40.7825487452107],[-73.9443242866134,40.7825660206957],[-73.9442745902902,40.7826635034719],[-73.9442615178533,40.7826843076527],[-73.9442236762241,40.782744578035],[-73.9441925719569,40.7827940906758],[-73.9441818623522,40.7828082779023],[-73.9440982366365,40.7829190620912],[-73.9440558273859,40.7829726303593],[-73.9439560345186,40.7829237924609],[-73.9438946789255,40.7828959996363],[-73.9438339996053,40.7828673617755],[-73.9437614862259,40.7828372045169],[-73.9436750156339,40.7827248960089],[-73.9436496681638,40.7826644336003]]]}},{"type":"Feature","properties":{"e":"76047"},"geometry":{"type":"Polygon","coordinates":[[[-73.9522413874564,40.7772018685574],[-73.9527056506754,40.7765696829428],[-73.9531672670642,40.7759314684321],[-73.9554087338061,40.7768767511215],[-73.9549466368221,40.7775122180295],[-73.9544836771206,40.7781469360248],[-73.9522413874564,40.7772018685574]]]}},{"type":"Feature","properties":{"e":"76048"},"geometry":{"type":"Polygon","coordinates":[[[-73.9512493194393,40.7785591237954],[-73.9517438175468,40.7778825762949],[-73.9522413874564,40.7772018685574],[-73.9544836771206,40.7781469360248],[-73.9539851380667,40.7788303812727],[-73.953759722535,40.7791396844025],[-73.9532844223042,40.7789346370729],[-73.9532450761633,40.7789891276969],[-73.9520299644584,40.778473184325],[-73.951803941381,40.7787928595875],[-73.9512493194393,40.7785591237954]]]}},{"type":"Feature","properties":{"e":"76049"},"geometry":{"type":"Polygon","coordinates":[[[-73.9507937266036,40.7791879754871],[-73.9512493194393,40.7785591237954],[-73.951803941381,40.7787928595875],[-73.9520299644584,40.778473184325],[-73.9532450761633,40.7789891276969],[-73.9532844223042,40.7789346370729],[-73.953759722535,40.7791396844025],[-73.9537153693389,40.7792005431634],[-73.9534935595684,40.7795048939798],[-73.9530351151445,40.7801337264814],[-73.9524620143737,40.7798919151604],[-73.9507937266036,40.7791879754871]]]}},{"type":"Feature","properties":{"e":"76050"},"geometry":{"type":"Polygon","coordinates":[[[-73.9476248692657,40.7752545258648],[-73.9452682229016,40.7742598243305],[-73.9457297313791,40.773629342646],[-73.948084640734,40.7746196179195],[-73.9503399996778,40.7755714798929],[-73.949874801616,40.7762047613402],[-73.9494666877792,40.7760324265025],[-73.9476248692657,40.7752545258648]]]}},{"type":"Feature","properties":{"e":"76051"},"geometry":{"type":"Polygon","coordinates":[[[-73.9471231170393,40.7759380934034],[-73.9473979451592,40.7755636805113],[-73.9476248692657,40.7752545258648],[-73.9494666877792,40.7760324265025],[-73.949874801616,40.7762047613402],[-73.9493758221412,40.7768843736221],[-73.9489649650784,40.776711751028],[-73.9478583532984,40.7762469320366],[-73.9476337308607,40.7761525798217],[-73.9471231170393,40.7759380934034]]]}},{"type":"Feature","properties":{"e":"76052"},"geometry":{"type":"Polygon","coordinates":[[[-73.9488818543086,40.777561556279],[-73.9493758221412,40.7768843736221],[-73.949874801616,40.7762047613402],[-73.9503399996778,40.7755714798929],[-73.9527056506754,40.7765696829428],[-73.9522413874564,40.7772018685574],[-73.9517438175468,40.7778825762949],[-73.9506196764143,40.7774087174712],[-73.9503112921771,40.7772787203292],[-73.9500435238021,40.7776415006106],[-73.9495008726151,40.7774123914462],[-73.9493651744203,40.7775995201865],[-73.9492129555074,40.7775352669863],[-73.9488818543086,40.777561556279]]]}},{"type":"Feature","properties":{"e":"76053"},"geometry":{"type":"Polygon","coordinates":[[[-73.946171984998,40.7772396536065],[-73.9466299287869,40.7766123415383],[-73.9468004894165,40.7763789843246],[-73.9471231170393,40.7759380934034],[-73.9476337308607,40.7761525798217],[-73.9478583532984,40.7762469320366],[-73.9489649650784,40.776711751028],[-73.9493758221412,40.7768843736221],[-73.9488818543086,40.777561556279],[-73.9484241598766,40.7781909122429],[-73.9467896965154,40.7775005654204],[-73.946171984998,40.7772396536065]]]}},{"type":"Feature","properties":{"e":"76054"},"geometry":{"type":"Polygon","coordinates":[[[-73.9484241598766,40.7781909122429],[-73.9488818543086,40.777561556279],[-73.9492129555074,40.7775352669863],[-73.9493651744203,40.7775995201865],[-73.9495008726151,40.7774123914462],[-73.9500435238021,40.7776415006106],[-73.9503112921771,40.7772787203292],[-73.9506196764143,40.7774087174712],[-73.9517438175468,40.7778825762949],[-73.9512493194393,40.7785591237954],[-73.9507937266036,40.7791879754871],[-73.9499175142955,40.7788192933362],[-73.9498233720394,40.7787796810303],[-73.9484241598766,40.7781909122429]]]}},{"type":"Feature","properties":{"e":"76055"},"geometry":{"type":"Polygon","coordinates":[[[-73.9475096149335,40.7794453941084],[-73.9479691158225,40.7788147373466],[-73.9484241598766,40.7781909122429],[-73.9498233720394,40.7787796810303],[-73.9499175142955,40.7788192933362],[-73.9507937266036,40.7791879754871],[-73.9503377331459,40.7798182399005],[-73.9498822430087,40.7804441165214],[-73.9475096149335,40.7794453941084]]]}},{"type":"Feature","properties":{"e":"76056"},"geometry":{"type":"Polygon","coordinates":[[[-73.9465920254,40.780700245353],[-73.9470506528605,40.7800726183082],[-73.9475096149335,40.7794453941084],[-73.9498822430087,40.7804441165214],[-73.9496800607847,40.7807182462304],[-73.9496152884103,40.7808060670776],[-73.9494229923255,40.7810672087139],[-73.9489632052511,40.7816971490633],[-73.9465920254,40.780700245353]]]}},{"type":"Feature","properties":{"e":"76057"},"geometry":{"type":"Polygon","coordinates":[[[-73.9457164189722,40.7778692253405],[-73.946171984998,40.7772396536065],[-73.9467896965154,40.7775005654204],[-73.9484241598766,40.7781909122429],[-73.9479691158225,40.7788147373466],[-73.9466819950198,40.7782747143624],[-73.9465223926643,40.7782077500018],[-73.9463472352271,40.7781341815277],[-73.9457164189722,40.7778692253405]]]}},{"type":"Feature","properties":{"e":"76058"},"geometry":{"type":"Polygon","coordinates":[[[-73.9443593276832,40.7797693639629],[-73.944776480065,40.779153344903],[-73.9452558348639,40.7784942520558],[-73.9457824664558,40.7786298044731],[-73.9459656225514,40.778378909546],[-73.9472822837507,40.7789338569387],[-73.9476700108948,40.7788199305627],[-73.9479691158225,40.7788147373466],[-73.9475096149335,40.7794453941084],[-73.9470506528605,40.7800726183082],[-73.9465920254,40.780700245353],[-73.946447715741,40.7806400873562],[-73.9463749388456,40.7806097488386],[-73.9455235518695,40.7802548262151],[-73.9454534547913,40.7802256034293],[-73.9450952356975,40.7800762666752],[-73.9443593276832,40.7797693639629]]]}},{"type":"Feature","properties":{"e":"76059"},"geometry":{"type":"Polygon","coordinates":[[[-73.9487793271876,40.7613228387753],[-73.9491488186342,40.7608894838015],[-73.949433188918,40.7605568850988],[-73.9497137003627,40.7603371850693],[-73.9500840605019,40.76005573808],[-73.9501329871037,40.7600808320346],[-73.95016943094,40.7600970428688],[-73.9504145318531,40.7599074099362],[-73.9506880074718,40.7595983674329],[-73.9515117036641,40.7602019433867],[-73.9516606014014,40.7603034214547],[-73.9518357341497,40.760368105527],[-73.9522538698964,40.7602906411989],[-73.9523077034478,40.7603719073647],[-73.9517447864433,40.7609980516399],[-73.951722233171,40.7613163326719],[-73.9516750037563,40.7614213620094],[-73.9516223740006,40.7615248964651],[-73.9515644254478,40.7616267755747],[-73.9515012478864,40.7617268414388],[-73.9514329391604,40.7618249391601],[-73.9513596051549,40.7619209165035],[-73.9512813595085,40.7620146247142],[-73.9511983234736,40.7621059185539],[-73.9499872095765,40.7615083202055],[-73.9498517422774,40.761641687141],[-73.9497288781888,40.761888210412],[-73.9488815400623,40.7613866770255],[-73.9488153706176,40.7613464898491],[-73.9487793271876,40.7613228387753]]]}},{"type":"Feature","properties":{"e":"76060"},"geometry":{"type":"Polygon","coordinates":[[[-73.9523077034478,40.7603719073647],[-73.9522538698964,40.7602906411989],[-73.9518357341497,40.760368105527],[-73.9516606014014,40.7603034214547],[-73.9515117036641,40.7602019433867],[-73.9506880074718,40.7595983674329],[-73.9504145318531,40.7599074099362],[-73.95016943094,40.7600970428688],[-73.9501329871037,40.7600808320346],[-73.9500840605019,40.76005573808],[-73.9503350223386,40.7598650231241],[-73.9512614928536,40.7588183842072],[-73.9514876973216,40.7586747226491],[-73.9517133380002,40.7584707614503],[-73.9517796541675,40.7584108171119],[-73.9520937642093,40.7580014079912],[-73.9521780682375,40.7578396035491],[-73.9522128974169,40.7575919073949],[-73.952542227441,40.7571035819921],[-73.9531229996857,40.7565320716471],[-73.9532215338814,40.7564351086152],[-73.9532703203725,40.7563893108902],[-73.9533083946311,40.7563525939059],[-73.9533469995726,40.7563196424382],[-73.9534072648189,40.7562667986353],[-73.9540967118464,40.7556631955612],[-73.9550747040263,40.7548069489686],[-73.9551964666179,40.754782789881],[-73.9557955879748,40.7541698141753],[-73.9569254789332,40.7529694263832],[-73.9572114706155,40.7527236232652],[-73.9579159610846,40.7521181203133],[-73.9586089932477,40.7516215901557],[-73.9586863901413,40.7515820430775],[-73.9590339219008,40.7513946883781],[-73.9590290102241,40.7513056354406],[-73.9595601959089,40.7508228632387],[-73.9599033068532,40.7505667807679],[-73.9603931418984,40.7502644514552],[-73.9608143055706,40.7499088821924],[-73.9608390743923,40.7498887146829],[-73.9608566618531,40.7498645765436],[-73.9608728842834,40.7498427542896],[-73.9608924911491,40.7498226029091],[-73.9609151886465,40.7498044243622],[-73.9609406366609,40.7497884910467],[-73.9609641816083,40.7497731417747],[-73.9609910706215,40.749761391986],[-73.961020364702,40.7497536519974],[-73.9610510408646,40.7497501920988],[-73.9610820278611,40.7497511331138],[-73.9611122435885,40.7497564421811],[-73.9611406328772,40.7497659339018],[-73.961166204338,40.7497792768134],[-73.9613298912439,40.7496092228013],[-73.9615399918137,40.7497313850341],[-73.9613879981829,40.749888768568],[-73.9614105354944,40.7499080113189],[-73.961428463588,40.7499298780684],[-73.9614412648366,40.7499537374767],[-73.9614485696351,40.7499789006712],[-73.9614444516557,40.7500012076358],[-73.9614350219589,40.7500225613613],[-73.961420600678,40.7500422368886],[-73.9614016774117,40.7500595662332],[-73.9613729900097,40.7500787344482],[-73.9613509568302,40.7501024540141],[-73.9611120385038,40.7506087352811],[-73.9606870159061,40.7512102029833],[-73.9600127601057,40.7518397829948],[-73.9598920543716,40.7521057438415],[-73.9595730021228,40.7528129822684],[-73.9595022360023,40.7529646480936],[-73.9590176028705,40.7536033259975],[-73.9589281471137,40.7535707583981],[-73.9584598044952,40.753957502634],[-73.9576821641821,40.7548302274926],[-73.9568962049829,40.7557122623537],[-73.9564649236653,40.756196249183],[-73.9559870699152,40.7567324920642],[-73.9556565667113,40.7571033730714],[-73.9555942977928,40.7572310670438],[-73.9555686827175,40.7572659335642],[-73.9555360788142,40.7573043013549],[-73.9555056902812,40.7573417229675],[-73.9554504765359,40.7574038224406],[-73.9553433731781,40.7575294025058],[-73.9549954955936,40.7579372866869],[-73.9539093858296,40.7592091421673],[-73.9538443833842,40.7592472127141],[-73.9537828913686,40.7593313500759],[-73.9537490404512,40.7593722057826],[-73.9536638533446,40.7594880014935],[-73.9536141571273,40.7595104164],[-73.9533246506632,40.7597542321312],[-73.9533928418481,40.7598050303116],[-73.9531259501493,40.7600610259406],[-73.9529793165472,40.7599703753751],[-73.9524860133789,40.7604683781283],[-73.9524546255746,40.760449685538],[-73.9523077034478,40.7603719073647]]]}},{"type":"Feature","properties":{"e":"76061"},"geometry":{"type":"Polygon","coordinates":[[[-73.9466228466733,40.7638710405655],[-73.9466552981389,40.7638881779077],[-73.9470279191048,40.7634497167722],[-73.9470598099248,40.7634638355982],[-73.9470989518685,40.7634168701179],[-73.9470686327652,40.763401807849],[-73.9471771057166,40.7632741672582],[-73.9472510199788,40.7633107852486],[-73.9480550208897,40.7637234730067],[-73.9484483398642,40.763483107027],[-73.9491382639173,40.7640472283739],[-73.9498326962886,40.7635941374232],[-73.949924522814,40.763633414098],[-73.9499733511493,40.7636542986418],[-73.9492051936662,40.7642779123065],[-73.9490877213161,40.7642722957517],[-73.9488145864981,40.7646190230229],[-73.9477025231909,40.7660306666973],[-73.9465541723692,40.7673764742376],[-73.9459160216799,40.7682222083798],[-73.9458525559365,40.7682560196056],[-73.9458459468457,40.7683294981386],[-73.9457550459132,40.768309940811],[-73.9457050059107,40.7683362037027],[-73.9455980178963,40.7684791344277],[-73.9454825754027,40.7686330488946],[-73.9456286434953,40.7687012226438],[-73.9455644530343,40.7688100455156],[-73.9454063516532,40.7687404425193],[-73.9453835142762,40.7687714725351],[-73.9452465365178,40.7687815378048],[-73.9451584746511,40.7691265873164],[-73.9450920903621,40.7692219904011],[-73.944724964541,40.7697423285845],[-73.9447262173125,40.7697945412454],[-73.9446743651571,40.7698282377724],[-73.9445630474674,40.7698946656633],[-73.9442715028493,40.7701488050506],[-73.9440056717012,40.7703022519861],[-73.9432055737272,40.7710006697489],[-73.9428185414276,40.7714191313003],[-73.942579734776,40.7717101273819],[-73.9421281781101,40.7720429707512],[-73.94137133884,40.7723174211497],[-73.9408885033814,40.7723807866299],[-73.940571006045,40.7726230298769],[-73.9402760409771,40.7729557078812],[-73.9401810291151,40.7729675860854],[-73.9400780885551,40.7729344573486],[-73.9400130042573,40.7728506315295],[-73.9401859432968,40.7725731772178],[-73.9402835103089,40.7723096773499],[-73.9402790989141,40.7717214124861],[-73.9402016487661,40.7711365757946],[-73.9402301348523,40.7708605322438],[-73.9402812892602,40.7706789815519],[-73.9403567657561,40.7705048443738],[-73.9408274840994,40.7699204266375],[-73.9411192183399,40.7694226783389],[-73.9412207729174,40.7693426128673],[-73.9412611850244,40.7693171496339],[-73.9418017593114,40.7690551962934],[-73.9425694929907,40.7685141752671],[-73.9428567178557,40.7683117643978],[-73.9432206676028,40.7679009132462],[-73.9438157057793,40.7672291812906],[-73.9442248635413,40.7666732470074],[-73.9448416986568,40.7658318973217],[-73.9462393120874,40.7642932831305],[-73.946573083374,40.7639258272606],[-73.9466228466733,40.7638710405655]]]}},{"type":"Feature","properties":{"e":"76062"},"geometry":{"type":"Polygon","coordinates":[[[-73.9466228466733,40.7638710405655],[-73.9468260349205,40.763625901664],[-73.9470902019972,40.7633071894446],[-73.9478841167918,40.7623739657393],[-73.9479312295537,40.7623185843946],[-73.9483260289213,40.7618544980317],[-73.9487793271876,40.7613228387753],[-73.9488153706176,40.7613464898491],[-73.9488815400623,40.7613866770255],[-73.9497288781888,40.761888210412],[-73.9498517422774,40.761641687141],[-73.9499872095765,40.7615083202055],[-73.9511983234736,40.7621059185539],[-73.9512813595085,40.7620146247142],[-73.9513596051549,40.7619209165035],[-73.9514329391604,40.7618249391601],[-73.9515012478864,40.7617268414388],[-73.9515644254478,40.7616267755747],[-73.9516223740006,40.7615248964651],[-73.9516750037563,40.7614213620094],[-73.951722233171,40.7613163326719],[-73.9517447864433,40.7609980516399],[-73.9523077034478,40.7603719073647],[-73.9524546255746,40.760449685538],[-73.9524860133789,40.7604683781283],[-73.9520877574815,40.7608704226133],[-73.9518781077562,40.7612538505864],[-73.9516264837969,40.7616871314875],[-73.9509733505024,40.7625027755721],[-73.9509387831717,40.7625787633182],[-73.950732121663,40.7627664935581],[-73.9503769144919,40.763182113296],[-73.9499733511493,40.7636542986418],[-73.949924522814,40.763633414098],[-73.9498326962886,40.7635941374232],[-73.9491382639173,40.7640472283739],[-73.9484483398642,40.763483107027],[-73.9480550208897,40.7637234730067],[-73.9472510199788,40.7633107852486],[-73.9471771057166,40.7632741672582],[-73.9470686327652,40.763401807849],[-73.9470989518685,40.7634168701179],[-73.9470598099248,40.7634638355982],[-73.9470279191048,40.7634497167722],[-73.9466552981389,40.7638881779077],[-73.9466228466733,40.7638710405655]]]}}]}