{"type":"FeatureCollection","ad":78,"features":[{"type":"Feature","properties":{"e":"78001"},"geometry":{"type":"Polygon","coordinates":[[[-73.8848033525732,40.8493177469767],[-73.8844351213857,40.8490922637556],[-73.8837789755147,40.8486904716953],[-73.8832301940702,40.8483541655668],[-73.8831212430506,40.8482293795886],[-73.8831663104256,40.8480134332727],[-73.8832288372608,40.8477989717785],[-73.8833086705737,40.8475872160035],[-73.8834054441356,40.8473793467516],[-73.8835186414994,40.8471765453391],[-73.8836475293307,40.8469798968673],[-73.8837912127059,40.8467904350093],[-73.884466739776,40.8459940150446],[-73.885604590154,40.8465518429574],[-73.8866978930693,40.8470899038168],[-73.8877903859743,40.8476263681821],[-73.887113707085,40.8484237515714],[-73.8858156038054,40.8499390846409],[-73.8853620952588,40.8496607161879],[-73.8853058035914,40.8496261630992],[-73.8852130464425,40.8495692273919],[-73.8848033525732,40.8493177469767]]]}},{"type":"Feature","properties":{"e":"78002"},"geometry":{"type":"Polygon","coordinates":[[[-73.8864348767706,40.8503172346879],[-73.8858156038054,40.8499390846409],[-73.887113707085,40.8484237515714],[-73.8877903859743,40.8476263681821],[-73.8888382131017,40.8481426181311],[-73.8897970680257,40.8486163776595],[-73.8904605928925,40.8489408175755],[-73.8899013515538,40.8498779238191],[-73.8893330524571,40.8508404290056],[-73.8889539825784,40.8514490684064],[-73.8887838758659,40.8513494726012],[-73.8882411601274,40.8510436539907],[-73.88800681849,40.8509843897474],[-73.8877117177376,40.8509689723285],[-73.887358038905,40.8508821851966],[-73.8864348767706,40.8503172346879]]]}},{"type":"Feature","properties":{"e":"78003"},"geometry":{"type":"Polygon","coordinates":[[[-73.8816690182301,40.8533564885937],[-73.8819864942622,40.8522595435938],[-73.8820044080204,40.8521976462128],[-73.882144246081,40.8517038194309],[-73.8823239835713,40.8510690792939],[-73.8823797537837,40.8508704595438],[-73.8825588704564,40.850232545423],[-73.8826196518809,40.8485899558525],[-73.8828458729859,40.8478255140936],[-73.8831212430506,40.8482293795886],[-73.8832301940702,40.8483541655668],[-73.8837789755147,40.8486904716953],[-73.8844351213857,40.8490922637556],[-73.8848033525732,40.8493177469767],[-73.8844798861203,40.8500529182696],[-73.8842007877694,40.8507135457418],[-73.8838215139375,40.8515075797167],[-73.8832826405642,40.8525720025327],[-73.8832457998564,40.8526450271333],[-73.8832270194812,40.8526822533012],[-73.8830516512054,40.8530298622451],[-73.8830302220186,40.8530723378915],[-73.8829840930487,40.8531637721978],[-73.8829682310953,40.8531952120022],[-73.8827342706085,40.8536589526184],[-73.8816690182301,40.8533564885937]]]}},{"type":"Feature","properties":{"e":"78004"},"geometry":{"type":"Polygon","coordinates":[[[-73.8827342706085,40.8536589526184],[-73.8829682310953,40.8531952120022],[-73.8829840930487,40.8531637721978],[-73.8830302220186,40.8530723378915],[-73.8830516512054,40.8530298622451],[-73.8832270194812,40.8526822533012],[-73.8832457998564,40.8526450271333],[-73.8832826405642,40.8525720025327],[-73.8838215139375,40.8515075797167],[-73.8842007877694,40.8507135457418],[-73.8844798861203,40.8500529182696],[-73.8848033525732,40.8493177469767],[-73.8852130464425,40.8495692273919],[-73.8853058035914,40.8496261630992],[-73.8853620952588,40.8496607161879],[-73.8858156038054,40.8499390846409],[-73.8864348767706,40.8503172346879],[-73.8857691285517,40.8508439519148],[-73.8854527565596,40.8510490142674],[-73.8847167962881,40.8517670719223],[-73.8855447232702,40.8520065446666],[-73.8851919895213,40.8527080401334],[-73.8851767220766,40.8527384039931],[-73.8844619015617,40.8541599466081],[-73.8836297104153,40.8539173637249],[-73.8832687832683,40.8538132070595],[-73.8832029657358,40.853794212969],[-73.8827342706085,40.8536589526184]]]}},{"type":"Feature","properties":{"e":"78005"},"geometry":{"type":"Polygon","coordinates":[[[-73.8844619015617,40.8541599466081],[-73.8851767220766,40.8527384039931],[-73.8851919895213,40.8527080401334],[-73.8855447232702,40.8520065446666],[-73.8847167962881,40.8517670719223],[-73.8854527565596,40.8510490142674],[-73.8857691285517,40.8508439519148],[-73.8864348767706,40.8503172346879],[-73.887358038905,40.8508821851966],[-73.8877117177376,40.8509689723285],[-73.88800681849,40.8509843897474],[-73.8882411601274,40.8510436539907],[-73.8887838758659,40.8513494726012],[-73.8889539825784,40.8514490684064],[-73.8895197966697,40.8518110323488],[-73.8896318701304,40.8518942197472],[-73.8899717037894,40.8521115176808],[-73.8898859324454,40.8522300105202],[-73.8899028417408,40.8526717468621],[-73.8896347027644,40.8531821063858],[-73.8896112005405,40.8536301685853],[-73.8893810596845,40.8534704982687],[-73.8892636268608,40.8534420103106],[-73.8891389856704,40.853426951697],[-73.8890112596396,40.8534266126173],[-73.8888850029049,40.8534412510784],[-73.8887646519695,40.8534700938859],[-73.8886540285064,40.8535114195897],[-73.8881918372359,40.8536266053547],[-73.8875618152707,40.8537862075123],[-73.8868943523432,40.8539443115702],[-73.8864523811282,40.854049000766],[-73.8863683621968,40.8540700539805],[-73.886323132553,40.8540813877868],[-73.8856254828784,40.8542561985595],[-73.8853560326284,40.8543111765144],[-73.8851404767619,40.8543632976255],[-73.8844619015617,40.8541599466081]]]}},{"type":"Feature","properties":{"e":"78006"},"geometry":{"type":"Polygon","coordinates":[[[-73.8769570337833,40.8554288966755],[-73.8769495898454,40.8553824686487],[-73.8769678780593,40.8552438629692],[-73.8770216288204,40.8551857341752],[-73.8770619422711,40.8551421374377],[-73.8771561573127,40.8549589491653],[-73.8772354882092,40.8546016905644],[-73.8770363443504,40.8544802355219],[-73.8769158641838,40.8543630047617],[-73.8767617720632,40.8542915613514],[-73.8763596296219,40.8541943961303],[-73.8762832423835,40.8541630592101],[-73.8760945334551,40.8540856442624],[-73.8758370105637,40.8539799976108],[-73.8755825498584,40.8537964353049],[-73.875388286689,40.8536943998089],[-73.8752138149374,40.8537654901469],[-73.8751714192093,40.8537801871915],[-73.8750527815747,40.853821320482],[-73.8750258170676,40.8538976610674],[-73.8748380962884,40.853882183271],[-73.874771120156,40.8538413802576],[-73.874725306072,40.8536325665362],[-73.874168395878,40.8528600909856],[-73.8742150934406,40.8528022363832],[-73.874291526815,40.8527075432338],[-73.8744349965682,40.8525297953036],[-73.8748937572297,40.8517719703868],[-73.8752126932063,40.8512016171694],[-73.875227164718,40.8511731027131],[-73.8752551405349,40.8511151085684],[-73.8752755861819,40.8510553293588],[-73.8752883093655,40.8509943273747],[-73.8752931904313,40.8509326764068],[-73.8752901834894,40.8508709563485],[-73.8752793168454,40.8508097477415],[-73.8752606927323,40.8507496263152],[-73.8752344863493,40.8506911575715],[-73.8750681797689,40.8502918977637],[-73.8750557944999,40.8501995786565],[-73.8750517205698,40.8501524953598],[-73.8750505455945,40.8501053189826],[-73.8750522721297,40.850058152386],[-73.8750568964047,40.8500110984093],[-73.8750644083309,40.8499642596461],[-73.8750747915238,40.8499177382205],[-73.8750880233386,40.8498716355646],[-73.8751040749197,40.8498260521971],[-73.875229939806,40.8493842239595],[-73.8752643996371,40.8485765732876],[-73.8752816325588,40.8484792971817],[-73.8753033026158,40.8483825340455],[-73.8753293836604,40.8482864005496],[-73.8753598442271,40.8481910126049],[-73.8753946475699,40.848096485223],[-73.8754337517075,40.8480029323772],[-73.8754771094735,40.8479104668656],[-73.8755246685734,40.8478192001745],[-73.8758875228076,40.8471448188292],[-73.8760323524401,40.8468562701901],[-73.8761762922557,40.8465833443355],[-73.8761763706299,40.8465831939833],[-73.8761764357667,40.846583044287],[-73.8762990625225,40.8463030716197],[-73.8763995754841,40.8460173332403],[-73.8764773194157,40.8457275374139],[-73.876531916591,40.8454354121241],[-73.876531942035,40.8454352530037],[-73.8765319553664,40.8454350828138],[-73.8765633149695,40.8451420583137],[-73.8765794300164,40.8450874816503],[-73.8765981751895,40.8450333915632],[-73.87661952516,40.8449798611214],[-73.8766434510808,40.8449269626374],[-73.876669920625,40.8448747675698],[-73.87669889803,40.8448233464271],[-73.8767303441457,40.844772768672],[-73.8767642164873,40.8447231026277],[-73.8769654006976,40.8444643381549],[-73.8771619510616,40.8440934864127],[-73.8773002635559,40.8441309765197],[-73.8773404876232,40.8440000416426],[-73.8780089841167,40.8444925833657],[-73.8791955042481,40.8453300205092],[-73.880478788268,40.846203097819],[-73.8810572640885,40.8466027769798],[-73.8819997123033,40.8472435995499],[-73.8828458729859,40.8478255140936],[-73.8826196518809,40.8485899558525],[-73.8825588704564,40.850232545423],[-73.8823797537837,40.8508704595438],[-73.8823239835713,40.8510690792939],[-73.882144246081,40.8517038194309],[-73.8820044080204,40.8521976462128],[-73.8819864942622,40.8522595435938],[-73.8816690182301,40.8533564885937],[-73.8810350070679,40.8556082409598],[-73.8807318452972,40.856684894358],[-73.8807309581058,40.8568155638984],[-73.8807462107654,40.8569004366493],[-73.8807564744735,40.8569575496292],[-73.8807727393359,40.8570480505324],[-73.8807929698986,40.8571357977588],[-73.8807384686657,40.8571049797779],[-73.8806499981462,40.8570553343608],[-73.8793593459631,40.8563087279695],[-73.8786203287184,40.8558658649644],[-73.8784673032266,40.8557926837399],[-73.8783905914884,40.8557483066854],[-73.8780366549493,40.8555831569812],[-73.8776858816328,40.8554723633696],[-73.8773847992912,40.8554280016853],[-73.8770251668014,40.8554287542187],[-73.8769570337833,40.8554288966755]]]}},{"type":"Feature","properties":{"e":"78007"},"geometry":{"type":"Polygon","coordinates":[[[-73.8807309581058,40.8568155638984],[-73.8807318452972,40.856684894358],[-73.8810350070679,40.8556082409598],[-73.8816690182301,40.8533564885937],[-73.8827342706085,40.8536589526184],[-73.8832029657358,40.853794212969],[-73.8832687832683,40.8538132070595],[-73.8836297104153,40.8539173637249],[-73.8844619015617,40.8541599466081],[-73.8851404767619,40.8543632976255],[-73.8854224779462,40.8545064953411],[-73.8861883428632,40.8548785619981],[-73.8854350964441,40.855766602836],[-73.8846761370703,40.8553958342746],[-73.8838861315807,40.8563324724793],[-73.8837203798422,40.8562526406094],[-73.8836789211919,40.8562326727416],[-73.8834980873259,40.8561455766038],[-73.8834522418303,40.856123495104],[-73.883270999623,40.8560362010204],[-73.8831246512402,40.8561604231045],[-73.8831033833803,40.8561784759973],[-73.8830111162391,40.8562567931634],[-73.8825203663646,40.8561198339167],[-73.8818995447801,40.8573560074994],[-73.8808137720408,40.8568516681892],[-73.8807309581058,40.8568155638984]]]}},{"type":"Feature","properties":{"e":"78008"},"geometry":{"type":"Polygon","coordinates":[[[-73.8674877392348,40.8613538360398],[-73.8675101485018,40.8605124786062],[-73.8675144129295,40.8603523675206],[-73.8675251629801,40.8599487470429],[-73.8675385821892,40.8594449249813],[-73.8675955870686,40.8589965267564],[-73.8676360572195,40.858918041737],[-73.8677938728393,40.8585716681694],[-73.8678220778359,40.8585114399663],[-73.8681897187481,40.8580721239657],[-73.8684168101758,40.8577886477351],[-73.8688976412541,40.8577810625182],[-73.8695500946235,40.857734319221],[-73.870850288413,40.8572991066593],[-73.8708789551829,40.8572865136757],[-73.8708910394132,40.8572812063194],[-73.8708912529656,40.857281107217],[-73.8708915255272,40.857281071337],[-73.8709450758449,40.8572743413566],[-73.8709455503449,40.857274278731],[-73.8709460360188,40.857274370407],[-73.8710031457352,40.8572850321421],[-73.8710036914077,40.8572851320936],[-73.8710041414332,40.857285402142],[-73.8710504733116,40.8573128932698],[-73.8710508640553,40.8573131270667],[-73.8710510889393,40.8573134424297],[-73.8710772183288,40.8573495540024],[-73.8710773602571,40.8573497528438],[-73.8710773953961,40.8573499510633],[-73.8710840398372,40.8573853295552],[-73.8710341027935,40.8578160869],[-73.8709798656509,40.8582077047394],[-73.8708855065641,40.8589034709858],[-73.8699168392032,40.858885210431],[-73.8695181057765,40.8588776915365],[-73.8685775828247,40.8588362011562],[-73.8684965798648,40.8613717844662],[-73.8674877392348,40.8613538360398]]]}},{"type":"Feature","properties":{"e":"78009"},"geometry":{"type":"Polygon","coordinates":[[[-73.8881918372359,40.8536266053547],[-73.8886540285064,40.8535114195897],[-73.8887646519695,40.8534700938859],[-73.8888850029049,40.8534412510784],[-73.8890112596396,40.8534266126173],[-73.8891389856704,40.853426951697],[-73.8892636268608,40.8534420103106],[-73.8893810596845,40.8534704982687],[-73.8896112005405,40.8536301685853],[-73.8900318155094,40.8542292798171],[-73.8903909601709,40.8546973468055],[-73.8904440129475,40.8550546401511],[-73.8907757057052,40.8558202292379],[-73.8899196284786,40.8568060020993],[-73.8895761049685,40.8566251904656],[-73.8892045356616,40.856429614339],[-73.8889499682402,40.8567223387368],[-73.888458597185,40.8572873532343],[-73.8891720702819,40.8576638242443],[-73.8883462465054,40.8586081109705],[-73.8874583015826,40.859633818612],[-73.8873953328431,40.8597350483144],[-73.8871875214338,40.8596232829822],[-73.8858715363225,40.8589091357081],[-73.8859525547764,40.8588587445508],[-73.8864158601601,40.8583447373265],[-73.8864419007663,40.8583158469175],[-73.8868748910398,40.8578354617401],[-73.8860177358347,40.8573797440206],[-73.8853299277341,40.8570361638224],[-73.885458602455,40.8568834841497],[-73.8854877210879,40.8568489330376],[-73.8856877386384,40.8566115997582],[-73.8857240103846,40.8565685608942],[-73.8861173079418,40.8561018823841],[-73.8868746710227,40.8552102851656],[-73.8875344056833,40.8544259089683],[-73.8881918372359,40.8536266053547]]]}},{"type":"Feature","properties":{"e":"78010"},"geometry":{"type":"Polygon","coordinates":[[[-73.8873953328431,40.8597350483144],[-73.8874583015826,40.859633818612],[-73.8883462465054,40.8586081109705],[-73.8891720702819,40.8576638242443],[-73.888458597185,40.8572873532343],[-73.8889499682402,40.8567223387368],[-73.8892045356616,40.856429614339],[-73.8895761049685,40.8566251904656],[-73.8899196284786,40.8568060020993],[-73.8907757057052,40.8558202292379],[-73.8909525424173,40.8558101038756],[-73.89151837073,40.8561125349587],[-73.8921228959376,40.85641226361],[-73.89355405132,40.857014940945],[-73.8931231381212,40.8576126221787],[-73.8926672735802,40.858233403128],[-73.8922242176323,40.8588415324319],[-73.8919226854128,40.8592531440292],[-73.8919805828295,40.8592792811288],[-73.8920747555792,40.8593217952105],[-73.8922226795946,40.8593994609357],[-73.892258497173,40.8594182653769],[-73.8932166288755,40.8598824952873],[-73.8925653467931,40.860531018197],[-73.8914194450707,40.8616712730852],[-73.8913816546226,40.8617088778157],[-73.8910642275001,40.8615377016476],[-73.8908231189095,40.8614076856071],[-73.8906759381689,40.8613283621844],[-73.8905418938043,40.8612574640542],[-73.8903696591184,40.8611663658822],[-73.8902769761375,40.8611173628264],[-73.8901829085103,40.8612042380196],[-73.8888114194692,40.8604912892574],[-73.8873953328431,40.8597350483144]]]}},{"type":"Feature","properties":{"e":"78011"},"geometry":{"type":"Polygon","coordinates":[[[-73.8830952428439,40.8666104758248],[-73.8850540229874,40.8655110002521],[-73.8839997813971,40.8649778303275],[-73.8839444494204,40.8649564774665],[-73.8839706419701,40.864826031725],[-73.8839765689319,40.864692289013],[-73.8839614429111,40.864558009659],[-73.8839253768811,40.8644260522162],[-73.8838693397104,40.8642991790928],[-73.8837952838101,40.8641801141433],[-73.8837951295652,40.8641798620331],[-73.8820093592189,40.862055143311],[-73.8819326056954,40.8621026107507],[-73.8809525651822,40.8613472081894],[-73.8808404234805,40.8612460659964],[-73.8807413718764,40.8611345194511],[-73.8806577557966,40.861014100333],[-73.8805914801546,40.8608867385047],[-73.880543919088,40.8607546499091],[-73.8805157301776,40.8606202137465],[-73.8805068981475,40.8604858508944],[-73.8805167537114,40.860353857912],[-73.880610385837,40.8603653827748],[-73.8807757190178,40.859431288284],[-73.8809672794685,40.8585534950904],[-73.8809908455398,40.8584676480874],[-73.8810082068769,40.8582763124053],[-73.8810060610714,40.8580839471011],[-73.8809843551127,40.8578922812953],[-73.8809434077889,40.8577032805228],[-73.8809433491069,40.8577030290096],[-73.880943267024,40.8577027846758],[-73.8808836679957,40.8575178344409],[-73.880857923038,40.8574098219305],[-73.8808095179087,40.8572067379067],[-73.8807574131472,40.8571821085483],[-73.8806682637707,40.8571339664697],[-73.8795757350272,40.8565228565181],[-73.8792875802754,40.8563616729046],[-73.8788420747185,40.8560474488943],[-73.8787138198492,40.8559569946993],[-73.878596544575,40.8559009052813],[-73.8784450127766,40.8558284265177],[-73.8783552722215,40.855787549517],[-73.8779492353302,40.8556103705255],[-73.8776459056744,40.8555231935066],[-73.8773691484795,40.855482726029],[-73.8771638629383,40.8554657281568],[-73.8770294308855,40.8554748878626],[-73.8769612195448,40.8554795354474],[-73.8768137505249,40.8555003789951],[-73.8768167844218,40.8554519243917],[-73.8769570337833,40.8554288966755],[-73.8770251668014,40.8554287542187],[-73.8773847992912,40.8554280016853],[-73.8776858816328,40.8554723633696],[-73.8780366549493,40.8555831569812],[-73.8783905914884,40.8557483066854],[-73.8784673032266,40.8557926837399],[-73.8786203287184,40.8558658649644],[-73.8793593459631,40.8563087279695],[-73.8806499981462,40.8570553343608],[-73.8807384686657,40.8571049797779],[-73.8807929698986,40.8571357977588],[-73.8807727393359,40.8570480505324],[-73.8807564744735,40.8569575496292],[-73.8807462107654,40.8569004366493],[-73.8807309581058,40.8568155638984],[-73.8808137720408,40.8568516681892],[-73.8818995447801,40.8573560074994],[-73.8825203663646,40.8561198339167],[-73.8830111162391,40.8562567931634],[-73.8831033833803,40.8561784759973],[-73.8831246512402,40.8561604231045],[-73.883270999623,40.8560362010204],[-73.8834522418303,40.856123495104],[-73.8834980873259,40.8561455766038],[-73.8836789211919,40.8562326727416],[-73.8837203798422,40.8562526406094],[-73.8838861315807,40.8563324724793],[-73.8846761370703,40.8553958342746],[-73.8854350964441,40.855766602836],[-73.8861883428632,40.8548785619981],[-73.8854224779462,40.8545064953411],[-73.8851404767619,40.8543632976255],[-73.8853560326284,40.8543111765144],[-73.8856254828784,40.8542561985595],[-73.886323132553,40.8540813877868],[-73.8863683621968,40.8540700539805],[-73.8864523811282,40.854049000766],[-73.8868943523432,40.8539443115702],[-73.8875618152707,40.8537862075123],[-73.8881918372359,40.8536266053547],[-73.8875344056833,40.8544259089683],[-73.8868746710227,40.8552102851656],[-73.8861173079418,40.8561018823841],[-73.8857240103846,40.8565685608942],[-73.8856877386384,40.8566115997582],[-73.8854877210879,40.8568489330376],[-73.885458602455,40.8568834841497],[-73.8853299277341,40.8570361638224],[-73.8860177358347,40.8573797440206],[-73.8868748910398,40.8578354617401],[-73.8864419007663,40.8583158469175],[-73.8864158601601,40.8583447373265],[-73.8859525547764,40.8588587445508],[-73.8858715363225,40.8589091357081],[-73.8871875214338,40.8596232829822],[-73.8873953328431,40.8597350483144],[-73.8888114194692,40.8604912892574],[-73.8901829085103,40.8612042380196],[-73.8902769761375,40.8611173628264],[-73.8903696591184,40.8611663658822],[-73.8905418938043,40.8612574640542],[-73.8906759381689,40.8613283621844],[-73.8908231189095,40.8614076856071],[-73.8910642275001,40.8615377016476],[-73.8913816546226,40.8617088778157],[-73.8913193228126,40.8617536186945],[-73.8901071072738,40.8626237038372],[-73.8894541912551,40.8630998544504],[-73.8881242076908,40.8642628612459],[-73.8868345900205,40.8653982842933],[-73.8859384542275,40.8659326886921],[-73.8851404965498,40.8663911648784],[-73.8844300329692,40.8668086696298],[-73.8836265999665,40.8672658789169],[-73.8832135818625,40.8667564434735],[-73.8830952428439,40.8666104758248]]]}},{"type":"Feature","properties":{"e":"78012"},"geometry":{"type":"Polygon","coordinates":[[[-73.8842405279211,40.8680144525741],[-73.8836265999665,40.8672658789169],[-73.8844300329692,40.8668086696298],[-73.8851404965498,40.8663911648784],[-73.8859384542275,40.8659326886921],[-73.8868345900205,40.8653982842933],[-73.88759438852,40.8659158077327],[-73.887208717272,40.8662512601759],[-73.8864624185029,40.8666427468352],[-73.8857392770186,40.8670966534397],[-73.8859871554633,40.8673939249691],[-73.8862463741455,40.8676859499178],[-73.885557624314,40.8681511276629],[-73.8850274122463,40.8675263447232],[-73.8842405279211,40.8680144525741]]]}},{"type":"Feature","properties":{"e":"78013"},"geometry":{"type":"Polygon","coordinates":[[[-73.8847103604053,40.8687130088668],[-73.8846228772563,40.8685279518354],[-73.8845146260539,40.8683485477877],[-73.884386683491,40.8681767766946],[-73.8842405279211,40.8680144525741],[-73.8850274122463,40.8675263447232],[-73.885557624314,40.8681511276629],[-73.8862463741455,40.8676859499178],[-73.8859871554633,40.8673939249691],[-73.8857392770186,40.8670966534397],[-73.8864624185029,40.8666427468352],[-73.8869078876006,40.8672368401453],[-73.8883602932141,40.8663354780718],[-73.8888832594306,40.8667592494573],[-73.887691644712,40.8679650671189],[-73.888315226853,40.868555547387],[-73.8876531221328,40.8688795184613],[-73.8865072593591,40.8692404057879],[-73.8862519585087,40.8694836382729],[-73.8855178103417,40.8701932722543],[-73.8853928596461,40.8701054859414],[-73.8852788884651,40.8700077421169],[-73.8851778498739,40.8699013026969],[-73.8850913793135,40.8697877092152],[-73.8850206711179,40.8696687203784],[-73.8849664115971,40.8695462170104],[-73.8848881728381,40.8692916254133],[-73.8847103604053,40.8687130088668]]]}},{"type":"Feature","properties":{"e":"78014"},"geometry":{"type":"Polygon","coordinates":[[[-73.8864624185029,40.8666427468352],[-73.887208717272,40.8662512601759],[-73.88759438852,40.8659158077327],[-73.8868345900205,40.8653982842933],[-73.8881242076908,40.8642628612459],[-73.8894541912551,40.8630998544504],[-73.8901071072738,40.8626237038372],[-73.8913193228126,40.8617536186945],[-73.8913816546226,40.8617088778157],[-73.8914194450707,40.8616712730852],[-73.8918197709409,40.8618143960212],[-73.8919667052872,40.8618199177197],[-73.8920682140587,40.8618692153035],[-73.8919843998342,40.8618722801103],[-73.891773308948,40.8618800063224],[-73.8917339870845,40.8619181042591],[-73.8911494517685,40.8624844273392],[-73.8906553506998,40.8629631238484],[-73.8901630575469,40.8634846527663],[-73.8888970809731,40.8647624434734],[-73.8889981061069,40.8648259899379],[-73.8889982478465,40.8648260790291],[-73.8889984024113,40.8648261522179],[-73.8891123154507,40.864878633844],[-73.8891124100404,40.8648786795012],[-73.8891124931885,40.8648787053796],[-73.8892362145063,40.8649181222972],[-73.8893654276694,40.8649430994944],[-73.8893656295196,40.8649431353704],[-73.8893658311784,40.8649431536563],[-73.8894963265386,40.864953373815],[-73.8900549599733,40.8653103483248],[-73.8892176840277,40.8658170451667],[-73.8883602932141,40.8663354780718],[-73.8869078876006,40.8672368401453],[-73.8864624185029,40.8666427468352]]]}},{"type":"Feature","properties":{"e":"78015"},"geometry":{"type":"Polygon","coordinates":[[[-73.8896112005405,40.8536301685853],[-73.8896347027644,40.8531821063858],[-73.8899028417408,40.8526717468621],[-73.8898859324454,40.8522300105202],[-73.8899717037894,40.8521115176808],[-73.8904848446193,40.8522964803536],[-73.8910530844192,40.8520125268754],[-73.8917424782595,40.8516739604271],[-73.892797803076,40.8511062844919],[-73.8934278933574,40.8514126758502],[-73.8943191625155,40.8518995990047],[-73.8930728298045,40.8532582748903],[-73.8921682945615,40.8527777501711],[-73.8909034546327,40.8541251739938],[-73.8906917399623,40.8543615507635],[-73.8903909601709,40.8546973468055],[-73.8900318155094,40.8542292798171],[-73.8896112005405,40.8536301685853]]]}},{"type":"Feature","properties":{"e":"78016"},"geometry":{"type":"Polygon","coordinates":[[[-73.8907757057052,40.8558202292379],[-73.8904440129475,40.8550546401511],[-73.8903909601709,40.8546973468055],[-73.8906917399623,40.8543615507635],[-73.8909034546327,40.8541251739938],[-73.8921682945615,40.8527777501711],[-73.8930728298045,40.8532582748903],[-73.8918023552435,40.8546192999315],[-73.8925014645501,40.8549834018112],[-73.8931371310008,40.8552520236774],[-73.8944329728896,40.8557944750181],[-73.8940065443646,40.8563943353745],[-73.89355405132,40.857014940945],[-73.8921228959376,40.85641226361],[-73.89151837073,40.8561125349587],[-73.8909525424173,40.8558101038756],[-73.8907757057052,40.8558202292379]]]}},{"type":"Feature","properties":{"e":"78017"},"geometry":{"type":"Polygon","coordinates":[[[-73.8911494517685,40.8624844273392],[-73.8917339870845,40.8619181042591],[-73.891773308948,40.8618800063224],[-73.8919843998342,40.8618722801103],[-73.8920682140587,40.8618692153035],[-73.8919667052872,40.8618199177197],[-73.8918197709409,40.8618143960212],[-73.8914194450707,40.8616712730852],[-73.8925653467931,40.860531018197],[-73.8932166288755,40.8598824952873],[-73.894043973526,40.8602876514079],[-73.8946330526414,40.8605608496004],[-73.8953775470697,40.8607524034434],[-73.8964264288011,40.8610052891806],[-73.8975500123992,40.8613083082733],[-73.8969404194992,40.8624512192538],[-73.8969851446598,40.8624516852046],[-73.8971452208117,40.8624533546485],[-73.8957945053804,40.8642238570425],[-73.8956054848602,40.8641616247103],[-73.8945927404734,40.8639720063906],[-73.8942798275105,40.8639094308068],[-73.8941955059774,40.8631745972614],[-73.8941879700895,40.8630157265791],[-73.8941807432819,40.8629414439641],[-73.8941704883193,40.8628673670094],[-73.894157215059,40.8627935668476],[-73.8941409362567,40.862720114345],[-73.8941216677835,40.8626470801165],[-73.8940994279256,40.8625745342048],[-73.8940742380481,40.8625025462713],[-73.8940461223488,40.8624311854413],[-73.8937161250667,40.8620297247582],[-73.893560564946,40.861934257282],[-73.8928531128528,40.8618404830225],[-73.8923459324457,40.8627032638983],[-73.8922963779977,40.862787561746],[-73.8922342929299,40.8628931735755],[-73.8915958574256,40.8626872999367],[-73.891429786403,40.862649953635],[-73.8911494517685,40.8624844273392]]]}},{"type":"Feature","properties":{"e":"78018"},"geometry":{"type":"Polygon","coordinates":[[[-73.8927615644557,40.8650291506309],[-73.8921326766912,40.8646419126031],[-73.8913136788604,40.8641405256733],[-73.8901630575469,40.8634846527663],[-73.8906553506998,40.8629631238484],[-73.8911494517685,40.8624844273392],[-73.891429786403,40.862649953635],[-73.8915958574256,40.8626872999367],[-73.8922342929299,40.8628931735755],[-73.8922963779977,40.862787561746],[-73.8923459324457,40.8627032638983],[-73.8928531128528,40.8618404830225],[-73.893560564946,40.861934257282],[-73.8937161250667,40.8620297247582],[-73.8940461223488,40.8624311854413],[-73.8940742380481,40.8625025462713],[-73.8940994279256,40.8625745342048],[-73.8941216677835,40.8626470801165],[-73.8941409362567,40.862720114345],[-73.894157215059,40.8627935668476],[-73.8941704883193,40.8628673670094],[-73.8941807432819,40.8629414439641],[-73.8941879700895,40.8630157265791],[-73.8941955059774,40.8631745972614],[-73.8942798275105,40.8639094308068],[-73.8945927404734,40.8639720063906],[-73.8956054848602,40.8641616247103],[-73.8957945053804,40.8642238570425],[-73.8953035889567,40.8648550706566],[-73.8950435432321,40.8652117880609],[-73.8949336820187,40.8653616288355],[-73.8944355043128,40.8660057008228],[-73.8944260881697,40.8660184457437],[-73.8943974058247,40.8660572717963],[-73.8943827252958,40.8660771415123],[-73.8942257689605,40.8659959539074],[-73.8941242728527,40.8659482963181],[-73.8940291236299,40.8658928472712],[-73.8939418263363,40.8658303987074],[-73.893863648667,40.865761953096],[-73.893799123951,40.8656115660023],[-73.8937502274954,40.8654575735872],[-73.8937174068824,40.8653013891726],[-73.8936254377857,40.8653348298278],[-73.8934678027193,40.8653906949271],[-73.8932333440269,40.8652811683665],[-73.8927615644557,40.8650291506309]]]}},{"type":"Feature","properties":{"e":"78019"},"geometry":{"type":"Polygon","coordinates":[[[-73.8892176840277,40.8658170451667],[-73.8900549599733,40.8653103483248],[-73.8894963265386,40.864953373815],[-73.8893658311784,40.8649431536563],[-73.8893656295196,40.8649431353704],[-73.8893654276694,40.8649430994944],[-73.8892362145063,40.8649181222972],[-73.8891124931885,40.8648787053796],[-73.8891124100404,40.8648786795012],[-73.8891123154507,40.864878633844],[-73.8889984024113,40.8648261522179],[-73.8889982478465,40.8648260790291],[-73.8889981061069,40.8648259899379],[-73.8888970809731,40.8647624434734],[-73.8901630575469,40.8634846527663],[-73.8913136788604,40.8641405256733],[-73.8921326766912,40.8646419126031],[-73.8919277798887,40.8650298769166],[-73.8903608336202,40.8666206453373],[-73.8896107780129,40.8661969423812],[-73.8892176840277,40.8658170451667]]]}},{"type":"Feature","properties":{"e":"78020"},"geometry":{"type":"Polygon","coordinates":[[[-73.888315226853,40.868555547387],[-73.887691644712,40.8679650671189],[-73.8888832594306,40.8667592494573],[-73.8883602932141,40.8663354780718],[-73.8892176840277,40.8658170451667],[-73.8896107780129,40.8661969423812],[-73.8903608336202,40.8666206453373],[-73.8919277798887,40.8650298769166],[-73.8921326766912,40.8646419126031],[-73.8927615644557,40.8650291506309],[-73.8911103232872,40.8670400197413],[-73.8898066459672,40.8683762159596],[-73.8891291918903,40.8690706914152],[-73.888315226853,40.868555547387]]]}},{"type":"Feature","properties":{"e":"78021"},"geometry":{"type":"Polygon","coordinates":[[[-73.8911103232872,40.8670400197413],[-73.8927615644557,40.8650291506309],[-73.8932333440269,40.8652811683665],[-73.8934678027193,40.8653906949271],[-73.8936254377857,40.8653348298278],[-73.8937174068824,40.8653013891726],[-73.8937502274954,40.8654575735872],[-73.893799123951,40.8656115660023],[-73.893863648667,40.865761953096],[-73.8939418263363,40.8658303987074],[-73.8940291236299,40.8658928472712],[-73.8941242728527,40.8659482963181],[-73.8942257689605,40.8659959539074],[-73.8943827252958,40.8660771415123],[-73.894365809755,40.8660999624455],[-73.8943415479923,40.8661327020598],[-73.8943196752342,40.8661622171939],[-73.894088392485,40.8664617236013],[-73.8939734394588,40.866610595333],[-73.8937628122673,40.8668833486797],[-73.893685778157,40.8669891116229],[-73.8930041218609,40.8678893595958],[-73.8928261354378,40.8678208646106],[-73.8918158611728,40.8674320806408],[-73.8911103232872,40.8670400197413]]]}},{"type":"Feature","properties":{"e":"78022"},"geometry":{"type":"Polygon","coordinates":[[[-73.8891291918903,40.8690706914152],[-73.8898066459672,40.8683762159596],[-73.8911103232872,40.8670400197413],[-73.8918158611728,40.8674320806408],[-73.8928261354378,40.8678208646106],[-73.8930041218609,40.8678893595958],[-73.8924365127041,40.8686288891564],[-73.8922140100256,40.8689237909801],[-73.8919186047248,40.8693104010946],[-73.8917477568774,40.8695188391201],[-73.8915754224622,40.869692543946],[-73.8913908916671,40.869859285329],[-73.8911949254799,40.8700183244822],[-73.8909883911442,40.8701690066496],[-73.8908203423921,40.8700710004349],[-73.8898935113188,40.869530475057],[-73.8891291918903,40.8690706914152]]]}},{"type":"Feature","properties":{"e":"78023"},"geometry":{"type":"Polygon","coordinates":[[[-73.8877881899465,40.8707491412078],[-73.8871584723761,40.8702348521957],[-73.8870161055958,40.8701168763652],[-73.8869469857479,40.8700595982181],[-73.8862519585087,40.8694836382729],[-73.8865072593591,40.8692404057879],[-73.8876531221328,40.8688795184613],[-73.888315226853,40.868555547387],[-73.8891291918903,40.8690706914152],[-73.8898935113188,40.869530475057],[-73.8908203423921,40.8700710004349],[-73.8909883911442,40.8701690066496],[-73.8904290602133,40.8704953456278],[-73.8899188656605,40.8707889235734],[-73.8895019123363,40.8710288480345],[-73.8888444367894,40.871406358868],[-73.8886859196676,40.8715034045781],[-73.888639263099,40.8714612174843],[-73.8885489919239,40.8713880094054],[-73.8877881899465,40.8707491412078]]]}},{"type":"Feature","properties":{"e":"78024"},"geometry":{"type":"Polygon","coordinates":[[[-73.8798959617877,40.8683800295889],[-73.8813399730485,40.8675983793144],[-73.8830952428439,40.8666104758248],[-73.8832135818625,40.8667564434735],[-73.8836265999665,40.8672658789169],[-73.8828449800616,40.8677445177023],[-73.8818852169685,40.8683291278367],[-73.881470315347,40.8685819375059],[-73.8803589948341,40.8692120728688],[-73.8802575407688,40.8690318347732],[-73.8801245834372,40.8687922498013],[-73.8798959617877,40.8683800295889]]]}},{"type":"Feature","properties":{"e":"78025"},"geometry":{"type":"Polygon","coordinates":[[[-73.8719913898733,40.8660130340515],[-73.8718523360557,40.8659386339342],[-73.8717732214434,40.8658878404619],[-73.8713486611694,40.8656152654931],[-73.8712578393511,40.86554644015],[-73.871155221287,40.8654865834871],[-73.8710992444154,40.8654619498383],[-73.8710130094647,40.86543008186],[-73.8708326721783,40.8653841496451],[-73.8707366489035,40.8653691673951],[-73.8707161805928,40.8653675926964],[-73.8706360211264,40.8653660278144],[-73.8705855903911,40.8653689404461],[-73.8704226899929,40.8653693714349],[-73.8704100483309,40.8651080880772],[-73.8704018592739,40.8648467024341],[-73.8703981241392,40.8645852582342],[-73.8703988434994,40.8643237992154],[-73.8704040172254,40.8640623693648],[-73.870413644351,40.8638010121703],[-73.8704277232133,40.8635397713538],[-73.8704462514045,40.8632786906173],[-73.8705807906955,40.8614128441516],[-73.8694373249835,40.8613908443254],[-73.8684965798648,40.8613717844662],[-73.8685775828247,40.8588362011562],[-73.8695181057765,40.8588776915365],[-73.8699168392032,40.858885210431],[-73.8708855065641,40.8589034709858],[-73.8709798656509,40.8582077047394],[-73.8710341027935,40.8578160869],[-73.8710840398372,40.8573853295552],[-73.8710773953961,40.8573499510633],[-73.8710773602571,40.8573497528438],[-73.8710772183288,40.8573495540024],[-73.8710510889393,40.8573134424297],[-73.8710508640553,40.8573131270667],[-73.8710504733116,40.8573128932698],[-73.8710041414332,40.857285402142],[-73.8710036914077,40.8572851320936],[-73.8710031457352,40.8572850321421],[-73.8709460360188,40.857274370407],[-73.8709455503449,40.857274278731],[-73.8709450758449,40.8572743413566],[-73.8708915255272,40.857281071337],[-73.8708912529656,40.857281107217],[-73.8708910394132,40.8572812063194],[-73.8708789551829,40.8572865136757],[-73.870850288413,40.8572991066593],[-73.8695500946235,40.857734319221],[-73.8688976412541,40.8577810625182],[-73.8684168101758,40.8577886477351],[-73.8687689431761,40.8573490699154],[-73.8688800036432,40.8572104277992],[-73.8690776597828,40.8569538500247],[-73.8692753265324,40.8566972719138],[-73.8693926702278,40.8565601844942],[-73.8698898364475,40.8559793568393],[-73.8699052093635,40.8558813107826],[-73.8699056292586,40.8557815818409],[-73.8698908096906,40.8556821508241],[-73.8698610177559,40.8555850172528],[-73.8698171760584,40.8554920639481],[-73.8699232781023,40.8553763773052],[-73.8704429850176,40.8548097182589],[-73.8705605549792,40.8547031794563],[-73.8706865902437,40.8546024183587],[-73.8706868624849,40.8546022012183],[-73.8706871353547,40.854602001166],[-73.8708209413593,40.8545075888928],[-73.8708212142114,40.8545073975514],[-73.8708215102116,40.8545072156172],[-73.8709628025225,40.8544192890253],[-73.8712828441159,40.8542576836146],[-73.8718219311776,40.8540445075315],[-73.8718685120054,40.8540217134196],[-73.8719181745256,40.8540059288796],[-73.8719980204672,40.853965432071],[-73.8722629867004,40.8538542358151],[-73.872543797953,40.8537481791583],[-73.8732526934374,40.8534739960461],[-73.8733171989546,40.8534471693146],[-73.8735622308246,40.8533266194615],[-73.8736827246045,40.8532570442326],[-73.8738012023861,40.8531750752894],[-73.8738890639603,40.8531023674702],[-73.8739134115472,40.8530790691071],[-73.8739836022848,40.8530119031805],[-73.8740500196856,40.8529573395745],[-73.874168395878,40.8528600909856],[-73.874725306072,40.8536325665362],[-73.874771120156,40.8538413802576],[-73.8748380962884,40.853882183271],[-73.8750258170676,40.8538976610674],[-73.8750527815747,40.853821320482],[-73.8751714192093,40.8537801871915],[-73.8752138149374,40.8537654901469],[-73.875388286689,40.8536943998089],[-73.8755825498584,40.8537964353049],[-73.8758370105637,40.8539799976108],[-73.8760945334551,40.8540856442624],[-73.8762832423835,40.8541630592101],[-73.8763596296219,40.8541943961303],[-73.8767617720632,40.8542915613514],[-73.8769158641838,40.8543630047617],[-73.8770363443504,40.8544802355219],[-73.8772354882092,40.8546016905644],[-73.8771561573127,40.8549589491653],[-73.8770619422711,40.8551421374377],[-73.8770216288204,40.8551857341752],[-73.8769678780593,40.8552438629692],[-73.8769495898454,40.8553824686487],[-73.8769570337833,40.8554288966755],[-73.8768167844218,40.8554519243917],[-73.8768137505249,40.8555003789951],[-73.8770588052949,40.8564946646704],[-73.8770122471924,40.8570899836528],[-73.8768963945736,40.8576876989399],[-73.8766978159504,40.8581207553699],[-73.876696435168,40.8581234887139],[-73.8762157145536,40.8590753947071],[-73.8765585348592,40.8596866823645],[-73.8765297546009,40.8598851072767],[-73.8759149579122,40.8604711866925],[-73.8757041260334,40.8607815858837],[-73.8755982510502,40.8612134737226],[-73.874835526158,40.8618856727381],[-73.8745478607251,40.8622212969678],[-73.8742113786936,40.862859440426],[-73.8738697559495,40.8632085223698],[-73.8739709733722,40.8637738003065],[-73.8744641348184,40.8644301045872],[-73.8748152831599,40.8650603673397],[-73.8752800157104,40.8657338935132],[-73.8753023915174,40.8659237444101],[-73.875113280176,40.8661792839497],[-73.8749925507951,40.8663655874094],[-73.8747357334998,40.8665163744229],[-73.8745316048602,40.8666963410598],[-73.87440069234,40.8668497173615],[-73.8743784905312,40.8668870496836],[-73.8743227780876,40.866871521606],[-73.873770576841,40.8667316483184],[-73.8736633688614,40.8667007343712],[-73.8734286212722,40.8666330316232],[-73.8730934909924,40.8665201923358],[-73.8727667028905,40.8663935741132],[-73.8724497279032,40.8662537473925],[-73.8721439039051,40.8661013783001],[-73.8720615294673,40.8660553446021],[-73.8719913898733,40.8660130340515]]]}},{"type":"Feature","properties":{"e":"78026"},"geometry":{"type":"Polygon","coordinates":[[[-73.8803589948341,40.8692120728688],[-73.881470315347,40.8685819375059],[-73.8818852169685,40.8683291278367],[-73.8828449800616,40.8677445177023],[-73.8836265999665,40.8672658789169],[-73.8842405279211,40.8680144525741],[-73.884386683491,40.8681767766946],[-73.8845146260539,40.8683485477877],[-73.8846228772563,40.8685279518354],[-73.8847103604053,40.8687130088668],[-73.8828205175577,40.8698798421033],[-73.8819779170201,40.8703955760302],[-73.8811435115516,40.8708520784189],[-73.8810315727469,40.8706497463727],[-73.880832780554,40.8702904162848],[-73.8807334311054,40.8699995541324],[-73.8806859924615,40.8698852312602],[-73.8804671167455,40.8694251729008],[-73.8803756039615,40.8692448085149],[-73.8803589948341,40.8692120728688]]]}},{"type":"Feature","properties":{"e":"78027"},"geometry":{"type":"Polygon","coordinates":[[[-73.8811435115516,40.8708520784189],[-73.8819779170201,40.8703955760302],[-73.8828205175577,40.8698798421033],[-73.8847103604053,40.8687130088668],[-73.8848881728381,40.8692916254133],[-73.8849664115971,40.8695462170104],[-73.8850206711179,40.8696687203784],[-73.8850913793135,40.8697877092152],[-73.8851778498739,40.8699013026969],[-73.8852788884651,40.8700077421169],[-73.8853928596461,40.8701054859414],[-73.8855178103417,40.8701932722543],[-73.8837825520385,40.8713907561963],[-73.8835463356013,40.8715637710088],[-73.8835462293081,40.8715638521502],[-73.8835461104508,40.8715639245677],[-73.8832955823675,40.8717259027476],[-73.8832954875803,40.8717259663105],[-73.8832953804345,40.8717260298608],[-73.8830317040173,40.8718760718914],[-73.8827564119878,40.8720133154926],[-73.8824712614104,40.8721369770239],[-73.8817554588638,40.8723574875256],[-73.8816940540926,40.8721537439665],[-73.8816277558698,40.8719508857321],[-73.8814324493584,40.8714435559579],[-73.8812951486705,40.8711456222362],[-73.8811435115516,40.8708520784189]]]}},{"type":"Feature","properties":{"e":"78028"},"geometry":{"type":"Polygon","coordinates":[[[-73.8824712614104,40.8721369770239],[-73.8827564119878,40.8720133154926],[-73.8830317040173,40.8718760718914],[-73.8832953804345,40.8717260298608],[-73.8832954875803,40.8717259663105],[-73.8832955823675,40.8717259027476],[-73.8835461104508,40.8715639245677],[-73.8835462293081,40.8715638521502],[-73.8835463356013,40.8715637710088],[-73.8837825520385,40.8713907561963],[-73.8855178103417,40.8701932722543],[-73.8862519585087,40.8694836382729],[-73.8869469857479,40.8700595982181],[-73.8870161055958,40.8701168763652],[-73.8871584723761,40.8702348521957],[-73.8877881899465,40.8707491412078],[-73.8869180074261,40.8713515656931],[-73.8856151864618,40.8722776766328],[-73.8853323587091,40.8729477748827],[-73.8836917219669,40.8725488821719],[-73.8829592014325,40.8730607442081],[-73.8828319736513,40.8729249568662],[-73.8828318430338,40.872924812999],[-73.8828317247928,40.8729246590928],[-73.8827209325778,40.8727790733084],[-73.8826283876774,40.8726254809539],[-73.8826282932846,40.8726253200358],[-73.8826282103881,40.8726251475704],[-73.8825554170283,40.8724657499638],[-73.8825553341283,40.8724655796761],[-73.8825552750639,40.8724654089101],[-73.882502928157,40.8723021592762],[-73.8825028921703,40.8723020423085],[-73.8825028692219,40.8723019154702],[-73.8824712614104,40.8721369770239]]]}},{"type":"Feature","properties":{"e":"78029"},"geometry":{"type":"Polygon","coordinates":[[[-73.8865008191461,40.8746956711028],[-73.8863166125733,40.8746501051621],[-73.8848784377223,40.8743030904751],[-73.8847765990087,40.8742785127404],[-73.8850568738474,40.8736021117504],[-73.8866078960046,40.8739727917753],[-73.8868079933954,40.8740206158098],[-73.887089359938,40.8733727722623],[-73.8873866493637,40.8727202994264],[-73.8875049477503,40.8725440620625],[-73.887635965946,40.8723729080453],[-73.8877790974314,40.8722076179017],[-73.8877964014893,40.8721877829222],[-73.8878533836098,40.8721224678381],[-73.8878972906033,40.8720781013348],[-73.8879364576511,40.8720385240488],[-73.8883368907674,40.8717181226498],[-73.8886859196676,40.8715034045781],[-73.8888229054368,40.8716127574229],[-73.8898057983445,40.8724097592018],[-73.8893730584184,40.8733905898058],[-73.888558419278,40.8752056062195],[-73.8876063305143,40.874963693224],[-73.887533104834,40.8749460272941],[-73.8866847287745,40.8747413165333],[-73.8865008191461,40.8746956711028]]]}},{"type":"Feature","properties":{"e":"78030"},"geometry":{"type":"Polygon","coordinates":[[[-73.883426145739,40.8757509594959],[-73.8834377470388,40.8753926123326],[-73.8834518614825,40.8748031259727],[-73.8834146067559,40.8741722689777],[-73.8834017718771,40.87395491899],[-73.8833513622909,40.8737671423696],[-73.8832812440745,40.8735821025463],[-73.8831919472948,40.8734016709167],[-73.8831919004605,40.8734015720308],[-73.8831918414716,40.8734014825138],[-73.8830841940429,40.8732273175119],[-73.8830841586058,40.8732272637012],[-73.8830841225057,40.8732272103923],[-73.8829592014325,40.8730607442081],[-73.8836917219669,40.8725488821719],[-73.8853323587091,40.8729477748827],[-73.8850568738474,40.8736021117504],[-73.8847765990087,40.8742785127404],[-73.8848784377223,40.8743030904751],[-73.8863166125733,40.8746501051621],[-73.8865008191461,40.8746956711028],[-73.8864684187356,40.8747670473695],[-73.8861828339241,40.8753760641802],[-73.886124782491,40.8755170233031],[-73.8859746064657,40.8758609245828],[-73.8859020265556,40.8760263448169],[-73.8857053530963,40.8760059782796],[-73.8847656033904,40.8759070532866],[-73.883426145739,40.8757509594959]]]}},{"type":"Feature","properties":{"e":"78031"},"geometry":{"type":"Polygon","coordinates":[[[-73.8838400150586,40.8768062428479],[-73.8835543629467,40.876260522243],[-73.8834986766661,40.8761650324659],[-73.8834572830066,40.8760645491661],[-73.8834572124437,40.8760643877704],[-73.8834571765314,40.8760642262421],[-73.8834310693507,40.8759604625221],[-73.8834207427263,40.8758553110622],[-73.883426145739,40.8757509594959],[-73.8847656033904,40.8759070532866],[-73.8857053530963,40.8760059782796],[-73.8859020265556,40.8760263448169],[-73.8859746064657,40.8758609245828],[-73.886124782491,40.8755170233031],[-73.8861828339241,40.8753760641802],[-73.8864684187356,40.8747670473695],[-73.8865008191461,40.8746956711028],[-73.8866847287745,40.8747413165333],[-73.887533104834,40.8749460272941],[-73.8876063305143,40.874963693224],[-73.888558419278,40.8752056062195],[-73.8893730584184,40.8733905898058],[-73.8898057983445,40.8724097592018],[-73.889853924144,40.8723036557387],[-73.8898539952241,40.8723035119043],[-73.8898540779713,40.8723033858385],[-73.8899226517506,40.8721992548424],[-73.8899227236385,40.8721991560724],[-73.8899228184791,40.8721990568218],[-73.8900119884116,40.8721001247222],[-73.890012095625,40.8721000167721],[-73.8900122028095,40.8720999262443],[-73.8901208612833,40.8720096035441],[-73.8901209560935,40.8720095223857],[-73.8901210625846,40.8720094506197],[-73.8902468551989,40.8719308403981],[-73.8903860876268,40.8718666144324],[-73.8903862179364,40.8718665520701],[-73.8903863488794,40.8718665071308],[-73.8905344992321,40.8718184173941],[-73.890534653348,40.871818371974],[-73.8905348312821,40.8718183364604],[-73.8906872956731,40.8717870273739],[-73.8906874259239,40.871787000526],[-73.8906875444501,40.8717869907545],[-73.8908395665141,40.8717721694953],[-73.8908398746416,40.8717721418104],[-73.8908402072197,40.871772142125],[-73.8909878969228,40.8717726330291],[-73.8911895938344,40.8718049983466],[-73.8913961881882,40.8718241659385],[-73.8916053908447,40.8718296127997],[-73.8918148057861,40.8718211200628],[-73.8920220607707,40.8717987747969],[-73.8922247697649,40.8717630076645],[-73.8924207853209,40.8717145182736],[-73.8930726328348,40.8714035555141],[-73.89348022153,40.8711967122407],[-73.893839903703,40.8710141898459],[-73.894449674982,40.8707317522809],[-73.8919102427158,40.8739370069571],[-73.8916357133454,40.874485506229],[-73.8896602678786,40.8769831298483],[-73.8895645910493,40.8769412119104],[-73.8891565130316,40.876762423814],[-73.8889476817241,40.8766673835308],[-73.8880817426544,40.8762810393173],[-73.8877371970248,40.8770421744651],[-73.8865763622211,40.8772493687985],[-73.886391136213,40.8772760939572],[-73.8855026896846,40.8774042813888],[-73.8853168687719,40.877341756124],[-73.8851280274227,40.8772901952709],[-73.8848567613302,40.8771874611313],[-73.8842990740703,40.8769721718007],[-73.8838400150586,40.8768062428479]]]}},{"type":"Feature","properties":{"e":"78032"},"geometry":{"type":"Polygon","coordinates":[[[-73.9023594732306,40.8687044114874],[-73.9029371639712,40.8679110001306],[-73.90310130714,40.8676855595784],[-73.9043919933697,40.8659128123385],[-73.9044729688686,40.8657999949612],[-73.9045759851543,40.8656942632192],[-73.9045760923322,40.8656941562605],[-73.9045762224487,40.8656940570269],[-73.9046995186609,40.8655990029457],[-73.9046996136506,40.8655989316593],[-73.904699720766,40.8655988680889],[-73.9048403379412,40.8655175714215],[-73.9048404326731,40.8655175259334],[-73.9049940505558,40.8654524846829],[-73.9049941337986,40.865452449069],[-73.9049942170297,40.8654524216638],[-73.9051558990162,40.8654051081026],[-73.9051559939416,40.8654050813769],[-73.9053207217002,40.8653758153436],[-73.9054715148844,40.8653699331022],[-73.9054716097715,40.8653699331799],[-73.9054716927558,40.8653699238666],[-73.9056241803117,40.8653487251695],[-73.9057743528392,40.8653117296305],[-73.9057744122237,40.8653117120891],[-73.9059179881396,40.865259294158],[-73.9060508722157,40.8651927034305],[-73.9060509793159,40.8651926492402],[-73.9060510740713,40.8651925861611],[-73.9061699197227,40.8651137814806],[-73.906272113246,40.865025346989],[-73.9062722080251,40.8650252668224],[-73.9062722913448,40.8650251757575],[-73.9063563100936,40.8649299816094],[-73.9068069125028,40.8644339691544],[-73.9069287176013,40.8642900876854],[-73.9075401094637,40.8635678548129],[-73.9073935928887,40.8635635231023],[-73.9072478085349,40.86354491882],[-73.9071063488902,40.8635123423819],[-73.9069725819802,40.8634667510661],[-73.9068661029522,40.8634331040803],[-73.9067500807095,40.86341326224],[-73.906629386198,40.8634091760777],[-73.9065096412183,40.8634214066459],[-73.9063964103245,40.8634490137986],[-73.906294299213,40.8634897226449],[-73.9060200053755,40.8635833485595],[-73.9057522543601,40.8636884432786],[-73.9054922792713,40.8638045915622],[-73.9052412558171,40.8639312561758],[-73.9050002512472,40.8640678416734],[-73.9048513636375,40.8641367328429],[-73.9046902069615,40.8641922684563],[-73.9045200325891,40.8642327311927],[-73.9043446034175,40.86425702518],[-73.9041679165449,40.8642647854983],[-73.9039938982757,40.8642563908279],[-73.9049352854729,40.8627578637698],[-73.9061603802799,40.862787268159],[-73.9075512146926,40.8628232399173],[-73.9083500888814,40.862830261366],[-73.9090239543878,40.8626910982286],[-73.9090909502101,40.8627739125156],[-73.9091072857067,40.8630155434091],[-73.9090609029917,40.863107499371],[-73.9090658139065,40.8631630894432],[-73.9090845525674,40.8633858810533],[-73.9090845626022,40.8633859656604],[-73.9090845602808,40.8633860495877],[-73.9090844240754,40.8636109402903],[-73.9090650520583,40.8638366172568],[-73.9090611213153,40.8638594264578],[-73.9090239666526,40.8640971090101],[-73.9090239425746,40.8640972890785],[-73.9090238953269,40.8640974691286],[-73.9089599002702,40.8643596872006],[-73.9088737409654,40.8646177976461],[-73.9088736574166,40.8646180589162],[-73.9088735500358,40.8646183201675],[-73.9087658339767,40.864870858763],[-73.9086374392561,40.865116500534],[-73.908637416025,40.8651165449092],[-73.9086373921304,40.8651165904566],[-73.9084895673134,40.8653537349718],[-73.9083147082287,40.8655398074885],[-73.9081559422957,40.8657355742079],[-73.9080146012717,40.8659398006068],[-73.907891788756,40.8661511109243],[-73.9077883741602,40.8663680367358],[-73.9077049521657,40.8665889681691],[-73.9077049280248,40.866589031306],[-73.9077049041039,40.8665890949457],[-73.9076417616633,40.8668125193722],[-73.9076063202116,40.8669995306767],[-73.907550143085,40.8671862750737],[-73.9074730572254,40.86737075954],[-73.9074060782011,40.8674942984615],[-73.9073753366682,40.8675509945828],[-73.9072576835654,40.8677250017648],[-73.9071212163729,40.8678909056677],[-73.906967491381,40.8680470082941],[-73.9067983726697,40.868191840732],[-73.906615985053,40.868324200646],[-73.9064226542115,40.8684431962922],[-73.9046001843005,40.8693564478623],[-73.903751184207,40.8696039178009],[-73.9031880997179,40.8691572820845],[-73.9023594732306,40.8687044114874]]]}},{"type":"Feature","properties":{"e":"78033"},"geometry":{"type":"Polygon","coordinates":[[[-73.903323617958,40.8653198324881],[-73.9025241246207,40.8648818546392],[-73.9031171349023,40.864104159938],[-73.9038840451718,40.8644317065048],[-73.9039938982757,40.8642563908279],[-73.9041679165449,40.8642647854983],[-73.9043446034175,40.86425702518],[-73.9045200325891,40.8642327311927],[-73.9046902069615,40.8641922684563],[-73.9048513636375,40.8641367328429],[-73.9050002512472,40.8640678416734],[-73.9052412558171,40.8639312561758],[-73.9054922792713,40.8638045915622],[-73.9057522543601,40.8636884432786],[-73.9060200053755,40.8635833485595],[-73.906294299213,40.8634897226449],[-73.9063964103245,40.8634490137986],[-73.9065096412183,40.8634214066459],[-73.906629386198,40.8634091760777],[-73.9067500807095,40.86341326224],[-73.9068661029522,40.8634331040803],[-73.9069725819802,40.8634667510661],[-73.9071063488902,40.8635123423819],[-73.9072478085349,40.86354491882],[-73.9073935928887,40.8635635231023],[-73.9075401094637,40.8635678548129],[-73.9069287176013,40.8642900876854],[-73.9068069125028,40.8644339691544],[-73.9063563100936,40.8649299816094],[-73.9062722913448,40.8650251757575],[-73.9062722080251,40.8650252668224],[-73.906272113246,40.865025346989],[-73.9061699197227,40.8651137814806],[-73.9060510740713,40.8651925861611],[-73.9060509793159,40.8651926492402],[-73.9060508722157,40.8651927034305],[-73.9059179881396,40.865259294158],[-73.9057744122237,40.8653117120891],[-73.9057743528392,40.8653117296305],[-73.9056241803117,40.8653487251695],[-73.9054716927558,40.8653699238666],[-73.9054716097715,40.8653699331799],[-73.9054715148844,40.8653699331022],[-73.9053207217002,40.8653758153436],[-73.9051559939416,40.8654050813769],[-73.9051558990162,40.8654051081026],[-73.9049942170297,40.8654524216638],[-73.9049941337986,40.865452449069],[-73.9049940505558,40.8654524846829],[-73.9048404326731,40.8655175259334],[-73.9048403379412,40.8655175714215],[-73.904699720766,40.8655988680889],[-73.9046996136506,40.8655989316593],[-73.9046995186609,40.8655990029457],[-73.9045762224487,40.8656940570269],[-73.9045760923322,40.8656941562605],[-73.9045759851543,40.8656942632192],[-73.9044729688686,40.8657999949612],[-73.9043919933697,40.8659128123385],[-73.9041070314157,40.8657534327763],[-73.903323617958,40.8653198324881]]]}},{"type":"Feature","properties":{"e":"78034"},"geometry":{"type":"Polygon","coordinates":[[[-73.9002772966771,40.8637959250053],[-73.9010810941721,40.8627646728418],[-73.9013227760568,40.8627889419773],[-73.9015677083831,40.8627972909687],[-73.9018131269667,40.8627894415324],[-73.9020562567,40.8627654871331],[-73.9022944035893,40.8627258870306],[-73.9025504606488,40.8627102282338],[-73.9028079449041,40.8627079427785],[-73.9030650189808,40.8627190999738],[-73.9033198786696,40.8627435719979],[-73.9040484024121,40.8627500203163],[-73.9049352854729,40.8627578637698],[-73.9039938982757,40.8642563908279],[-73.9038840451718,40.8644317065048],[-73.9031171349023,40.864104159938],[-73.9025241246207,40.8648818546392],[-73.9019457196931,40.8645612410727],[-73.9011839342349,40.8641912100113],[-73.9002772966771,40.8637959250053]]]}},{"type":"Feature","properties":{"e":"78035"},"geometry":{"type":"Polygon","coordinates":[[[-73.8988742530364,40.8655923173217],[-73.9002772966771,40.8637959250053],[-73.9011839342349,40.8641912100113],[-73.9019457196931,40.8645612410727],[-73.9025241246207,40.8648818546392],[-73.903323617958,40.8653198324881],[-73.9020747883179,40.8670073959096],[-73.9012021015359,40.8666213688569],[-73.9005875772145,40.8663503703336],[-73.8998029641316,40.8660070275368],[-73.8988742530364,40.8655923173217]]]}},{"type":"Feature","properties":{"e":"78036"},"geometry":{"type":"Polygon","coordinates":[[[-73.903751184207,40.8696039178009],[-73.9046001843005,40.8693564478623],[-73.9064226542115,40.8684431962922],[-73.906615985053,40.868324200646],[-73.9067983726697,40.868191840732],[-73.906967491381,40.8680470082941],[-73.9071212163729,40.8678909056677],[-73.9072576835654,40.8677250017648],[-73.9073753366682,40.8675509945828],[-73.9074060782011,40.8674942984615],[-73.9074730572254,40.86737075954],[-73.907550143085,40.8671862750737],[-73.9076063202116,40.8669995306767],[-73.9076417616633,40.8668125193722],[-73.9077049041039,40.8665890949457],[-73.9077049280248,40.866589031306],[-73.9077049521657,40.8665889681691],[-73.9077883741602,40.8663680367358],[-73.907891788756,40.8661511109243],[-73.9080146012717,40.8659398006068],[-73.9081559422957,40.8657355742079],[-73.9083147082287,40.8655398074885],[-73.9084895673134,40.8653537349718],[-73.9085001049383,40.8657382788911],[-73.9084874870109,40.8661239940029],[-73.9084515960572,40.8665096812438],[-73.9083924104091,40.8668941159815],[-73.9083340806408,40.8671647929659],[-73.9083100959509,40.8672760928166],[-73.9082049397362,40.8676544030824],[-73.9080773810378,40.868027887808],[-73.9079279917382,40.8683954209519],[-73.9076271179959,40.8691057935302],[-73.9076143866212,40.8690480513924],[-73.9075823332236,40.868989972638],[-73.907530307051,40.8689371251943],[-73.9074614343264,40.8688951887289],[-73.9073821968781,40.8688681013522],[-73.9073005530698,40.8688569422537],[-73.9072235391131,40.868860040683],[-73.9063200587178,40.8695798737752],[-73.9061945053719,40.869716078372],[-73.9060487599352,40.8698447744286],[-73.9058840371979,40.8699634691128],[-73.9057022371887,40.8700698483938],[-73.9055058662392,40.8701618887237],[-73.9052979869205,40.8702379901849],[-73.9051738083364,40.8702719536724],[-73.9050820292373,40.8702970564189],[-73.9048615885865,40.8703385668355],[-73.9046402591689,40.8703625441473],[-73.9044214576269,40.870369566788],[-73.9040373518103,40.8699574545813],[-73.903751184207,40.8696039178009]]]}},{"type":"Feature","properties":{"e":"78037"},"geometry":{"type":"Polygon","coordinates":[[[-73.89740465609,40.8674824801803],[-73.8963145800879,40.8670468658669],[-73.8969268893059,40.8662597831253],[-73.8979798502997,40.8667359980086],[-73.8988742530364,40.8655923173217],[-73.8998029641316,40.8660070275368],[-73.9005875772145,40.8663503703336],[-73.9012021015359,40.8666213688569],[-73.9020747883179,40.8670073959096],[-73.903323617958,40.8653198324881],[-73.9041070314157,40.8657534327763],[-73.9043919933697,40.8659128123385],[-73.90310130714,40.8676855595784],[-73.9029371639712,40.8679110001306],[-73.9023594732306,40.8687044114874],[-73.902205230728,40.8686406279501],[-73.9020486259666,40.8685802528239],[-73.9018897896089,40.86852333648],[-73.9017288541777,40.868469926404],[-73.9015659542802,40.868420067061],[-73.9014012254923,40.8683738001321],[-73.90123480525,40.8683311642174],[-73.9010668323995,40.8682921948879],[-73.8999671804408,40.8680255924982],[-73.8994257856499,40.8678891281938],[-73.8985448645448,40.867685261462],[-73.89740465609,40.8674824801803]]]}},{"type":"Feature","properties":{"e":"78038"},"geometry":{"type":"Polygon","coordinates":[[[-73.8943827252958,40.8660771415123],[-73.8943974058247,40.8660572717963],[-73.8944260881697,40.8660184457437],[-73.8944355043128,40.8660057008228],[-73.8949336820187,40.8653616288355],[-73.8950435432321,40.8652117880609],[-73.8953035889567,40.8648550706566],[-73.8957945053804,40.8642238570425],[-73.8971452208117,40.8624533546485],[-73.897283849322,40.8624456645219],[-73.8973741707016,40.8624406540282],[-73.897982416679,40.8624108298307],[-73.8984118071772,40.8623052561023],[-73.8981086887113,40.8627446893751],[-73.8980408154766,40.862839973079],[-73.8974966391772,40.8636776954565],[-73.896833051874,40.8646838605432],[-73.8960003556641,40.8658423405361],[-73.8969268893059,40.8662597831253],[-73.8963145800879,40.8670468658669],[-73.8954440568633,40.8666103792626],[-73.895362938615,40.8665696210712],[-73.8945319097249,40.8661521001576],[-73.8943827252958,40.8660771415123]]]}},{"type":"Feature","properties":{"e":"78039"},"geometry":{"type":"Polygon","coordinates":[[[-73.8886859196676,40.8715034045781],[-73.8888444367894,40.871406358868],[-73.8895019123363,40.8710288480345],[-73.8899188656605,40.8707889235734],[-73.8904290602133,40.8704953456278],[-73.8909883911442,40.8701690066496],[-73.8911949254799,40.8700183244822],[-73.8913908916671,40.869859285329],[-73.8915754224622,40.869692543946],[-73.8917477568774,40.8695188391201],[-73.8919186047248,40.8693104010946],[-73.8922140100256,40.8689237909801],[-73.8924365127041,40.8686288891564],[-73.8930041218609,40.8678893595958],[-73.8931869078317,40.867961071673],[-73.8941540322053,40.8683939552201],[-73.8926341526478,40.8700515769382],[-73.8920583622816,40.8706650020378],[-73.8918987147493,40.8707171896265],[-73.8911024604648,40.8711827775606],[-73.8909878969228,40.8717726330291],[-73.8908402072197,40.871772142125],[-73.8908398746416,40.8717721418104],[-73.8908395665141,40.8717721694953],[-73.8906875444501,40.8717869907545],[-73.8906874259239,40.871787000526],[-73.8906872956731,40.8717870273739],[-73.8905348312821,40.8718183364604],[-73.890534653348,40.871818371974],[-73.8905344992321,40.8718184173941],[-73.8903863488794,40.8718665071308],[-73.8903862179364,40.8718665520701],[-73.8903860876268,40.8718666144324],[-73.8902468551989,40.8719308403981],[-73.8901210625846,40.8720094506197],[-73.8901209560935,40.8720095223857],[-73.8901208612833,40.8720096035441],[-73.8900122028095,40.8720999262443],[-73.890012095625,40.8721000167721],[-73.8900119884116,40.8721001247222],[-73.8899228184791,40.8721990568218],[-73.8899227236385,40.8721991560724],[-73.8899226517506,40.8721992548424],[-73.8898540779713,40.8723033858385],[-73.8898539952241,40.8723035119043],[-73.889853924144,40.8723036557387],[-73.8898057983445,40.8724097592018],[-73.8888229054368,40.8716127574229],[-73.8886859196676,40.8715034045781]]]}},{"type":"Feature","properties":{"e":"78040"},"geometry":{"type":"Polygon","coordinates":[[[-73.8909878969228,40.8717726330291],[-73.8911024604648,40.8711827775606],[-73.8918987147493,40.8707171896265],[-73.8920583622816,40.8706650020378],[-73.8926341526478,40.8700515769382],[-73.8941540322053,40.8683939552201],[-73.8949637493404,40.8687572143011],[-73.8932416989724,40.8706057711122],[-73.8936609780932,40.8708666146004],[-73.893839903703,40.8710141898459],[-73.89348022153,40.8711967122407],[-73.8930726328348,40.8714035555141],[-73.8924207853209,40.8717145182736],[-73.8922247697649,40.8717630076645],[-73.8920220607707,40.8717987747969],[-73.8918148057861,40.8718211200628],[-73.8916053908447,40.8718296127997],[-73.8913961881882,40.8718241659385],[-73.8911895938344,40.8718049983466],[-73.8909878969228,40.8717726330291]]]}},{"type":"Feature","properties":{"e":"78041"},"geometry":{"type":"Polygon","coordinates":[[[-73.8941540322053,40.8683939552201],[-73.8931869078317,40.867961071673],[-73.8930041218609,40.8678893595958],[-73.893685778157,40.8669891116229],[-73.8937628122673,40.8668833486797],[-73.8939734394588,40.866610595333],[-73.894088392485,40.8664617236013],[-73.8943196752342,40.8661622171939],[-73.8943415479923,40.8661327020598],[-73.894365809755,40.8660999624455],[-73.8943827252958,40.8660771415123],[-73.8945319097249,40.8661521001576],[-73.895362938615,40.8665696210712],[-73.8954440568633,40.8666103792626],[-73.8963145800879,40.8670468658669],[-73.8949637493404,40.8687572143011],[-73.8941540322053,40.8683939552201]]]}},{"type":"Feature","properties":{"e":"78042"},"geometry":{"type":"Polygon","coordinates":[[[-73.8949637493404,40.8687572143011],[-73.8963145800879,40.8670468658669],[-73.89740465609,40.8674824801803],[-73.8965620288737,40.8685734907961],[-73.8960386147333,40.8692381309419],[-73.8952117272757,40.870316547843],[-73.894449674982,40.8707317522809],[-73.893839903703,40.8710141898459],[-73.8936609780932,40.8708666146004],[-73.8932416989724,40.8706057711122],[-73.8949637493404,40.8687572143011]]]}},{"type":"Feature","properties":{"e":"78043"},"geometry":{"type":"Polygon","coordinates":[[[-73.8989199667044,40.8696668653292],[-73.8965620288737,40.8685734907961],[-73.89740465609,40.8674824801803],[-73.8985448645448,40.867685261462],[-73.8994257856499,40.8678891281938],[-73.8999671804408,40.8680255924982],[-73.9010668323995,40.8682921948879],[-73.90123480525,40.8683311642174],[-73.9014012254923,40.8683738001321],[-73.9015659542802,40.868420067061],[-73.9017288541777,40.868469926404],[-73.9018897896089,40.86852333648],[-73.9020486259666,40.8685802528239],[-73.902205230728,40.8686406279501],[-73.9023594732306,40.8687044114874],[-73.9031880997179,40.8691572820845],[-73.903751184207,40.8696039178009],[-73.9033330841095,40.8698648914607],[-73.9031671452258,40.8699924680109],[-73.9030144999917,40.8701304293541],[-73.9028767872917,40.870277517149],[-73.9027553254275,40.8704322985625],[-73.9026511630286,40.8705932096977],[-73.9015240691451,40.870400684],[-73.9006077868103,40.8702413933928],[-73.8996872398465,40.870049549448],[-73.8989199667044,40.8696668653292]]]}},{"type":"Feature","properties":{"e":"78044"},"geometry":{"type":"Polygon","coordinates":[[[-73.9009553494859,40.8723011649747],[-73.9000395604653,40.8721443927477],[-73.8990866967836,40.8719771354405],[-73.8993049550593,40.8712519627874],[-73.8983015324378,40.8710791270742],[-73.8977910461374,40.8708649345147],[-73.8989199667044,40.8696668653292],[-73.8996872398465,40.870049549448],[-73.9006077868103,40.8702413933928],[-73.9015240691451,40.870400684],[-73.9026511630286,40.8705932096977],[-73.9021473280942,40.8725106629443],[-73.9009553494859,40.8723011649747]]]}},{"type":"Feature","properties":{"e":"78045"},"geometry":{"type":"Polygon","coordinates":[[[-73.8850568738474,40.8736021117504],[-73.8853323587091,40.8729477748827],[-73.8856151864618,40.8722776766328],[-73.8869180074261,40.8713515656931],[-73.8877881899465,40.8707491412078],[-73.8885489919239,40.8713880094054],[-73.888639263099,40.8714612174843],[-73.8886859196676,40.8715034045781],[-73.8883368907674,40.8717181226498],[-73.8879364576511,40.8720385240488],[-73.8878972906033,40.8720781013348],[-73.8878533836098,40.8721224678381],[-73.8877964014893,40.8721877829222],[-73.8877790974314,40.8722076179017],[-73.887635965946,40.8723729080453],[-73.8875049477503,40.8725440620625],[-73.8873866493637,40.8727202994264],[-73.887089359938,40.8733727722623],[-73.8868079933954,40.8740206158098],[-73.8866078960046,40.8739727917753],[-73.8850568738474,40.8736021117504]]]}},{"type":"Feature","properties":{"e":"78046"},"geometry":{"type":"Polygon","coordinates":[[[-73.9021473280942,40.8725106629443],[-73.9026511630286,40.8705932096977],[-73.9027553254275,40.8704322985625],[-73.9028767872917,40.870277517149],[-73.9030144999917,40.8701304293541],[-73.9031671452258,40.8699924680109],[-73.9033330841095,40.8698648914607],[-73.903751184207,40.8696039178009],[-73.9040373518103,40.8699574545813],[-73.9044214576269,40.870369566788],[-73.9042579500174,40.8704732043576],[-73.9041082059354,40.870590836274],[-73.9040504011186,40.870647321364],[-73.9039752293555,40.8707207655689],[-73.9038614898274,40.8708608227569],[-73.903768807758,40.8710084891966],[-73.9036982058735,40.8711610540976],[-73.9027512735619,40.8739741612543],[-73.902640592883,40.8739617013951],[-73.9018891461512,40.8737266378473],[-73.9017491734512,40.873683481467],[-73.9021473280942,40.8725106629443]]]}},{"type":"Feature","properties":{"e":"78047"},"geometry":{"type":"Polygon","coordinates":[[[-73.9027512735619,40.8739741612543],[-73.9036982058735,40.8711610540976],[-73.903768807758,40.8710084891966],[-73.9038614898274,40.8708608227569],[-73.9039752293555,40.8707207655689],[-73.9040504011186,40.870647321364],[-73.9041082059354,40.870590836274],[-73.9042579500174,40.8704732043576],[-73.9044214576269,40.870369566788],[-73.9044900311233,40.8705868393751],[-73.9044357136333,40.8722536004375],[-73.9044414989054,40.8723386194223],[-73.9044415109124,40.8723387105647],[-73.9044415339697,40.8723387908273],[-73.904470393374,40.8724236861839],[-73.9044704402007,40.8724238118649],[-73.9044705117698,40.8724239201439],[-73.9045220011402,40.8725033140022],[-73.904522130857,40.8725035024053],[-73.9045223086956,40.8725036831421],[-73.9045933157832,40.8725727380202],[-73.9045933750728,40.8725727913415],[-73.9045934581964,40.8725728451851],[-73.9046787084944,40.8726281707178],[-73.9057156797382,40.8731466133855],[-73.9047099637472,40.8746249933074],[-73.9037070521415,40.8743006063775],[-73.9036239627224,40.8742329170873],[-73.9035104082292,40.874197466669],[-73.9028864517719,40.8740026688725],[-73.9028235415669,40.8739830281373],[-73.9027512735619,40.8739741612543]]]}},{"type":"Feature","properties":{"e":"78049"},"geometry":{"type":"Polygon","coordinates":[[[-73.8675907546289,40.8589037886289],[-73.8675579224068,40.8582735516374],[-73.8675889383035,40.8578383792828],[-73.8675904062012,40.8577761135098],[-73.8676004556951,40.8573498944648],[-73.8676029542279,40.8572439369037],[-73.8676097529048,40.8570043677292],[-73.8676142872135,40.8567760530207],[-73.8676151969867,40.8566288056225],[-73.8686329689448,40.8566218380539],[-73.8691678806932,40.8566182152404],[-73.8692753265324,40.8566972719138],[-73.8690776597828,40.8569538500247],[-73.8688800036432,40.8572104277992],[-73.8687689431761,40.8573490699154],[-73.8684168101758,40.8577886477351],[-73.8681897187481,40.8580721239657],[-73.8678220778359,40.8585114399663],[-73.8677938728393,40.8585716681694],[-73.8676360572195,40.858918041737],[-73.8675955870686,40.8589965267564],[-73.8675907546289,40.8589037886289]]]}}]}