{"type":"FeatureCollection","ad":83,"features":[{"type":"Feature","properties":{"e":"83001"},"geometry":{"type":"Polygon","coordinates":[[[-73.8327477077839,40.8684592459027],[-73.8327214148723,40.8684052777047],[-73.8326454368939,40.8682452491829],[-73.8319896566348,40.86702145833],[-73.8318203972953,40.8667055848209],[-73.8311414946805,40.8654385792742],[-73.8310089538013,40.8651722182959],[-73.8308080730046,40.8647872340255],[-73.8307543297302,40.8646842288594],[-73.8302252864729,40.8634378203623],[-73.8295569244054,40.8621715024925],[-73.8308182835223,40.8624381184325],[-73.8315976020209,40.8626529962547],[-73.8357857704278,40.8650243036451],[-73.8360108370975,40.8651409085393],[-73.8361874170958,40.8652323915562],[-73.8367896461773,40.8655541983449],[-73.836971614907,40.86565142863],[-73.8378452056071,40.8661074803099],[-73.8387536394455,40.8665810698124],[-73.839222258476,40.8668291326225],[-73.839546161871,40.866995030784],[-73.8397437379398,40.8670962230324],[-73.8406450525829,40.8675624680427],[-73.8412250304226,40.8678664438635],[-73.8407215173196,40.8680173112302],[-73.839888419285,40.8682832083916],[-73.8390549013727,40.8685535193842],[-73.8399029285756,40.8703076746954],[-73.8390702170979,40.8705769872436],[-73.838683550152,40.8707024438677],[-73.8382362510755,40.8708475799386],[-73.8374032171718,40.8711172220805],[-73.8365773912384,40.8713810255411],[-73.8357412411971,40.8716511271987],[-73.8353573836685,40.8717747947263],[-73.8349058467769,40.8719202730139],[-73.8343386139607,40.8720353166002],[-73.8342367115569,40.8717858368883],[-73.8340536547235,40.8713376675138],[-73.8338150373716,40.8707534556764],[-73.83369484644,40.8704591813637],[-73.8327814360611,40.8685283091637],[-73.8327477077839,40.8684592459027]]]}},{"type":"Feature","properties":{"e":"83002"},"geometry":{"type":"Polygon","coordinates":[[[-73.8348770508544,40.8754462059908],[-73.8348938883664,40.8750792310276],[-73.8348936891659,40.8749054321307],[-73.8348937115042,40.8747531602559],[-73.8348786972786,40.8744121764425],[-73.8348631146566,40.8742856362142],[-73.8348486264644,40.8740718661128],[-73.8348035823915,40.8737328034757],[-73.8347392126884,40.8733893277069],[-73.8346604143683,40.8730473164682],[-73.8345672699654,40.8727073025717],[-73.8344599441564,40.8723697978346],[-73.8343386139607,40.8720353166002],[-73.8349058467769,40.8719202730139],[-73.8353573836685,40.8717747947263],[-73.8357412411971,40.8716511271987],[-73.8365773912384,40.8713810255411],[-73.8374032171718,40.8711172220805],[-73.8382362510755,40.8708475799386],[-73.838683550152,40.8707024438677],[-73.8390702170979,40.8705769872436],[-73.8399029285756,40.8703076746954],[-73.8390549013727,40.8685535193842],[-73.839888419285,40.8682832083916],[-73.8407215173196,40.8680173112302],[-73.8412250304226,40.8678664438635],[-73.8415896727854,40.8680601724994],[-73.841853270828,40.8682002184373],[-73.8422288576943,40.8688614038687],[-73.8423620064002,40.8689587569932],[-73.8426365279214,40.8694224347959],[-73.8431711386864,40.8702983034098],[-73.8435454067915,40.8712635511803],[-73.8424562234318,40.8716143416442],[-73.8416251068318,40.8718843143541],[-73.8407931871692,40.8721546756559],[-73.8399605563353,40.8724219879183],[-73.8391229591832,40.8726900248504],[-73.8382936192773,40.8729596329408],[-73.837461681711,40.8732309441647],[-73.8366315038451,40.8734980090215],[-73.8358187519548,40.8738063274928],[-73.8356939983848,40.873850174835],[-73.835693867401,40.8738502197122],[-73.8356937608929,40.8738502733355],[-73.8355750617657,40.873911247848],[-73.8354683744969,40.8739885462263],[-73.8354682679204,40.8739886273231],[-73.8354681847144,40.8739887178344],[-73.835379056148,40.8740799814254],[-73.8353119079945,40.8741813702501],[-73.8353117655712,40.8741815781105],[-73.8353116703376,40.874181801953],[-73.8352688402299,40.8742887999489],[-73.8352505643067,40.8743966437944],[-73.8352505407296,40.8743968067607],[-73.8352505520049,40.8743969769802],[-73.8352551455892,40.8745012063262],[-73.8353399282904,40.8749243323798],[-73.8354097078265,40.8751402875203],[-73.8354097667693,40.875140459483],[-73.8354098371698,40.8751406390006],[-73.8354969105986,40.8753533153559],[-73.8354969336623,40.8753533597824],[-73.8354969573852,40.8753534053825],[-73.835600947311,40.8755617915422],[-73.8356009703516,40.8755618453499],[-73.835601006193,40.8755618991759],[-73.8357212629197,40.8757647794604],[-73.8358111055565,40.8759807645551],[-73.83595342901,40.8762206794556],[-73.8357699495255,40.8762899921392],[-73.8348770508544,40.8754462059908]]]}},{"type":"Feature","properties":{"e":"83003"},"geometry":{"type":"Polygon","coordinates":[[[-73.8435454067915,40.8712635511803],[-73.8431711386864,40.8702983034098],[-73.8426365279214,40.8694224347959],[-73.8423620064002,40.8689587569932],[-73.8422288576943,40.8688614038687],[-73.841853270828,40.8682002184373],[-73.8415896727854,40.8680601724994],[-73.8412250304226,40.8678664438635],[-73.8416026485451,40.867791429792],[-73.8428121143156,40.8675506986685],[-73.8432148701107,40.8674528583673],[-73.8442938800816,40.8674742838061],[-73.8452349556812,40.8674927854517],[-73.8461758054963,40.8675117111629],[-73.8461448591608,40.8688028552972],[-73.8454046394332,40.8696568640392],[-73.8451739734649,40.8699229909802],[-73.8455840668731,40.8701337932402],[-73.8457828812539,40.8702359890653],[-73.8460909781555,40.8703980647444],[-73.8464090710267,40.8705625935434],[-73.8469941440369,40.8708611816517],[-73.8472528556293,40.8709953453665],[-73.8479275481593,40.8713505265385],[-73.8485981683921,40.8716790781351],[-73.848938956464,40.8717938831985],[-73.8487855980472,40.8720150558845],[-73.8495326491967,40.8733541389858],[-73.8486613924703,40.8736197787937],[-73.8477933487125,40.873888703227],[-73.8469248843512,40.8741616454771],[-73.8464086437873,40.8743219756503],[-73.8460537022195,40.8744322089542],[-73.8457085188187,40.8745393746371],[-73.8451155324535,40.8747234779679],[-73.8442320490023,40.8730782831619],[-73.8440801508124,40.8726653918326],[-73.8439642500633,40.8723620767117],[-73.8438956273125,40.8721820991265],[-73.8435454067915,40.8712635511803]]]}},{"type":"Feature","properties":{"e":"83004"},"geometry":{"type":"Polygon","coordinates":[[[-73.845427726788,40.8925234155862],[-73.8462964028957,40.8923318626957],[-73.8471825151278,40.8921360759719],[-73.8480636088482,40.8944453646254],[-73.8489389985182,40.8942155925592],[-73.8494151035564,40.8954629011513],[-73.8495157324268,40.8957265145286],[-73.8486307184626,40.8959220861612],[-73.8496081659026,40.8984795543389],[-73.8487231778936,40.8986738300381],[-73.8478565996199,40.8988647555159],[-73.846876184108,40.8963089725449],[-73.846370199127,40.8949867278456],[-73.845427726788,40.8925234155862]]]}},{"type":"Feature","properties":{"e":"83005"},"geometry":{"type":"Polygon","coordinates":[[[-73.837461681711,40.8732309441647],[-73.8382936192773,40.8729596329408],[-73.8391229591832,40.8726900248504],[-73.8399605563353,40.8724219879183],[-73.8407931871692,40.8721546756559],[-73.8416251068318,40.8718843143541],[-73.8424562234318,40.8716143416442],[-73.8435454067915,40.8712635511803],[-73.8438956273125,40.8721820991265],[-73.8439642500633,40.8723620767117],[-73.8440801508124,40.8726653918326],[-73.8442320490023,40.8730782831619],[-73.8451155324535,40.8747234779679],[-73.8442356539442,40.8750031557607],[-73.8434142153503,40.8752642938414],[-73.8425772509265,40.875546241571],[-73.8420469599029,40.8757193034991],[-73.8417428764068,40.8758185429818],[-73.8410750747643,40.8760547160447],[-73.8407518342108,40.8761380364749],[-73.8400717696255,40.8763537590546],[-73.8392492952704,40.8766270327263],[-73.8383554984664,40.8749302517362],[-73.837461681711,40.8732309441647]]]}},{"type":"Feature","properties":{"e":"83006"},"geometry":{"type":"Polygon","coordinates":[[[-73.8340163421948,40.8784662122804],[-73.8339582803786,40.8783556839088],[-73.8341192238338,40.8779885871309],[-73.8342973052336,40.8776391478451],[-73.8344531111655,40.8772824363069],[-73.8345859265863,40.8769197110177],[-73.8346951909543,40.8765522429191],[-73.8347804985224,40.8761813720146],[-73.8347935080155,40.8761020123793],[-73.8348423877847,40.8758012207446],[-73.8348707784307,40.8755278209307],[-73.8348770508544,40.8754462059908],[-73.8357699495255,40.8762899921392],[-73.83595342901,40.8762206794556],[-73.8358111055565,40.8759807645551],[-73.8357212629197,40.8757647794604],[-73.835601006193,40.8755618991759],[-73.8356009703516,40.8755618453499],[-73.835600947311,40.8755617915422],[-73.8354969573852,40.8753534053825],[-73.8354969336623,40.8753533597824],[-73.8354969105986,40.8753533153559],[-73.8354098371698,40.8751406390006],[-73.8354097667693,40.875140459483],[-73.8354097078265,40.8751402875203],[-73.8353399282904,40.8749243323798],[-73.8352551455892,40.8745012063262],[-73.8352505520049,40.8743969769802],[-73.8352505407296,40.8743968067607],[-73.8352505643067,40.8743966437944],[-73.8352688402299,40.8742887999489],[-73.8353116703376,40.874181801953],[-73.8353117655712,40.8741815781105],[-73.8353119079945,40.8741813702501],[-73.835379056148,40.8740799814254],[-73.8354681847144,40.8739887178344],[-73.8354682679204,40.8739886273231],[-73.8354683744969,40.8739885462263],[-73.8355750617657,40.873911247848],[-73.8356937608929,40.8738502733355],[-73.835693867401,40.8738502197122],[-73.8356939983848,40.873850174835],[-73.8358187519548,40.8738063274928],[-73.8366315038451,40.8734980090215],[-73.837461681711,40.8732309441647],[-73.8383554984664,40.8749302517362],[-73.8392492952704,40.8766270327263],[-73.8400717696255,40.8763537590546],[-73.8407518342108,40.8761380364749],[-73.8410750747643,40.8760547160447],[-73.8417428764068,40.8758185429818],[-73.8420469599029,40.8757193034991],[-73.8425772509265,40.875546241571],[-73.8434142153503,40.8752642938414],[-73.8442356539442,40.8750031557607],[-73.8451155324535,40.8747234779679],[-73.8460067963584,40.8763886115762],[-73.8451118976695,40.8766709878081],[-73.8442837194778,40.8769402088063],[-73.8434526368962,40.8772158047191],[-73.8426131812707,40.8774775878787],[-73.8422223773366,40.8776080387702],[-73.8417775562076,40.8777522893807],[-73.8416820222081,40.8777371833262],[-73.8416414563776,40.8777542229179],[-73.8416056122819,40.8777765433655],[-73.8415756689294,40.8778034099244],[-73.8415526109871,40.8778339395178],[-73.8414328957894,40.8777709798003],[-73.8408417222444,40.877877444041],[-73.8407056590895,40.8780362005601],[-73.8401494232134,40.8777967203595],[-73.8397132962572,40.8776198895551],[-73.8395662630101,40.8775581101891],[-73.8392568968437,40.8774281174752],[-73.838553385291,40.8771278220541],[-73.8381581541359,40.8769617966781],[-73.8375423856517,40.8771738315899],[-73.8366025750469,40.8774837324829],[-73.8362345456217,40.8776014716533],[-73.8356794603372,40.8777790510385],[-73.8366076899446,40.8794286419581],[-73.8357334805988,40.8797096298377],[-73.8348215883493,40.8780632984065],[-73.8346452279757,40.8781075999258],[-73.8344740950381,40.8781692211634],[-73.8343125476042,40.8782475304716],[-73.8341647011418,40.8783410423468],[-73.834034081077,40.8784475288302],[-73.8340163421948,40.8784662122804]]]}},{"type":"Feature","properties":{"e":"83007"},"geometry":{"type":"Polygon","coordinates":[[[-73.8407056590895,40.8780362005601],[-73.8408417222444,40.877877444041],[-73.8414328957894,40.8777709798003],[-73.8415526109871,40.8778339395178],[-73.8415756689294,40.8778034099244],[-73.8416056122819,40.8777765433655],[-73.8416414563776,40.8777542229179],[-73.8416820222081,40.8777371833262],[-73.8417775562076,40.8777522893807],[-73.8422223773366,40.8776080387702],[-73.8426131812707,40.8774775878787],[-73.8434526368962,40.8772158047191],[-73.8442837194778,40.8769402088063],[-73.8451118976695,40.8766709878081],[-73.8460067963584,40.8763886115762],[-73.8451155324535,40.8747234779679],[-73.8457085188187,40.8745393746371],[-73.8460537022195,40.8744322089542],[-73.8464086437873,40.8743219756503],[-73.8469248843512,40.8741616454771],[-73.8477933487125,40.873888703227],[-73.8486613924703,40.8736197787937],[-73.8495326491967,40.8733541389858],[-73.8487855980472,40.8720150558845],[-73.848938956464,40.8717938831985],[-73.849877860062,40.8721101744303],[-73.8507912415391,40.8724045855188],[-73.8510469268061,40.8724882811616],[-73.8516266210022,40.8726675227448],[-73.8526589276062,40.873000480519],[-73.8536377973511,40.8733088923504],[-73.8527817524932,40.8739615223236],[-73.8521422136016,40.8744529385285],[-73.8514338886692,40.8749955650304],[-73.8506909652592,40.8754949720567],[-73.849885820121,40.875883334023],[-73.8490302492321,40.8761809913073],[-73.8481669783762,40.8764601186498],[-73.847300147834,40.8767414310461],[-73.8463692466604,40.877043012894],[-73.8454622424408,40.8773550897468],[-73.8447958991932,40.8778903652222],[-73.8441022565222,40.8784515867609],[-73.8434168482516,40.8789974185684],[-73.8432425443752,40.8791172080752],[-73.8423969995317,40.8787586878305],[-73.8422838254947,40.8787102672024],[-73.8411419381622,40.8782240313778],[-73.8409971332228,40.8781616881721],[-73.8407056590895,40.8780362005601]]]}},{"type":"Feature","properties":{"e":"83008"},"geometry":{"type":"Polygon","coordinates":[[[-73.848938956464,40.8717938831985],[-73.8485981683921,40.8716790781351],[-73.8479275481593,40.8713505265385],[-73.8472528556293,40.8709953453665],[-73.8469941440369,40.8708611816517],[-73.8464090710267,40.8705625935434],[-73.8467959438727,40.8701250648115],[-73.8470367494283,40.8698527346533],[-73.8474433557845,40.8693516988824],[-73.8479952013037,40.869362765311],[-73.8489748580302,40.8693808009076],[-73.8490235879035,40.8678553078385],[-73.8490329477597,40.8675622915132],[-73.850004232802,40.8675832255445],[-73.8509443910664,40.8675994277501],[-73.8518845644316,40.8676142992161],[-73.8518255419636,40.8694336815259],[-73.8511486218604,40.8694208073029],[-73.851108815254,40.8694200500061],[-73.8508865593645,40.8694158215376],[-73.8507351189546,40.8695175402954],[-73.850726015207,40.8696864147955],[-73.8507867684895,40.869828888369],[-73.8508472983213,40.8700707060153],[-73.8507898225053,40.8704117164925],[-73.8506672899675,40.8705837560048],[-73.8507280281954,40.8707328519217],[-73.8509020706626,40.8709350779543],[-73.8508301467115,40.8711587822915],[-73.8510217908148,40.8711604993735],[-73.8510737111002,40.8711609637551],[-73.8512695711407,40.8711627188685],[-73.8513055108962,40.871163040759],[-73.8514773260023,40.8711645794216],[-73.8515094338222,40.8711648666651],[-73.8515853983996,40.8711655468663],[-73.8516213381581,40.8711658686585],[-73.8517685458081,40.8711671864462],[-73.8517194267039,40.8725723400114],[-73.8516266210022,40.8726675227448],[-73.8510469268061,40.8724882811616],[-73.8507912415391,40.8724045855188],[-73.849877860062,40.8721101744303],[-73.848938956464,40.8717938831985]]]}},{"type":"Feature","properties":{"e":"83009"},"geometry":{"type":"Polygon","coordinates":[[[-73.8517685458081,40.8711671864462],[-73.8516213381581,40.8711658686585],[-73.8515853983996,40.8711655468663],[-73.8515094338222,40.8711648666651],[-73.8514773260023,40.8711645794216],[-73.8513055108962,40.871163040759],[-73.8512695711407,40.8711627188685],[-73.8510737111002,40.8711609637551],[-73.8510217908148,40.8711604993735],[-73.8508301467115,40.8711587822915],[-73.8509020706626,40.8709350779543],[-73.8507280281954,40.8707328519217],[-73.8506672899675,40.8705837560048],[-73.8507898225053,40.8704117164925],[-73.8508472983213,40.8700707060153],[-73.8507867684895,40.869828888369],[-73.850726015207,40.8696864147955],[-73.8507351189546,40.8695175402954],[-73.8508865593645,40.8694158215376],[-73.851108815254,40.8694200500061],[-73.8511486218604,40.8694208073029],[-73.8518255419636,40.8694336815259],[-73.8520976075225,40.8694383281916],[-73.8521931530661,40.8694399608338],[-73.8527594635422,40.8694496270327],[-73.8530505540432,40.8694556389255],[-73.8531137881464,40.8694569451999],[-73.8534859155108,40.8694646308192],[-73.8537003181023,40.8694690577489],[-73.8539644689821,40.869474496937],[-73.8546164878753,40.8694879194854],[-73.8546055593202,40.8698983847821],[-73.8546036984451,40.8699682625283],[-73.854600062489,40.870104806708],[-73.8545986112555,40.8701593145548],[-73.8545949716082,40.8702960234003],[-73.8545937612973,40.8703414740769],[-73.8545841914045,40.8707008945563],[-73.8545704276376,40.871217855971],[-73.8543193297754,40.8712139617999],[-73.8542714236824,40.8712132189912],[-73.8540875701269,40.8712103671111],[-73.8540398083636,40.8712096265665],[-73.8537957193602,40.8712058389595],[-73.8537518987276,40.871205158739],[-73.8536426332598,40.87120346342],[-73.8534279072904,40.8711992363385],[-73.8533918606643,40.8711985274923],[-73.8532001990893,40.871194754628],[-73.8531480637323,40.8711937282195],[-73.8529005060455,40.8711888539482],[-73.8528563605577,40.8711879846776],[-73.8527056789046,40.8711850175941],[-73.8525245928969,40.8711815738919],[-73.8524885440333,40.8711808872088],[-73.8522848762871,40.871177012542],[-73.852236860498,40.8711760990473],[-73.8519650008529,40.8711709254545],[-73.8519250486483,40.8711701644009],[-73.8517685458081,40.8711671864462]]]}},{"type":"Feature","properties":{"e":"83010"},"geometry":{"type":"Polygon","coordinates":[[[-73.8516266210022,40.8726675227448],[-73.8517194267039,40.8725723400114],[-73.8517685458081,40.8711671864462],[-73.8519250486483,40.8711701644009],[-73.8519650008529,40.8711709254545],[-73.852236860498,40.8711760990473],[-73.8522848762871,40.871177012542],[-73.8524885440333,40.8711808872088],[-73.8525245928969,40.8711815738919],[-73.8527056789046,40.8711850175941],[-73.8528563605577,40.8711879846776],[-73.8529005060455,40.8711888539482],[-73.8531480637323,40.8711937282195],[-73.8532001990893,40.871194754628],[-73.8533918606643,40.8711985274923],[-73.8534279072904,40.8711992363385],[-73.8536426332598,40.87120346342],[-73.8537518987276,40.871205158739],[-73.8537957193602,40.8712058389595],[-73.8540398083636,40.8712096265665],[-73.8540875701269,40.8712103671111],[-73.8542714236824,40.8712132189912],[-73.8543193297754,40.8712139617999],[-73.8545704276376,40.871217855971],[-73.8545841914045,40.8707008945563],[-73.8545937612973,40.8703414740769],[-73.8545949716082,40.8702960234003],[-73.8545986112555,40.8701593145548],[-73.854600062489,40.870104806708],[-73.8546036984451,40.8699682625283],[-73.8546055593202,40.8698983847821],[-73.8546164878753,40.8694879194854],[-73.8539644689821,40.869474496937],[-73.8537003181023,40.8694690577489],[-73.8534859155108,40.8694646308192],[-73.8531137881464,40.8694569451999],[-73.8530505540432,40.8694556389255],[-73.8527594635422,40.8694496270327],[-73.8521931530661,40.8694399608338],[-73.8520976075225,40.8694383281916],[-73.8518255419636,40.8694336815259],[-73.8518845644316,40.8676142992161],[-73.8528197834965,40.8676327035033],[-73.853757496199,40.8676502305744],[-73.8546979389561,40.8676675376925],[-73.8557087903364,40.8676865719613],[-73.8567217065791,40.8677057641105],[-73.8566642038468,40.8695252313314],[-73.856663862855,40.8703694782004],[-73.8565032886459,40.8705746572624],[-73.8560317833239,40.871241812808],[-73.8555505015507,40.8718214603469],[-73.8545449205756,40.87261264627],[-73.8536377973511,40.8733088923504],[-73.8526589276062,40.873000480519],[-73.8516266210022,40.8726675227448]]]}},{"type":"Feature","properties":{"e":"83011"},"geometry":{"type":"Polygon","coordinates":[[[-73.8580307039066,40.8747125511084],[-73.8574437142447,40.8745219417343],[-73.8565143342736,40.8742260863784],[-73.8557719337218,40.8739920061299],[-73.855518994398,40.8739122494953],[-73.8545094603817,40.8735892356621],[-73.8536377973511,40.8733088923504],[-73.8545449205756,40.87261264627],[-73.8555505015507,40.8718214603469],[-73.8560317833239,40.871241812808],[-73.8565032886459,40.8705746572624],[-73.856663862855,40.8703694782004],[-73.8566642038468,40.8695252313314],[-73.8574515456802,40.8695408127946],[-73.8576092875549,40.8695426735628],[-73.8585426534107,40.8695592379815],[-73.8594850241529,40.8695754087857],[-73.8594282157092,40.8713089892913],[-73.8593760259879,40.8730901926037],[-73.8603114760008,40.8731096808564],[-73.8613224177837,40.8731316840317],[-73.8613065497798,40.8736813053866],[-73.8613123101243,40.8740706030429],[-73.8610753065855,40.8744798057568],[-73.8607057094685,40.8751526199053],[-73.860513620168,40.8755023004222],[-73.8589170072337,40.8749932314889],[-73.8580307039066,40.8747125511084]]]}},{"type":"Feature","properties":{"e":"83012"},"geometry":{"type":"Polygon","coordinates":[[[-73.8594850241529,40.8695754087857],[-73.8604234296056,40.8695932974434],[-73.8614352502203,40.8696117601707],[-73.8617958884753,40.869618152455],[-73.8617969616133,40.8696181713301],[-73.8624488643526,40.8696297226401],[-73.8633876242967,40.8696490631563],[-73.8633333957527,40.8713834499237],[-73.8631837972782,40.8721838360963],[-73.861365637253,40.8718272055564],[-73.8613463956214,40.8725332201397],[-73.861332628911,40.8728768199348],[-73.8613224177837,40.8731316840317],[-73.8603114760008,40.8731096808564],[-73.8593760259879,40.8730901926037],[-73.8594282157092,40.8713089892913],[-73.8594850241529,40.8695754087857]]]}},{"type":"Feature","properties":{"e":"83013"},"geometry":{"type":"Polygon","coordinates":[[[-73.8670396551873,40.8752203338854],[-73.8669025450126,40.8751759352122],[-73.8660406350568,40.8750722105502],[-73.8659443719747,40.8750606259631],[-73.8658915240132,40.8750539383607],[-73.8657472893784,40.8750356868958],[-73.8656859438059,40.8750279238677],[-73.8650699121965,40.8749499661304],[-73.8649765256514,40.8749381480586],[-73.8637130606245,40.8747808064218],[-73.8626908549792,40.874663062079],[-73.8613971154139,40.8745163123286],[-73.8610753065855,40.8744798057568],[-73.8613123101243,40.8740706030429],[-73.8613065497798,40.8736813053866],[-73.8613224177837,40.8731316840317],[-73.861332628911,40.8728768199348],[-73.8613463956214,40.8725332201397],[-73.861365637253,40.8718272055564],[-73.8631837972782,40.8721838360963],[-73.8636214362716,40.8722728623964],[-73.8638677947219,40.8723059403781],[-73.8638955877827,40.872405296552],[-73.8638956114688,40.8724053691174],[-73.8638956468722,40.8724054316452],[-73.8639440978222,40.8725026516233],[-73.8639441446632,40.8725027329272],[-73.8639442038807,40.8725028055345],[-73.8640126558191,40.872594213732],[-73.8640127387984,40.8725943220497],[-73.864012844971,40.8725944203433],[-73.8640991342485,40.8726765841432],[-73.8640992639792,40.8726767099382],[-73.8640994301407,40.8726768275675],[-73.8642001928167,40.8727470232356],[-73.8642002990445,40.8727470947254],[-73.864200429107,40.8727471662433],[-73.8643115647279,40.8728036505347],[-73.864462689932,40.8728252412526],[-73.8644627852342,40.8728252594571],[-73.8646127176031,40.8728616346599],[-73.8646128131059,40.8728616627482],[-73.8647579112389,40.8729128535201],[-73.864894427515,40.8729781555803],[-73.8650188305269,40.8730561214502],[-73.865018877462,40.8730561571875],[-73.8651282530612,40.8731446775683],[-73.8651283475762,40.8731447577548],[-73.8651284305938,40.8731448484818],[-73.8652207663975,40.873241461493],[-73.8652208370945,40.873241533443],[-73.8652208962964,40.8732416147607],[-73.865295165036,40.8733437630108],[-73.8653581534255,40.8734044855323],[-73.8653582723836,40.8734045927183],[-73.8653583909702,40.8734046653941],[-73.8654432680244,40.8734587211961],[-73.8654435170802,40.8734588839838],[-73.8654437772996,40.8734589831257],[-73.8655491210366,40.8735001863923],[-73.8655492873139,40.8735002490721],[-73.8655494765976,40.873500284975],[-73.8656696755941,40.8735227393461],[-73.8656698295824,40.8735227675017],[-73.8656700074622,40.8735227677088],[-73.8657957326561,40.8735227416043],[-73.8657958390474,40.8735227335195],[-73.8659160215035,40.8735002613031],[-73.8659163303635,40.873500207887],[-73.8659166033588,40.8735001006545],[-73.8660219116258,40.8734588637162],[-73.8660220657977,40.873458800739],[-73.8660222085489,40.8734587102748],[-73.8661071738433,40.8734045813619],[-73.8661072927404,40.8734045002512],[-73.8661074114886,40.873404383458],[-73.8661703723545,40.8733436466532],[-73.8662988716641,40.8732204192792],[-73.8670976897154,40.8732210186772],[-73.8682089595831,40.8732435717129],[-73.8681316726673,40.8753128062535],[-73.8671881928708,40.8752577229859],[-73.8670396551873,40.8752203338854]]]}},{"type":"Feature","properties":{"e":"83014"},"geometry":{"type":"Polygon","coordinates":[[[-73.8647169709472,40.8768429897996],[-73.8646216025771,40.876812495852],[-73.8642411805493,40.8766916990309],[-73.8633810827333,40.8764185739533],[-73.8621314542304,40.8760192782842],[-73.8610449281467,40.8756759164947],[-73.860513620168,40.8755023004222],[-73.8607057094685,40.8751526199053],[-73.8610753065855,40.8744798057568],[-73.8613971154139,40.8745163123286],[-73.8626908549792,40.874663062079],[-73.8637130606245,40.8747808064218],[-73.8649765256514,40.8749381480586],[-73.8650699121965,40.8749499661304],[-73.8656859438059,40.8750279238677],[-73.8657472893784,40.8750356868958],[-73.8658915240132,40.8750539383607],[-73.8659443719747,40.8750606259631],[-73.8660406350568,40.8750722105502],[-73.8669025450126,40.8751759352122],[-73.8670396551873,40.8752203338854],[-73.8670754675171,40.8752757015939],[-73.8670509284251,40.8759844568857],[-73.8670395781648,40.8761788950035],[-73.8670406985335,40.8761990549938],[-73.8670434685134,40.8762488711162],[-73.8670458680091,40.876292027609],[-73.8670493996123,40.8763555483149],[-73.8670544238065,40.8764459127634],[-73.8670656625535,40.8766480308397],[-73.8670686554344,40.8767018456501],[-73.8670934929039,40.8771485135077],[-73.8668550918748,40.8775098208872],[-73.8664905001683,40.8774007190744],[-73.8663676707604,40.8773653125174],[-73.866224123529,40.877323931907],[-73.8659207447776,40.8772271242072],[-73.8658422543821,40.8772020776144],[-73.8655063502989,40.8770948894865],[-73.8650250867046,40.8769404737936],[-73.8649647591169,40.8769220631533],[-73.8648977349824,40.8769006749643],[-73.8648333538993,40.8768801301266],[-73.8647169709472,40.8768429897996]]]}},{"type":"Feature","properties":{"e":"83015"},"geometry":{"type":"Polygon","coordinates":[[[-73.8628048329918,40.8835826779375],[-73.8631940028843,40.8828894398191],[-73.863594647243,40.8821722763827],[-73.8635601257766,40.8820672149161],[-73.8639165815256,40.8814324140134],[-73.8644586000283,40.8805467197606],[-73.8648841484254,40.8797810358963],[-73.8651098685863,40.8793753565188],[-73.8651585437816,40.8792937746794],[-73.8652174543118,40.8791899502052],[-73.8653509793469,40.879249584196],[-73.8654031521595,40.8792699870115],[-73.8655421323042,40.8793392017396],[-73.8664226795185,40.879595374174],[-73.8672669917599,40.8798329430457],[-73.8681301863977,40.8800748468741],[-73.8670539977704,40.8822635101707],[-73.8660537273625,40.884295339003],[-73.8656613501971,40.8844961341343],[-73.8650816656462,40.884300717774],[-73.8642544309126,40.8840373004869],[-73.8628048329918,40.8835826779375]]]}},{"type":"Feature","properties":{"e":"83016"},"geometry":{"type":"Polygon","coordinates":[[[-73.8616348390185,40.8789877036026],[-73.8616316268281,40.8784905851386],[-73.8616246404873,40.8782615907977],[-73.861650196114,40.8775543334122],[-73.8616317685717,40.876864827538],[-73.8612784817747,40.8768656472847],[-73.8608716540651,40.876866467924],[-73.8597528323482,40.8768687164781],[-73.8600785993691,40.8762866398017],[-73.8603294197029,40.8758344025858],[-73.860513620168,40.8755023004222],[-73.8610449281467,40.8756759164947],[-73.8621314542304,40.8760192782842],[-73.8633810827333,40.8764185739533],[-73.8642411805493,40.8766916990309],[-73.8646216025771,40.876812495852],[-73.8647169709472,40.8768429897996],[-73.8644246558651,40.8775332311514],[-73.864153562062,40.878169000312],[-73.8638703276257,40.8788163061524],[-73.8635882887077,40.8794676387162],[-73.8616348390185,40.8789877036026]]]}},{"type":"Feature","properties":{"e":"83017"},"geometry":{"type":"Polygon","coordinates":[[[-73.8589251956049,40.8783746751477],[-73.8564315230742,40.8775803583632],[-73.856783631152,40.8769346419692],[-73.8568783403148,40.8767742562708],[-73.8571846728911,40.8762045723777],[-73.8575783864316,40.8754910076798],[-73.8580307039066,40.8747125511084],[-73.8589170072337,40.8749932314889],[-73.860513620168,40.8755023004222],[-73.8603294197029,40.8758344025858],[-73.8600785993691,40.8762866398017],[-73.8597528323482,40.8768687164781],[-73.8608716540651,40.876866467924],[-73.8612784817747,40.8768656472847],[-73.8616317685717,40.876864827538],[-73.861650196114,40.8775543334122],[-73.8616246404873,40.8782615907977],[-73.8616316268281,40.8784905851386],[-73.8616348390185,40.8789877036026],[-73.8615847865046,40.879203688382],[-73.8589251956049,40.8783746751477]]]}},{"type":"Feature","properties":{"e":"83018"},"geometry":{"type":"Polygon","coordinates":[[[-73.8648841484254,40.8797810358963],[-73.8635882887077,40.8794676387162],[-73.8638703276257,40.8788163061524],[-73.864153562062,40.878169000312],[-73.8644246558651,40.8775332311514],[-73.8647169709472,40.8768429897996],[-73.8648333538993,40.8768801301266],[-73.8648977349824,40.8769006749643],[-73.8649647591169,40.8769220631533],[-73.8650250867046,40.8769404737936],[-73.8655063502989,40.8770948894865],[-73.8658422543821,40.8772020776144],[-73.8659207447776,40.8772271242072],[-73.866224123529,40.877323931907],[-73.8663676707604,40.8773653125174],[-73.8664905001683,40.8774007190744],[-73.8668550918748,40.8775098208872],[-73.867062263146,40.8775662946161],[-73.8673765837122,40.8776427122878],[-73.8676554376729,40.8777105057386],[-73.868120263837,40.8778226639965],[-73.8683667494222,40.8778812932614],[-73.8684375389333,40.8778981302836],[-73.8684948837895,40.8779117011631],[-73.8685533859744,40.8779255440489],[-73.8686057911222,40.8779381354368],[-73.8692561937604,40.8780944021086],[-73.8693629027059,40.8781200393516],[-73.8694358926455,40.8781373860125],[-73.8694067939474,40.8781977119746],[-73.8693739242407,40.878256911607],[-73.8693373589572,40.8783148486821],[-73.8692971818559,40.8783713908978],[-73.8692687366242,40.8784026965035],[-73.8692384021335,40.8784329629954],[-73.8691876489438,40.8784744425953],[-73.8691299328435,40.8785271642718],[-73.8690754903408,40.8785874616638],[-73.8689452415666,40.8786001469197],[-73.8687450831741,40.8788314859016],[-73.8681301863977,40.8800748468741],[-73.8672669917599,40.8798329430457],[-73.8664226795185,40.879595374174],[-73.8655421323042,40.8793392017396],[-73.8654031521595,40.8792699870115],[-73.8653509793469,40.879249584196],[-73.8652174543118,40.8791899502052],[-73.8651585437816,40.8792937746794],[-73.8651098685863,40.8793753565188],[-73.8648841484254,40.8797810358963]]]}},{"type":"Feature","properties":{"e":"83019"},"geometry":{"type":"Polygon","coordinates":[[[-73.8589251956049,40.8783746751477],[-73.8615847865046,40.879203688382],[-73.8616348390185,40.8789877036026],[-73.8635882887077,40.8794676387162],[-73.8648841484254,40.8797810358963],[-73.8644586000283,40.8805467197606],[-73.8639165815256,40.8814324140134],[-73.8635601257766,40.8820672149161],[-73.863594647243,40.8821722763827],[-73.8631940028843,40.8828894398191],[-73.8603297626999,40.8819681250224],[-73.8607025299636,40.8812575140084],[-73.8578355907745,40.8803433905738],[-73.8582296252801,40.8796472335371],[-73.85857455588,40.879007730775],[-73.8586160930679,40.878932356355],[-73.8589251956049,40.8783746751477]]]}},{"type":"Feature","properties":{"e":"83020"},"geometry":{"type":"Polygon","coordinates":[[[-73.8599425262353,40.8826726381281],[-73.8570579518346,40.8817535217993],[-73.8545554278778,40.8809551742976],[-73.8549382930764,40.8802533203526],[-73.8553374083117,40.8795493248851],[-73.8557202555386,40.8788588948967],[-73.8560795781742,40.8782186999652],[-73.8564315230742,40.8775803583632],[-73.8589251956049,40.8783746751477],[-73.8586160930679,40.878932356355],[-73.85857455588,40.879007730775],[-73.8582296252801,40.8796472335371],[-73.8578355907745,40.8803433905738],[-73.8607025299636,40.8812575140084],[-73.8603297626999,40.8819681250224],[-73.8631940028843,40.8828894398191],[-73.8628048329918,40.8835826779375],[-73.8599425262353,40.8826726381281]]]}},{"type":"Feature","properties":{"e":"83021"},"geometry":{"type":"Polygon","coordinates":[[[-73.8526113841944,40.8778636903408],[-73.8521135835872,40.8773061735959],[-73.8517237703846,40.8768516645626],[-73.8509332766129,40.8758383086528],[-73.8506909652592,40.8754949720567],[-73.8514338886692,40.8749955650304],[-73.8521422136016,40.8744529385285],[-73.8527817524932,40.8739615223236],[-73.8536377973511,40.8733088923504],[-73.8545094603817,40.8735892356621],[-73.855518994398,40.8739122494953],[-73.8557719337218,40.8739920061299],[-73.8565143342736,40.8742260863784],[-73.8574437142447,40.8745219417343],[-73.8580307039066,40.8747125511084],[-73.8575783864316,40.8754910076798],[-73.8571846728911,40.8762045723777],[-73.8568783403148,40.8767742562708],[-73.856783631152,40.8769346419692],[-73.8564315230742,40.8775803583632],[-73.8560795781742,40.8782186999652],[-73.8557202555386,40.8788588948967],[-73.8533848699812,40.8781115712737],[-73.8526113841944,40.8778636903408]]]}},{"type":"Feature","properties":{"e":"83022"},"geometry":{"type":"Polygon","coordinates":[[[-73.8486214891681,40.8790424709375],[-73.8483642326674,40.878728880207],[-73.847300147834,40.8767414310461],[-73.8481669783762,40.8764601186498],[-73.8490302492321,40.8761809913073],[-73.849885820121,40.875883334023],[-73.8506909652592,40.8754949720567],[-73.8509332766129,40.8758383086528],[-73.8517237703846,40.8768516645626],[-73.8521135835872,40.8773061735959],[-73.8526113841944,40.8778636903408],[-73.8513851500659,40.8784845180851],[-73.8499416409369,40.8791986647481],[-73.8497941901561,40.8790010854505],[-73.8497939649983,40.8790008057294],[-73.8497937521792,40.8790005354056],[-73.8496338204447,40.8788084603664],[-73.8494617390349,40.8786223131297],[-73.8486214891681,40.8790424709375]]]}},{"type":"Feature","properties":{"e":"83023"},"geometry":{"type":"Polygon","coordinates":[[[-73.8511074454637,40.8815172659002],[-73.8503430160766,40.881285446407],[-73.8498104645203,40.8809300155705],[-73.8490501008433,40.8804695135727],[-73.8483321765237,40.880008324018],[-73.8482111530712,40.8799028794945],[-73.8480768809246,40.8798061977771],[-73.8479310904363,40.8797196576353],[-73.8477758301672,40.8796443625203],[-73.8476929652921,40.8794964184714],[-73.8486214891681,40.8790424709375],[-73.8494617390349,40.8786223131297],[-73.8496338204447,40.8788084603664],[-73.8497937521792,40.8790005354056],[-73.8497939649983,40.8790008057294],[-73.8497941901561,40.8790010854505],[-73.8499416409369,40.8791986647481],[-73.8513851500659,40.8784845180851],[-73.8526113841944,40.8778636903408],[-73.8533848699812,40.8781115712737],[-73.8557202555386,40.8788588948967],[-73.8553374083117,40.8795493248851],[-73.8549382930764,40.8802533203526],[-73.8545554278778,40.8809551742976],[-73.8541226322662,40.8816447800323],[-73.853900841001,40.8819940157936],[-73.8536833100027,40.8823365463866],[-73.8511074454637,40.8815172659002]]]}},{"type":"Feature","properties":{"e":"83024"},"geometry":{"type":"Polygon","coordinates":[[[-73.847546740746,40.880939789556],[-73.8471539499639,40.880773039844],[-73.8468936094409,40.8806602156045],[-73.84614194184,40.8803433693215],[-73.844734922215,40.8797483148181],[-73.8432425443752,40.8791172080752],[-73.8434168482516,40.8789974185684],[-73.8441022565222,40.8784515867609],[-73.8447958991932,40.8778903652222],[-73.8454622424408,40.8773550897468],[-73.8463692466604,40.877043012894],[-73.847300147834,40.8767414310461],[-73.8483642326674,40.878728880207],[-73.8486214891681,40.8790424709375],[-73.8476929652921,40.8794964184714],[-73.8477758301672,40.8796443625203],[-73.8479310904363,40.8797196576353],[-73.8480768809246,40.8798061977771],[-73.8482111530712,40.8799028794945],[-73.8483321765237,40.880008324018],[-73.8490501008433,40.8804695135727],[-73.8498104645203,40.8809300155705],[-73.8503430160766,40.881285446407],[-73.8511074454637,40.8815172659002],[-73.8506526404325,40.8822000849032],[-73.8487495359338,40.8814477438879],[-73.847546740746,40.880939789556]]]}},{"type":"Feature","properties":{"e":"83025"},"geometry":{"type":"Polygon","coordinates":[[[-73.8554980295131,40.8845745544616],[-73.8528109154499,40.8837130542424],[-73.8530173570279,40.8833868004861],[-73.8530525220019,40.8833313074618],[-73.8532443089301,40.8830286538172],[-73.8536833100027,40.8823365463866],[-73.853900841001,40.8819940157936],[-73.8541226322662,40.8816447800323],[-73.8545554278778,40.8809551742976],[-73.8570579518346,40.8817535217993],[-73.8599425262353,40.8826726381281],[-73.859555717379,40.8833783570396],[-73.8591631897787,40.8840801251166],[-73.8587620323727,40.8847858061066],[-73.8586776043288,40.8849392067836],[-73.8585596346855,40.8851535510727],[-73.8583747879965,40.885489404137],[-73.8554980295131,40.8845745544616]]]}},{"type":"Feature","properties":{"e":"83026"},"geometry":{"type":"Polygon","coordinates":[[[-73.8587620323727,40.8847858061066],[-73.8591631897787,40.8840801251166],[-73.859555717379,40.8833783570396],[-73.8599425262353,40.8826726381281],[-73.8628048329918,40.8835826779375],[-73.8642544309126,40.8840373004869],[-73.8650816656462,40.884300717774],[-73.8656613501971,40.8844961341343],[-73.8652795866156,40.8852017784627],[-73.8648954586796,40.8859051954861],[-73.8645063485542,40.8866156206439],[-73.8643167298399,40.8869590567239],[-73.864118576181,40.8873179492809],[-73.8612492505835,40.8864047830199],[-73.8613948857956,40.8861430196599],[-73.8616408723868,40.8857008827195],[-73.8612172677017,40.8855662466805],[-73.8587620323727,40.8847858061066]]]}},{"type":"Feature","properties":{"e":"83027"},"geometry":{"type":"Polygon","coordinates":[[[-73.8637293735008,40.8880249488912],[-73.864118576181,40.8873179492809],[-73.8643167298399,40.8869590567239],[-73.8645063485542,40.8866156206439],[-73.8648954586796,40.8859051954861],[-73.8652795866156,40.8852017784627],[-73.8656613501971,40.8844961341343],[-73.8660537273625,40.884295339003],[-73.8660395462741,40.8843673174115],[-73.8660395097303,40.8843674880747],[-73.8660395217095,40.8843676775567],[-73.86604206611,40.8844412772266],[-73.8660420779612,40.8844415301996],[-73.866042148329,40.8844417718489],[-73.8660616634542,40.8845139513552],[-73.8660616987033,40.8845140946279],[-73.8660617576028,40.8845142220135],[-73.8660970981221,40.8845819163647],[-73.8661660725666,40.8846862183911],[-73.8661661793122,40.8846863721331],[-73.8661662622009,40.8846865347262],[-73.8662193942009,40.8847983096249],[-73.8662548723339,40.8849155951362],[-73.8662714201205,40.8850355951849],[-73.8662714316394,40.8850356846554],[-73.8662714314581,40.8850357747823],[-73.8662686863101,40.8851559868386],[-73.8662471633812,40.8852737453757],[-73.8662471393047,40.8852738632838],[-73.8662470911538,40.8852739883674],[-73.8662080292701,40.8853869096241],[-73.8653819069148,40.8868917701025],[-73.8646016336725,40.8883080075734],[-73.8637293735008,40.8880249488912]]]}},{"type":"Feature","properties":{"e":"83028"},"geometry":{"type":"Polygon","coordinates":[[[-73.8608632285267,40.8871050316422],[-73.8579878084664,40.8861985849764],[-73.855105172795,40.8852796479642],[-73.8554980295131,40.8845745544616],[-73.8583747879965,40.885489404137],[-73.8585596346855,40.8851535510727],[-73.8586776043288,40.8849392067836],[-73.8587620323727,40.8847858061066],[-73.8612172677017,40.8855662466805],[-73.8616408723868,40.8857008827195],[-73.8613948857956,40.8861430196599],[-73.8612492505835,40.8864047830199],[-73.864118576181,40.8873179492809],[-73.8637293735008,40.8880249488912],[-73.8608632285267,40.8871050316422]]]}},{"type":"Feature","properties":{"e":"83029"},"geometry":{"type":"Polygon","coordinates":[[[-73.849278829495,40.8842498001649],[-73.8497362909996,40.8835640984775],[-73.8495859889647,40.8833534857894],[-73.8493814671699,40.8834092393469],[-73.8465775530932,40.8822190891872],[-73.8470353403131,40.881597793286],[-73.8472706766661,40.8812912207791],[-73.847546740746,40.880939789556],[-73.8487495359338,40.8814477438879],[-73.8506526404325,40.8822000849032],[-73.8511074454637,40.8815172659002],[-73.8536833100027,40.8823365463866],[-73.8532443089301,40.8830286538172],[-73.8530525220019,40.8833313074618],[-73.8530173570279,40.8833868004861],[-73.8528109154499,40.8837130542424],[-73.8554980295131,40.8845745544616],[-73.855105172795,40.8852796479642],[-73.8547178833742,40.8859848194257],[-73.8519316471415,40.8850974685305],[-73.849278829495,40.8842498001649]]]}},{"type":"Feature","properties":{"e":"83030"},"geometry":{"type":"Polygon","coordinates":[[[-73.8593025097838,40.8899325235158],[-73.8596849005006,40.8892310326743],[-73.8600817683007,40.8885197430562],[-73.8604537505002,40.8878117527582],[-73.8608632285267,40.8871050316422],[-73.8637293735008,40.8880249488912],[-73.8646016336725,40.8883080075734],[-73.863809987623,40.8897241958651],[-73.86303983823,40.8911208446514],[-73.8621674107414,40.8908484071363],[-73.8602993891835,40.8902518403847],[-73.8593025097838,40.8899325235158]]]}},{"type":"Feature","properties":{"e":"83031"},"geometry":{"type":"Polygon","coordinates":[[[-73.8581286755762,40.8920521372392],[-73.8552676673548,40.8911431739685],[-73.8556390279362,40.8904293729092],[-73.8560312037377,40.8897218104457],[-73.85641494186,40.8890164498819],[-73.8593025097838,40.8899325235158],[-73.8602993891835,40.8902518403847],[-73.8621674107414,40.8908484071363],[-73.86303983823,40.8911208446514],[-73.8627680331273,40.8916278712388],[-73.8627532975005,40.8916589834071],[-73.8626581483869,40.8918240828642],[-73.8617895529905,40.891557827],[-73.861398398064,40.8922609794839],[-73.859524514112,40.8916662302336],[-73.8585194912541,40.8913456638324],[-73.8581286755762,40.8920521372392]]]}},{"type":"Feature","properties":{"e":"83032"},"geometry":{"type":"Polygon","coordinates":[[[-73.8560312037377,40.8897218104457],[-73.8531544941557,40.8888081899016],[-73.8535453189279,40.8881020211853],[-73.8539361469615,40.8873959123811],[-73.8541380495288,40.8870288590036],[-73.8543241178522,40.8866906011666],[-73.8547178833742,40.8859848194257],[-73.855105172795,40.8852796479642],[-73.8579878084664,40.8861985849764],[-73.8608632285267,40.8871050316422],[-73.8604537505002,40.8878117527582],[-73.8600817683007,40.8885197430562],[-73.8596849005006,40.8892310326743],[-73.8593025097838,40.8899325235158],[-73.85641494186,40.8890164498819],[-73.8560312037377,40.8897218104457]]]}},{"type":"Feature","properties":{"e":"83033"},"geometry":{"type":"Polygon","coordinates":[[[-73.8474453771099,40.8869868271956],[-73.8474884964507,40.8869228340806],[-73.8478591815608,40.886372708719],[-73.8479052902101,40.8863042800323],[-73.847988429061,40.8861804140882],[-73.8480230654684,40.8861288106245],[-73.848050589299,40.8860878044833],[-73.8480955610326,40.8860208020163],[-73.8481372665794,40.8859586661224],[-73.848173194707,40.8859051374658],[-73.8482097615518,40.8858506574387],[-73.8482508216858,40.8857894834061],[-73.8482867496305,40.8857359547125],[-73.8483233162907,40.8856814739776],[-73.8483655802235,40.8856185064791],[-73.8484641494624,40.8854693280071],[-73.8487652581429,40.8850136123085],[-73.8488218500488,40.8849279625782],[-73.849278829495,40.8842498001649],[-73.8519316471415,40.8850974685305],[-73.8547178833742,40.8859848194257],[-73.8543241178522,40.8866906011666],[-73.8541380495288,40.8870288590036],[-73.8539361469615,40.8873959123811],[-73.8535453189279,40.8881020211853],[-73.8531544941557,40.8888081899016],[-73.8502730697129,40.8878891342551],[-73.8474453771099,40.8869868271956]]]}},{"type":"Feature","properties":{"e":"83034"},"geometry":{"type":"Polygon","coordinates":[[[-73.8459070940618,40.8897496665059],[-73.8462632312813,40.8891066346681],[-73.8464574166142,40.8887567311066],[-73.8466559858033,40.8883989162403],[-73.8470509880634,40.8876801125596],[-73.8474453771099,40.8869868271956],[-73.8502730697129,40.8878891342551],[-73.8531544941557,40.8888081899016],[-73.8527670063529,40.8895147315263],[-73.8523746300817,40.8902225088681],[-73.8519823897872,40.8909297080205],[-73.8490986974256,40.8900093147724],[-73.8487429426934,40.8906560115654],[-73.848635353313,40.8909059079149],[-73.8489517880711,40.8917468277578],[-73.8480714336827,40.8919406731163],[-73.8471825151278,40.8921360759719],[-73.8463267393978,40.8898855238423],[-73.8459070940618,40.8897496665059]]]}},{"type":"Feature","properties":{"e":"83035"},"geometry":{"type":"Polygon","coordinates":[[[-73.853277401159,40.8946838402253],[-73.853675442284,40.8939653709247],[-73.8540680882804,40.8932570405125],[-73.8525555347895,40.8927714854619],[-73.8531197650793,40.8922335965307],[-73.8534041578444,40.8921405969492],[-73.8518308940328,40.8916380791036],[-73.8515001428175,40.8915430935181],[-73.8506922503805,40.8913110683844],[-73.8504263008125,40.8913862748793],[-73.8498404221273,40.8915519598779],[-73.8489517880711,40.8917468277578],[-73.848635353313,40.8909059079149],[-73.8487429426934,40.8906560115654],[-73.8490986974256,40.8900093147724],[-73.8519823897872,40.8909297080205],[-73.8523746300817,40.8902225088681],[-73.8527670063529,40.8895147315263],[-73.8531544941557,40.8888081899016],[-73.8560312037377,40.8897218104457],[-73.8556390279362,40.8904293729092],[-73.8552676673548,40.8911431739685],[-73.8581286755762,40.8920521372392],[-73.85773321637,40.8927622967161],[-73.8573642286892,40.8934197363416],[-73.8556646839752,40.892860691114],[-73.8552420869255,40.8936321929474],[-73.8548489472016,40.8943374010369],[-73.8544373112344,40.8950804238286],[-73.8536300253342,40.8948233945797],[-73.853277401159,40.8946838402253]]]}},{"type":"Feature","properties":{"e":"83036"},"geometry":{"type":"Polygon","coordinates":[[[-73.8495157324268,40.8957265145286],[-73.8504964733572,40.8982841239358],[-73.8496081659026,40.8984795543389],[-73.8486307184626,40.8959220861612],[-73.8495157324268,40.8957265145286]]]}},{"type":"Feature","properties":{"e":"83037"},"geometry":{"type":"Polygon","coordinates":[[[-73.8362197781272,40.8824013080372],[-73.8357671110065,40.8819478628843],[-73.8354326408053,40.8823682017552],[-73.8347262953638,40.8813927651441],[-73.834555396301,40.8812222115491],[-73.8343667597795,40.8809141273073],[-73.8341931586823,40.880600876993],[-73.8340349581387,40.8802830741646],[-73.834882179407,40.8799876487259],[-73.8340163421948,40.8784662122804],[-73.834034081077,40.8784475288302],[-73.8341647011418,40.8783410423468],[-73.8343125476042,40.8782475304716],[-73.8344740950381,40.8781692211634],[-73.8346452279757,40.8781075999258],[-73.8348215883493,40.8780632984065],[-73.8357334805988,40.8797096298377],[-73.8366076899446,40.8794286419581],[-73.8375388332702,40.8791278429775],[-73.8378017110037,40.87959719539],[-73.8387441421098,40.8812742628385],[-73.8395107318979,40.8826390038127],[-73.8385389357519,40.8828810138102],[-73.8376537214366,40.8831075184553],[-73.8367800075123,40.8833420657932],[-73.8366567060498,40.8831013986835],[-73.836522066922,40.8828640824127],[-73.8363763142567,40.8826305692355],[-73.8362197781272,40.8824013080372]]]}},{"type":"Feature","properties":{"e":"83038"},"geometry":{"type":"Polygon","coordinates":[[[-73.823956742872,40.8876803022961],[-73.8238521501251,40.8875313365165],[-73.8238042376453,40.8874399003679],[-73.8236519098488,40.8873787591728],[-73.8235638532464,40.8872933535451],[-73.8233072722524,40.8872015968617],[-73.8230747526897,40.8871159697924],[-73.8227699376051,40.8870545935941],[-73.8226456382063,40.88706854829],[-73.8224488111049,40.8870906444848],[-73.8222242702499,40.8870232998404],[-73.8218793926278,40.8869374960791],[-73.8216150516521,40.8867482711584],[-73.821486984366,40.8866201655457],[-73.8213896477817,40.8864824850062],[-73.8209909181507,40.886052948801],[-73.8206797505075,40.8855290089576],[-73.8208596281219,40.8854757277279],[-73.8216512039063,40.8852588910247],[-73.8220546956809,40.8851410698286],[-73.8236570488006,40.8847100382319],[-73.8245391193794,40.8844600564535],[-73.8252996875035,40.8841930525749],[-73.8256212020328,40.8840784487719],[-73.8257993559242,40.8840062447523],[-73.8258665666055,40.8839808254147],[-73.8259353605192,40.8839533028317],[-73.8268197498662,40.8835792199635],[-73.8268702089225,40.883556740896],[-73.8274230651015,40.883279206938],[-73.8284234540121,40.882760906112],[-73.8290156349483,40.8824451614135],[-73.8297327761261,40.8820375454549],[-73.8301361498887,40.8818082678302],[-73.8302351212135,40.8817304218489],[-73.8304358623302,40.8815982827624],[-73.8308297773808,40.8813226446139],[-73.831294974221,40.8809664856004],[-73.8314735222911,40.8808297856194],[-73.8317754491994,40.8805803590315],[-73.8319698783146,40.8804127553594],[-73.8319779221895,40.8804056714711],[-73.8321451129602,40.8802597954308],[-73.832328746141,40.8800919755904],[-73.8328851794519,40.8794923448964],[-73.8332686560639,40.8790603310872],[-73.8333327002977,40.8789860248226],[-73.8335898031901,40.8786456950772],[-73.8341192238338,40.8779885871309],[-73.8339582803786,40.8783556839088],[-73.8340163421948,40.8784662122804],[-73.834882179407,40.8799876487259],[-73.8340349581387,40.8802830741646],[-73.8341931586823,40.880600876993],[-73.8343667597795,40.8809141273073],[-73.834555396301,40.8812222115491],[-73.8347262953638,40.8813927651441],[-73.8354326408053,40.8823682017552],[-73.8357671110065,40.8819478628843],[-73.8362197781272,40.8824013080372],[-73.8356109541673,40.8829535756264],[-73.8347572384023,40.8835645894748],[-73.8343468243861,40.883858316223],[-73.8340483912893,40.8839986161901],[-73.8336194013203,40.884193926844],[-73.8334238673453,40.8842835851006],[-73.8334236297893,40.8842836929775],[-73.8334233798945,40.8842837919578],[-73.8332186064993,40.8843626130539],[-73.8332185231944,40.8843626486158],[-73.8332184399089,40.8843626764718],[-73.8330059465211,40.884429931488],[-73.8330056619923,40.8844300217062],[-73.8330053653706,40.8844300931443],[-73.8327870173532,40.8844851303962],[-73.8327867909676,40.8844851843456],[-73.8327865657117,40.8844852279102],[-73.8325639659022,40.8845276977247],[-73.8325637408651,40.8845277419593],[-73.8325635149898,40.8845277684353],[-73.8323383958232,40.8845574905372],[-73.831303946278,40.8847197196612],[-73.8306549938361,40.8848612347198],[-73.8303383848359,40.8849777880862],[-73.8295346750982,40.8853116304506],[-73.8279150804858,40.8859988393282],[-73.8277745085659,40.886055315333],[-73.8269688732204,40.8863678660687],[-73.8267296675443,40.8864536400397],[-73.8264294233379,40.8865612995507],[-73.8261141907183,40.8866743329478],[-73.8252972006813,40.8869846772692],[-73.8244907605772,40.8874308171925],[-73.8240323349023,40.8877040927032],[-73.823956742872,40.8876803022961]]]}},{"type":"Feature","properties":{"e":"83039"},"geometry":{"type":"Polygon","coordinates":[[[-73.8352589324483,40.885912816247],[-73.8359139542068,40.8846985479047],[-73.8375312290767,40.8853631233687],[-73.8376373967186,40.8853431179364],[-73.8367800075123,40.8833420657932],[-73.8376537214366,40.8831075184553],[-73.8385389357519,40.8828810138102],[-73.8395107318979,40.8826390038127],[-73.8404189589465,40.8824081800811],[-73.8412716583696,40.8821999917885],[-73.8421096668823,40.8819855554703],[-73.8433763099326,40.8816588583725],[-73.8438146427084,40.8810573846191],[-73.8449729346458,40.8815320919652],[-73.8451974735487,40.8816282281112],[-73.8451371150751,40.8817124833062],[-73.8450068562471,40.8818873419603],[-73.845068962169,40.8820360483753],[-73.8460285887878,40.882426380056],[-73.8465775530932,40.8822190891872],[-73.8460679712446,40.8829092026855],[-73.8454688069397,40.88266819099],[-73.8454135201067,40.8826459523532],[-73.8449448867938,40.8824574412587],[-73.8445582665794,40.8823027617381],[-73.8444698976639,40.8823653880112],[-73.8441643832136,40.8825826871671],[-73.8440758973899,40.8826456225606],[-73.8438042818444,40.8828388077536],[-73.8437178309688,40.8829002953799],[-73.8433915337486,40.8831323698261],[-73.8433008816919,40.8831968442312],[-73.8429259697199,40.8834634908563],[-73.8428482657065,40.8835187565434],[-73.8427055577706,40.8836202519714],[-73.8421743208297,40.8839980730488],[-73.8422222664539,40.8840494204896],[-73.8424004541488,40.8842908745397],[-73.842485302343,40.8843890929292],[-73.8425726271996,40.8844860529778],[-73.8426623963382,40.8845817187205],[-73.8427545764714,40.8846760546724],[-73.8428491335943,40.884769025758],[-73.8429460324617,40.8848605975734],[-73.8430452371401,40.8849507361515],[-73.8431467108405,40.8850394080569],[-73.8437422056102,40.8854904137177],[-73.844453779757,40.8859088056471],[-73.8447181573466,40.8860223246852],[-73.8439745236271,40.8868917968558],[-73.8434611111103,40.8874666793092],[-73.8433087843057,40.8874969089743],[-73.8433215384967,40.8876497802874],[-73.8440684062907,40.8879824748514],[-73.8440804459543,40.8881287808939],[-73.8440233821254,40.8881374550113],[-73.8437671459978,40.8881764030811],[-73.8436784768347,40.8881899708016],[-73.84362915947,40.8881975172338],[-73.8431936582254,40.8882641515808],[-73.8431333748569,40.888273375887],[-73.8428602093547,40.8883151709432],[-73.8419629021657,40.8884642644245],[-73.841054192934,40.8885617640718],[-73.8401775749268,40.8886950955571],[-73.8399870402493,40.8887269691209],[-73.8397919128622,40.8887446992671],[-73.83959496876,40.8887478303155],[-73.839399033081,40.8887363100674],[-73.8392069047638,40.8887105136568],[-73.8382284155288,40.888652821689],[-73.8373230563037,40.888750260983],[-73.8364349956195,40.8889439612669],[-73.8359610844087,40.8876799050371],[-73.8352589324483,40.885912816247]]]}},{"type":"Feature","properties":{"e":"83040"},"geometry":{"type":"Polygon","coordinates":[[[-73.8366076899446,40.8794286419581],[-73.8356794603372,40.8777790510385],[-73.8362345456217,40.8776014716533],[-73.8366025750469,40.8774837324829],[-73.8375423856517,40.8771738315899],[-73.8381581541359,40.8769617966781],[-73.838553385291,40.8771278220541],[-73.8392568968437,40.8774281174752],[-73.8395662630101,40.8775581101891],[-73.8397132962572,40.8776198895551],[-73.8401494232134,40.8777967203595],[-73.8407056590895,40.8780362005601],[-73.8409971332228,40.8781616881721],[-73.8411419381622,40.8782240313778],[-73.8422838254947,40.8787102672024],[-73.8423969995317,40.8787586878305],[-73.8432425443752,40.8791172080752],[-73.844734922215,40.8797483148181],[-73.84614194184,40.8803433693215],[-73.8468936094409,40.8806602156045],[-73.8471539499639,40.880773039844],[-73.847546740746,40.880939789556],[-73.8472706766661,40.8812912207791],[-73.8470353403131,40.881597793286],[-73.8465775530932,40.8822190891872],[-73.8460285887878,40.882426380056],[-73.845068962169,40.8820360483753],[-73.8450068562471,40.8818873419603],[-73.8451371150751,40.8817124833062],[-73.8451974735487,40.8816282281112],[-73.8449729346458,40.8815320919652],[-73.8438146427084,40.8810573846191],[-73.8433763099326,40.8816588583725],[-73.8421096668823,40.8819855554703],[-73.8412716583696,40.8821999917885],[-73.8404189589465,40.8824081800811],[-73.8395107318979,40.8826390038127],[-73.8387441421098,40.8812742628385],[-73.8378017110037,40.87959719539],[-73.8375388332702,40.8791278429775],[-73.8366076899446,40.8794286419581]]]}},{"type":"Feature","properties":{"e":"83041"},"geometry":{"type":"Polygon","coordinates":[[[-73.8427895816582,40.8931031429505],[-73.8436564496675,40.8929146233709],[-73.8445434485728,40.8927168682752],[-73.845427726788,40.8925234155862],[-73.846370199127,40.8949867278456],[-73.846876184108,40.8963089725449],[-73.8478565996199,40.8988647555159],[-73.8469688945079,40.8990595373575],[-73.8460814040605,40.8992565182569],[-73.8451454219417,40.8994620087942],[-73.8441664580117,40.8969050061284],[-73.8439576053345,40.8961975370336],[-73.8437451081983,40.8956289891597],[-73.8427895816582,40.8931031429505]]]}},{"type":"Feature","properties":{"e":"83042"},"geometry":{"type":"Polygon","coordinates":[[[-73.8444146036653,40.9041796295396],[-73.8441795466889,40.9035671182766],[-73.8450813251996,40.9033670379128],[-73.8459865772399,40.9031714658392],[-73.8454724239217,40.9018460489349],[-73.8468036641541,40.9015605046329],[-73.8465791050873,40.903161377021],[-73.8474797074297,40.9032299449774],[-73.8479970620597,40.9032612975459],[-73.8479190221672,40.9039428524018],[-73.8478187987035,40.9045625506804],[-73.8475126792612,40.9052314406198],[-73.8472068587802,40.905886894967],[-73.847081738456,40.9061650328175],[-73.8462341132963,40.9059069720282],[-73.8453820199085,40.9056641078344],[-73.8448202783985,40.9055382499188],[-73.8448784806808,40.9050809939343],[-73.8449306277293,40.9046713033373],[-73.8448940582455,40.9041991667773],[-73.8444146036653,40.9041796295396]]]}},{"type":"Feature","properties":{"e":"83043"},"geometry":{"type":"Polygon","coordinates":[[[-73.840046153734,40.900583256131],[-73.8408105615447,40.9004112213451],[-73.841695001712,40.9002170868013],[-73.8425673361669,40.9000262423965],[-73.8434585059148,40.8998323730623],[-73.8443482407766,40.8996360986763],[-73.8451454219417,40.8994620087942],[-73.8460814040605,40.8992565182569],[-73.8469688945079,40.8990595373575],[-73.8478565996199,40.8988647555159],[-73.8482204601281,40.8998363986859],[-73.8474261141397,40.9002816142167],[-73.8469383941476,40.9015283296081],[-73.8468036641541,40.9015605046329],[-73.8454724239217,40.9018460489349],[-73.8459865772399,40.9031714658392],[-73.8450813251996,40.9033670379128],[-73.8441795466889,40.9035671182766],[-73.8444146036653,40.9041796295396],[-73.8433970073541,40.9041794245874],[-73.8423768454773,40.9041747043373],[-73.8413883004123,40.9041810411308],[-73.8411329351373,40.9035120278724],[-73.8410641367357,40.9032224157502],[-73.8410218812541,40.9028224353247],[-73.840866868873,40.9018707329272],[-73.8408488420491,40.9018113335445],[-73.8408283401931,40.9017523980828],[-73.8408053839594,40.9016939858967],[-73.8407799964739,40.9016361558138],[-73.8407522032687,40.9015789662295],[-73.8407220323893,40.9015224745868],[-73.8406895142268,40.9014667377785],[-73.8406546815363,40.9014118119373],[-73.840046153734,40.900583256131]]]}},{"type":"Feature","properties":{"e":"83044"},"geometry":{"type":"Polygon","coordinates":[[[-73.8383933976876,40.8940753057782],[-73.8392797864513,40.8938777614821],[-73.8401484774576,40.8936846877047],[-73.8410356903191,40.8934908039964],[-73.841922002302,40.8932940677045],[-73.8427895816582,40.8931031429505],[-73.8437451081983,40.8956289891597],[-73.8439576053345,40.8961975370336],[-73.8441664580117,40.8969050061284],[-73.8451454219417,40.8994620087942],[-73.8443482407766,40.8996360986763],[-73.8434585059148,40.8998323730623],[-73.8425673361669,40.9000262423965],[-73.841695001712,40.9002170868013],[-73.8408105615447,40.9004112213451],[-73.840046153734,40.900583256131],[-73.8392474538121,40.8995094533118],[-73.8392293328553,40.8994578906338],[-73.8392138010418,40.8994058437881],[-73.8392008806939,40.8993533875966],[-73.8391905903794,40.8993005974694],[-73.8391829448853,40.8992475492967],[-73.8391779551961,40.8991943193392],[-73.8391756284786,40.899140984119],[-73.8391759680711,40.8990876203092],[-73.8391789735877,40.8990343046935],[-73.8391846405895,40.89898111385],[-73.8391929609231,40.8989281242438],[-73.8392039226215,40.8988754120505],[-73.8392175099202,40.8988230530467],[-73.8392337032809,40.898771122501],[-73.8392524794185,40.8987196950662],[-73.8392738113356,40.8986688446712],[-73.8396657385478,40.8978938140383],[-73.8396495345217,40.8973388336629],[-73.8389676655247,40.8956015049761],[-73.8383933976876,40.8940753057782]]]}},{"type":"Feature","properties":{"e":"83045"},"geometry":{"type":"Polygon","coordinates":[[[-73.8279150804858,40.8859988393282],[-73.8295346750982,40.8853116304506],[-73.8303383848359,40.8849777880862],[-73.8306549938361,40.8848612347198],[-73.831303946278,40.8847197196612],[-73.8323383958232,40.8845574905372],[-73.8325635149898,40.8845277684353],[-73.8325637408651,40.8845277419593],[-73.8325639659022,40.8845276977247],[-73.8327865657117,40.8844852279102],[-73.8327867909676,40.8844851843456],[-73.8327870173532,40.8844851303962],[-73.8330053653706,40.8844300931443],[-73.8330056619923,40.8844300217062],[-73.8330059465211,40.884429931488],[-73.8332184399089,40.8843626764718],[-73.8332185231944,40.8843626486158],[-73.8332186064993,40.8843626130539],[-73.8334233798945,40.8842837919578],[-73.8334236297893,40.8842836929775],[-73.8334238673453,40.8842835851006],[-73.8336194013203,40.884193926844],[-73.8340483912893,40.8839986161901],[-73.8343468243861,40.883858316223],[-73.8347572384023,40.8835645894748],[-73.8356109541673,40.8829535756264],[-73.8362197781272,40.8824013080372],[-73.8363763142567,40.8826305692355],[-73.836522066922,40.8828640824127],[-73.8366567060498,40.8831013986835],[-73.8367800075123,40.8833420657932],[-73.8376373967186,40.8853431179364],[-73.8375312290767,40.8853631233687],[-73.8359139542068,40.8846985479047],[-73.8352589324483,40.885912816247],[-73.835165798791,40.8861075718124],[-73.8349601148778,40.8865896140648],[-73.8347769079422,40.8870763639805],[-73.8342636322723,40.8870184172956],[-73.8333568926367,40.8869140836617],[-73.8324693823709,40.8868235327979],[-73.8325747939788,40.8857734288582],[-73.8318910602612,40.8867697199527],[-73.8312807181359,40.8876590393577],[-73.8312581751327,40.8874247261331],[-73.8312012572397,40.8866718360487],[-73.8301851813414,40.8865669059291],[-73.829204327764,40.8865069457225],[-73.8286621869601,40.8864606496065],[-73.8284556820734,40.8863779652699],[-73.8280648755159,40.8863261469723],[-73.8279150804858,40.8859988393282]]]}},{"type":"Feature","properties":{"e":"83046"},"geometry":{"type":"Polygon","coordinates":[[[-73.8239171118423,40.8899829228797],[-73.8246204178235,40.8886576849353],[-73.8239244732689,40.8878309685405],[-73.8238728065657,40.8877919254481],[-73.8238523913584,40.8877766130441],[-73.823824289512,40.8877555348355],[-73.823956742872,40.8876803022961],[-73.8240323349023,40.8877040927032],[-73.8244907605772,40.8874308171925],[-73.8252972006813,40.8869846772692],[-73.8261141907183,40.8866743329478],[-73.8264294233379,40.8865612995507],[-73.8267296675443,40.8864536400397],[-73.8269688732204,40.8863678660687],[-73.8277745085659,40.886055315333],[-73.8279150804858,40.8859988393282],[-73.8280648755159,40.8863261469723],[-73.8284556820734,40.8863779652699],[-73.8286621869601,40.8864606496065],[-73.829204327764,40.8865069457225],[-73.8301851813414,40.8865669059291],[-73.8312012572397,40.8866718360487],[-73.8312581751327,40.8874247261331],[-73.8312807181359,40.8876590393577],[-73.8318910602612,40.8867697199527],[-73.8325747939788,40.8857734288582],[-73.8324693823709,40.8868235327979],[-73.8333568926367,40.8869140836617],[-73.8342636322723,40.8870184172956],[-73.8347769079422,40.8870763639805],[-73.8349601148778,40.8865896140648],[-73.835165798791,40.8861075718124],[-73.8352589324483,40.885912816247],[-73.8359610844087,40.8876799050371],[-73.8364349956195,40.8889439612669],[-73.8355499444005,40.8891418008349],[-73.8364601866531,40.8915244234569],[-73.8355839063067,40.8917174944046],[-73.8346881475851,40.8919155025406],[-73.8337559300646,40.8921090366723],[-73.8335699018548,40.8928147239972],[-73.8326794906436,40.8926101239789],[-73.8318464142125,40.8923625771447],[-73.8309591430698,40.8920384569944],[-73.8300810561117,40.8917965304008],[-73.8289070448601,40.891447747886],[-73.8286648140145,40.8913757824308],[-73.8279707383467,40.8911535726293],[-73.827225699858,40.8909185310555],[-73.8252096294187,40.8903526478163],[-73.8239171118423,40.8899829228797]]]}},{"type":"Feature","properties":{"e":"83047"},"geometry":{"type":"Polygon","coordinates":[[[-73.8335699018548,40.8928147239972],[-73.8337559300646,40.8921090366723],[-73.8346881475851,40.8919155025406],[-73.8355839063067,40.8917174944046],[-73.8364601866531,40.8915244234569],[-73.8355499444005,40.8891418008349],[-73.8364349956195,40.8889439612669],[-73.8373230563037,40.888750260983],[-73.8382284155288,40.888652821689],[-73.8392069047638,40.8887105136568],[-73.839399033081,40.8887363100674],[-73.83959496876,40.8887478303155],[-73.8397919128622,40.8887446992671],[-73.8399870402493,40.8887269691209],[-73.8401775749268,40.8886950955571],[-73.841054192934,40.8885617640718],[-73.8419629021657,40.8884642644245],[-73.8426089960915,40.8901713713816],[-73.8417421538989,40.8903625395871],[-73.8408711178167,40.8905536673578],[-73.8399877262979,40.8907490048913],[-73.8391019099936,40.8909438464691],[-73.8401484774576,40.8936846877047],[-73.8392797864513,40.8938777614821],[-73.8383933976876,40.8940753057782],[-73.838044178542,40.8941506291439],[-73.8373809673414,40.8939330393465],[-73.8363068233433,40.8936074635945],[-73.8352593104437,40.8933999417628],[-73.8335699018548,40.8928147239972]]]}},{"type":"Feature","properties":{"e":"83048"},"geometry":{"type":"Polygon","coordinates":[[[-73.8426089960915,40.8901713713816],[-73.8434990622231,40.889976879715],[-73.8443811868564,40.8897818737747],[-73.845233658279,40.8895589692076],[-73.8459070940618,40.8897496665059],[-73.8463267393978,40.8898855238423],[-73.8471825151278,40.8921360759719],[-73.8462964028957,40.8923318626957],[-73.845427726788,40.8925234155862],[-73.8445434485728,40.8927168682752],[-73.8436564496675,40.8929146233709],[-73.8427895816582,40.8931031429505],[-73.841922002302,40.8932940677045],[-73.8410356903191,40.8934908039964],[-73.8401484774576,40.8936846877047],[-73.8391019099936,40.8909438464691],[-73.8399877262979,40.8907490048913],[-73.8408711178167,40.8905536673578],[-73.8417421538989,40.8903625395871],[-73.8426089960915,40.8901713713816]]]}},{"type":"Feature","properties":{"e":"83049"},"geometry":{"type":"Polygon","coordinates":[[[-73.8465775530932,40.8822190891872],[-73.8493814671699,40.8834092393469],[-73.8495859889647,40.8833534857894],[-73.8497362909996,40.8835640984775],[-73.849278829495,40.8842498001649],[-73.8490967171504,40.8841761691779],[-73.8490648911931,40.8841633026959],[-73.8490035526597,40.8841385021479],[-73.8489683716306,40.8841242781691],[-73.8486572138849,40.8839984711353],[-73.8472714446413,40.8834155037457],[-73.8472102440634,40.8833897565887],[-73.847106033281,40.8833459159299],[-73.8470355028707,40.8833162446644],[-73.8464559309187,40.8839748358494],[-73.8460039186157,40.8844927109125],[-73.8457102962383,40.8845378509554],[-73.8454872437789,40.8846465706533],[-73.8453662229757,40.8848449162762],[-73.8453346996205,40.8849931488757],[-73.844453779757,40.8859088056471],[-73.8437422056102,40.8854904137177],[-73.8431467108405,40.8850394080569],[-73.8430452371401,40.8849507361515],[-73.8429460324617,40.8848605975734],[-73.8428491335943,40.884769025758],[-73.8427545764714,40.8846760546724],[-73.8426623963382,40.8845817187205],[-73.8425726271996,40.8844860529778],[-73.842485302343,40.8843890929292],[-73.8424004541488,40.8842908745397],[-73.8422222664539,40.8840494204896],[-73.8421743208297,40.8839980730488],[-73.8427055577706,40.8836202519714],[-73.8428482657065,40.8835187565434],[-73.8429259697199,40.8834634908563],[-73.8433008816919,40.8831968442312],[-73.8433915337486,40.8831323698261],[-73.8437178309688,40.8829002953799],[-73.8438042818444,40.8828388077536],[-73.8440758973899,40.8826456225606],[-73.8441643832136,40.8825826871671],[-73.8444698976639,40.8823653880112],[-73.8445582665794,40.8823027617381],[-73.8449448867938,40.8824574412587],[-73.8454135201067,40.8826459523532],[-73.8454688069397,40.88266819099],[-73.8460679712446,40.8829092026855],[-73.8465775530932,40.8822190891872]]]}},{"type":"Feature","properties":{"e":"83050"},"geometry":{"type":"Polygon","coordinates":[[[-73.8447181573466,40.8860223246852],[-73.844453779757,40.8859088056471],[-73.8453346996205,40.8849931488757],[-73.8453662229757,40.8848449162762],[-73.8454872437789,40.8846465706533],[-73.8457102962383,40.8845378509554],[-73.8460039186157,40.8844927109125],[-73.8464559309187,40.8839748358494],[-73.8470355028707,40.8833162446644],[-73.847106033281,40.8833459159299],[-73.8472102440634,40.8833897565887],[-73.8472714446413,40.8834155037457],[-73.8486572138849,40.8839984711353],[-73.8489683716306,40.8841242781691],[-73.8490035526597,40.8841385021479],[-73.8490648911931,40.8841633026959],[-73.8490967171504,40.8841761691779],[-73.849278829495,40.8842498001649],[-73.8488218500488,40.8849279625782],[-73.8487652581429,40.8850136123085],[-73.8484641494624,40.8854693280071],[-73.8483655802235,40.8856185064791],[-73.8483233162907,40.8856814739776],[-73.8482867496305,40.8857359547125],[-73.8482508216858,40.8857894834061],[-73.8482097615518,40.8858506574387],[-73.848173194707,40.8859051374658],[-73.8481372665794,40.8859586661224],[-73.8480955610326,40.8860208020163],[-73.848050589299,40.8860878044833],[-73.8480230654684,40.8861288106245],[-73.847988429061,40.8861804140882],[-73.8479052902101,40.8863042800323],[-73.8478591815608,40.886372708719],[-73.8474884964507,40.8869228340806],[-73.8474453771099,40.8869868271956],[-73.8462974097337,40.8866204718042],[-73.8455388681994,40.8863747166881],[-73.8447181573466,40.8860223246852]]]}},{"type":"Feature","properties":{"e":"83051"},"geometry":{"type":"Polygon","coordinates":[[[-73.8471825151278,40.8921360759719],[-73.8480714336827,40.8919406731163],[-73.8489517880711,40.8917468277578],[-73.8498404221273,40.8915519598779],[-73.850639027974,40.8936516339236],[-73.849791140465,40.8939365543015],[-73.850299268098,40.8952664847861],[-73.8504007854317,40.8955321691258],[-73.8495157324268,40.8957265145286],[-73.8494151035564,40.8954629011513],[-73.8489389985182,40.8942155925592],[-73.8480636088482,40.8944453646254],[-73.8471825151278,40.8921360759719]]]}},{"type":"Feature","properties":{"e":"83052"},"geometry":{"type":"Polygon","coordinates":[[[-73.8419629021657,40.8884642644245],[-73.8428602093547,40.8883151709432],[-73.8431333748569,40.888273375887],[-73.8431936582254,40.8882641515808],[-73.84362915947,40.8881975172338],[-73.8436784768347,40.8881899708016],[-73.8437671459978,40.8881764030811],[-73.8440233821254,40.8881374550113],[-73.8440804459543,40.8881287808939],[-73.8440684062907,40.8879824748514],[-73.8433215384967,40.8876497802874],[-73.8433087843057,40.8874969089743],[-73.8434611111103,40.8874666793092],[-73.8439745236271,40.8868917968558],[-73.8447181573466,40.8860223246852],[-73.8455388681994,40.8863747166881],[-73.8462974097337,40.8866204718042],[-73.8474453771099,40.8869868271956],[-73.8470509880634,40.8876801125596],[-73.8466559858033,40.8883989162403],[-73.8464574166142,40.8887567311066],[-73.8462632312813,40.8891066346681],[-73.8459070940618,40.8897496665059],[-73.845233658279,40.8895589692076],[-73.8443811868564,40.8897818737747],[-73.8434990622231,40.889976879715],[-73.8426089960915,40.8901713713816],[-73.8419629021657,40.8884642644245]]]}},{"type":"Feature","properties":{"e":"83053"},"geometry":{"type":"Polygon","coordinates":[[[-73.8482204601281,40.8998363986859],[-73.8478565996199,40.8988647555159],[-73.8487231778936,40.8986738300381],[-73.8496081659026,40.8984795543389],[-73.8504964733572,40.8982841239358],[-73.8495157324268,40.8957265145286],[-73.8504007854317,40.8955321691258],[-73.850299268098,40.8952664847861],[-73.849791140465,40.8939365543015],[-73.850639027974,40.8936516339236],[-73.8498404221273,40.8915519598779],[-73.8504263008125,40.8913862748793],[-73.8506922503805,40.8913110683844],[-73.8515001428175,40.8915430935181],[-73.8518308940328,40.8916380791036],[-73.8534041578444,40.8921405969492],[-73.8531197650793,40.8922335965307],[-73.8525555347895,40.8927714854619],[-73.8540680882804,40.8932570405125],[-73.853675442284,40.8939653709247],[-73.853277401159,40.8946838402253],[-73.8531368633411,40.8949303939736],[-73.8527884085966,40.8955711598408],[-73.8525681254511,40.895981464057],[-73.8524991385819,40.896116907353],[-73.8523847868816,40.8963413972215],[-73.8519659949675,40.8971037518187],[-73.8519000919953,40.89726541207],[-73.8518184719483,40.8974235235845],[-73.8518183171678,40.8974238286114],[-73.851818138601,40.8974241078094],[-73.8517211723273,40.8975775610276],[-73.8517211127185,40.8975776597892],[-73.851721040966,40.8975777590378],[-73.8516092287378,40.8977256279991],[-73.8514836542185,40.8978665542768],[-73.851483618594,40.8978665899132],[-73.8513455166811,40.8979994235053],[-73.8512244525247,40.8981235436067],[-73.8507036647447,40.8987981003751],[-73.8506168020347,40.8989106024903],[-73.850044268418,40.8996127243671],[-73.8498438130677,40.899858539545],[-73.849087815906,40.8996481009416],[-73.8482204601281,40.8998363986859]]]}},{"type":"Feature","properties":{"e":"83054"},"geometry":{"type":"Polygon","coordinates":[[[-73.8206797505075,40.8855290089576],[-73.8209909181507,40.886052948801],[-73.8213896477817,40.8864824850062],[-73.821486984366,40.8866201655457],[-73.8216150516521,40.8867482711584],[-73.8218793926278,40.8869374960791],[-73.8222242702499,40.8870232998404],[-73.8224488111049,40.8870906444848],[-73.8226456382063,40.88706854829],[-73.8227699376051,40.8870545935941],[-73.8230747526897,40.8871159697924],[-73.8233072722524,40.8872015968617],[-73.8235638532464,40.8872933535451],[-73.8236519098488,40.8873787591728],[-73.8238042376453,40.8874399003679],[-73.8238521501251,40.8875313365165],[-73.823956742872,40.8876803022961],[-73.823824289512,40.8877555348355],[-73.8236320247505,40.8878741856763],[-73.823429455877,40.8877577227921],[-73.822931967131,40.887588056292],[-73.8225812688124,40.8875388467414],[-73.8223162044433,40.8873477427377],[-73.8220316138166,40.8872663764259],[-73.820792342783,40.8869643533085],[-73.8207506624623,40.8870718410203],[-73.8204979263365,40.8870440391991],[-73.8203943235969,40.8868673471193],[-73.8203721880681,40.8867971643764],[-73.8203478807967,40.8867672285982],[-73.8203136941409,40.8867251256721],[-73.8202506403758,40.8866702093702],[-73.820142525495,40.8865843884256],[-73.8200208768192,40.8864951214412],[-73.8199444103092,40.8863922189439],[-73.8199086287514,40.8862688226613],[-73.8199089999948,40.8861317785794],[-73.8199092320202,40.8860461264033],[-73.8198733585422,40.8859569930515],[-73.819864616694,40.8858507691457],[-73.819867961562,40.8857326235808],[-73.8203130762758,40.8856180364214],[-73.8206797505075,40.8855290089576]]]}},{"type":"Feature","properties":{"e":"83055"},"geometry":{"type":"Polygon","coordinates":[[[-73.8236698820183,40.8899120382295],[-73.82356760271,40.8898248763936],[-73.8236192437571,40.889645902112],[-73.8237163779222,40.8894669890785],[-73.8237938685132,40.8894424968133],[-73.8238851077766,40.8890832517601],[-73.8240897977786,40.8890770891309],[-73.8241494527056,40.8885594269981],[-73.8240008596779,40.8885495656296],[-73.823970803581,40.888393042244],[-73.8238855523933,40.8883778108736],[-73.8237951106568,40.8881813577273],[-73.8238366521291,40.8880606118263],[-73.8237380172209,40.8879380030133],[-73.8239244732689,40.8878309685405],[-73.8246204178235,40.8886576849353],[-73.8239171118423,40.8899829228797],[-73.8236698820183,40.8899120382295]]]}}]}