{"type":"FeatureCollection","features":[{"type":"Feature","properties":{"name":"Atlantic Avenue","borough":"Brooklyn","year":2011,"url":"http://www.atlanticavebid.org/","slug":"atlantic-avenue","cds":["302","306"],"councils":[33,39],"lat":40.690567,"lon":-73.997197},"geometry":{"type":"MultiPolygon","coordinates":[[[[-73.98005,40.68548],[-73.97907,40.68513],[-73.97892,40.68536],[-73.97846,40.68519],[-73.97822,40.68486],[-73.97842,40.68457],[-73.98053,40.6854],[-73.98022,40.68586],[-73.98006,40.6858],[-73.9801,40.68573],[-73.97993,40.68567],[-73.98005,40.68548]]],[[[-73.98066,40.68518],[-73.97857,40.68437],[-73.97888,40.68391],[-73.97932,40.68408],[-73.97917,40.6843],[-73.9796,40.68447],[-73.97973,40.68452],[-73.97988,40.6843],[-73.98006,40.68437],[-73.97991,40.68459],[-73.97997,40.68461],[-73.98012,40.68439],[-73.98097,40.68472],[-73.98066,40.68518]]],[[[-73.9823,40.68639],[-73.98146,40.68606],[-73.98132,40.68628],[-73.98125,40.68626],[-73.98142,40.68601],[-73.98108,40.68588],[-73.98091,40.68586],[-73.98077,40.68607],[-73.98042,40.68593],[-73.98072,40.68548],[-73.98251,40.68618],[-73.98221,40.68663],[-73.98215,40.68661],[-73.9823,40.68639]]],[[[-73.98267,40.68595],[-73.98164,40.68555],[-73.98088,40.68525],[-73.98118,40.6848],[-73.98144,40.6849],[-73.98127,40.68515],[-73.98159,40.68528],[-73.98168,40.68529],[-73.9817,40.68526],[-73.98195,40.68534],[-73.98193,40.68538],[-73.98215,40.6855],[-73.98231,40.68556],[-73.98248,40.68531],[-73.98271,40.6854],[-73.98258,40.6856],[-73.98264,40.68562],[-73.98277,40.68567],[-73.9829,40.68547],[-73.98297,40.6855],[-73.98267,40.68595]]],[[[-73.98431,40.68717],[-73.98409,40.68713],[-73.98412,40.68709],[-73.98354,40.6869],[-73.98357,40.68685],[-73.9832,40.68674],[-73.98278,40.68654],[-73.98274,40.68659],[-73.98258,40.68653],[-73.98244,40.68673],[-73.98235,40.68669],[-73.98266,40.68623],[-73.9847,40.68701],[-73.98438,40.68748],[-73.98415,40.68739],[-73.98431,40.68717]]],[[[-73.98483,40.6868],[-73.98376,40.68639],[-73.98281,40.68602],[-73.98312,40.68556],[-73.98318,40.68558],[-73.98302,40.6858],[-73.98426,40.68628],[-73.98425,40.68631],[-73.98491,40.68654],[-73.98507,40.68632],[-73.98514,40.68634],[-73.98483,40.6868]]],[[[-73.9859,40.68806],[-73.98606,40.68782],[-73.9858,40.68775],[-73.98582,40.68772],[-73.98495,40.68738],[-73.98492,40.68742],[-73.98483,40.68739],[-73.98477,40.68748],[-73.98468,40.68745],[-73.9846,40.68756],[-73.98452,40.68753],[-73.98483,40.68708],[-73.98685,40.68786],[-73.98669,40.6881],[-73.98621,40.68791],[-73.98606,40.68813],[-73.9859,40.68806]]],[[[-73.987,40.68765],[-73.98539,40.68702],[-73.98497,40.68686],[-73.98529,40.6864],[-73.98537,40.68643],[-73.98522,40.68666],[-73.98562,40.68681],[-73.98566,40.68675],[-73.98574,40.68679],[-73.98571,40.68684],[-73.98578,40.68689],[-73.98633,40.68712],[-73.98689,40.68734],[-73.98706,40.68709],[-73.98731,40.68718],[-73.987,40.68765]]],[[[-73.98837,40.68875],[-73.98711,40.68823],[-73.98694,40.68847],[-73.9867,40.68838],[-73.987,40.68793],[-73.98853,40.68852],[-73.98837,40.68875]]],[[[-73.98917,40.68849],[-73.98756,40.68786],[-73.98715,40.68771],[-73.98746,40.68724],[-73.98755,40.68728],[-73.9874,40.68749],[-73.98862,40.68801],[-73.989,40.68813],[-73.98908,40.68813],[-73.98922,40.68793],[-73.98948,40.68803],[-73.98917,40.68849]]],[[[-73.9907,40.68901],[-73.98935,40.68856],[-73.98966,40.68809],[-73.98974,40.68813],[-73.98963,40.6883],[-73.9898,40.68835],[-73.98976,40.68841],[-73.98984,40.68844],[-73.98982,40.68848],[-73.99001,40.68855],[-73.99047,40.68872],[-73.99064,40.68847],[-73.99097,40.6886],[-73.9907,40.68901]]],[[[-73.99232,40.68955],[-73.99088,40.68907],[-73.99115,40.68867],[-73.99123,40.6887],[-73.9911,40.6889],[-73.99118,40.68893],[-73.99132,40.68874],[-73.99193,40.68897],[-73.99181,40.68915],[-73.99213,40.68925],[-73.99223,40.68909],[-73.99249,40.68919],[-73.99232,40.68955]]],[[[-73.99431,40.6901],[-73.99255,40.68962],[-73.99278,40.68914],[-73.99309,40.68922],[-73.99297,40.68948],[-73.99402,40.68977],[-73.99412,40.68978],[-73.9942,40.68961],[-73.99431,40.68963],[-73.99432,40.68956],[-73.99454,40.68962],[-73.99431,40.6901]]],[[[-73.99411,40.69056],[-73.9936,40.69043],[-73.99358,40.69047],[-73.9935,40.69045],[-73.99352,40.69041],[-73.99343,40.69037],[-73.99281,40.6902],[-73.99279,40.69025],[-73.99256,40.69019],[-73.99269,40.68991],[-73.99421,40.69033],[-73.99411,40.69056]]],[[[-73.99564,40.69099],[-73.9948,40.69075],[-73.99475,40.69086],[-73.99466,40.69083],[-73.99471,40.69072],[-73.99463,40.6907],[-73.9945,40.69096],[-73.99419,40.69088],[-73.99442,40.6904],[-73.99608,40.69085],[-73.99584,40.69134],[-73.99552,40.69125],[-73.99564,40.69099]]],[[[-73.99618,40.69063],[-73.99453,40.69017],[-73.99476,40.68968],[-73.99508,40.68977],[-73.99495,40.69004],[-73.99553,40.6902],[-73.99566,40.68993],[-73.99587,40.68999],[-73.99575,40.69026],[-73.99597,40.69032],[-73.9961,40.69005],[-73.99642,40.69014],[-73.99618,40.69063]]],[[[-73.99746,40.69156],[-73.99725,40.6915],[-73.99716,40.6917],[-73.99709,40.69169],[-73.99722,40.69142],[-73.99649,40.69122],[-73.99636,40.69148],[-73.99604,40.6914],[-73.99628,40.69091],[-73.99766,40.69129],[-73.99743,40.69178],[-73.99736,40.69176],[-73.99746,40.69156]]],[[[-73.99636,40.69067],[-73.9966,40.69019],[-73.99708,40.69032],[-73.99714,40.69021],[-73.99803,40.69046],[-73.99774,40.69106],[-73.99636,40.69067]]],[[[-73.9976,40.69182],[-73.99783,40.69135],[-73.99844,40.69151],[-73.99832,40.69172],[-73.99815,40.69168],[-73.99802,40.69194],[-73.9976,40.69182]]],[[[-73.99792,40.6911],[-73.99815,40.69061],[-73.99858,40.69073],[-73.99848,40.69098],[-73.99833,40.69114],[-73.99822,40.69119],[-73.99792,40.6911]]]]}},{"type":"Feature","properties":{"name":"North Flatbush","borough":"Brooklyn","year":1986,"url":"https://northflatbushbid.nyc/","slug":"north-flatbush","cds":["306","302","308"],"councils":[35,39],"lat":40.682724,"lon":-73.975324},"geometry":{"type":"MultiPolygon","coordinates":[[[[-73.97083,40.67588],[-73.97119,40.67572],[-73.97158,40.67625],[-73.97092,40.67612],[-73.97097,40.67596],[-73.97083,40.67588]]],[[[-73.9714,40.67688],[-73.97145,40.67672],[-73.97162,40.67661],[-73.97167,40.67646],[-73.97175,40.67648],[-73.9723,40.67724],[-73.97226,40.67735],[-73.97191,40.67727],[-73.97196,40.67716],[-73.97177,40.67695],[-73.9714,40.67688]]],[[[-73.97206,40.67637],[-73.97158,40.67572],[-73.97167,40.67558],[-73.97199,40.67571],[-73.97188,40.6758],[-73.97202,40.67599],[-73.97216,40.67593],[-73.97224,40.67581],[-73.9724,40.67587],[-73.97229,40.67603],[-73.97238,40.67607],[-73.97236,40.67617],[-73.97219,40.67642],[-73.97206,40.67637]]],[[[-73.97288,40.67749],[-73.97255,40.67703],[-73.97225,40.67662],[-73.97306,40.67694],[-73.97291,40.67716],[-73.97339,40.67732],[-73.97319,40.67761],[-73.97288,40.67749]]],[[[-73.97253,40.67786],[-73.97249,40.6778],[-73.97234,40.6778],[-73.97243,40.67757],[-73.97256,40.6776],[-73.9732,40.67849],[-73.97275,40.67839],[-73.97283,40.67828],[-73.97262,40.67814],[-73.97249,40.67788],[-73.97253,40.67786]]],[[[-73.97364,40.67941],[-73.9734,40.67931],[-73.97325,40.67914],[-73.97316,40.67918],[-73.97322,40.67909],[-73.97318,40.67903],[-73.97309,40.67903],[-73.97321,40.67868],[-73.97336,40.67871],[-73.97401,40.6796],[-73.9736,40.67952],[-73.97364,40.67941]]],[[[-73.97372,40.67863],[-73.97322,40.67797],[-73.97331,40.67784],[-73.97407,40.67814],[-73.97372,40.67863]]],[[[-73.97382,40.68022],[-73.97396,40.67981],[-73.97421,40.67987],[-73.97454,40.68032],[-73.97442,40.68063],[-73.97419,40.68058],[-73.97424,40.68045],[-73.97412,40.68042],[-73.97414,40.68036],[-73.97408,40.68027],[-73.97382,40.68022]]],[[[-73.9745,40.67973],[-73.97407,40.67913],[-73.97387,40.67886],[-73.97457,40.67913],[-73.97446,40.67926],[-73.97469,40.67954],[-73.97471,40.6795],[-73.975,40.67962],[-73.97484,40.67986],[-73.9745,40.67973]]],[[[-73.97404,40.68239],[-73.97411,40.68219],[-73.97448,40.68227],[-73.97462,40.68188],[-73.97459,40.68181],[-73.97464,40.68169],[-73.97569,40.68191],[-73.97702,40.68374],[-73.97618,40.68342],[-73.97449,40.68305],[-73.97437,40.68276],[-73.97439,40.68246],[-73.97404,40.68239]]],[[[-73.97451,40.68107],[-73.97459,40.68085],[-73.97498,40.68094],[-73.97553,40.68169],[-73.97485,40.68155],[-73.97494,40.68131],[-73.97475,40.6812],[-73.97478,40.68113],[-73.97451,40.68107]]],[[[-73.97466,40.68068],[-73.9747,40.68055],[-73.97481,40.68071],[-73.97466,40.68068]]],[[[-73.97486,40.68022],[-73.97501,40.67999],[-73.97536,40.68013],[-73.97525,40.68029],[-73.97548,40.68048],[-73.97574,40.68058],[-73.97557,40.68084],[-73.97521,40.6807],[-73.97486,40.68022]]],[[[-73.97602,40.68182],[-73.97539,40.68094],[-73.97599,40.68117],[-73.97588,40.68133],[-73.97595,40.68138],[-73.97606,40.6812],[-73.97614,40.68123],[-73.97601,40.68143],[-73.97621,40.68158],[-73.97638,40.68165],[-73.9763,40.68177],[-73.97635,40.68179],[-73.97631,40.68184],[-73.97659,40.68195],[-73.97654,40.68202],[-73.97602,40.68182]]],[[[-73.97636,40.68229],[-73.9762,40.68207],[-73.97644,40.68216],[-73.97636,40.68229]]],[[[-73.97683,40.68293],[-73.97649,40.68248],[-73.97665,40.68224],[-73.97686,40.68232],[-73.97674,40.6825],[-73.97687,40.68255],[-73.97685,40.68258],[-73.97695,40.68266],[-73.9771,40.6827],[-73.97725,40.68247],[-73.97744,40.68255],[-73.9771,40.68304],[-73.97683,40.68293]]],[[[-73.97758,40.68396],[-73.97701,40.68318],[-73.97851,40.68376],[-73.97821,40.6842],[-73.97758,40.68396]]]]}},{"type":"Feature","properties":{"name":"Park Slope 5th Avenue","borough":"Brooklyn","year":2008,"url":"https://parkslopefifthavenuebid.com/","slug":"park-slope-5th-avenue","cds":["306","307"],"councils":[39,38],"lat":40.672349,"lon":-73.984955},"geometry":{"type":"MultiPolygon","coordinates":[[[[-73.97631,40.68177],[-73.97654,40.6814],[-73.97686,40.68153],[-73.97659,40.68194],[-73.97632,40.68184],[-73.97636,40.68178],[-73.97631,40.68177]]],[[[-73.97665,40.68124],[-73.97682,40.68099],[-73.97689,40.68102],[-73.97705,40.68079],[-73.97729,40.68088],[-73.97697,40.68136],[-73.97665,40.68124]]],[[[-73.97678,40.68209],[-73.9771,40.68161],[-73.97734,40.6817],[-73.97718,40.68194],[-73.97724,40.68197],[-73.97708,40.6822],[-73.97678,40.68209]]],[[[-73.9774,40.68026],[-73.97765,40.68035],[-73.97739,40.68074],[-73.97714,40.68065],[-73.9774,40.68026]]],[[[-73.97719,40.68146],[-73.97753,40.68098],[-73.97778,40.68108],[-73.97747,40.68157],[-73.97719,40.68146]]],[[[-73.9775,40.6801],[-73.97784,40.67962],[-73.97808,40.67972],[-73.97775,40.6802],[-73.9775,40.6801]]],[[[-73.97762,40.68083],[-73.97795,40.68035],[-73.97812,40.68041],[-73.97795,40.68065],[-73.97811,40.68072],[-73.97794,40.68096],[-73.97762,40.68083]]],[[[-73.97793,40.67947],[-73.97811,40.67923],[-73.97789,40.67914],[-73.97805,40.67891],[-73.97852,40.67908],[-73.97818,40.67957],[-73.97793,40.67947]]],[[[-73.97805,40.6802],[-73.97838,40.67974],[-73.97875,40.67988],[-73.97858,40.68014],[-73.9785,40.68011],[-73.97836,40.68031],[-73.97805,40.6802]]],[[[-73.97828,40.67881],[-73.97845,40.67857],[-73.97851,40.6786],[-73.97869,40.67835],[-73.97894,40.67845],[-73.9786,40.67894],[-73.97828,40.67881]]],[[[-73.97847,40.67956],[-73.97924,40.67844],[-73.97952,40.67856],[-73.97941,40.67873],[-73.97947,40.67875],[-73.97942,40.67883],[-73.97972,40.67895],[-73.97958,40.67918],[-73.97951,40.67915],[-73.9791,40.67979],[-73.97847,40.67956]]],[[[-73.9789,40.67794],[-73.97913,40.67759],[-73.97945,40.67772],[-73.97905,40.6783],[-73.9788,40.6782],[-73.97896,40.67796],[-73.9789,40.67794]]],[[[-73.97925,40.67746],[-73.9796,40.67699],[-73.97987,40.67709],[-73.97953,40.67758],[-73.97925,40.67746]]],[[[-73.97934,40.67829],[-73.97967,40.67781],[-73.97996,40.67792],[-73.97976,40.67821],[-73.9797,40.67818],[-73.97956,40.67838],[-73.97934,40.67829]]],[[[-73.9797,40.67683],[-73.98005,40.6764],[-73.98028,40.67649],[-73.97998,40.67694],[-73.9797,40.67683]]],[[[-73.97978,40.67766],[-73.9801,40.67718],[-73.98036,40.67728],[-73.98008,40.67778],[-73.97978,40.67766]]],[[[-73.98013,40.67616],[-73.9804,40.6757],[-73.98073,40.67584],[-73.98043,40.67628],[-73.98013,40.67616]]],[[[-73.98021,40.67703],[-73.98051,40.67657],[-73.98083,40.67669],[-73.98067,40.67692],[-73.98062,40.67697],[-73.98056,40.67694],[-73.98044,40.67712],[-73.98021,40.67703]]],[[[-73.98058,40.67557],[-73.98089,40.67509],[-73.98115,40.6752],[-73.98085,40.67567],[-73.98058,40.67557]]],[[[-73.98065,40.67637],[-73.98097,40.67591],[-73.98126,40.67603],[-73.98113,40.67622],[-73.98129,40.67628],[-73.98142,40.67609],[-73.9815,40.67612],[-73.98137,40.67631],[-73.98145,40.67634],[-73.9814,40.67641],[-73.98116,40.67632],[-73.98102,40.67651],[-73.98065,40.67637]]],[[[-73.98098,40.67492],[-73.98111,40.67472],[-73.98132,40.67482],[-73.98151,40.67458],[-73.98161,40.67463],[-73.98127,40.67504],[-73.98098,40.67492]]],[[[-73.98106,40.67575],[-73.98138,40.67528],[-73.98168,40.67539],[-73.98136,40.67587],[-73.98106,40.67575]]],[[[-73.98144,40.67435],[-73.98183,40.67387],[-73.98212,40.67402],[-73.98173,40.67449],[-73.98144,40.67435]]],[[[-73.98148,40.67513],[-73.98181,40.67472],[-73.98211,40.67486],[-73.98182,40.67525],[-73.98148,40.67513]]],[[[-73.98192,40.67459],[-73.98232,40.67412],[-73.98263,40.67427],[-73.98224,40.67475],[-73.98192,40.67459]]],[[[-73.98233,40.67331],[-73.98262,40.67343],[-73.98225,40.67389],[-73.98196,40.67375],[-73.98233,40.67331]]],[[[-73.98245,40.67397],[-73.98283,40.67352],[-73.98317,40.67369],[-73.98302,40.67387],[-73.98314,40.67393],[-73.9831,40.67398],[-73.98302,40.67394],[-73.98284,40.67416],[-73.98245,40.67397]]],[[[-73.98248,40.67318],[-73.98291,40.67276],[-73.9831,40.67285],[-73.98273,40.6733],[-73.98248,40.67318]]],[[[-73.98293,40.67339],[-73.98331,40.67293],[-73.98361,40.67308],[-73.98319,40.67352],[-73.98293,40.67339]]],[[[-73.98336,40.67211],[-73.9836,40.67221],[-73.98323,40.67266],[-73.98305,40.67257],[-73.98323,40.67236],[-73.98318,40.67233],[-73.98336,40.67211]]],[[[-73.98359,40.67169],[-73.98378,40.67146],[-73.98409,40.67161],[-73.9837,40.67208],[-73.98344,40.67195],[-73.98363,40.67172],[-73.98359,40.67169]]],[[[-73.98347,40.67275],[-73.98384,40.67231],[-73.98599,40.67338],[-73.98563,40.67381],[-73.98347,40.67275]]],[[[-73.98394,40.67132],[-73.9843,40.67087],[-73.9846,40.67102],[-73.98424,40.67147],[-73.98394,40.67132]]],[[[-73.98521,40.67274],[-73.98498,40.67268],[-73.98394,40.67217],[-73.98433,40.67171],[-73.98616,40.67262],[-73.98578,40.67308],[-73.98525,40.67282],[-73.98521,40.67274]]],[[[-73.98566,40.66934],[-73.98538,40.6692],[-73.9852,40.66941],[-73.9848,40.66922],[-73.98496,40.66902],[-73.98491,40.66899],[-73.98474,40.66919],[-73.98436,40.66901],[-73.98474,40.66855],[-73.9861,40.66922],[-73.98573,40.66967],[-73.98549,40.66955],[-73.98566,40.66934]]],[[[-73.9844,40.67071],[-73.98461,40.67045],[-73.98471,40.6705],[-73.98487,40.67029],[-73.98512,40.67042],[-73.98474,40.67088],[-73.9844,40.67071]]],[[[-73.98447,40.67157],[-73.98483,40.67112],[-73.98513,40.67127],[-73.98476,40.67172],[-73.98447,40.67157]]],[[[-73.98493,40.67011],[-73.98532,40.66967],[-73.9856,40.66981],[-73.98523,40.67025],[-73.98493,40.67011]]],[[[-73.98497,40.67097],[-73.98535,40.67052],[-73.98559,40.67064],[-73.98523,40.6711],[-73.98497,40.67097]]],[[[-73.98625,40.66905],[-73.9853,40.66858],[-73.98548,40.66836],[-73.98613,40.66869],[-73.98632,40.66846],[-73.98662,40.66861],[-73.98625,40.66905]]],[[[-73.98547,40.67038],[-73.98585,40.66991],[-73.98615,40.67006],[-73.98596,40.67029],[-73.9859,40.67026],[-73.98571,40.67049],[-73.98547,40.67038]]],[[[-73.98688,40.67023],[-73.98598,40.66979],[-73.98635,40.66933],[-73.98756,40.66993],[-73.98736,40.67017],[-73.98706,40.67002],[-73.98688,40.67023]]],[[[-73.98684,40.66871],[-73.98715,40.66885],[-73.9868,40.66928],[-73.98649,40.66912],[-73.98684,40.66871]]],[[[-73.98652,40.66834],[-73.9869,40.66789],[-73.98712,40.668],[-73.98675,40.66846],[-73.98652,40.66834]]],[[[-73.9873,40.66723],[-73.98762,40.66739],[-73.98723,40.66786],[-73.98696,40.66773],[-73.98721,40.66744],[-73.98715,40.66741],[-73.9873,40.66723]]],[[[-73.98699,40.66857],[-73.98736,40.66812],[-73.98765,40.66826],[-73.98747,40.66848],[-73.98756,40.66853],[-73.98737,40.66876],[-73.98699,40.66857]]],[[[-73.98738,40.66704],[-73.98756,40.66683],[-73.98763,40.66686],[-73.98781,40.66665],[-73.9881,40.66679],[-73.98774,40.66722],[-73.98738,40.66704]]],[[[-73.98784,40.66751],[-73.98816,40.66764],[-73.98778,40.6681],[-73.98748,40.66795],[-73.98784,40.66751]]],[[[-73.98793,40.6665],[-73.98831,40.66605],[-73.98861,40.66619],[-73.98823,40.66664],[-73.98793,40.6665]]],[[[-73.98799,40.66734],[-73.98834,40.66692],[-73.98864,40.66706],[-73.98822,40.66746],[-73.98799,40.66734]]],[[[-73.98845,40.6659],[-73.98882,40.66546],[-73.98912,40.6656],[-73.98874,40.66605],[-73.98845,40.6659]]],[[[-73.9885,40.66677],[-73.98888,40.6663],[-73.98917,40.66645],[-73.98881,40.66692],[-73.9885,40.66677]]],[[[-73.98871,40.66519],[-73.98899,40.66486],[-73.98923,40.66498],[-73.98933,40.66485],[-73.98962,40.66499],[-73.98924,40.66545],[-73.98871,40.66519]]],[[[-73.98963,40.66428],[-73.98958,40.66426],[-73.98947,40.66438],[-73.98931,40.6643],[-73.98911,40.66453],[-73.98907,40.66452],[-73.98927,40.66428],[-73.98879,40.66404],[-73.98888,40.6639],[-73.98929,40.66351],[-73.99032,40.66415],[-73.98973,40.66484],[-73.9895,40.66473],[-73.98968,40.66452],[-73.98961,40.66449],[-73.98972,40.66437],[-73.9896,40.66431],[-73.98963,40.66428]]],[[[-73.99037,40.66365],[-73.98961,40.6631],[-73.98893,40.66244],[-73.98897,40.6624],[-73.99007,40.66308],[-73.98988,40.66326],[-73.99036,40.66358],[-73.99042,40.66362],[-73.99053,40.66352],[-73.9906,40.66356],[-73.9907,40.66347],[-73.9909,40.6636],[-73.99068,40.66381],[-73.99037,40.66365]]],[[[-73.98954,40.66611],[-73.98935,40.66633],[-73.98899,40.66615],[-73.98937,40.6657],[-73.99003,40.66603],[-73.98989,40.66621],[-73.99003,40.66629],[-73.99,40.66633],[-73.98954,40.66611]]],[[[-73.98989,40.66511],[-73.99018,40.66524],[-73.98998,40.66547],[-73.99006,40.66551],[-73.98986,40.66574],[-73.98949,40.66557],[-73.98989,40.66511]]],[[[-73.99062,40.66527],[-73.99,40.66496],[-73.99055,40.6643],[-73.99085,40.66448],[-73.99064,40.66469],[-73.99059,40.66467],[-73.99052,40.66474],[-73.99136,40.66517],[-73.99128,40.66526],[-73.99082,40.66504],[-73.99062,40.66527]]],[[[-73.99087,40.66318],[-73.99104,40.66302],[-73.99114,40.66308],[-73.9913,40.66292],[-73.99149,40.66303],[-73.99103,40.66346],[-73.99084,40.66334],[-73.99095,40.66323],[-73.99087,40.66318]]],[[[-73.99092,40.66395],[-73.99114,40.66373],[-73.99128,40.66382],[-73.99106,40.66403],[-73.99092,40.66395]]],[[[-73.99127,40.66361],[-73.99171,40.66317],[-73.992,40.66334],[-73.99154,40.66378],[-73.99127,40.66361]]]]}}]}