{"type":"FeatureCollection","features":[{"type":"Feature","properties":{"name":"CSD 13"},"geometry":{"type":"Polygon","coordinates":[[[-73.97906,40.70595],[-73.97924,40.70555],[-73.97843,40.70556],[-73.97859,40.70498],[-73.97802,40.70429],[-73.97721,40.70421],[-73.97751,40.7032],[-73.97714,40.70301],[-73.97596,40.70472],[-73.97693,40.7028],[-73.97616,40.70217],[-73.97533,40.70295],[-73.97601,40.70195],[-73.97455,40.70159],[-73.97572,40.69957],[-73.97412,40.70131],[-73.97239,40.70017],[-73.97376,40.70153],[-73.97319,40.70167],[-73.97078,40.69998],[-73.97332,40.70241],[-73.97284,40.70273],[-73.96983,40.70025],[-73.96973,40.6978],[-73.96773,40.69772],[-73.96688,40.69334],[-73.96221,40.69387],[-73.9619,40.6923],[-73.96074,40.69242],[-73.96029,40.69035],[-73.95883,40.6903],[-73.95899,40.69263],[-73.95583,40.69299],[-73.95658,40.69678],[-73.95292,40.6972],[-73.95234,40.69426],[-73.94906,40.69464],[-73.94877,40.69317],[-73.94593,40.6935],[-73.94462,40.6869],[-73.94428,40.68739],[-73.94235,40.68759],[-73.94179,40.68723],[-73.94139,40.68767],[-73.93939,40.68787],[-73.93895,40.68756],[-73.93808,40.68316],[-73.93515,40.6835],[-73.93486,40.68203],[-73.93779,40.68169],[-73.9374,40.67973],[-73.93844,40.67979],[-73.93862,40.67786],[-73.95206,40.67859],[-73.96135,40.68046],[-73.96328,40.67527],[-73.96257,40.67162],[-73.96775,40.67302],[-73.97088,40.67271],[-73.97796,40.67544],[-73.97839,40.6748],[-73.98586,40.67771],[-73.98242,40.68278],[-73.98004,40.68185],[-73.97962,40.68249],[-73.97702,40.68149],[-73.97595,40.68351],[-73.97376,40.68305],[-73.97444,40.68631],[-73.98947,40.69229],[-73.99508,40.69315],[-73.99623,40.69076],[-74.00179,40.69218],[-74.00401,40.69321],[-74.00345,40.69405],[-74.00127,40.6933],[-74.00096,40.69407],[-74.00301,40.69478],[-74.0024,40.69571],[-74.00027,40.69497],[-73.99947,40.6967],[-73.99876,40.69712],[-74.00105,40.69791],[-74.00049,40.69876],[-73.99838,40.69806],[-73.99802,40.69876],[-74.00002,40.69947],[-73.99947,40.70032],[-73.99716,40.69979],[-73.9967,40.70088],[-73.99814,40.70152],[-73.99619,40.70338],[-73.99514,40.70297],[-73.99545,40.70328],[-73.99466,40.70343],[-73.99503,40.70381],[-73.99457,40.70438],[-73.99213,40.70469],[-73.99186,40.70409],[-73.99095,40.70403],[-73.99023,40.70493],[-73.9883,40.70454],[-73.98796,40.70513],[-73.98653,40.70498],[-73.98643,40.70535],[-73.98102,40.7059],[-73.98233,40.70555],[-73.98093,40.70537],[-73.98091,40.70591],[-73.97906,40.70595]]]}},{"type":"Feature","properties":{"name":"CSD 15"},"geometry":{"type":"Polygon","coordinates":[[[-73.98947,40.69229],[-73.97444,40.68631],[-73.97376,40.68305],[-73.97595,40.68351],[-73.97702,40.68149],[-73.97962,40.68249],[-73.98004,40.68185],[-73.98242,40.68278],[-73.98586,40.67771],[-73.97839,40.6748],[-73.97796,40.67544],[-73.97041,40.67265],[-73.98023,40.66099],[-73.97427,40.65803],[-73.97009,40.64375],[-73.97944,40.6428],[-73.97907,40.64032],[-73.98001,40.64021],[-73.97968,40.63846],[-73.98292,40.64042],[-73.98409,40.6393],[-73.98629,40.64062],[-73.99212,40.63503],[-73.99432,40.63635],[-73.99315,40.63748],[-74.00196,40.6428],[-74.00662,40.63831],[-74.01323,40.64231],[-74.01265,40.64287],[-74.01491,40.64423],[-74.01432,40.64479],[-74.02436,40.65085],[-74.02542,40.65193],[-74.02418,40.65119],[-74.02285,40.65117],[-74.02537,40.65272],[-74.02125,40.65083],[-74.02105,40.6511],[-74.02234,40.65191],[-74.0209,40.65125],[-74.02381,40.65304],[-74.02196,40.65222],[-74.02119,40.65284],[-74.0232,40.6541],[-74.02163,40.65365],[-74.02115,40.65421],[-74.02164,40.65488],[-74.01873,40.65347],[-74.01812,40.65389],[-74.02005,40.65534],[-74.01787,40.65406],[-74.01715,40.65478],[-74.0198,40.65649],[-74.01727,40.65519],[-74.01639,40.65562],[-74.01911,40.65737],[-74.01861,40.65785],[-74.01585,40.65621],[-74.01544,40.65663],[-74.01787,40.65831],[-74.01505,40.65695],[-74.01442,40.65761],[-74.01746,40.65945],[-74.01554,40.66076],[-74.01184,40.65891],[-74.01111,40.65971],[-74.01402,40.66153],[-74.01316,40.66198],[-74.0086,40.65952],[-74.00746,40.66056],[-74.01037,40.6624],[-74.00955,40.66327],[-74.00868,40.66337],[-74.00616,40.66185],[-74.00569,40.66227],[-74.00428,40.66144],[-74.00623,40.66279],[-74.00592,40.66311],[-74.00381,40.66191],[-74.00349,40.66224],[-74.006,40.66326],[-74.00561,40.66346],[-74.00767,40.66479],[-74.00713,40.66492],[-74.00652,40.66455],[-74.00688,40.66434],[-74.00584,40.66414],[-74.00605,40.66384],[-74.00576,40.66392],[-74.00564,40.66453],[-74.00565,40.6639],[-74.00363,40.66273],[-74.0034,40.66299],[-74.00528,40.66466],[-74.00486,40.66506],[-74.00083,40.66301],[-73.99953,40.6644],[-74.00292,40.66646],[-74.00069,40.66755],[-73.99998,40.66745],[-73.99903,40.66844],[-73.99856,40.67134],[-73.99893,40.67141],[-74.0003,40.66872],[-74.00222,40.66858],[-74.00289,40.66735],[-74.00586,40.66799],[-74.00684,40.66606],[-74.00696,40.66605],[-74.00475,40.67072],[-74.00544,40.67092],[-74.00755,40.66705],[-74.00709,40.66859],[-74.00985,40.66852],[-74.01154,40.66509],[-74.01575,40.66457],[-74.0169,40.66485],[-74.01789,40.66585],[-74.01858,40.67039],[-74.01934,40.67162],[-74.01751,40.67103],[-74.01649,40.66493],[-74.01603,40.66486],[-74.01594,40.66547],[-74.01228,40.66573],[-74.01034,40.66908],[-74.01154,40.66978],[-74.01163,40.67058],[-74.01425,40.66973],[-74.01175,40.67066],[-74.01427,40.67138],[-74.0152,40.67075],[-74.01387,40.67188],[-74.01423,40.67213],[-74.01569,40.67104],[-74.01298,40.67333],[-74.01336,40.67359],[-74.01512,40.67216],[-74.01632,40.67291],[-74.01458,40.67441],[-74.01496,40.67468],[-74.01817,40.67194],[-74.0188,40.67225],[-74.01727,40.67361],[-74.01801,40.67391],[-74.01783,40.67526],[-74.01889,40.67509],[-74.01792,40.67651],[-74.01977,40.67661],[-74.01995,40.6771],[-74.01908,40.67714],[-74.01918,40.67783],[-74.01843,40.67791],[-74.01841,40.67841],[-74.01966,40.67839],[-74.01827,40.67855],[-74.01955,40.67903],[-74.01899,40.6799],[-74.01282,40.68362],[-74.01213,40.68291],[-74.01411,40.68171],[-74.01302,40.68041],[-74.00967,40.68327],[-74.01093,40.68449],[-74.00798,40.68628],[-74.00588,40.6862],[-74.00563,40.68678],[-74.00783,40.68739],[-74.00742,40.68821],[-74.005,40.68761],[-74.00459,40.68822],[-74.00678,40.68883],[-74.00636,40.68967],[-74.00382,40.68893],[-74.00341,40.68961],[-74.00576,40.69024],[-74.00534,40.69109],[-74.00096,40.69013],[-74.0007,40.69061],[-74.00479,40.69176],[-74.00441,40.69253],[-74.00197,40.69184],[-74.00174,40.69241],[-73.99623,40.69076],[-73.99508,40.69315],[-73.98947,40.69229]]]}},{"type":"Feature","properties":{"name":"CSD 17"},"geometry":{"type":"Polygon","coordinates":[[[-73.92044,40.66563],[-73.92095,40.66575],[-73.92232,40.66535],[-73.92044,40.66563],[-73.92005,40.66409],[-73.92166,40.66384],[-73.91978,40.66329],[-73.91959,40.662],[-73.92105,40.66331],[-73.92361,40.66166],[-73.92542,40.66329],[-73.92905,40.66095],[-73.92882,40.66075],[-73.93614,40.66029],[-73.9359,40.658],[-73.94509,40.65743],[-73.94508,40.65572],[-73.94716,40.65559],[-73.94687,40.6528],[-73.944,40.65297],[-73.9438,40.65111],[-73.94189,40.65117],[-73.9417,40.64939],[-73.94312,40.64931],[-73.94261,40.64466],[-73.93933,40.64481],[-73.93923,40.64384],[-73.95764,40.64269],[-73.95871,40.65039],[-73.96307,40.64944],[-73.96261,40.64701],[-73.97077,40.64611],[-73.97437,40.65819],[-73.98023,40.66099],[-73.97041,40.67265],[-73.96775,40.67302],[-73.96257,40.67162],[-73.96328,40.67527],[-73.96135,40.68046],[-73.95206,40.67859],[-73.93862,40.67786],[-73.93843,40.67557],[-73.93884,40.67549],[-73.9389,40.6746],[-73.93752,40.67423],[-73.93755,40.67274],[-73.92801,40.67221],[-73.92824,40.67294],[-73.92784,40.674],[-73.92213,40.67368],[-73.92172,40.67352],[-73.92221,40.67279],[-73.92023,40.67239],[-73.91971,40.67176],[-73.92025,40.67044],[-73.91988,40.66998],[-73.92039,40.66979],[-73.91997,40.66948],[-73.92005,40.66828],[-73.92102,40.66785],[-73.92044,40.66563]]]}}]}