{"type":"FeatureCollection","features":[{"type":"Feature","properties":{"name":"72 Pct"},"geometry":{"type":"MultiPolygon","coordinates":[[[[-74.0069,40.66622],[-74.00686,40.66621],[-74.0069,40.66622],[-74.0069,40.66622]]],[[[-73.9988,40.67156],[-73.99893,40.67141],[-73.99886,40.67158],[-73.9988,40.67156]]],[[[-73.99854,40.6717],[-73.99672,40.66882],[-73.9964,40.66901],[-73.98017,40.66115],[-73.97993,40.66127],[-73.97965,40.66124],[-73.97951,40.66105],[-73.97958,40.66085],[-73.97448,40.65834],[-73.97412,40.65769],[-73.97243,40.65175],[-73.97243,40.65137],[-73.97203,40.65139],[-73.97146,40.65114],[-73.97182,40.65078],[-73.97209,40.65066],[-73.9714,40.64826],[-73.97327,40.64758],[-73.97527,40.64783],[-73.98181,40.64713],[-73.98835,40.64456],[-73.98906,40.64412],[-73.99605,40.64834],[-73.99702,40.64754],[-74.0105,40.63458],[-74.01878,40.63696],[-74.01897,40.63678],[-74.02006,40.63744],[-74.02086,40.63804],[-74.02135,40.63858],[-74.0216,40.63909],[-74.02311,40.64],[-74.0234,40.63969],[-74.02355,40.63932],[-74.02476,40.64002],[-74.02617,40.64015],[-74.02626,40.64009],[-74.02624,40.64017],[-74.02715,40.64048],[-74.02877,40.6414],[-74.02948,40.64189],[-74.03262,40.64377],[-74.03288,40.64358],[-74.03264,40.64379],[-74.0323,40.64358],[-74.03224,40.64364],[-74.03254,40.64383],[-74.03227,40.64407],[-74.0319,40.64389],[-74.03052,40.64527],[-74.02908,40.6444],[-74.029,40.64447],[-74.02915,40.64458],[-74.02886,40.64487],[-74.02909,40.64458],[-74.0285,40.64418],[-74.02819,40.64441],[-74.02846,40.64416],[-74.02821,40.64402],[-74.02605,40.64626],[-74.02974,40.64849],[-74.02939,40.6488],[-74.02572,40.64662],[-74.02538,40.64691],[-74.02507,40.64673],[-74.02435,40.6474],[-74.02415,40.64762],[-74.02513,40.64832],[-74.02497,40.64861],[-74.02554,40.64978],[-74.02484,40.6506],[-74.02521,40.65082],[-74.02542,40.65062],[-74.02605,40.65099],[-74.02587,40.65116],[-74.02593,40.6512],[-74.02553,40.65148],[-74.02491,40.65111],[-74.0251,40.65089],[-74.02477,40.65069],[-74.02424,40.65113],[-74.0255,40.65184],[-74.02542,40.65193],[-74.02418,40.65119],[-74.02382,40.65135],[-74.02365,40.65126],[-74.02359,40.65132],[-74.02306,40.65097],[-74.02285,40.65117],[-74.02537,40.65272],[-74.02523,40.65283],[-74.02272,40.6513],[-74.02262,40.65131],[-74.02154,40.65067],[-74.02134,40.65085],[-74.02125,40.65083],[-74.02139,40.65097],[-74.02113,40.65094],[-74.02105,40.6511],[-74.02234,40.65191],[-74.02225,40.65198],[-74.02098,40.65116],[-74.0209,40.65125],[-74.02381,40.65304],[-74.02359,40.65322],[-74.02333,40.65294],[-74.02294,40.65288],[-74.02285,40.65274],[-74.02196,40.65222],[-74.02162,40.65232],[-74.02123,40.6527],[-74.02119,40.65284],[-74.0232,40.6541],[-74.02306,40.65423],[-74.0221,40.65359],[-74.02188,40.65355],[-74.02163,40.65365],[-74.02128,40.65397],[-74.02115,40.65421],[-74.02182,40.65466],[-74.02164,40.65488],[-74.02089,40.65443],[-74.02064,40.65444],[-74.0206,40.65429],[-74.02047,40.65422],[-74.01962,40.65417],[-74.01942,40.654],[-74.01919,40.65402],[-74.01924,40.65394],[-74.01897,40.65387],[-74.01873,40.65347],[-74.01812,40.65389],[-74.02026,40.65512],[-74.02005,40.65534],[-74.01787,40.65406],[-74.01715,40.65478],[-74.0198,40.65649],[-74.01971,40.65658],[-74.01727,40.65519],[-74.01692,40.65548],[-74.01665,40.65534],[-74.01639,40.65562],[-74.01911,40.65737],[-74.01861,40.65785],[-74.01585,40.65621],[-74.01544,40.65663],[-74.01774,40.6581],[-74.01767,40.65819],[-74.01787,40.65831],[-74.01769,40.65845],[-74.01749,40.65834],[-74.01751,40.65827],[-74.01505,40.65695],[-74.01442,40.65761],[-74.01746,40.65945],[-74.01554,40.66076],[-74.014,40.65981],[-74.01366,40.66003],[-74.01184,40.65891],[-74.01111,40.65971],[-74.01402,40.66153],[-74.01316,40.66198],[-74.01265,40.66198],[-74.0086,40.65952],[-74.00746,40.66056],[-74.01037,40.6624],[-74.01046,40.66264],[-74.00955,40.66327],[-74.00868,40.66337],[-74.00616,40.66185],[-74.00569,40.66227],[-74.00428,40.66144],[-74.00415,40.66156],[-74.00562,40.66249],[-74.00623,40.66279],[-74.00592,40.66311],[-74.00381,40.66191],[-74.00349,40.66224],[-74.00455,40.66282],[-74.00461,40.66272],[-74.00454,40.66268],[-74.00473,40.6625],[-74.00536,40.66287],[-74.00516,40.66305],[-74.00506,40.66299],[-74.00497,40.66307],[-74.00519,40.6632],[-74.00525,40.66311],[-74.00519,40.66307],[-74.00538,40.66288],[-74.006,40.66326],[-74.0058,40.66344],[-74.0057,40.66338],[-74.00561,40.66346],[-74.00772,40.66472],[-74.00764,40.6648],[-74.00731,40.6646],[-74.00725,40.66469],[-74.00732,40.66473],[-74.00713,40.66492],[-74.00652,40.66455],[-74.00671,40.66436],[-74.0068,40.66442],[-74.00688,40.66434],[-74.00663,40.66419],[-74.00654,40.66426],[-74.00664,40.66432],[-74.00645,40.66451],[-74.00584,40.66414],[-74.00603,40.66396],[-74.00612,40.66401],[-74.0062,40.66393],[-74.00605,40.66384],[-74.00576,40.66392],[-74.00582,40.66405],[-74.00576,40.66411],[-74.00589,40.66419],[-74.00575,40.66433],[-74.00585,40.6645],[-74.00564,40.66453],[-74.00565,40.6639],[-74.00363,40.66273],[-74.0034,40.66299],[-74.00459,40.66374],[-74.00432,40.66405],[-74.00528,40.66466],[-74.00486,40.66506],[-74.00114,40.6629],[-74.00094,40.66308],[-74.00083,40.66301],[-73.99953,40.6644],[-74.00292,40.66646],[-74.00224,40.66679],[-74.00162,40.66677],[-74.00121,40.66702],[-74.00146,40.66717],[-74.00069,40.66755],[-73.99998,40.66745],[-73.99903,40.66844],[-73.99905,40.66885],[-73.99895,40.66897],[-73.99903,40.66901],[-73.99918,40.6683],[-73.99924,40.66831],[-73.99908,40.66904],[-73.99866,40.66951],[-73.99891,40.66965],[-73.99892,40.6698],[-73.99856,40.67134],[-73.99871,40.67153],[-73.99854,40.6717]]]]}},{"type":"Feature","properties":{"name":"76 Pct"},"geometry":{"type":"Polygon","coordinates":[[[-73.9848,40.68291],[-73.98567,40.68164],[-73.98687,40.68211],[-73.98702,40.68177],[-73.98684,40.6817],[-73.98919,40.67824],[-73.98928,40.67738],[-73.99068,40.67565],[-73.99307,40.67605],[-73.99387,40.67608],[-73.99449,40.67593],[-73.99522,40.67556],[-73.99866,40.67154],[-73.99886,40.67158],[-74.0003,40.66872],[-74.00106,40.66895],[-74.00142,40.66836],[-74.00222,40.66858],[-74.00289,40.66735],[-74.00319,40.66726],[-74.00369,40.66743],[-74.00363,40.66757],[-74.0051,40.66798],[-74.00553,40.6679],[-74.00586,40.66799],[-74.006,40.66789],[-74.00677,40.66618],[-74.00687,40.66613],[-74.00684,40.66606],[-74.00696,40.66605],[-74.00475,40.67072],[-74.00544,40.67092],[-74.00662,40.66862],[-74.0068,40.66859],[-74.00755,40.66705],[-74.0078,40.66716],[-74.00709,40.66859],[-74.00985,40.66852],[-74.01154,40.66509],[-74.01575,40.66457],[-74.0169,40.66485],[-74.01744,40.66527],[-74.01789,40.66585],[-74.01858,40.67039],[-74.01876,40.67108],[-74.01934,40.67162],[-74.01888,40.6716],[-74.01751,40.67103],[-74.01669,40.66544],[-74.01649,40.66493],[-74.01603,40.66486],[-74.01594,40.66547],[-74.01228,40.66573],[-74.01088,40.6686],[-74.01036,40.66864],[-74.01034,40.66908],[-74.01056,40.66919],[-74.01091,40.66919],[-74.01087,40.66971],[-74.01154,40.66978],[-74.01162,40.67011],[-74.01151,40.67041],[-74.01163,40.67058],[-74.01406,40.66971],[-74.01425,40.66973],[-74.01424,40.66981],[-74.01175,40.67066],[-74.01187,40.67082],[-74.01208,40.67093],[-74.01233,40.67095],[-74.01262,40.67084],[-74.01355,40.67126],[-74.01394,40.67118],[-74.01427,40.67138],[-74.01508,40.67069],[-74.0152,40.67075],[-74.01387,40.67188],[-74.01423,40.67213],[-74.0156,40.67097],[-74.01569,40.67104],[-74.01298,40.67333],[-74.01336,40.67359],[-74.01512,40.67216],[-74.01632,40.67291],[-74.01458,40.67441],[-74.01496,40.67468],[-74.01817,40.67194],[-74.0188,40.67225],[-74.01727,40.67361],[-74.01775,40.67405],[-74.01794,40.67388],[-74.01801,40.67391],[-74.0178,40.6741],[-74.01818,40.67446],[-74.01802,40.67501],[-74.01792,40.67508],[-74.01799,40.67513],[-74.01783,40.67526],[-74.01815,40.67547],[-74.0183,40.67546],[-74.01841,40.67537],[-74.01817,40.67529],[-74.01839,40.6751],[-74.01852,40.67527],[-74.01877,40.67505],[-74.01889,40.67509],[-74.01841,40.67552],[-74.01854,40.67577],[-74.0185,40.67584],[-74.01802,40.67588],[-74.01788,40.67623],[-74.01792,40.67651],[-74.01798,40.67657],[-74.01911,40.67654],[-74.01912,40.67662],[-74.01977,40.67661],[-74.01995,40.6771],[-74.01908,40.67714],[-74.01918,40.67783],[-74.01843,40.67791],[-74.01841,40.67841],[-74.01954,40.6783],[-74.01966,40.67839],[-74.01955,40.67848],[-74.01943,40.6784],[-74.01841,40.67844],[-74.01842,40.67855],[-74.01827,40.67855],[-74.01828,40.67873],[-74.01838,40.67874],[-74.01858,40.67898],[-74.01954,40.67897],[-74.01928,40.67965],[-74.01893,40.67984],[-74.01899,40.6799],[-74.01773,40.68066],[-74.01747,40.68061],[-74.0152,40.68198],[-74.01532,40.68211],[-74.01282,40.68362],[-74.01213,40.68291],[-74.01411,40.68171],[-74.01361,40.68122],[-74.01387,40.68101],[-74.01302,40.68041],[-74.00967,40.68327],[-74.01077,40.68436],[-74.01178,40.68376],[-74.01218,40.6841],[-74.00835,40.6864],[-74.00816,40.68617],[-74.00702,40.68653],[-74.00644,40.68629],[-74.00588,40.6862],[-74.00563,40.68678],[-74.00783,40.68739],[-74.00742,40.68821],[-74.005,40.68761],[-74.00459,40.68822],[-74.00678,40.68883],[-74.00636,40.68967],[-74.00382,40.68893],[-74.00341,40.68961],[-74.00576,40.69024],[-74.00534,40.69109],[-74.00196,40.69014],[-74.00185,40.69039],[-74.00096,40.69013],[-74.0007,40.69061],[-74.00479,40.69176],[-74.00441,40.69253],[-74.00197,40.69184],[-74.00181,40.69224],[-74.00201,40.6923],[-74.00205,40.69221],[-74.00216,40.69224],[-74.00206,40.69244],[-74.00195,40.69241],[-74.00199,40.69233],[-74.0018,40.69227],[-74.00162,40.69255],[-73.99992,40.69177],[-73.99236,40.68969],[-73.99393,40.68645],[-73.98913,40.68459],[-73.98871,40.68522],[-73.98656,40.68439],[-73.987,40.68377],[-73.9848,40.68291]]]}},{"type":"Feature","properties":{"name":"77 Pct"},"geometry":{"type":"Polygon","coordinates":[[[-73.96753,40.68177],[-73.95206,40.67859],[-73.92182,40.67694],[-73.92275,40.6671],[-73.92872,40.6645],[-73.92835,40.66865],[-73.95527,40.67012],[-73.96257,40.67162],[-73.96275,40.67179],[-73.96674,40.67284],[-73.96836,40.67307],[-73.96866,40.67307],[-73.96894,40.67289],[-73.96873,40.67357],[-73.96878,40.67425],[-73.96913,40.6749],[-73.96969,40.67536],[-73.96768,40.68096],[-73.96748,40.68159],[-73.96753,40.68177]]]}},{"type":"Feature","properties":{"name":"78 Pct"},"geometry":{"type":"Polygon","coordinates":[[[-73.96753,40.68177],[-73.96748,40.68159],[-73.96768,40.68096],[-73.96969,40.67536],[-73.96913,40.6749],[-73.96878,40.67425],[-73.96873,40.67357],[-73.96894,40.67289],[-73.96866,40.67307],[-73.96836,40.67307],[-73.96674,40.67284],[-73.96275,40.67179],[-73.96257,40.67162],[-73.96096,40.66329],[-73.96225,40.6632],[-73.9629,40.66259],[-73.96308,40.66213],[-73.96188,40.65488],[-73.97146,40.65114],[-73.97203,40.65139],[-73.97243,40.65137],[-73.97243,40.65175],[-73.97412,40.65769],[-73.97448,40.65834],[-73.97958,40.66085],[-73.97951,40.66105],[-73.97965,40.66124],[-73.97993,40.66127],[-73.98017,40.66115],[-73.9964,40.66901],[-73.99672,40.66882],[-73.99854,40.6717],[-73.99522,40.67556],[-73.99449,40.67593],[-73.99387,40.67608],[-73.99307,40.67605],[-73.99068,40.67565],[-73.98928,40.67738],[-73.98919,40.67824],[-73.98684,40.6817],[-73.98702,40.68177],[-73.98687,40.68211],[-73.98567,40.68164],[-73.98437,40.68354],[-73.98242,40.68278],[-73.98285,40.68215],[-73.98046,40.68122],[-73.97789,40.68508],[-73.97524,40.68541],[-73.97496,40.68398],[-73.97392,40.68376],[-73.97376,40.68305],[-73.96753,40.68177]]]}},{"type":"Feature","properties":{"name":"84 Pct"},"geometry":{"type":"Polygon","coordinates":[[[-73.97903,40.70595],[-73.97924,40.70555],[-73.97913,40.70553],[-73.97933,40.70475],[-73.98027,40.70304],[-73.98074,40.70128],[-73.9804,40.7007],[-73.98054,40.69825],[-73.98036,40.69618],[-73.98139,40.69583],[-73.98226,40.69588],[-73.98239,40.69595],[-73.98258,40.69213],[-73.98069,40.68852],[-73.97804,40.68486],[-73.98046,40.68122],[-73.98285,40.68215],[-73.98242,40.68278],[-73.98437,40.68354],[-73.9848,40.68291],[-73.987,40.68377],[-73.98656,40.68439],[-73.98871,40.68522],[-73.98913,40.68459],[-73.99393,40.68645],[-73.99236,40.68969],[-73.99992,40.69177],[-74.00162,40.69255],[-74.00174,40.69241],[-74.00401,40.69321],[-74.00345,40.69405],[-74.00127,40.6933],[-74.00096,40.69407],[-74.00301,40.69478],[-74.0024,40.69571],[-74.00027,40.69497],[-73.99941,40.69636],[-73.99952,40.69657],[-73.99947,40.6967],[-73.99918,40.69689],[-73.999,40.69681],[-73.99876,40.69712],[-74.00105,40.69791],[-74.00049,40.69876],[-73.99838,40.69806],[-73.99802,40.69876],[-74.00002,40.69947],[-73.99947,40.70032],[-73.9975,40.69964],[-73.99737,40.69963],[-73.99716,40.69979],[-73.99718,40.70011],[-73.99724,40.70014],[-73.9967,40.70088],[-73.99682,40.70099],[-73.99776,40.70136],[-73.9978,40.70132],[-73.99814,40.70152],[-73.99619,40.70338],[-73.99514,40.70297],[-73.99505,40.70313],[-73.99545,40.70328],[-73.99529,40.70355],[-73.9948,40.70329],[-73.99466,40.70343],[-73.995,40.70365],[-73.99488,40.70379],[-73.99503,40.70381],[-73.99488,40.70401],[-73.99471,40.704],[-73.99479,40.70407],[-73.9947,40.70416],[-73.99478,40.70425],[-73.99457,40.70438],[-73.99386,40.70456],[-73.99377,40.70445],[-73.99359,40.70451],[-73.99363,40.7046],[-73.99351,40.70462],[-73.99213,40.70469],[-73.99212,40.7044],[-73.99186,40.70409],[-73.99142,40.704],[-73.99095,40.70403],[-73.99071,40.70435],[-73.99055,40.70442],[-73.99023,40.70493],[-73.98899,40.70469],[-73.9887,40.70456],[-73.9883,40.70454],[-73.98829,40.70507],[-73.98796,40.70513],[-73.98687,40.70516],[-73.98653,40.70498],[-73.98643,40.70507],[-73.98643,40.70535],[-73.98344,40.70564],[-73.98337,40.70546],[-73.98274,40.70557],[-73.98246,40.70551],[-73.98242,40.70582],[-73.98102,40.7059],[-73.98102,40.7058],[-73.9823,40.70574],[-73.98233,40.70555],[-73.98093,40.70537],[-73.98091,40.70591],[-73.98022,40.70585],[-73.98024,40.70576],[-73.97956,40.70574],[-73.97928,40.70579],[-73.97927,40.70592],[-73.97918,40.70597],[-73.97903,40.70595]]]}},{"type":"Feature","properties":{"name":"88 Pct"},"geometry":{"type":"MultiPolygon","coordinates":[[[[-73.97903,40.70595],[-73.97893,40.70592],[-73.97903,40.70594],[-73.97903,40.70595]]],[[[-73.97232,40.70908],[-73.97067,40.70726],[-73.97054,40.70732],[-73.97026,40.70689],[-73.97049,40.7054],[-73.97017,40.70536],[-73.97018,40.70493],[-73.96762,40.70335],[-73.96752,40.70344],[-73.96748,40.70395],[-73.9693,40.70509],[-73.96924,40.70599],[-73.96929,40.70709],[-73.96838,40.70683],[-73.96762,40.70496],[-73.96721,40.70426],[-73.96218,40.70022],[-73.96284,40.69804],[-73.9619,40.69819],[-73.96194,40.69791],[-73.96175,40.69685],[-73.96029,40.69035],[-73.9584,40.6808],[-73.95825,40.67999],[-73.95829,40.67983],[-73.97376,40.68305],[-73.97392,40.68376],[-73.97496,40.68398],[-73.97524,40.68541],[-73.97789,40.68508],[-73.97804,40.68486],[-73.98069,40.68852],[-73.98258,40.69213],[-73.98239,40.69595],[-73.98226,40.69588],[-73.98139,40.69583],[-73.98036,40.69618],[-73.98054,40.69825],[-73.9804,40.7007],[-73.98074,40.70128],[-73.98027,40.70304],[-73.97933,40.70475],[-73.97913,40.70553],[-73.97896,40.7055],[-73.97887,40.70587],[-73.97893,40.7055],[-73.97874,40.70546],[-73.97864,40.70583],[-73.9787,40.70546],[-73.97865,40.70559],[-73.97847,40.70556],[-73.9784,40.70598],[-73.97885,40.70607],[-73.97834,40.706],[-73.97859,40.70498],[-73.97802,40.70429],[-73.97721,40.70421],[-73.97751,40.7032],[-73.97736,40.70314],[-73.9773,40.70319],[-73.97714,40.70301],[-73.97624,40.70478],[-73.97596,40.70472],[-73.97693,40.7028],[-73.97664,40.7025],[-73.97616,40.70217],[-73.97553,40.70304],[-73.97533,40.70295],[-73.97601,40.70195],[-73.9755,40.70176],[-73.9754,40.70191],[-73.97455,40.70159],[-73.9758,40.69975],[-73.97572,40.69957],[-73.97556,40.69952],[-73.97536,40.69958],[-73.97432,40.70119],[-73.97412,40.70131],[-73.97389,40.70109],[-73.97376,40.70108],[-73.97293,40.70029],[-73.97257,40.70008],[-73.97239,40.70017],[-73.97376,40.70153],[-73.97319,40.70167],[-73.97114,40.69992],[-73.97098,40.69986],[-73.97078,40.69998],[-73.97081,40.7001],[-73.97332,40.70241],[-73.97284,40.70273],[-73.96983,40.70025],[-73.96949,40.70052],[-73.97284,40.70335],[-73.97267,40.7035],[-73.96925,40.70136],[-73.96893,40.70162],[-73.96899,40.70175],[-73.97231,40.70384],[-73.97216,40.70397],[-73.97146,40.70351],[-73.9711,40.70346],[-73.97093,40.70362],[-73.97102,40.70382],[-73.97466,40.70607],[-73.97439,40.70633],[-73.97339,40.70573],[-73.97255,40.7062],[-73.97463,40.70768],[-73.97424,40.70802],[-73.97122,40.70579],[-73.9711,40.70585],[-73.971,40.70683],[-73.97106,40.70695],[-73.97276,40.70883],[-73.97232,40.70908]]]]}}]}