{"type":"FeatureCollection","features":[{"type":"Feature","properties":{"name":"Carroll Gardens Historic District","lp":"LP-00696","desig":""},"geometry":{"type":"Polygon","coordinates":[[[-73.99305,40.67884],[-73.99513,40.67984],[-73.99416,40.68128],[-73.99197,40.68043],[-73.99216,40.68016],[-73.99179,40.68001],[-73.99239,40.67911],[-73.99246,40.67914],[-73.99265,40.67886],[-73.99295,40.679],[-73.99305,40.67884]]]}},{"type":"Feature","properties":{"name":"Cobble Hill Historic District","lp":"LP-00320","desig":""},"geometry":{"type":"Polygon","coordinates":[[[-73.99723,40.69103],[-73.99236,40.68969],[-73.99523,40.68374],[-74.00064,40.68525],[-73.99864,40.68938],[-73.99821,40.68926],[-73.99815,40.68939],[-73.99706,40.68905],[-73.99687,40.68943],[-73.99656,40.68935],[-73.99639,40.68969],[-73.99627,40.68966],[-73.99612,40.68998],[-73.99655,40.6901],[-73.99641,40.6904],[-73.9974,40.69067],[-73.99723,40.69103]]]}},{"type":"Feature","properties":{"name":"Cobble Hill Historic District Extension","lp":"LP-01554","desig":""},"geometry":{"type":"Polygon","coordinates":[[[-73.99749,40.68917],[-73.99733,40.68951],[-73.99689,40.68939],[-73.99706,40.68905],[-73.99749,40.68917]]]}},{"type":"Feature","properties":{"name":"Park Slope Historic District","lp":"LP-00709","desig":""},"geometry":{"type":"Polygon","coordinates":[[[-73.97121,40.67505],[-73.97135,40.6748],[-73.97143,40.6745],[-73.97167,40.67459],[-73.9721,40.67396],[-73.97164,40.67378],[-73.97186,40.67346],[-73.97231,40.67364],[-73.97252,40.67332],[-73.97172,40.67301],[-73.97193,40.67269],[-73.97158,40.67256],[-73.9716,40.67253],[-73.97111,40.67236],[-73.97155,40.67174],[-73.97109,40.67156],[-73.97167,40.67082],[-73.97207,40.67102],[-73.97223,40.67083],[-73.97182,40.67063],[-73.97206,40.67034],[-73.9727,40.67064],[-73.97296,40.67034],[-73.97288,40.6703],[-73.97341,40.66971],[-73.97282,40.66943],[-73.97357,40.66853],[-73.97412,40.6688],[-73.97439,40.66849],[-73.97426,40.66843],[-73.97476,40.66783],[-73.97433,40.66762],[-73.97685,40.66461],[-73.97734,40.66484],[-73.97745,40.66472],[-73.9776,40.66453],[-73.97754,40.6645],[-73.97777,40.66421],[-73.97735,40.66401],[-73.97935,40.66159],[-73.97991,40.66187],[-73.98016,40.66157],[-73.98158,40.66225],[-73.98133,40.66255],[-73.98173,40.66274],[-73.98047,40.66425],[-73.97999,40.66402],[-73.97973,40.66432],[-73.97983,40.66436],[-73.97958,40.66466],[-73.97962,40.66468],[-73.97937,40.66498],[-73.97972,40.66515],[-73.97951,40.6654],[-73.97909,40.6652],[-73.9788,40.66554],[-73.97883,40.66556],[-73.97873,40.66568],[-73.97832,40.66617],[-73.97829,40.66616],[-73.97755,40.66706],[-73.97708,40.66683],[-73.97683,40.66714],[-73.97772,40.66757],[-73.97721,40.66817],[-73.97673,40.66794],[-73.97624,40.66854],[-73.9763,40.66857],[-73.97605,40.66886],[-73.9759,40.66878],[-73.97564,40.6691],[-73.97579,40.66917],[-73.97552,40.66948],[-73.97594,40.66968],[-73.9762,40.66937],[-73.97668,40.6696],[-73.97694,40.66929],[-73.97688,40.66926],[-73.97737,40.66867],[-73.97796,40.66896],[-73.97771,40.66926],[-73.97864,40.66971],[-73.97814,40.67031],[-73.9782,40.67034],[-73.97769,40.67094],[-73.97765,40.67091],[-73.97665,40.67212],[-73.97669,40.67214],[-73.97644,40.67244],[-73.97639,40.67242],[-73.97588,40.67303],[-73.97591,40.67303],[-73.97548,40.67367],[-73.97543,40.67365],[-73.97489,40.67445],[-73.97535,40.67463],[-73.97525,40.67478],[-73.97731,40.67559],[-73.9773,40.6756],[-73.97768,40.67575],[-73.97766,40.67577],[-73.97812,40.67596],[-73.97794,40.67623],[-73.97753,40.67607],[-73.9771,40.67671],[-73.97753,40.67687],[-73.97667,40.6781],[-73.97664,40.67809],[-73.97656,40.67821],[-73.9758,40.67791],[-73.97601,40.6776],[-73.97435,40.67695],[-73.97412,40.6773],[-73.97405,40.67727],[-73.97386,40.67756],[-73.97553,40.67821],[-73.97544,40.67834],[-73.97552,40.67837],[-73.97518,40.67888],[-73.9739,40.67837],[-73.97412,40.67806],[-73.97325,40.67772],[-73.9735,40.67735],[-73.9731,40.6772],[-73.97348,40.6766],[-73.97236,40.67616],[-73.97257,40.67585],[-73.97162,40.67546],[-73.97176,40.67526],[-73.97121,40.67505]]]}},{"type":"Feature","properties":{"name":"Park Slope Historic District Extension","lp":"LP-02443","desig":""},"geometry":{"type":"MultiPolygon","coordinates":[[[[-73.97969,40.66133],[-73.98,40.66133],[-73.98025,40.66119],[-73.98217,40.66211],[-73.98166,40.66271],[-73.98133,40.66255],[-73.98158,40.66225],[-73.98016,40.66157],[-73.97991,40.66187],[-73.97935,40.66159],[-73.97961,40.66129],[-73.97969,40.66133]]],[[[-73.97777,40.66421],[-73.97754,40.6645],[-73.9776,40.66453],[-73.97734,40.66484],[-73.97685,40.66461],[-73.97735,40.66401],[-73.97777,40.66421]]],[[[-73.97832,40.66617],[-73.97883,40.66556],[-73.9788,40.66554],[-73.97909,40.6652],[-73.97951,40.6654],[-73.97972,40.66515],[-73.97937,40.66498],[-73.97962,40.66468],[-73.97958,40.66466],[-73.97983,40.66436],[-73.97973,40.66432],[-73.97999,40.66402],[-73.98047,40.66425],[-73.9817,40.66278],[-73.98364,40.66372],[-73.98414,40.66312],[-73.98492,40.6635],[-73.98415,40.66442],[-73.98421,40.66445],[-73.98411,40.66457],[-73.98405,40.66453],[-73.98376,40.66483],[-73.98385,40.66487],[-73.98371,40.66504],[-73.98348,40.66493],[-73.98324,40.66522],[-73.98332,40.66525],[-73.98281,40.66585],[-73.98291,40.6659],[-73.98276,40.66607],[-73.98283,40.66611],[-73.98275,40.6662],[-73.9827,40.66624],[-73.98265,40.66621],[-73.98219,40.66677],[-73.98201,40.66668],[-73.98171,40.66704],[-73.98187,40.66712],[-73.98141,40.66771],[-73.98143,40.66772],[-73.98095,40.66824],[-73.97781,40.66672],[-73.97829,40.66616],[-73.97832,40.66617]]]]}},{"type":"Feature","properties":{"name":"Park Slope Historic District Extension II","lp":"LP-02558","desig":""},"geometry":{"type":"MultiPolygon","coordinates":[[[[-73.97149,40.67453],[-73.97155,40.67402],[-73.97148,40.67361],[-73.97135,40.67328],[-73.97103,40.67283],[-73.97104,40.6728],[-73.97169,40.67305],[-73.97172,40.67301],[-73.97204,40.67313],[-73.97165,40.67378],[-73.9721,40.67396],[-73.97167,40.67459],[-73.97149,40.67453]]],[[[-73.97118,40.67525],[-73.97116,40.67519],[-73.97125,40.67506],[-73.97176,40.67526],[-73.97165,40.67541],[-73.97118,40.67525]]],[[[-73.97796,40.67619],[-73.97812,40.67596],[-73.9773,40.6756],[-73.97734,40.6756],[-73.97753,40.67532],[-73.97834,40.67564],[-73.97814,40.67593],[-73.97984,40.67659],[-73.97966,40.67686],[-73.97796,40.67619]]],[[[-73.97313,40.67682],[-73.97204,40.67639],[-73.97229,40.67602],[-73.97238,40.67606],[-73.97233,40.67615],[-73.97348,40.6766],[-73.97308,40.67722],[-73.97291,40.67715],[-73.97313,40.67682]]],[[[-73.97788,40.67868],[-73.97764,40.67904],[-73.97738,40.67894],[-73.97719,40.67922],[-73.97621,40.67884],[-73.97598,40.67918],[-73.97767,40.67985],[-73.97689,40.68102],[-73.97547,40.68047],[-73.97549,40.68045],[-73.97535,40.6804],[-73.97537,40.68037],[-73.97525,40.68028],[-73.97543,40.68002],[-73.97492,40.67982],[-73.97487,40.67989],[-73.97483,40.6799],[-73.97445,40.67975],[-73.97438,40.67966],[-73.97468,40.67954],[-73.97473,40.67947],[-73.97469,40.67946],[-73.97492,40.67913],[-73.97455,40.67898],[-73.97474,40.6787],[-73.97518,40.67888],[-73.9755,40.67843],[-73.97552,40.67837],[-73.97544,40.67834],[-73.97553,40.67821],[-73.97465,40.67787],[-73.97484,40.67758],[-73.97516,40.67771],[-73.9754,40.67736],[-73.97601,40.6776],[-73.9758,40.67791],[-73.97656,40.67821],[-73.9768,40.67791],[-73.97846,40.67856],[-73.97827,40.67884],[-73.97788,40.67868]]]]}}]}