{"type":"FeatureCollection","features":[{"type":"Feature","properties":{"nb":"Park Slope","cd":"BKCB6","boro":"BK","rent_studio":3250,"rent_1br":3850,"rent_2br":5150,"rent_3br":6800,"rent_all":4625,"inv":424,"range_lo":3250,"range_hi":6800,"range_lo_bed":"studio","range_hi_bed":"3+BR","inv_studio":36,"inv_br1":135,"inv_br2":135,"inv_br3":99},"geometry":{"type":"Polygon","coordinates":[[[-73.99171,40.66679],[-73.98388,40.67622],[-73.97876,40.68377],[-73.97667,40.68297],[-73.97106,40.67523],[-73.97139,40.6747],[-73.97147,40.6739],[-73.97111,40.67301],[-73.97048,40.6725],[-73.97085,40.67186],[-73.97964,40.66126],[-73.98027,40.6612],[-73.99171,40.66679]],[[-73.98785,40.66931],[-73.98774,40.66947],[-73.98881,40.66998],[-73.989,40.66974],[-73.98785,40.66931]]]}},{"type":"Feature","properties":{"nb":"Carroll Gardens","cd":"BKCB6","boro":"BK","rent_studio":3195,"rent_1br":4200,"rent_2br":5750,"rent_3br":8500,"rent_all":5400,"inv":146,"range_lo":3195,"range_hi":8500,"range_lo_bed":"studio","range_hi_bed":"3+BR","inv_studio":11,"inv_br1":42,"inv_br2":98,"inv_br3":42},"geometry":{"type":"Polygon","coordinates":[[[-74.00105,40.68453],[-74.00119,40.68457],[-74.0007,40.68527],[-73.99527,40.68374],[-73.99427,40.68579],[-73.98956,40.68396],[-73.99456,40.67647],[-73.9964,40.6774],[-73.99894,40.67238],[-74.00157,40.6766],[-74.00119,40.67651],[-74.00163,40.67746],[-74.00263,40.67861],[-74.00295,40.67848],[-74.00269,40.67863],[-74.00276,40.67919],[-74.0021,40.68025],[-74.00268,40.6796],[-74.00328,40.67936],[-74.00334,40.67955],[-74.00328,40.67997],[-74.00105,40.68453]],[[-73.99676,40.67768],[-73.99657,40.67762],[-73.9959,40.67894],[-73.9961,40.67901],[-73.99676,40.67768]],[[-73.99663,40.67739],[-73.99686,40.67747],[-73.99716,40.67686],[-73.99692,40.67678],[-73.99663,40.67739]],[[-74.00253,40.68108],[-74.00221,40.68046],[-74.0021,40.68043],[-74.00217,40.68103],[-74.00253,40.68108]]]}},{"type":"Feature","properties":{"nb":"Cobble Hill","cd":"BKCB6","boro":"BK","rent_studio":3550,"rent_1br":3900,"rent_2br":5500,"rent_3br":9000,"rent_all":4900,"inv":73,"range_lo":3550,"range_hi":9000,"range_lo_bed":"studio","range_hi_bed":"3+BR","inv_studio":13,"inv_br1":35,"inv_br2":30,"inv_br3":12},"geometry":{"type":"Polygon","coordinates":[[[-73.9989,40.69139],[-73.99238,40.68969],[-73.99527,40.68374],[-74.0007,40.68527],[-73.99979,40.68715],[-73.99992,40.68719],[-73.99971,40.68731],[-73.99884,40.68913],[-73.99899,40.68917],[-73.99857,40.68968],[-73.9989,40.69139]]]}},{"type":"Feature","properties":{"nb":"Red Hook","cd":"BKCB6","boro":"BK","rent_studio":2875,"rent_1br":2850,"rent_2br":5000,"rent_3br":6725,"rent_all":4595,"inv":23,"range_lo":2850,"range_hi":6725,"range_lo_bed":"1BR","range_hi_bed":"3+BR","inv_studio":2,"inv_br1":5,"inv_br2":5,"inv_br3":11},"geometry":{"type":"MultiPolygon","coordinates":[[[[-74.01701,40.68023],[-74.01641,40.68069],[-74.01571,40.6803],[-74.01541,40.68055],[-74.01473,40.68012],[-74.01373,40.68091],[-74.01302,40.68041],[-74.00968,40.68331],[-74.00834,40.68296],[-74.00795,40.68267],[-74.0067,40.68374],[-74.00617,40.6834],[-74.00516,40.6821],[-74.00606,40.6817],[-74.00338,40.67821],[-74.00292,40.67844],[-74.00335,40.67817],[-74.00208,40.67672],[-74.00157,40.6766],[-73.99869,40.67193],[-74.00029,40.66875],[-74.00109,40.66898],[-74.00142,40.66836],[-74.00223,40.66859],[-74.00288,40.66738],[-74.00369,40.66743],[-74.00363,40.66757],[-74.00408,40.66769],[-74.0035,40.66892],[-74.00534,40.66952],[-74.00478,40.67078],[-74.00607,40.67116],[-74.007,40.66959],[-74.00913,40.67017],[-74.01154,40.66509],[-74.0144,40.66474],[-74.01446,40.66508],[-74.01174,40.66525],[-74.0105,40.6678],[-74.01119,40.66796],[-74.01087,40.6686],[-74.01036,40.66864],[-74.01034,40.66924],[-74.01088,40.66924],[-74.01086,40.66976],[-74.01153,40.66978],[-74.01162,40.67059],[-74.01421,40.66973],[-74.01171,40.67068],[-74.01189,40.67093],[-74.01266,40.67089],[-74.01355,40.67126],[-74.01398,40.67119],[-74.01362,40.67149],[-74.01391,40.67168],[-74.01517,40.67076],[-74.01386,40.67188],[-74.01431,40.67219],[-74.01298,40.67333],[-74.0147,40.67461],[-74.01496,40.67468],[-74.01817,40.67194],[-74.0188,40.67225],[-74.01727,40.67361],[-74.01817,40.67442],[-74.01797,40.67511],[-74.01774,40.67528],[-74.01814,40.67555],[-74.01889,40.67509],[-74.01841,40.67552],[-74.0185,40.67584],[-74.01802,40.67588],[-74.0179,40.67644],[-74.01813,40.67661],[-74.01977,40.67661],[-74.01995,40.6771],[-74.01908,40.67714],[-74.01918,40.67783],[-74.01843,40.67791],[-74.01841,40.67841],[-74.01966,40.67839],[-74.01841,40.67844],[-74.01828,40.67873],[-74.01858,40.679],[-74.01828,40.67887],[-74.01807,40.67903],[-74.01689,40.67822],[-74.01579,40.67921],[-74.01767,40.6805],[-74.01701,40.68023]]],[[[-74.01782,40.6806],[-74.01776,40.68054],[-74.01782,40.6806],[-74.01782,40.6806]]]]}},{"type":"Feature","properties":{"nb":"Gowanus","cd":"BKCB6","boro":"BK","rent_studio":3400,"rent_1br":4195,"rent_2br":6137,"rent_3br":8500,"rent_all":4500,"inv":367,"range_lo":3400,"range_hi":8500,"range_lo_bed":"studio","range_hi_bed":"3+BR","inv_studio":43,"inv_br1":143,"inv_br2":100,"inv_br3":20},"geometry":{"type":"Polygon","coordinates":[[[-73.98388,40.67622],[-73.99175,40.66674],[-73.9964,40.66901],[-73.99684,40.66903],[-73.99862,40.67183],[-73.99886,40.6716],[-73.99869,40.67193],[-73.99894,40.67238],[-73.99734,40.67543],[-73.99587,40.67504],[-73.99654,40.6743],[-73.99632,40.67409],[-73.99555,40.67498],[-73.99414,40.67433],[-73.99389,40.6745],[-73.99533,40.67522],[-73.99457,40.67578],[-73.99228,40.67465],[-73.99208,40.67488],[-73.99414,40.67587],[-73.99406,40.67598],[-73.99078,40.67556],[-73.9905,40.67486],[-73.98906,40.67414],[-73.98887,40.67427],[-73.99032,40.67507],[-73.99049,40.67557],[-73.99014,40.67603],[-73.99042,40.67616],[-73.99072,40.6758],[-73.99331,40.67618],[-73.99313,40.67639],[-73.99437,40.67678],[-73.98956,40.68396],[-73.9809,40.68061],[-73.98388,40.67622]],[[-73.98845,40.67961],[-73.9882,40.6795],[-73.98672,40.68164],[-73.98702,40.68176],[-73.98845,40.67961]],[[-73.98825,40.67937],[-73.98855,40.67948],[-73.98934,40.67835],[-73.98942,40.67737],[-73.99032,40.67628],[-73.99004,40.67615],[-73.98915,40.67722],[-73.98911,40.67822],[-73.98825,40.67937]],[[-73.98935,40.66993],[-73.98919,40.67016],[-73.99119,40.6711],[-73.99133,40.67091],[-73.98935,40.66993]],[[-73.99373,40.67202],[-73.9916,40.671],[-73.99143,40.67122],[-73.9935,40.67228],[-73.99373,40.67202]],[[-73.99676,40.67396],[-73.99767,40.67273],[-73.9978,40.67279],[-73.99845,40.6721],[-73.99824,40.67168],[-73.99654,40.67381],[-73.99676,40.67396]]]}},{"type":"Feature","properties":{"nb":"Columbia Street Waterfront District","cd":"BKCB6","boro":"BK","rent_studio":2395,"rent_1br":3000,"rent_2br":4900,"rent_3br":13000,"rent_all":4850,"inv":24,"range_lo":2395,"range_lo_bed":"studio","range_hi":13000,"range_hi_bed":"3+BR","inv_studio":4,"inv_br1":5,"inv_br2":8,"inv_br3":3},"geometry":{"type":"Polygon","coordinates":[[[-74.00617,40.6834],[-74.00461,40.68647],[-74.00248,40.686],[-73.99978,40.69137],[-73.9999,40.69162],[-73.99936,40.69149],[-73.99894,40.69038],[-73.99922,40.69019],[-73.99982,40.69044],[-73.99995,40.69018],[-73.99906,40.68991],[-73.99891,40.68933],[-73.99998,40.6874],[-73.99992,40.68719],[-74.00006,40.68724],[-74.00124,40.68476],[-74.00111,40.68472],[-74.00156,40.68409],[-74.0015,40.6839],[-74.00164,40.68393],[-74.0035,40.6803],[-74.00381,40.6801],[-74.00527,40.68179],[-74.00516,40.6821],[-74.00617,40.6834]]]}}]}