{"type":"FeatureCollection","features":[{"type":"Feature","geometry":{"type":"Point","coordinates":[-73.980455,40.679916]},"properties":{"name":"P.S. 133 William A. Butler","ats":"13K133","building":"K317"}},{"type":"Feature","geometry":{"type":"Point","coordinates":[-73.976648,40.678809]},"properties":{"name":"M.S. K266 - Park Place Community Middle School","ats":"13K266","building":"K902"}},{"type":"Feature","geometry":{"type":"Point","coordinates":[-73.977983,40.676649]},"properties":{"name":"P.S. 282 Park Slope","ats":"13K282","building":"K282"}},{"type":"Feature","geometry":{"type":"Point","coordinates":[-74.011864,40.677085]},"properties":{"name":"P.S. 015 Patrick F. Daly","ats":"15K015","building":"K015"}},{"type":"Feature","geometry":{"type":"Point","coordinates":[-73.997447,40.686843]},"properties":{"name":"P.S. 029 John M. Harrigan","ats":"15K029","building":"K029"}},{"type":"Feature","geometry":{"type":"Point","coordinates":[-73.991141,40.680159]},"properties":{"name":"P.S. 032 Samuel Mills Sprole","ats":"15K032","building":"K032"}},{"type":"Feature","geometry":{"type":"Point","coordinates":[-73.982909,40.668644]},"properties":{"name":"P.S. 039 Henry Bristow","ats":"15K039","building":"K039"}},{"type":"Feature","geometry":{"type":"Point","coordinates":[-73.98505,40.672358]},"properties":{"name":"M.S. 51 William Alexander","ats":"15K051","building":"K051"}},{"type":"Feature","geometry":{"type":"Point","coordinates":[-73.995486,40.680379]},"properties":{"name":"P.S. 058 The Carroll","ats":"15K058","building":"K058"}},{"type":"Feature","geometry":{"type":"Point","coordinates":[-73.981181,40.662945]},"properties":{"name":"P.S. 107 John W. Kimball","ats":"15K107","building":"K107"}},{"type":"Feature","geometry":{"type":"Point","coordinates":[-73.987602,40.671145]},"properties":{"name":"The Maurice Sendak Community School","ats":"15K118","building":"K763"}},{"type":"Feature","geometry":{"type":"Point","coordinates":[-73.99062,40.667464]},"properties":{"name":"P.S. 124 Silas B. Dutcher","ats":"15K124","building":"K124"}},{"type":"Feature","geometry":{"type":"Point","coordinates":[-74.002022,40.679462]},"properties":{"name":"The Brooklyn New School, P.S. 146","ats":"15K146","building":"K142"}},{"type":"Feature","geometry":{"type":"Point","coordinates":[-73.978633,40.671816]},"properties":{"name":"P.S. 321 William Penn","ats":"15K321","building":"K321"}},{"type":"Feature","geometry":{"type":"Point","coordinates":[-73.9855,40.676198]},"properties":{"name":"The Children's School","ats":"15K418","building":"K834"}},{"type":"Feature","geometry":{"type":"Point","coordinates":[-73.993293,40.685006]},"properties":{"name":"Digital Arts and Cinema Technology High School","ats":"15K429","building":"K293"}},{"type":"Feature","geometry":{"type":"Point","coordinates":[-74.002022,40.679462]},"properties":{"name":"Brooklyn Collaborative Studies","ats":"15K448","building":"K142"}},{"type":"Feature","geometry":{"type":"Point","coordinates":[-73.97858,40.669255]},"properties":{"name":"John Jay School for Law","ats":"15K462","building":"K460"}},{"type":"Feature","geometry":{"type":"Point","coordinates":[-73.97858,40.669255]},"properties":{"name":"Cyberarts Studio Academy","ats":"15K463","building":"K460"}},{"type":"Feature","geometry":{"type":"Point","coordinates":[-73.97858,40.669255]},"properties":{"name":"Park Slope Collegiate","ats":"15K464","building":"K460"}},{"type":"Feature","geometry":{"type":"Point","coordinates":[-73.993293,40.685006]},"properties":{"name":"The Boerum Hill School for International Studies","ats":"15K497","building":"K293"}},{"type":"Feature","geometry":{"type":"Point","coordinates":[-73.990884,40.684869]},"properties":{"name":"Cobble Hill School of American Studies","ats":"15K519","building":"K804"}},{"type":"Feature","geometry":{"type":"Point","coordinates":[-74.005151,40.677914]},"properties":{"name":"Red Hook Neighborhood School","ats":"15K676","building":"K027"}},{"type":"Feature","geometry":{"type":"Point","coordinates":[-73.97858,40.669255]},"properties":{"name":"Millennium Brooklyn HS","ats":"15K684","building":"K460"}},{"type":"Feature","geometry":{"type":"Point","coordinates":[-74.014363,40.677968]},"properties":{"name":"South Brooklyn Community High School","ats":"15K698","building":"K825"}},{"type":"Feature","geometry":{"type":"Point","coordinates":[-73.976648,40.678809]},"properties":{"name":"P.S. K077","ats":"75K077","building":"K902"}},{"type":"Feature","geometry":{"type":"Point","coordinates":[-73.9855,40.676198]},"properties":{"name":"P.S. 372 -The Children's School","ats":"75K372","building":"K834"}},{"type":"Feature","geometry":{"type":"Point","coordinates":[-73.993293,40.685006]},"properties":{"name":"Success Academy Charter School - Cobble Hill","ats":"84K129","building":"K293"}},{"type":"Feature","geometry":{"type":"Point","coordinates":[-73.990292,40.68291]},"properties":{"name":"New Dawn Charter High School","ats":"84K486","building":"KBBA"}},{"type":"Feature","geometry":{"type":"Point","coordinates":[-74.003372,40.675936]},"properties":{"name":"PAVE Academy Charter School","ats":"84K651","building":"K990"}},{"type":"Feature","geometry":{"type":"Point","coordinates":[-74.005151,40.677914]},"properties":{"name":"Summit Academy Charter School","ats":"84K730","building":"K027"}},{"type":"Feature","geometry":{"type":"Point","coordinates":[-73.97858,40.669255]},"properties":{"name":"ALC - John Jay","ats":"88K987","building":"K460"}}]}